{
"type": "FeatureCollection",
"name": "Cervo",
"crs": { "type": "name", "properties": { "name": "urn:ogc:def:crs:EPSG::3035" } },
"features": [
{ "type": "Feature", "properties": { "ENP_GRAL": 5.0, "ENP_GRAL_NAME": "Espacios Protegidos Red Natura 2000", "color": "#A87000" }, "geometry": { "type": "MultiPolygon", "coordinates": [ [ [ [ 2919476.673773196525872, 2441755.719885268248618 ], [ 2919473.389588422141969, 2441744.960254059173167 ], [ 2919477.463756576180458, 2441730.932746975217015 ], [ 2919494.985106854233891, 2441706.389366497285664 ], [ 2919498.666961339768022, 2441706.579960964620113 ], [ 2919498.73607307812199, 2441708.219243515748531 ], [ 2919499.555175693705678, 2441709.98570519965142 ], [ 2919500.721855439245701, 2441711.122366558760405 ], [ 2919504.76812807098031, 2441713.922340442892164 ], [ 2919504.841036686208099, 2441713.951043398119509 ], [ 2919504.91390148922801, 2441714.019424263387918 ], [ 2919507.859818335156888, 2441715.905600187368691 ], [ 2919507.937075925990939, 2441715.934323160909116 ], [ 2919508.001867317594588, 2441715.993090268224478 ], [ 2919512.360447617247701, 2441718.578403331805021 ], [ 2919516.610791084822267, 2441721.782181588001549 ], [ 2919529.226671613752842, 2441731.352169818710536 ], [ 2919529.663736647926271, 2441731.647943655960262 ], [ 2919530.124568904750049, 2441731.892386168707162 ], [ 2919540.330794284585863, 2441736.624432681128383 ], [ 2919540.39661107538268, 2441736.643953075166792 ], [ 2919540.53755796328187, 2441736.714555798564106 ], [ 2919560.118607584387064, 2441744.717352041974664 ], [ 2919574.803944301791489, 2441753.667164306156337 ], [ 2919585.63317614980042, 2441760.935162203852087 ], [ 2919588.484340308234096, 2441762.932317995931953 ], [ 2919592.965367635712028, 2441766.163067637011409 ], [ 2919593.306953818537295, 2441766.388180032838136 ], [ 2919593.994916641153395, 2441766.730930325575173 ], [ 2919594.429021337069571, 2441766.906099145766348 ], [ 2919595.565938546322286, 2441767.212176375091076 ], [ 2919597.507105895318091, 2441767.103750916663557 ], [ 2919599.268920265138149, 2441766.254800287541002 ], [ 2919600.583296754397452, 2441764.794405538123101 ], [ 2919601.041255290620029, 2441763.523880180902779 ], [ 2919601.195295574143529, 2441763.604502997361124 ], [ 2919644.414604601450264, 2441765.405096529051661 ], [ 2919692.797134614083916, 2441757.676700167357922 ], [ 2919784.15498869959265, 2441739.520727133378386 ], [ 2919809.357543099671602, 2441739.833731286227703 ], [ 2919835.543846165761352, 2441735.79505421500653 ], [ 2919869.622117482125759, 2441719.473691567778587 ], [ 2919882.765621735714376, 2441709.247187467291951 ], [ 2919890.985391860827804, 2441695.513680067844689 ], [ 2919894.970934564713389, 2441669.9004688099958 ], [ 2919898.372380735352635, 2441661.509893026668578 ], [ 2919912.183872668072581, 2441620.382541863247752 ], [ 2919917.986230308189988, 2441610.688285666517913 ], [ 2919928.712036330252886, 2441604.501091550569981 ], [ 2919935.586560065858066, 2441602.041030126623809 ], [ 2919962.534175523556769, 2441603.95138368755579 ], [ 2919991.727035044692457, 2441603.915753000415862 ], [ 2920001.46906976820901, 2441602.08006055932492 ], [ 2920022.126286478713155, 2441589.228275986388326 ], [ 2920038.688069731462747, 2441567.875543393660337 ], [ 2920053.244072584435344, 2441535.432825694791973 ], [ 2920058.630077553447336, 2441515.603554307017475 ], [ 2920062.82157043274492, 2441482.42600832413882 ], [ 2920059.482884642668068, 2441454.609429102391005 ], [ 2920052.393298004288226, 2441414.105806010775268 ], [ 2920042.424018424469978, 2441400.977488924283534 ], [ 2920025.285791037138551, 2441386.28835146734491 ], [ 2920012.465650613419712, 2441369.800001010298729 ], [ 2920002.214248178526759, 2441324.65074784308672 ], [ 2920001.953525762073696, 2441315.158452638424933 ], [ 2920007.566779917571694, 2441310.293087681755424 ], [ 2920039.866712133865803, 2441297.845864031929523 ], [ 2920048.347381649538875, 2441293.604884049389511 ], [ 2920062.819780536461622, 2441274.840778294485062 ], [ 2920061.280830471776426, 2441265.678899835795164 ], [ 2920083.077662257477641, 2441249.118488062173128 ], [ 2920095.376126490533352, 2441246.6219980889 ], [ 2920108.919349783100188, 2441249.26648239698261 ], [ 2920121.323018607217818, 2441255.619742741342634 ], [ 2920167.242201964370906, 2441285.402517347596586 ], [ 2920207.926722420845181, 2441310.3929886193946 ], [ 2920223.853860556147993, 2441314.469574622809887 ], [ 2920281.604849709197879, 2441339.828065643087029 ], [ 2920306.773902481421828, 2441345.612702270038426 ], [ 2920326.380174772813916, 2441348.055451269261539 ], [ 2920342.790981438010931, 2441351.324460688978434 ], [ 2920361.741409649141133, 2441356.668169338256121 ], [ 2920385.977073088288307, 2441358.597100834362209 ], [ 2920411.680162929464132, 2441355.366658694576472 ], [ 2920443.790931336581707, 2441347.748445644043386 ], [ 2920468.421786327846348, 2441337.284161252900958 ], [ 2920495.15909927804023, 2441321.495270875748247 ], [ 2920511.948240973055363, 2441315.106591916643083 ], [ 2920553.162224405445158, 2441305.818054545670748 ], [ 2920565.702131473459303, 2441296.0834447927773 ], [ 2920571.521225418895483, 2441283.653694965876639 ], [ 2920571.760865609627217, 2441270.617704033851624 ], [ 2920656.934624927584082, 2441246.551168224774301 ], [ 2920694.675694478675723, 2441231.332177578471601 ], [ 2920689.524931217543781, 2441212.861297387629747 ], [ 2920683.528959869872779, 2441202.120055793784559 ], [ 2920653.087177528999746, 2441171.750330302398652 ], [ 2920622.7337203649804, 2441152.966077637393028 ], [ 2920619.105154506396502, 2441146.39288873411715 ], [ 2920622.212363278493285, 2441133.981291856616735 ], [ 2920674.699230064172298, 2441081.49138456210494 ], [ 2920695.890748842619359, 2441059.625167801044881 ], [ 2920722.5729208458215, 2441027.484460367821157 ], [ 2920736.521338564809412, 2441008.143034129869193 ], [ 2920751.226395758334547, 2440979.614066746551543 ], [ 2920759.442827379330993, 2440936.611856591887772 ], [ 2920822.796803473494947, 2440934.417129119392484 ], [ 2920846.267356600612402, 2440952.542858025059104 ], [ 2920851.779050904326141, 2440975.310915276408195 ], [ 2920861.657282229978591, 2440985.270989368669689 ], [ 2920873.117843487299979, 2440991.485155557282269 ], [ 2920902.342093706130981, 2440961.406310816761106 ], [ 2920926.69637836329639, 2440962.618910520337522 ], [ 2920936.805705453269184, 2440966.679545639548451 ], [ 2920964.837800239212811, 2441003.647883480414748 ], [ 2920978.707384676672518, 2441030.095169039908797 ], [ 2920987.553182234987617, 2441049.498711420223117 ], [ 2921015.138452765531838, 2441064.058136356528848 ], [ 2921025.330209228675812, 2441054.749600561335683 ], [ 2921033.934735579416156, 2441018.321786070242524 ], [ 2921033.678130126092583, 2440996.698072198778391 ], [ 2921112.211461822502315, 2441029.788504740223289 ], [ 2921126.147767769638449, 2441077.074459953699261 ], [ 2921146.156075007282197, 2441087.752914587967098 ], [ 2921157.359937242232263, 2441072.343234238214791 ], [ 2921167.191997139714658, 2441058.122424255125225 ], [ 2921185.423043260350823, 2441040.896340598817915 ], [ 2921193.524334851652384, 2441022.95176693610847 ], [ 2921203.145888895727694, 2441011.287999556399882 ], [ 2921195.295051362365484, 2440972.709841010626405 ], [ 2921200.074416460469365, 2440940.337758640758693 ], [ 2921204.019601863343269, 2440932.644234552979469 ], [ 2921220.062167246825993, 2440954.358645700849593 ], [ 2921273.943622670602053, 2440971.297362019307911 ], [ 2921294.20365238469094, 2440972.734093131497502 ], [ 2921355.205428885761648, 2440963.222532068379223 ], [ 2921400.012205260805786, 2440953.642631915863603 ], [ 2921424.698078057728708, 2440970.620099588297307 ], [ 2921441.650078722741455, 2440977.583717647008598 ], [ 2921453.34995252918452, 2440976.56171537283808 ], [ 2921477.558469076640904, 2440969.935682645533234 ], [ 2921505.549743727315217, 2440956.394741320051253 ], [ 2921522.571354008279741, 2440977.355586735066026 ], [ 2921541.569730457849801, 2441006.481364741455764 ], [ 2921575.773700288962573, 2440996.972737750969827 ], [ 2921615.583097271621227, 2440988.684591380879283 ], [ 2921732.960423719137907, 2441018.409052155446261 ], [ 2921747.12014304054901, 2441011.02820583852008 ], [ 2921798.869805159978569, 2441000.037869448773563 ], [ 2921829.14570887433365, 2440986.924281514249742 ], [ 2921910.577088318765163, 2440937.79461926408112 ], [ 2921969.32389442063868, 2440892.577729193493724 ], [ 2921993.463884118013084, 2440871.655907902400941 ], [ 2922002.764214099384844, 2440855.236953774001449 ], [ 2922025.667851882055402, 2440807.272248738911003 ], [ 2922043.577814348973334, 2440785.291125344578177 ], [ 2922062.552121764514595, 2440767.706704173237085 ], [ 2922095.421042357571423, 2440747.198235559277236 ], [ 2922104.79112300882116, 2440744.776464928872883 ], [ 2922200.685024023521692, 2440718.656247736886144 ], [ 2922212.771646938286722, 2440705.521587997674942 ], [ 2922226.556804506108165, 2440662.351389115210623 ], [ 2922245.29288028087467, 2440615.028743157163262 ], [ 2922264.686956819146872, 2440579.984324005898088 ], [ 2922275.256777438335121, 2440585.260815958492458 ], [ 2922320.344607319217175, 2440530.228042433969676 ], [ 2922322.605274529196322, 2440517.630923937540501 ], [ 2922320.780764597468078, 2440510.094089063350111 ], [ 2922380.341562084853649, 2440341.441446692682803 ], [ 2922381.344469084404409, 2440340.327248033601791 ], [ 2922382.011283038184047, 2440338.477929069660604 ], [ 2922381.928927797824144, 2440336.521076167933643 ], [ 2922381.109947159420699, 2440334.754566493909806 ], [ 2922379.679010175168514, 2440333.447478939779103 ], [ 2922379.224852772429585, 2440333.206170123070478 ], [ 2922369.402629931457341, 2440328.633747490588576 ], [ 2922359.492046768311411, 2440323.676176151726395 ], [ 2922359.474348355084658, 2440323.670657653361559 ], [ 2922359.410291044041514, 2440323.636267447844148 ], [ 2922345.555787356104702, 2440317.025534181389958 ], [ 2922345.541098842862993, 2440317.021093982737511 ], [ 2922345.500292321201414, 2440316.99944829987362 ], [ 2922329.13122065551579, 2440309.439344892743975 ], [ 2922329.124628875404596, 2440309.437394374981523 ], [ 2922329.108790717087686, 2440309.42909526405856 ], [ 2922314.128725930117071, 2440302.601710386108607 ], [ 2922301.620327926706523, 2440295.674388813786209 ], [ 2922301.512056549079716, 2440295.637894042301923 ], [ 2922300.913861365988851, 2440295.353495419025421 ], [ 2922283.862802503164858, 2440289.190413973294199 ], [ 2922283.674449582584202, 2440289.143406440038234 ], [ 2922283.548888107761741, 2440289.088705866597593 ], [ 2922272.069505943451077, 2440285.795950304251164 ], [ 2922271.802968760486692, 2440285.738897601142526 ], [ 2922271.737729457207024, 2440285.713165645021945 ], [ 2922261.810305526014417, 2440283.601868384517729 ], [ 2922261.7011539041996, 2440283.604288327973336 ], [ 2922261.573068638332188, 2440283.557473600376397 ], [ 2922249.706539507955313, 2440281.638349392917007 ], [ 2922249.607266517356038, 2440281.64303562650457 ], [ 2922249.514534269925207, 2440281.611232805065811 ], [ 2922238.872088684234768, 2440280.318410047329962 ], [ 2922238.789821065962315, 2440280.323858820833266 ], [ 2922238.022584810853004, 2440280.289095717482269 ], [ 2922225.413345010951161, 2440280.942618272267282 ], [ 2922213.474036854691803, 2440280.985773068852723 ], [ 2922201.610174210742116, 2440280.784675193019211 ], [ 2922201.585979440715164, 2440280.787462197244167 ], [ 2922201.53667856566608, 2440280.78394628316164 ], [ 2922191.275568113662302, 2440280.762893235310912 ], [ 2922181.936586065217853, 2440280.090542033314705 ], [ 2922172.733439491130412, 2440277.912821253295988 ], [ 2922172.682806076481938, 2440277.903140344657004 ], [ 2922172.670896749943495, 2440277.89839654089883 ], [ 2922160.897643701639026, 2440275.275177201256156 ], [ 2922149.001658441964537, 2440272.238904874771833 ], [ 2922148.881337489001453, 2440272.214984027203172 ], [ 2922148.851449627429247, 2440272.203043720219284 ], [ 2922136.05032838601619, 2440269.362335565965623 ], [ 2922135.969118425622582, 2440269.363828002475202 ], [ 2922135.867090541869402, 2440269.325380659662187 ], [ 2922117.11234056064859, 2440265.907585748005658 ], [ 2922086.701833377126604, 2440254.757494383025914 ], [ 2922028.734771712683141, 2440232.077919295523316 ], [ 2922028.427671566139907, 2440231.997041860595345 ], [ 2922028.219464178197086, 2440231.908597390167415 ], [ 2921983.379691981244832, 2440219.883005580399185 ], [ 2921983.00945399235934, 2440219.807138659060001 ], [ 2921982.967183816246688, 2440219.791252999100834 ], [ 2921974.629723338410258, 2440218.310439651831985 ], [ 2921968.729449827689677, 2440215.512413682881743 ], [ 2921965.670051861554384, 2440212.875509264413267 ], [ 2921961.936289097182453, 2440207.297131966333836 ], [ 2921958.794821308925748, 2440201.021745845675468 ], [ 2921958.469233131967485, 2440200.488144937902689 ], [ 2921958.43930540047586, 2440200.42148849228397 ], [ 2921953.87485681893304, 2440193.824226270895451 ], [ 2921948.976297675166279, 2440186.246450407896191 ], [ 2921944.200474651064724, 2440176.890550925396383 ], [ 2921943.805418273434043, 2440176.248989491723478 ], [ 2921943.799416897818446, 2440176.236047613434494 ], [ 2921934.814886725507677, 2440163.845600694883615 ], [ 2921934.690980601590127, 2440163.731806735508144 ], [ 2921934.62571688555181, 2440163.601209863089025 ], [ 2921928.422791481949389, 2440156.088107191957533 ], [ 2921928.392557898536325, 2440156.06198977259919 ], [ 2921928.266931020654738, 2440155.9082300378941 ], [ 2921920.087501141242683, 2440146.925067919772118 ], [ 2921920.018886243924499, 2440146.868827041238546 ], [ 2921919.892288334667683, 2440146.722568103577942 ], [ 2921913.243140122387558, 2440140.211725879460573 ], [ 2921912.883327351883054, 2440139.933779056183994 ], [ 2921912.706919258460402, 2440139.757345952093601 ], [ 2921906.531685480847955, 2440135.243494199123234 ], [ 2921906.164413127116859, 2440134.999559523537755 ], [ 2921906.00884897261858, 2440134.944332887418568 ], [ 2921905.902663891203701, 2440134.853141617961228 ], [ 2921897.316765297204256, 2440130.387432637624443 ], [ 2921897.264209448359907, 2440130.370474006514996 ], [ 2921897.044752230867743, 2440130.256415827199817 ], [ 2921884.841097089927644, 2440124.838499567471445 ], [ 2921877.075737327802926, 2440121.271571601275355 ], [ 2921876.814472827129066, 2440121.19463951792568 ], [ 2921876.46605574991554, 2440121.039419887587428 ], [ 2921868.225899097044021, 2440118.517295238561928 ], [ 2921861.481224932707846, 2440116.259163522161543 ], [ 2921861.445766496937722, 2440116.250782716087997 ], [ 2921861.420293881557882, 2440116.239257559645921 ], [ 2921852.88017287524417, 2440113.504047606606036 ], [ 2921838.231907068751752, 2440106.683390365447849 ], [ 2921832.573773031122983, 2440104.017778996378183 ], [ 2921832.488554430194199, 2440103.992234686389565 ], [ 2921832.30145004298538, 2440103.899431922007352 ], [ 2921826.028585326857865, 2440101.397556668613106 ], [ 2921821.647615157999098, 2440098.631448872387409 ], [ 2921817.923833025619388, 2440095.118753706105053 ], [ 2921814.786595577374101, 2440090.987198807764798 ], [ 2921811.674656158313155, 2440085.909743424970657 ], [ 2921808.977375196292996, 2440080.795280965045094 ], [ 2921807.44358626473695, 2440076.932734398171306 ], [ 2921806.299901369959116, 2440072.875829832162708 ], [ 2921804.934310065116733, 2440066.71024657599628 ], [ 2921804.375048728659749, 2440061.063578234985471 ], [ 2921804.51600148063153, 2440055.884392232634127 ], [ 2921804.510222043376416, 2440055.829197532497346 ], [ 2921804.51785231847316, 2440055.726597359403968 ], [ 2921804.491811810526997, 2440049.086005470715463 ], [ 2921805.227895872201771, 2440038.986022672150284 ], [ 2921805.893290171399713, 2440031.77670198911801 ], [ 2921805.891225478611887, 2440031.74859809782356 ], [ 2921805.90580777823925, 2440031.611366445664316 ], [ 2921806.305917778983712, 2440024.88091477425769 ], [ 2921807.720994405448437, 2440019.920769600197673 ], [ 2921807.772560912184417, 2440019.68483801279217 ], [ 2921807.795294002629817, 2440019.627899223472923 ], [ 2921809.441216696985066, 2440012.222988314460963 ], [ 2921809.44027728959918, 2440012.118696891702712 ], [ 2921809.486726995557547, 2440011.994366482831538 ], [ 2921810.36633484903723, 2440006.960227319039404 ], [ 2921811.594863016624004, 2440000.832544116303325 ], [ 2921811.594529658555984, 2440000.815414857119322 ], [ 2921811.602106016129255, 2440000.795418343506753 ], [ 2921812.643747173249722, 2439995.392184992320836 ], [ 2921812.64159597735852, 2439995.298794913105667 ], [ 2921812.676815618295223, 2439995.20102725783363 ], [ 2921812.728982664179057, 2439994.690249932929873 ], [ 2921813.080725954845548, 2439987.84320857282728 ], [ 2921813.064935743808746, 2439987.673578547313809 ], [ 2921813.082119042053819, 2439987.352172402665019 ], [ 2921812.844701370224357, 2439982.148244572337717 ], [ 2921812.824335480108857, 2439982.005081998184323 ], [ 2921812.827287891879678, 2439981.901097648777068 ], [ 2921812.413644340820611, 2439977.546006084419787 ], [ 2921812.295050125569105, 2439976.838134560734034 ], [ 2921812.102115178015083, 2439976.219504478387535 ], [ 2921809.481104419566691, 2439969.405686953105032 ], [ 2921809.372438343241811, 2439969.206417161505669 ], [ 2921809.274721537716687, 2439968.941373324021697 ], [ 2921807.256999110803008, 2439964.963594275992364 ], [ 2921806.887454734183848, 2439964.361626213416457 ], [ 2921806.872286594472826, 2439964.328284484799951 ], [ 2921803.282041920349002, 2439959.297012430150062 ], [ 2921799.745401004329324, 2439953.493595243897289 ], [ 2921799.602101740427315, 2439953.2793860132806 ], [ 2921799.592721492052078, 2439953.258313071448356 ], [ 2921796.170327230356634, 2439948.299555836711079 ], [ 2921796.121428275480866, 2439948.253652898594737 ], [ 2921796.091060667298734, 2439948.187992335297167 ], [ 2921795.763131398707628, 2439947.786237907595932 ], [ 2921792.195489475037903, 2439943.857619511894882 ], [ 2921791.990414394065738, 2439943.689265677705407 ], [ 2921791.72010546317324, 2439943.400176339317113 ], [ 2921787.421537063084543, 2439939.788014730904251 ], [ 2921784.127720954827964, 2439937.013349838554859 ], [ 2921782.400530287995934, 2439934.370685418136418 ], [ 2921779.663306969683617, 2439928.223974685650319 ], [ 2921777.868179252371192, 2439922.394215995445848 ], [ 2921776.376468324102461, 2439917.309095007833093 ], [ 2921775.062335464637727, 2439911.629589512944221 ], [ 2921774.682638559956104, 2439907.298617439344525 ], [ 2921774.67243525153026, 2439907.236296101473272 ], [ 2921774.673158153425902, 2439907.201885761227459 ], [ 2921774.052830805070698, 2439901.410332321655005 ], [ 2921773.990256484597921, 2439901.050688303541392 ], [ 2921773.98905985057354, 2439900.986621864605695 ], [ 2921772.894077955279499, 2439895.34972377307713 ], [ 2921772.799121989868581, 2439895.132084793876857 ], [ 2921772.783537393435836, 2439894.895284518133849 ], [ 2921771.210212027654052, 2439889.528959590010345 ], [ 2921771.209112653508782, 2439889.526006976142526 ], [ 2921769.617151843383908, 2439884.112834616564214 ], [ 2921769.605413714423776, 2439884.089140423573554 ], [ 2921769.559323400259018, 2439883.929311248939484 ], [ 2921767.415237428620458, 2439877.556691383942962 ], [ 2921767.284395274706185, 2439877.303896603174508 ], [ 2921767.111732545308769, 2439876.843602325301617 ], [ 2921764.96731685847044, 2439872.729248881805688 ], [ 2921764.572631862945855, 2439872.094131843186915 ], [ 2921764.310741637833416, 2439871.766481874044985 ], [ 2921761.125345021951944, 2439868.113346873316914 ], [ 2921761.016298830043525, 2439868.021966026630253 ], [ 2921760.78274626005441, 2439867.758109229616821 ], [ 2921757.855349716730416, 2439865.014033169485629 ], [ 2921757.244335493072867, 2439864.552348826080561 ], [ 2921757.15416611218825, 2439864.467491874471307 ], [ 2921754.009156992193311, 2439862.44665655400604 ], [ 2921752.059166107792407, 2439861.720093954820186 ], [ 2921750.117882918100804, 2439861.828356549609452 ], [ 2921748.871253178454936, 2439862.428916457574815 ], [ 2921750.382454325444996, 2439854.915547417011112 ], [ 2921757.765956467017531, 2439851.009755936916918 ], [ 2921811.771657211706042, 2439847.896277111023664 ], [ 2921824.925824826583266, 2439852.665926455520093 ], [ 2921852.548146014567465, 2439872.394058325793594 ], [ 2921876.840604363009334, 2439883.634091251995414 ], [ 2921897.671022864989936, 2439887.426690419204533 ], [ 2921982.074667659588158, 2439888.840650556143373 ], [ 2922008.194004792254418, 2439884.721764060202986 ], [ 2922140.200596291571856, 2439684.32390206027776 ], [ 2922201.870842852629721, 2439349.637917724903673 ], [ 2922080.936703305225819, 2439113.088225520215929 ], [ 2922102.483877127058804, 2439084.353102104738355 ], [ 2922119.368118037004024, 2439054.276790636591613 ], [ 2922124.428110499866307, 2439040.641936789732426 ], [ 2922124.927507262676954, 2439001.92422791197896 ], [ 2922147.343804752454162, 2438915.929153964854777 ], [ 2922168.346274144016206, 2438829.809644647873938 ], [ 2922177.502005400136113, 2438780.001889421604574 ], [ 2922181.164605468511581, 2438767.710280380211771 ], [ 2922188.330660328734666, 2438753.36316811805591 ], [ 2922194.263889125548303, 2438742.30202185548842 ], [ 2922186.361851075664163, 2438734.333749762736261 ], [ 2922195.036250119563192, 2438693.385092566721141 ], [ 2922193.83680043136701, 2438674.884903260972351 ], [ 2922187.739817649126053, 2438663.237598164007068 ], [ 2922147.791617595590651, 2438643.53033562283963 ], [ 2922131.329218788072467, 2438633.102921782527119 ], [ 2922115.947572774253786, 2438624.398105882108212 ], [ 2922102.102592226117849, 2438619.300493510439992 ], [ 2922082.83047713059932, 2438613.524547338485718 ], [ 2922059.909874510020018, 2438609.516482838429511 ], [ 2922054.945627166889608, 2438605.460649876389652 ], [ 2922046.521994191221893, 2438602.642428633756936 ], [ 2922015.244882377795875, 2438582.212883216328919 ], [ 2921994.299895050935447, 2438604.449621750973165 ], [ 2921982.56643555406481, 2438610.818884718231857 ], [ 2921974.564302567392588, 2438618.893186578527093 ], [ 2921966.562254165764898, 2438626.967372990678996 ], [ 2921950.455920589156449, 2438634.466708160471171 ], [ 2921932.459068659693003, 2438645.12393343495205 ], [ 2921919.544939917512238, 2438665.812931330874562 ], [ 2921907.137018589302897, 2438680.364816050045192 ], [ 2921901.312890178523958, 2438689.210960401687771 ], [ 2921888.161427314858884, 2438697.948659483343363 ], [ 2921865.167156394571066, 2438709.897642387542874 ], [ 2921843.372293476480991, 2438729.544935332611203 ], [ 2921830.170932756736875, 2438746.304003050085157 ], [ 2921804.138772265054286, 2438770.383167650084943 ], [ 2921772.973852530587465, 2438792.452273221686482 ], [ 2921748.072362376376987, 2438810.233008087612689 ], [ 2921728.607653070241213, 2438831.280388391576707 ], [ 2921698.084133709780872, 2438850.514265329577029 ], [ 2921681.657426520716399, 2438859.431278571486473 ], [ 2921667.137791292276233, 2438862.516422796994448 ], [ 2921651.808382061775774, 2438870.482465845067054 ], [ 2921578.453182274475694, 2438907.459816616028547 ], [ 2921536.160658488515764, 2438913.718829619232565 ], [ 2921453.768224963918328, 2438965.609709880314767 ], [ 2921381.938668513670564, 2438992.28569540893659 ], [ 2921384.287795676849782, 2439015.703735708724707 ], [ 2921321.983813961036503, 2439127.831391852349043 ], [ 2921217.283155974000692, 2439299.737110934220254 ], [ 2921142.432440054602921, 2439321.805326455272734 ], [ 2921143.308719751425087, 2439306.229131225496531 ], [ 2921133.546268549747765, 2439271.379503240343183 ], [ 2921103.844303984194994, 2439233.675077723804861 ], [ 2921093.459960207343102, 2439223.679040209855884 ], [ 2921093.390965157188475, 2439209.681972585152835 ], [ 2921081.099343617912382, 2439205.517886814661324 ], [ 2921071.458412316162139, 2439201.335979399271309 ], [ 2921052.126943410374224, 2439200.993598200380802 ], [ 2921021.786510138772428, 2439190.816477280110121 ], [ 2921000.716418893076479, 2439194.260396462399513 ], [ 2920953.460223042406142, 2439196.463934804778546 ], [ 2920932.575452202931046, 2439195.188310822471976 ], [ 2920814.812575399875641, 2439059.756208138540387 ], [ 2920721.414755647070706, 2438995.98672331077978 ], [ 2920537.401477372273803, 2438894.763945676852018 ], [ 2920512.029586682096124, 2438864.096570513211191 ], [ 2920506.105442534200847, 2438866.641734089702368 ], [ 2920341.838749097660184, 2438813.976624610833824 ], [ 2920314.236636726185679, 2438664.277662178501487 ], [ 2920045.409041540697217, 2438719.080530723556876 ], [ 2920070.920738291926682, 2438481.989168925210834 ], [ 2919911.383908787742257, 2438363.386224869638681 ], [ 2919872.609580028802156, 2438338.374330704566091 ], [ 2919803.497036335989833, 2438308.932176400441676 ], [ 2919764.940170313231647, 2438295.085769388824701 ], [ 2919757.13927521975711, 2438285.111774603836238 ], [ 2919733.643169739283621, 2438270.419328913092613 ], [ 2919716.614758402109146, 2438264.796022450085729 ], [ 2919697.213877856731415, 2438264.082196508534253 ], [ 2919679.624801365658641, 2438267.912444403860718 ], [ 2919648.577405652031302, 2438283.814213184639812 ], [ 2919618.091061531566083, 2438290.262182518839836 ], [ 2919580.882033141329885, 2438274.818024054635316 ], [ 2919537.368276285938919, 2438250.978608762379736 ], [ 2919486.899762887507677, 2438242.541972646489739 ], [ 2919422.101867571473122, 2438224.920320230070502 ], [ 2919404.54165098676458, 2438213.567392044700682 ], [ 2919390.759591575246304, 2438180.749536577612162 ], [ 2919377.100310225505382, 2438171.391231406480074 ], [ 2919358.387536946218461, 2438167.635352387093008 ], [ 2919346.432846361771226, 2438180.034165265504271 ], [ 2919333.410329731646925, 2438202.733816435094923 ], [ 2919324.911388772539794, 2438204.791158180683851 ], [ 2919308.91775547619909, 2438186.866939638275653 ], [ 2919276.259450334124267, 2438185.472126474604011 ], [ 2919258.318150793202221, 2438181.590536945965141 ], [ 2919211.132618030533195, 2438182.409705836325884 ], [ 2919193.989201389253139, 2438187.552075055427849 ], [ 2919182.135093294084072, 2438197.015978201292455 ], [ 2919147.129871124401689, 2438216.019905976951122 ], [ 2919126.154867241159081, 2438222.863801593892276 ], [ 2919092.33653829805553, 2438238.005357782356441 ], [ 2919075.714543665759265, 2438239.457464573904872 ], [ 2919069.094184321351349, 2438235.479981583543122 ], [ 2919074.846901094540954, 2438192.038039963226765 ], [ 2919077.919578327797353, 2438152.133253672160208 ], [ 2919083.295361364260316, 2438115.899747035931796 ], [ 2919076.819090649951249, 2438115.440449232235551 ], [ 2919061.078024364542216, 2438108.842925718985498 ], [ 2919040.622198887169361, 2438085.686404258944094 ], [ 2919004.139315160457045, 2438075.205866743344814 ], [ 2918986.527759094722569, 2438075.491686886176467 ], [ 2918963.897720480337739, 2438081.341235680505633 ], [ 2918913.781378812156618, 2438099.273473947308958 ], [ 2918872.193460170179605, 2438134.911895930301398 ], [ 2918856.221743103582412, 2438165.35139905847609 ], [ 2918852.463338457979262, 2438181.96714286506176 ], [ 2918841.672200151719153, 2438207.511715869419277 ], [ 2918828.615726018324494, 2438249.9973238944076 ], [ 2918819.02926098741591, 2438268.830854003317654 ], [ 2918793.324310095980763, 2438288.27524490095675 ], [ 2918759.326428931206465, 2438305.596707179676741 ], [ 2918747.796308156568557, 2438316.399361737072468 ], [ 2918743.587671312969178, 2438325.309341002721339 ], [ 2918711.462506664916873, 2438362.057893766555935 ], [ 2918697.791449503973126, 2438369.85828865179792 ], [ 2918682.250116345938295, 2438384.542402816005051 ], [ 2918657.626096067018807, 2438417.218509099446237 ], [ 2918635.735340225510299, 2438437.810436048544943 ], [ 2918607.692229450680315, 2438459.281690574716777 ], [ 2918581.515325817279518, 2438482.63839374948293 ], [ 2918567.904180966317654, 2438499.43350787833333 ], [ 2918541.840414109174162, 2438523.237582556437701 ], [ 2918560.13747839583084, 2438546.240866619162261 ], [ 2918572.533000730909407, 2438556.547762922942638 ], [ 2918594.715013657696545, 2438569.302455896511674 ], [ 2918598.485623897053301, 2438576.695264532230794 ], [ 2918596.937207849696279, 2438576.144726691301912 ], [ 2918596.250758868642151, 2438576.094862622208893 ], [ 2918591.833658571355045, 2438576.083378021139652 ], [ 2918579.000296896789223, 2438573.730215981137007 ], [ 2918578.908188519068062, 2438573.733601135201752 ], [ 2918578.812352051958442, 2438573.699523289687932 ], [ 2918578.073879481293261, 2438573.64979695295915 ], [ 2918564.045097938738763, 2438573.761120111681521 ], [ 2918562.842477337922901, 2438573.919186757877469 ], [ 2918562.768216378986835, 2438573.95501668471843 ], [ 2918562.692705304827541, 2438573.960356599185616 ], [ 2918550.333001204766333, 2438577.568876419682056 ], [ 2918549.633919820189476, 2438577.91912939120084 ], [ 2918548.858921041712165, 2438578.276525642722845 ], [ 2918539.010003916919231, 2438585.164733970537782 ], [ 2918538.953351628500968, 2438585.225525281392038 ], [ 2918538.871983244083822, 2438585.26478854008019 ], [ 2918537.741336129140109, 2438586.439897496718913 ], [ 2918533.090320279821754, 2438593.15557480044663 ], [ 2918525.889751841314137, 2438601.302392904646695 ], [ 2918520.334551213309169, 2438607.400096158962697 ], [ 2918520.150848445016891, 2438607.647229223512113 ], [ 2918520.028193281032145, 2438607.76970486715436 ], [ 2918508.689635872840881, 2438622.844224286731333 ], [ 2918498.977710195817053, 2438633.851242934819311 ], [ 2918498.807591523043811, 2438634.084097695536911 ], [ 2918498.70781272649765, 2438634.184394247829914 ], [ 2918490.782417218666524, 2438644.850382146425545 ], [ 2918483.234940614551306, 2438652.683161470107734 ], [ 2918483.068023473024368, 2438652.901293446775526 ], [ 2918482.907760534435511, 2438653.057588185649365 ], [ 2918477.970767321996391, 2438659.296344532165676 ], [ 2918477.961988248862326, 2438659.309135661926121 ], [ 2918477.956599887926131, 2438659.314391225576401 ], [ 2918472.896584744565189, 2438665.767845703288913 ], [ 2918469.195164589677006, 2438670.34678717283532 ], [ 2918465.899416383355856, 2438673.943971721455455 ], [ 2918464.299402732867748, 2438675.443887199275196 ], [ 2918458.093507731333375, 2438679.670701213181019 ], [ 2918457.910912294872105, 2438679.864536796696484 ], [ 2918457.68196455668658, 2438679.982917077373713 ], [ 2918449.883330966345966, 2438686.547985330224037 ], [ 2918449.750698296353221, 2438686.703915990423411 ], [ 2918449.29620879329741, 2438687.129958645440638 ], [ 2918444.019470522645861, 2438693.284666896332055 ], [ 2918434.739512661006302, 2438699.164695953018963 ], [ 2918434.615729948040098, 2438699.250149639323354 ], [ 2918434.59571389388293, 2438699.259193976409733 ], [ 2918427.765329129993916, 2438703.91979122813791 ], [ 2918427.690211034845561, 2438703.999515696894377 ], [ 2918427.579089608043432, 2438704.053059078752995 ], [ 2918426.737332784570754, 2438704.850154560059309 ], [ 2918421.926414983347058, 2438710.575839299708605 ], [ 2918416.873208440840244, 2438715.652960672508925 ], [ 2918410.892722526565194, 2438720.168097096960992 ], [ 2918404.871711344458163, 2438724.241351721342653 ], [ 2918398.392187654972076, 2438726.157290290575475 ], [ 2918398.154070156626403, 2438726.27703943150118 ], [ 2918397.298562370240688, 2438726.627976235002279 ], [ 2918390.625346350483596, 2438730.493258866481483 ], [ 2918390.522794852498919, 2438730.561207526363432 ], [ 2918390.486389063298702, 2438730.576803470030427 ], [ 2918382.739554835483432, 2438735.401833806652576 ], [ 2918382.376437368802726, 2438735.650590043980628 ], [ 2918382.345729175955057, 2438735.684573799837381 ], [ 2918382.306614360306412, 2438735.70391912246123 ], [ 2918376.270085087046027, 2438740.400884329341352 ], [ 2918369.805734450463206, 2438745.06679703714326 ], [ 2918369.776070493739098, 2438745.099166175350547 ], [ 2918369.734634912572801, 2438745.11913853790611 ], [ 2918363.406047800555825, 2438749.856698788702488 ], [ 2918363.268604413606226, 2438750.009235739242285 ], [ 2918363.119896215386689, 2438750.08764352183789 ], [ 2918359.270774205215275, 2438753.429530148394406 ], [ 2918359.222146242391318, 2438753.48753478191793 ], [ 2918359.020985131151974, 2438753.6615682663396 ], [ 2918352.828728544525802, 2438759.811290051788092 ], [ 2918352.771259697154164, 2438759.884741747751832 ], [ 2918352.668888178654015, 2438759.977374635636806 ], [ 2918347.516136404592544, 2438765.579219748731703 ], [ 2918347.21102614607662, 2438765.987762833014131 ], [ 2918347.08001896366477, 2438766.123765955679119 ], [ 2918342.756615020334721, 2438772.34870074596256 ], [ 2918342.697528169490397, 2438772.49659876152873 ], [ 2918342.568884463980794, 2438772.639494063798338 ], [ 2918338.615154323168099, 2438779.244505176320672 ], [ 2918338.598995191045105, 2438779.289361625444144 ], [ 2918338.56882686400786, 2438779.323552020825446 ], [ 2918334.923445606138557, 2438785.668341653421521 ], [ 2918330.747285976540297, 2438790.374533568043262 ], [ 2918330.657559346407652, 2438790.496899055317044 ], [ 2918330.583346679341048, 2438790.568728030193597 ], [ 2918325.136514623649418, 2438797.358794244006276 ], [ 2918321.398994400165975, 2438801.312784900423139 ], [ 2918320.986845154315233, 2438801.856821860652417 ], [ 2918320.85615209909156, 2438801.995310655795038 ], [ 2918316.032023116480559, 2438809.255467440932989 ], [ 2918311.595136408694088, 2438815.496746421791613 ], [ 2918307.24512832146138, 2438821.020531189627945 ], [ 2918304.603508811444044, 2438822.668869631364942 ], [ 2918304.363750976510346, 2438822.833266882225871 ], [ 2918304.342755095101893, 2438822.84310042206198 ], [ 2918298.731260892003775, 2438826.8473189920187 ], [ 2918298.690283035859466, 2438826.891823157668114 ], [ 2918298.632377876434475, 2438826.919684087391943 ], [ 2918298.235298725776374, 2438827.25072357384488 ], [ 2918292.016493727918714, 2438832.993758445605636 ], [ 2918292.007451057434082, 2438833.004970278125256 ], [ 2918291.977761029265821, 2438833.029918972402811 ], [ 2918286.343628373928368, 2438838.342779683880508 ], [ 2918286.150844494812191, 2438838.582722234539688 ], [ 2918285.873995840549469, 2438838.850011310074478 ], [ 2918281.278421349823475, 2438844.542715097777545 ], [ 2918275.588917827233672, 2438848.451932505704463 ], [ 2918269.113449231721461, 2438851.704918515868485 ], [ 2918268.347442132420838, 2438852.179686242714524 ], [ 2918267.033012573607266, 2438853.640095793176442 ], [ 2918266.660159011837095, 2438854.398905325680971 ], [ 2918264.674084980972111, 2438859.459071836434305 ], [ 2918261.661796438042074, 2438863.065666572190821 ], [ 2918257.887370001059026, 2438865.499972240999341 ], [ 2918257.887370001059026, 2439995.755392549559474 ], [ 2918261.568475843872875, 2439999.770573779009283 ], [ 2918261.937098622322083, 2440000.071707609109581 ], [ 2918262.244342803023756, 2440000.38231562776491 ], [ 2918268.271477789152414, 2440004.893090147525072 ], [ 2918268.68300068937242, 2440005.169711965601891 ], [ 2918268.81310471938923, 2440005.215945368167013 ], [ 2918268.904079847037792, 2440005.294750121422112 ], [ 2918275.442522031255066, 2440008.773859878536314 ], [ 2918275.673392886761576, 2440008.849202190060169 ], [ 2918276.321487461682409, 2440009.136654550675303 ], [ 2918298.65714646782726, 2440015.903175545390695 ], [ 2918298.897372179664671, 2440015.956467078998685 ], [ 2918298.975613122340292, 2440015.988060158211738 ], [ 2918307.318966794759035, 2440017.913971767295152 ], [ 2918315.828119896817952, 2440023.264635775238276 ], [ 2918319.854587839916348, 2440027.751934406347573 ], [ 2918322.75434629060328, 2440033.099945511668921 ], [ 2918324.990274523384869, 2440039.101815310772508 ], [ 2918325.804132306016982, 2440045.190537762828171 ], [ 2918325.947249179705977, 2440051.681715723592788 ], [ 2918324.998662093188614, 2440058.172591999173164 ], [ 2918323.021456051617861, 2440065.277006865013391 ], [ 2918320.874339442700148, 2440071.997532668989152 ], [ 2918318.334283535368741, 2440079.759549509733915 ], [ 2918315.613078507129103, 2440087.435928145889193 ], [ 2918312.898900171276182, 2440094.417214218061417 ], [ 2918310.170676585752517, 2440101.396690589375794 ], [ 2918307.420728209428489, 2440107.892603989690542 ], [ 2918304.432983577251434, 2440114.778268250636756 ], [ 2918304.43073369609192, 2440114.78295102249831 ], [ 2918301.576292808633298, 2440121.382973451167345 ], [ 2918301.538051305804402, 2440121.515879077836871 ], [ 2918301.45262507814914, 2440121.696659964043647 ], [ 2918299.046573038212955, 2440128.44970332365483 ], [ 2918298.809401744045317, 2440129.388509052339941 ], [ 2918298.812272845767438, 2440129.456542152911425 ], [ 2918298.79134563356638, 2440129.51701826043427 ], [ 2918297.819264924619347, 2440137.139921398833394 ], [ 2918297.840133468620479, 2440137.520907175727189 ], [ 2918297.84629144705832, 2440138.607848443556577 ], [ 2918299.029219904914498, 2440145.745957773178816 ], [ 2918299.121874459087849, 2440145.966757987625897 ], [ 2918299.137252938002348, 2440146.241027718875557 ], [ 2918301.026647769846022, 2440153.19668403826654 ], [ 2918301.134134989697486, 2440153.420371307991445 ], [ 2918301.505790781229734, 2440154.35759792290628 ], [ 2918305.204545275773853, 2440160.845270283520222 ], [ 2918305.428439488634467, 2440161.19052047142759 ], [ 2918305.442574866581708, 2440161.221913797780871 ], [ 2918309.634477283805609, 2440167.240982920862734 ], [ 2918309.676154994405806, 2440167.279961882624775 ], [ 2918309.701767134480178, 2440167.335299903526902 ], [ 2918310.058110069483519, 2440167.768059602938592 ], [ 2918314.892604916356504, 2440173.000642584171146 ], [ 2918314.934341153129935, 2440173.034525028895587 ], [ 2918315.010370896197855, 2440173.123686652630568 ], [ 2918320.276600296609104, 2440178.441027208697051 ], [ 2918320.280888227745891, 2440178.444313217885792 ], [ 2918320.286668649874628, 2440178.45109033305198 ], [ 2918325.251705252565444, 2440183.435357776470482 ], [ 2918330.51427839230746, 2440188.756215032655746 ], [ 2918330.577797140460461, 2440188.806159800849855 ], [ 2918330.653740382753313, 2440188.891777145676315 ], [ 2918335.795267037581652, 2440193.693493845872581 ], [ 2918335.893085956573486, 2440193.76728607993573 ], [ 2918335.965651120059192, 2440193.845382675994188 ], [ 2918341.998801003210247, 2440198.974934486672282 ], [ 2918342.099953531287611, 2440199.047507952433079 ], [ 2918342.146024684887379, 2440199.09524641232565 ], [ 2918347.777485593687743, 2440203.518051525112242 ], [ 2918353.60599971935153, 2440208.3129778415896 ], [ 2918358.892424277029932, 2440213.27856161352247 ], [ 2918364.308248930610716, 2440218.361811716109514 ], [ 2918364.32801892189309, 2440218.376715623307973 ], [ 2918364.345932145603001, 2440218.396840856410563 ], [ 2918369.402597117237747, 2440223.04377687163651 ], [ 2918373.761279205791652, 2440228.80395472003147 ], [ 2918373.764602086506784, 2440228.806908293627203 ], [ 2918373.766356650739908, 2440228.810758427716792 ], [ 2918377.865905775222927, 2440234.208926758728921 ], [ 2918381.043375770561397, 2440240.104556009639055 ], [ 2918381.379777820780873, 2440240.637587156146765 ], [ 2918381.386582634411752, 2440240.652314649894834 ], [ 2918385.826543326955289, 2440246.803610653616488 ], [ 2918385.838722284883261, 2440246.814814295619726 ], [ 2918385.845822137314826, 2440246.830098242033273 ], [ 2918386.704365231096745, 2440247.735112070571631 ], [ 2918392.162093548569828, 2440252.186277031898499 ], [ 2918392.179374685510993, 2440252.198380295652896 ], [ 2918392.187102531082928, 2440252.206531148403883 ], [ 2918397.370505662169307, 2440256.37779876915738 ], [ 2918400.972625444643199, 2440261.420023077633232 ], [ 2918407.881843582261354, 2440273.756323397159576 ], [ 2918411.050135481636971, 2440280.334727491717786 ], [ 2918413.613554066047072, 2440286.730796157382429 ], [ 2918415.038134849630296, 2440293.175953289493918 ], [ 2918415.058518007397652, 2440293.221158667467535 ], [ 2918415.060795885510743, 2440293.27353398874402 ], [ 2918415.286398411728442, 2440293.975194391794503 ], [ 2918418.017548998817801, 2440300.713033956009895 ], [ 2918418.061700846999884, 2440300.792248215060681 ], [ 2918418.102373217232525, 2440300.909936267882586 ], [ 2918421.109902591910213, 2440307.498155724257231 ], [ 2918422.139078302308917, 2440310.130101305432618 ], [ 2918422.755047595594078, 2440311.252209273166955 ], [ 2918424.185949777252972, 2440312.559405428357422 ], [ 2918426.010895016137511, 2440313.208178325556219 ], [ 2918427.951960003003478, 2440313.099834156688303 ], [ 2918429.699358141515404, 2440312.25775744440034 ], [ 2918431.263404248282313, 2440315.75248681101948 ], [ 2918429.918191545642912, 2440315.827546054963022 ], [ 2918428.156382776796818, 2440316.676525219343603 ], [ 2918426.841995994560421, 2440318.13693746458739 ], [ 2918426.175188915804029, 2440319.986411783844233 ], [ 2918426.257502354681492, 2440321.943374193739146 ], [ 2918426.28811545483768, 2440322.069815116003156 ], [ 2918426.336453906260431, 2440322.174101335462183 ], [ 2918426.343018107581884, 2440322.276959647424519 ], [ 2918430.567378873471171, 2440336.951827255543321 ], [ 2918432.198832713998854, 2440344.232772277668118 ], [ 2918432.277068140916526, 2440344.405346327461302 ], [ 2918432.288842554204166, 2440344.576929789967835 ], [ 2918434.406271629966795, 2440351.635007147211581 ], [ 2918436.377989743836224, 2440358.651428873185068 ], [ 2918441.744242522865534, 2440380.271733139641583 ], [ 2918444.915441565215588, 2440394.761262957472354 ], [ 2918446.270454979967326, 2440401.790162067860365 ], [ 2918446.295071776024997, 2440401.84680078458041 ], [ 2918446.297428061719984, 2440401.920827547553927 ], [ 2918451.127549759112298, 2440423.827884674072266 ], [ 2918454.472384007647634, 2440439.088476543314755 ], [ 2918454.477402147836983, 2440439.099766647908837 ], [ 2918454.477878522127867, 2440439.113513210788369 ], [ 2918456.143717518076301, 2440446.533133818767965 ], [ 2918458.207126382272691, 2440461.351406725123525 ], [ 2918458.623149517923594, 2440475.946936061605811 ], [ 2918458.114004953764379, 2440483.427273291163146 ], [ 2918458.117643597535789, 2440483.470245766453445 ], [ 2918458.104961461387575, 2440483.606725391466171 ], [ 2918457.871029702015221, 2440490.788843207061291 ], [ 2918457.487347272690386, 2440498.495792966336012 ], [ 2918457.488425265997648, 2440498.507090238388628 ], [ 2918457.485425530932844, 2440498.53754258621484 ], [ 2918457.204410284757614, 2440505.30938411410898 ], [ 2918456.210463504306972, 2440512.135982330422848 ], [ 2918454.801221155561507, 2440518.883061262778938 ], [ 2918452.598354095593095, 2440525.991451960988343 ], [ 2918452.573160887695849, 2440526.100818988401443 ], [ 2918452.551713135559112, 2440526.15091332886368 ], [ 2918450.604981133714318, 2440533.24022008664906 ], [ 2918447.966744325123727, 2440539.425045846030116 ], [ 2918444.858773647807539, 2440545.557784235104918 ], [ 2918436.946052282117307, 2440557.971646748483181 ], [ 2918436.920280450023711, 2440558.040025710128248 ], [ 2918436.867862062528729, 2440558.098315965384245 ], [ 2918433.270202667452395, 2440564.122393918223679 ], [ 2918429.009836273267865, 2440570.115875735413283 ], [ 2918424.167435687966645, 2440575.443460442125797 ], [ 2918418.897019269410521, 2440580.051301170606166 ], [ 2918418.653631154447794, 2440580.342797014862299 ], [ 2918418.21976317698136, 2440580.770574294961989 ], [ 2918409.374558744952083, 2440592.204531906638294 ], [ 2918405.874629709403962, 2440596.265943022444844 ], [ 2918405.360594847239554, 2440596.978005255106837 ], [ 2918404.693896195851266, 2440598.827463373541832 ], [ 2918404.776415136177093, 2440600.784391589928418 ], [ 2918405.595208060462028, 2440602.550985192880034 ], [ 2918407.026097459718585, 2440603.858083519153297 ], [ 2918408.336088156327605, 2440604.323772388510406 ], [ 2918427.717213654890656, 2440698.539440541993827 ], [ 2918424.94970852509141, 2440716.321964951232076 ], [ 2918419.826108549255878, 2440738.498260165099055 ], [ 2918409.86398743186146, 2440753.005744369700551 ], [ 2918370.860736927948892, 2440826.434007376432419 ], [ 2918315.34613452386111, 2440831.596518053673208 ], [ 2918257.887370001059026, 2440883.268689539749175 ], [ 2918257.887370001059026, 2441568.76251478260383 ], [ 2918303.583990357816219, 2441550.028233908582479 ], [ 2918362.521250588819385, 2441531.928293365053833 ], [ 2918412.247880125883967, 2441516.925335133913904 ], [ 2918435.490363189019263, 2441506.639557807706296 ], [ 2918451.750902472063899, 2441506.711787000764161 ], [ 2918472.581914306618273, 2441516.349196299444884 ], [ 2918485.268062311224639, 2441518.792280741967261 ], [ 2918497.566558603197336, 2441514.890484624542296 ], [ 2918528.827393694780767, 2441489.736416321713477 ], [ 2918556.442818774841726, 2441460.745018442627043 ], [ 2918596.684616946149617, 2441427.806265465449542 ], [ 2918619.086569320876151, 2441416.551540423184633 ], [ 2918638.070311536081135, 2441416.423383167944849 ], [ 2918644.038692240603268, 2441417.145801355596632 ], [ 2918640.715532314032316, 2441420.272617350332439 ], [ 2918640.705233434215188, 2441420.285380937159061 ], [ 2918640.675234865862876, 2441420.310894791036844 ], [ 2918635.279302071314305, 2441425.500487293116748 ], [ 2918635.171386810019612, 2441425.63614259660244 ], [ 2918634.981894486583769, 2441425.811608543153852 ], [ 2918630.210216478910297, 2441431.246323114261031 ], [ 2918625.154580413363874, 2441436.951052080374211 ], [ 2918624.908592286519706, 2441437.286863499321043 ], [ 2918624.801264241803437, 2441437.397592545486987 ], [ 2918615.771641607396305, 2441450.215847952291369 ], [ 2918615.728250878397375, 2441450.323349429760128 ], [ 2918615.625697888433933, 2441450.434834423474967 ], [ 2918611.220791184343398, 2441457.425511868204921 ], [ 2918611.176516391336918, 2441457.54405850218609 ], [ 2918611.09375531738624, 2441457.638504257425666 ], [ 2918607.445783209521323, 2441464.102664686273783 ], [ 2918607.438487615901977, 2441464.123729539569467 ], [ 2918607.31165901850909, 2441464.356722502037883 ], [ 2918603.775204868987203, 2441471.536455928348005 ], [ 2918603.767277250997722, 2441471.561603134498 ], [ 2918603.724797557573766, 2441471.641881451476365 ], [ 2918600.520860067568719, 2441478.539178202860057 ], [ 2918600.441826418507844, 2441478.800574354827404 ], [ 2918600.279761558398604, 2441479.162060075439513 ], [ 2918598.114276790991426, 2441486.059720143675804 ], [ 2918598.084614827763289, 2441486.187704007606953 ], [ 2918598.059631758369505, 2441486.246276141144335 ], [ 2918596.137389927171171, 2441493.298193192109466 ], [ 2918596.04330223845318, 2441493.741156809031963 ], [ 2918596.032454017549753, 2441493.770600659772754 ], [ 2918594.772803664207458, 2441501.054538575001061 ], [ 2918594.774405855685472, 2441501.102256876416504 ], [ 2918594.75725507363677, 2441501.149634526111186 ], [ 2918594.715769199188799, 2441502.337233616504818 ], [ 2918595.318264527712017, 2441509.625495295040309 ], [ 2918595.442411620635539, 2441510.39491092087701 ], [ 2918595.592204438522458, 2441510.897315617650747 ], [ 2918598.156604492105544, 2441518.091945848893374 ], [ 2918598.20969657972455, 2441518.192008576355875 ], [ 2918598.284931194037199, 2441518.415583711583167 ], [ 2918601.209954320453107, 2441525.103343507274985 ], [ 2918601.259954870678484, 2441525.190340362023562 ], [ 2918601.294518088921905, 2441525.286563126835972 ], [ 2918604.691190330777317, 2441532.266014894470572 ], [ 2918604.701972712762654, 2441532.28398350533098 ], [ 2918604.707732833456248, 2441532.299715559929609 ], [ 2918607.777253710664809, 2441538.488114357925951 ], [ 2918609.868219583295286, 2441544.586996795609593 ], [ 2918611.063539921306074, 2441552.578456988092512 ], [ 2918610.86897090729326, 2441559.211890454869717 ], [ 2918610.899768627248704, 2441559.507048382423818 ], [ 2918610.890194994397461, 2441559.846091770101339 ], [ 2918611.536040241830051, 2441566.539430621080101 ], [ 2918611.206024627201259, 2441573.176328095141798 ], [ 2918610.152300192508847, 2441580.208871776238084 ], [ 2918608.450934109278023, 2441586.96516552567482 ], [ 2918606.42956775939092, 2441594.03222957579419 ], [ 2918606.424190033227205, 2441594.056911384686828 ], [ 2918606.41959410905838, 2441594.067515165545046 ], [ 2918604.350245324894786, 2441601.50504594668746 ], [ 2918602.167016986291856, 2441608.554762907326221 ], [ 2918599.860280603170395, 2441615.289117306470871 ], [ 2918599.643879945855588, 2441616.168804644607008 ], [ 2918599.648508882615715, 2441616.277611485682428 ], [ 2918599.617066376842558, 2441616.370726103894413 ], [ 2918598.833001609891653, 2441623.324757407419384 ], [ 2918598.842246503569186, 2441623.473307111300528 ], [ 2918598.807903301902115, 2441624.157219341024756 ], [ 2918599.222792442888021, 2441632.114448210224509 ], [ 2918599.320431739091873, 2441632.783221434801817 ], [ 2918599.323122219182551, 2441632.885261859279126 ], [ 2918602.364301134366542, 2441647.400673077907413 ], [ 2918602.402004194911569, 2441647.485439013689756 ], [ 2918602.406473102513701, 2441647.584815332200378 ], [ 2918609.586770831607282, 2441676.402728455141187 ], [ 2918611.192396744154394, 2441690.6385218501091 ], [ 2918611.06694725388661, 2441706.495932005345821 ], [ 2918611.074641137383878, 2441706.562576885800809 ], [ 2918611.068318204954267, 2441706.660871490836143 ], [ 2918611.417748616077006, 2441720.838399196509272 ], [ 2918610.697014328092337, 2441727.433915819041431 ], [ 2918609.68099991697818, 2441734.434967488516122 ], [ 2918609.681774980388582, 2441734.451711176894605 ], [ 2918609.630979568697512, 2441735.000188851263374 ], [ 2918609.380859460681677, 2441742.715671760030091 ], [ 2918609.394149829633534, 2441742.845479103736579 ], [ 2918609.381483978591859, 2441743.063127597328275 ], [ 2918609.664484931156039, 2441750.878635133616626 ], [ 2918609.19527117582038, 2441765.243937991559505 ], [ 2918608.312170881778002, 2441773.023284919094294 ], [ 2918607.229585811961442, 2441779.832036610692739 ], [ 2918605.177536753006279, 2441786.015695623122156 ], [ 2918598.772842104546726, 2441798.754719253163785 ], [ 2918598.769716439768672, 2441798.764444374945015 ], [ 2918598.749771887436509, 2441798.801143086515367 ], [ 2918595.308496120851487, 2441805.821928868535906 ], [ 2918595.284665137529373, 2441805.897684595547616 ], [ 2918595.180967383552343, 2441806.103366170078516 ], [ 2918592.278861001133919, 2441813.057069068774581 ], [ 2918592.154382226988673, 2441813.499579392373562 ], [ 2918592.039029062259942, 2441813.777675450779498 ], [ 2918590.256765835918486, 2441820.855425083078444 ], [ 2918590.173883131705225, 2441821.265015302691609 ], [ 2918590.169094474054873, 2441821.278095510788262 ], [ 2918588.979810575023293, 2441828.554087189026177 ], [ 2918588.980744102038443, 2441828.579041117336601 ], [ 2918588.972030417993665, 2441828.603111245669425 ], [ 2918588.923867221921682, 2441829.04389816056937 ], [ 2918588.444156782701612, 2441836.405405982863158 ], [ 2918588.446666151285172, 2441836.434954733587801 ], [ 2918588.437557805329561, 2441836.528671937528998 ], [ 2918588.130718050524592, 2441844.052094080485404 ], [ 2918588.143485326319933, 2441844.181793545838445 ], [ 2918588.129164751619101, 2441844.420392948202789 ], [ 2918588.607457967009395, 2441859.391715138219297 ], [ 2918588.733763674274087, 2441860.324707616120577 ], [ 2918588.73559358716011, 2441860.371367278043181 ], [ 2918590.458268004469573, 2441867.783629539422691 ], [ 2918590.467959406785667, 2441867.804747129790485 ], [ 2918590.468891270458698, 2441867.828480751719326 ], [ 2918590.941460675094277, 2441869.05031670909375 ], [ 2918591.070419716648757, 2441869.285752085503191 ], [ 2918591.416871951892972, 2441869.83048337791115 ], [ 2918592.847700323909521, 2441871.137707979883999 ], [ 2918594.672634063288569, 2441871.786390810273588 ], [ 2918596.61378207243979, 2441871.678034152369946 ], [ 2918598.375656203366816, 2441870.829038471914828 ], [ 2918598.758213329594582, 2441870.403911086264998 ], [ 2918604.607851654756814, 2441873.917878864333034 ], [ 2918612.004157319199294, 2441890.442953478079289 ], [ 2918614.165691070258617, 2441902.175533765461296 ], [ 2918621.844798154663295, 2441950.722087454516441 ], [ 2918620.655250822193921, 2441962.638302393257618 ], [ 2918625.70111422939226, 2441972.259453473147005 ], [ 2918635.036505348980427, 2442010.817719218786806 ], [ 2918722.047130624298006, 2442025.195477548055351 ], [ 2918739.302595549728721, 2442020.733981327153742 ], [ 2918769.234578339383006, 2442004.117819383274764 ], [ 2918788.924477352760732, 2441992.881275924853981 ], [ 2918852.834745164494962, 2441985.037363751325756 ], [ 2918890.389980863779783, 2441991.230297931469977 ], [ 2918924.98978700581938, 2441993.893253630958498 ], [ 2918960.123419001698494, 2441987.541082598734647 ], [ 2918981.091391839087009, 2441975.974096633959562 ], [ 2919040.810723105445504, 2441958.17721698153764 ], [ 2919152.603412922471762, 2441951.493466550018638 ], [ 2919200.361921572126448, 2441946.934616762213409 ], [ 2919266.797978608869016, 2441941.428061505313963 ], [ 2919324.702764184214175, 2441955.481400395277888 ], [ 2919328.465400229673833, 2441940.168654308654368 ], [ 2919340.086399432271719, 2441920.791032372508198 ], [ 2919355.008235847577453, 2441903.943374493625015 ], [ 2919368.71887472551316, 2441879.230109361931682 ], [ 2919379.616923510562629, 2441870.949635121505708 ], [ 2919406.770260985009372, 2441865.29514292627573 ], [ 2919425.165251319296658, 2441857.124975145794451 ], [ 2919445.027615283615887, 2441843.795698198955506 ], [ 2919466.840766815468669, 2441824.499027032870799 ], [ 2919472.954055587761104, 2441816.089921338949353 ], [ 2919481.018174382857978, 2441801.713712646625936 ], [ 2919487.167660577222705, 2441788.405377835035324 ], [ 2919487.871055329218507, 2441776.72481104079634 ], [ 2919483.94799546059221, 2441766.130603195168078 ], [ 2919476.673773196525872, 2441755.719885268248618 ] ] ], [ [ [ 2918337.719634959474206, 2446366.024009457789361 ], [ 2918361.66784347128123, 2446357.065626455936581 ], [ 2918372.854182944633067, 2446349.334240571130067 ], [ 2918387.465293867979199, 2446335.878852933179587 ], [ 2918401.520870896987617, 2446334.317152260802686 ], [ 2918419.739222638309002, 2446338.590752885211259 ], [ 2918443.637715440243483, 2446337.939246822148561 ], [ 2918458.149393145926297, 2446341.097963039297611 ], [ 2918482.960238120518625, 2446349.887048055883497 ], [ 2918507.837317429948598, 2446347.600200116168708 ], [ 2918516.10473230201751, 2446342.006197371985763 ], [ 2918549.763580624945462, 2446356.109852164518088 ], [ 2918557.641163461841643, 2446334.719605007208884 ], [ 2918570.137762072496116, 2446323.884741398040205 ], [ 2918585.486819745507091, 2446321.988619467243552 ], [ 2918598.389837387483567, 2446324.180995659902692 ], [ 2918613.498603657819331, 2446335.479394507594407 ], [ 2918644.155621807556599, 2446365.56542843952775 ], [ 2918664.422278033569455, 2446378.294480464421213 ], [ 2918681.48799659544602, 2446386.322207171935588 ], [ 2918691.50531601626426, 2446385.113905481062829 ], [ 2918699.598597797099501, 2446381.638515147380531 ], [ 2918715.975987940095365, 2446369.800015939865261 ], [ 2918731.963578807655722, 2446342.165368070360273 ], [ 2918735.753236387390643, 2446329.435501960106194 ], [ 2918741.972630991600454, 2446315.385910744778812 ], [ 2918747.694344753399491, 2446276.582917060703039 ], [ 2918750.555106106214225, 2446257.181390572804958 ], [ 2918755.953450323548168, 2446245.41770629491657 ], [ 2918766.912071553990245, 2446241.962503213435411 ], [ 2918768.433541368693113, 2446237.351896603126079 ], [ 2918736.069969958625734, 2446218.039176219142973 ], [ 2918704.442195704672486, 2446193.189382886514068 ], [ 2918693.789957109838724, 2446181.388973990920931 ], [ 2918701.843124242499471, 2446168.66983338072896 ], [ 2918696.725143671035767, 2446149.839930524118245 ], [ 2918694.918491830118001, 2446123.995787055697292 ], [ 2918698.988711182028055, 2446099.430808199569583 ], [ 2918707.693278676830232, 2446087.102800346910954 ], [ 2918738.058688854333013, 2446060.776103666983545 ], [ 2918744.591278918553144, 2446047.682504919357598 ], [ 2918745.935272577218711, 2446048.909994747489691 ], [ 2918747.760211423039436, 2446049.558692245278507 ], [ 2918748.619097435846925, 2446049.605868188664317 ], [ 2918756.992763665504754, 2446049.334575707092881 ], [ 2918758.074942352250218, 2446049.178851467557251 ], [ 2918758.224854198284447, 2446049.106527430936694 ], [ 2918758.364716887939721, 2446049.094425234943628 ], [ 2918767.54450704343617, 2446046.11863704258576 ], [ 2918769.016475887037814, 2446045.353866354562342 ], [ 2918769.028733968734741, 2446045.340134458150715 ], [ 2918769.0450060069561, 2446045.332281729672104 ], [ 2918784.558512081392109, 2446033.510940231848508 ], [ 2918784.572630797047168, 2446033.495037751737982 ], [ 2918785.107604700140655, 2446033.026108902413398 ], [ 2918799.961247019469738, 2446017.877505022101104 ], [ 2918800.136863879859447, 2446017.649942898191512 ], [ 2918800.316170332022011, 2446017.475313989911228 ], [ 2918815.599770971573889, 2445998.201694631483406 ], [ 2918815.60605228645727, 2445998.192715625744313 ], [ 2918815.609954065643251, 2445998.188850099686533 ], [ 2918826.086624152958393, 2445984.889449686743319 ], [ 2918837.36467482149601, 2445974.977341260295361 ], [ 2918841.719019949436188, 2445973.507324560545385 ], [ 2918847.591985757928342, 2445973.063967808149755 ], [ 2918861.413211329840124, 2445975.927998910658062 ], [ 2918866.835052506066859, 2445978.384440089575946 ], [ 2918877.198703144676983, 2445985.007282957434654 ], [ 2918877.213130461983383, 2445985.01258374704048 ], [ 2918877.225834369193763, 2445985.024505778215826 ], [ 2918882.046288623474538, 2445988.060463978443295 ], [ 2918882.094314309768379, 2445988.078145224135369 ], [ 2918882.134258087724447, 2445988.114594127051532 ], [ 2918883.779824289027601, 2445988.697367845103145 ], [ 2918883.959200726822019, 2445988.763295318931341 ], [ 2918883.965020549949259, 2445988.763046794105321 ], [ 2918883.970385663677007, 2445988.764915682375431 ], [ 2918886.53391345217824, 2445989.126630198676139 ], [ 2918886.574962026439607, 2445989.12432540487498 ], [ 2918888.060908886604011, 2445989.103126361966133 ], [ 2918890.542436808347702, 2445988.676420394331217 ], [ 2918890.945343065075576, 2445988.589858274441212 ], [ 2918892.195584006607533, 2445988.078463894315064 ], [ 2918901.346024078316987, 2445982.803682869300246 ], [ 2918901.567650015465915, 2445982.65733888046816 ], [ 2918901.61965480260551, 2445982.634114270564169 ], [ 2918905.479979381896555, 2445980.068316973745823 ], [ 2918905.574299968779087, 2445979.969317571260035 ], [ 2918905.717857179231942, 2445979.900086578913033 ], [ 2918906.812210875563323, 2445978.776205997914076 ], [ 2918911.141509961336851, 2445972.683097507338971 ], [ 2918911.361292027402669, 2445972.346669496502727 ], [ 2918911.766717148013413, 2445971.50213578902185 ], [ 2918914.708821763284504, 2445963.58784545538947 ], [ 2918915.195922140963376, 2445963.046483541838825 ], [ 2918915.862328008748591, 2445961.196921044029295 ], [ 2918915.896165390033275, 2445959.925342791713774 ], [ 2918914.869598984252661, 2445949.626362645532936 ], [ 2918918.137449452653527, 2445944.923028614837676 ], [ 2918931.50405039684847, 2445931.817460675258189 ], [ 2918931.594506261870265, 2445931.702586350031197 ], [ 2918931.747507888823748, 2445931.561647950671613 ], [ 2918941.080003803130239, 2445921.049325420055538 ], [ 2918941.643942821770906, 2445920.28012249013409 ], [ 2918942.040541835129261, 2445919.458968478254974 ], [ 2918944.134538476355374, 2445913.908954042941332 ], [ 2918944.404249496757984, 2445912.880563954822719 ], [ 2918944.445063789375126, 2445911.684613264165819 ], [ 2918943.796716489829123, 2445904.01178354723379 ], [ 2918943.764021155424416, 2445903.809428006410599 ], [ 2918943.764456869103014, 2445903.726141207385808 ], [ 2918941.437193708494306, 2445887.367984401062131 ], [ 2918943.363777075894177, 2445877.201026871334761 ], [ 2918948.030900707934052, 2445864.457530749496073 ], [ 2918956.981718398630619, 2445844.474938359577209 ], [ 2918968.439030222594738, 2445829.636077620554715 ], [ 2918980.116447213105857, 2445819.761584024876356 ], [ 2918992.548487786203623, 2445813.361748680006713 ], [ 2918993.270439683459699, 2445812.909249275457114 ], [ 2918993.387212589383125, 2445812.779501285869628 ], [ 2918993.516892530489713, 2445812.711888103745878 ], [ 2919004.390589822549373, 2445803.436756499111652 ], [ 2919013.086821756325662, 2445798.171668321825564 ], [ 2919013.504995209164917, 2445797.8891537534073 ], [ 2919014.323831162415445, 2445797.118895930703729 ], [ 2919020.432055308483541, 2445789.947661886923015 ], [ 2919020.896184095647186, 2445789.300840028561652 ], [ 2919020.911119621247053, 2445789.28438167180866 ], [ 2919029.029752616770566, 2445775.902977029327303 ], [ 2919041.688226121477783, 2445760.461309562902898 ], [ 2919041.741952992044389, 2445760.384876261465251 ], [ 2919041.775355390273035, 2445760.351925323251635 ], [ 2919053.490648033097386, 2445745.23560750298202 ], [ 2919053.836956352926791, 2445744.728592003230006 ], [ 2919054.148848031181842, 2445744.11779707018286 ], [ 2919058.200454490724951, 2445734.670310481451452 ], [ 2919058.223537295125425, 2445734.589501939248294 ], [ 2919058.281094245612621, 2445734.470664273947477 ], [ 2919064.905998911708593, 2445717.031478214077652 ], [ 2919069.799658544361591, 2445704.603798137046397 ], [ 2919071.021939388941973, 2445704.538368082139641 ], [ 2919072.783620584756136, 2445703.689296626951545 ], [ 2919074.097737558186054, 2445702.228794972877949 ], [ 2919074.764172716066241, 2445700.379334099125117 ], [ 2919074.681575120426714, 2445698.422258133534342 ], [ 2919073.862373773008585, 2445696.655780074186623 ], [ 2919072.431305009871721, 2445695.348662700504065 ], [ 2919070.629332032054663, 2445694.703189018182456 ], [ 2919055.050032272003591, 2445692.393141849897802 ], [ 2919033.943368336651474, 2445689.195103896781802 ], [ 2919020.925512300804257, 2445686.456293606199324 ], [ 2919009.892838433850557, 2445681.296016714069992 ], [ 2919009.31042090151459, 2445681.12228712439537 ], [ 2919008.887002723291516, 2445680.953002005349845 ], [ 2919003.737785379402339, 2445679.80241467198357 ], [ 2919001.324281957000494, 2445654.817665330134332 ], [ 2918999.74512467905879, 2445597.599606222007424 ], [ 2919045.252566364593804, 2445557.134309125132859 ], [ 2919044.824793228879571, 2445546.748537882696837 ], [ 2919051.273354174569249, 2445507.293617493938655 ], [ 2919057.478246614336967, 2445485.92253200057894 ], [ 2919061.223585224710405, 2445456.436970763839781 ], [ 2919071.592399483546615, 2445444.658743447624147 ], [ 2919083.892096536234021, 2445437.979164103977382 ], [ 2919090.969750360585749, 2445429.85102215455845 ], [ 2919105.016476144082844, 2445404.525975537486374 ], [ 2919110.818108643405139, 2445391.129721646662802 ], [ 2919119.625753520056605, 2445367.159479269292206 ], [ 2919148.30628807656467, 2445327.5538389692083 ], [ 2919181.60878737596795, 2445289.65473546879366 ], [ 2919194.84472284372896, 2445281.231002987362444 ], [ 2919211.216261909343302, 2445276.997387232258916 ], [ 2919228.880695177707821, 2445275.228563257493079 ], [ 2919284.174508194439113, 2445267.927510311827064 ], [ 2919299.613875458016992, 2445270.271198739763349 ], [ 2919308.421746111474931, 2445246.301069663371891 ], [ 2919331.612167187035084, 2445195.519606543704867 ], [ 2919343.165166674181819, 2445177.137512306217104 ], [ 2919347.833672882989049, 2445161.935187657363713 ], [ 2919347.456662508659065, 2445143.139131259638816 ], [ 2919336.526690832804888, 2445112.377204525284469 ], [ 2919325.3694315594621, 2445092.170329113956541 ], [ 2919315.488279772922397, 2445077.231553157325834 ], [ 2919310.510247815400362, 2445062.42432221584022 ], [ 2919309.28516440000385, 2445048.746078024618328 ], [ 2919307.843274280428886, 2445018.870585323311388 ], [ 2919309.236529071815312, 2445002.57467086892575 ], [ 2919316.23925837688148, 2444979.77121021412313 ], [ 2919318.885317259002477, 2444947.597969747148454 ], [ 2919315.695435273926705, 2444934.427671834826469 ], [ 2919295.263961791060865, 2444852.941301879473031 ], [ 2919286.298801861703396, 2444821.671191014349461 ], [ 2919266.570578021928668, 2444786.186897051986307 ], [ 2919251.307969160843641, 2444769.140846308320761 ], [ 2919212.639553789049387, 2444730.157034758478403 ], [ 2919184.859541936777532, 2444701.653061073739082 ], [ 2919167.272582405712456, 2444663.515755981672555 ], [ 2919160.414663085713983, 2444635.199620456900448 ], [ 2919159.006191933061928, 2444597.777022009715438 ], [ 2919160.854927251115441, 2444562.311253193765879 ], [ 2919169.741075768135488, 2444522.193492752034217 ], [ 2919167.223020409233868, 2444482.292116245254874 ], [ 2919159.988506362307817, 2444435.180161240510643 ], [ 2919154.104705075733364, 2444408.011773832142353 ], [ 2919148.010489199310541, 2444388.59497684519738 ], [ 2919129.205780048854649, 2444362.668461824767292 ], [ 2919112.592894494533539, 2444325.678759749047458 ], [ 2919111.880210577510297, 2444308.369254527613521 ], [ 2919102.813711753115058, 2444293.919669021852314 ], [ 2919091.446749773807824, 2444281.464382594451308 ], [ 2919085.12534929253161, 2444272.602683182805777 ], [ 2919089.760372237302363, 2444263.007198919542134 ], [ 2919104.007948775775731, 2444258.623265009373426 ], [ 2919140.572217360138893, 2444240.071649995166808 ], [ 2919147.154957645572722, 2444232.771480358671397 ], [ 2919147.222788383252919, 2444221.557970993686467 ], [ 2919143.168045409955084, 2444216.308709218166769 ], [ 2919118.703617891296744, 2444207.240117370150983 ], [ 2919094.449533477425575, 2444190.419871018733829 ], [ 2919062.740968029946089, 2444162.931833757087588 ], [ 2919028.959079727530479, 2444126.882952842861414 ], [ 2919011.287579552270472, 2444102.762600273359567 ], [ 2918999.727316152304411, 2444095.255565289407969 ], [ 2918981.282189747784287, 2444090.92828468978405 ], [ 2918973.491846192628145, 2444081.746684251353145 ], [ 2918969.504755101632327, 2444065.283869263250381 ], [ 2918965.1990308444947, 2444047.503970165736973 ], [ 2918954.748270330484957, 2444018.717501771170646 ], [ 2918944.484470170456916, 2443959.093700669705868 ], [ 2918938.936879163607955, 2443930.43885503243655 ], [ 2918925.062833109870553, 2443873.148035302292556 ], [ 2918889.693125091958791, 2443856.403157163411379 ], [ 2918870.274113352876157, 2443850.928173177875578 ], [ 2918829.899583970662206, 2443850.871948890388012 ], [ 2918805.396820805035532, 2443847.698416782543063 ], [ 2918784.126298190560192, 2443851.511983401142061 ], [ 2918772.355606647208333, 2443851.756571380421519 ], [ 2918757.293448525480926, 2443855.651279483921826 ], [ 2918713.627419789321721, 2443859.24516470124945 ], [ 2918684.863849127199501, 2443858.285881015006453 ], [ 2918634.381085161119699, 2443853.845971202943474 ], [ 2918608.077707450836897, 2443851.550781847909093 ], [ 2918548.250321599654853, 2443851.626616721507162 ], [ 2918498.086584567092359, 2443848.503742887172848 ], [ 2918485.324959605932236, 2443850.404198169708252 ], [ 2918449.10704514849931, 2443838.777001808397472 ], [ 2918393.646704325452447, 2443819.530077080707997 ], [ 2918368.510447460692376, 2443813.434331201482564 ], [ 2918318.859223168808967, 2443806.68038216419518 ], [ 2918257.887370001059026, 2443796.132345146033913 ], [ 2918257.887370001059026, 2446341.209391438402236 ], [ 2918337.719634959474206, 2446366.024009457789361 ] ] ], [ [ [ 2927249.361140905879438, 2451918.875875804107636 ], [ 2925765.226128286682069, 2452302.623841351363808 ], [ 2926120.454278986901045, 2453777.573202989064157 ], [ 2927608.21353473700583, 2453399.216385900042951 ], [ 2927249.361140905879438, 2451918.875875804107636 ] ] ] ] } }
]
}
