{
"type": "FeatureCollection",
"name": "Dozón",
"crs": { "type": "name", "properties": { "name": "urn:ogc:def:crs:EPSG::3035" } },
"features": [
{ "type": "Feature", "properties": { "ENP_GRAL": 3.0, "ENP_GRAL_NAME": "Monumentos Naturales", "color": "#AAFF00" }, "geometry": { "type": "Polygon", "coordinates": [ [ [ 2848329.913987183943391, 2348342.295419964939356 ], [ 2848339.451315003447235, 2348348.03562943264842 ], [ 2848351.762705561704934, 2348361.567987338639796 ], [ 2848355.047477400861681, 2348378.968507446348667 ], [ 2848359.315221453085542, 2348417.05198750179261 ], [ 2848362.521569286007434, 2348424.12453475734219 ], [ 2848366.112037230283022, 2348427.755001987330616 ], [ 2848373.403102609328926, 2348430.429081176873296 ], [ 2848397.176371539011598, 2348427.091023784130812 ], [ 2848415.112620517611504, 2348430.300420877989382 ], [ 2848430.73303631786257, 2348443.876649472862482 ], [ 2848436.266038003377616, 2348453.081454621162266 ], [ 2848441.913910640403628, 2348465.297092618886381 ], [ 2848446.834581010043621, 2348479.523748389445245 ], [ 2848454.583873048424721, 2348511.861008387058973 ], [ 2848465.742481838911772, 2348535.719835355877876 ], [ 2848474.394656758755445, 2348545.33551368303597 ], [ 2848474.785515314899385, 2348549.489130671136081 ], [ 2848490.111855161376297, 2348559.20344251813367 ], [ 2848499.021602573804557, 2348563.586460809689015 ], [ 2848510.514071431942284, 2348564.870975211728364 ], [ 2848536.993774548172951, 2348565.624911515042186 ], [ 2848546.613786389119923, 2348561.619371745735407 ], [ 2848570.212096251547337, 2348556.524414446204901 ], [ 2848586.530848745256662, 2348552.063327760435641 ], [ 2848591.787214754149318, 2348539.308939285110682 ], [ 2848586.498034962452948, 2348522.36385772516951 ], [ 2848619.50273839617148, 2348453.134603902697563 ], [ 2848606.159398097079247, 2348414.797713101375848 ], [ 2848582.092859495431185, 2348405.822690279223025 ], [ 2848493.564121629111469, 2348378.559054797980934 ], [ 2848501.838594851084054, 2348365.78446151688695 ], [ 2848517.653028645552695, 2348356.732713978737593 ], [ 2848531.475582361686975, 2348345.96967890765518 ], [ 2848451.291022130753845, 2348287.300133528653532 ], [ 2848424.578361944295466, 2348297.242420851252973 ], [ 2848396.613736791536212, 2348308.267940890975296 ], [ 2848392.002833164297044, 2348276.411255139391869 ], [ 2848398.173336775507778, 2348250.125535303261131 ], [ 2848350.336052705999464, 2348244.648547128774226 ], [ 2848348.409445906989276, 2348272.607636599801481 ], [ 2848344.982520663179457, 2348294.640721852891147 ], [ 2848339.819610565900803, 2348317.247399460524321 ], [ 2848332.305745453108102, 2348338.737320702522993 ], [ 2848329.913987183943391, 2348342.295419964939356 ] ] ] } },
{ "type": "Feature", "properties": { "ENP_GRAL": 5.0, "ENP_GRAL_NAME": "Espacios Protegidos Red Natura 2000", "color": "#A87000" }, "geometry": { "type": "MultiPolygon", "coordinates": [ [ [ [ 2857627.705362004693598, 2334953.989777116570622 ], [ 2857627.345544471405447, 2334994.30128878634423 ], [ 2857623.234328933991492, 2335037.296752002090216 ], [ 2857915.960289193317294, 2334952.850740000605583 ], [ 2857627.65471123252064, 2334952.850740000605583 ], [ 2857627.705362004693598, 2334953.989777116570622 ] ] ], [ [ [ 2858488.414485516026616, 2334971.871923313476145 ], [ 2858475.699041081592441, 2334974.482556468807161 ], [ 2858457.552715938538313, 2334971.121040407568216 ], [ 2858456.152150854468346, 2334987.569645167794079 ], [ 2858456.914570873603225, 2335007.482094920240343 ], [ 2858467.049048526212573, 2335030.041641153860837 ], [ 2858500.290050093084574, 2335063.320686764083803 ], [ 2858518.769467888399959, 2335082.013343315571547 ], [ 2858528.024825195316225, 2335098.393719804473221 ], [ 2858531.513484164141119, 2335146.4258559695445 ], [ 2858536.161956547293812, 2335157.392671824898571 ], [ 2858598.33040648791939, 2335213.99161841487512 ], [ 2858653.684751237742603, 2335222.15180480433628 ], [ 2858663.966462523676455, 2335228.883279787842184 ], [ 2858678.573706743773073, 2335242.542147341184318 ], [ 2858732.717026647180319, 2335292.237678738310933 ], [ 2858812.44441109476611, 2335364.483921500854194 ], [ 2858865.71796, 2335392.739322287496179 ], [ 2858865.71796, 2334952.850740000605583 ], [ 2858497.615586484316736, 2334952.850740000605583 ], [ 2858488.414485516026616, 2334971.871923313476145 ] ] ] ] } }
]
}
