{
"type": "FeatureCollection",
"name": "Pesaguero",
"crs": { "type": "name", "properties": { "name": "urn:ogc:def:crs:EPSG::3035" } },
"features": [
{ "type": "Feature", "properties": { "ENP_GRAL": 1.0, "ENP_GRAL_NAME": "Otros Parques", "color": "#38A800" }, "geometry": { "type": "Polygon", "coordinates": [ [ [ 3148365.605901008471847, 2329889.099919392727315 ], [ 3148372.208750503603369, 2329889.311912330798805 ], [ 3148379.865809704177082, 2329889.557675810530782 ], [ 3148396.138040876016021, 2329890.079942901618779 ], [ 3148433.430261263623834, 2329870.249053186737001 ], [ 3148450.001475205179304, 2329872.382590047083795 ], [ 3148496.261625228915364, 2329882.443956401664764 ], [ 3148544.966504516080022, 2329901.211972998455167 ], [ 3148554.433153464458883, 2329904.039080764167011 ], [ 3148559.892074167728424, 2329905.669326239731163 ], [ 3148584.331562764942646, 2329912.498702044598758 ], [ 3148613.209584191441536, 2329915.492320437449962 ], [ 3148629.954901431687176, 2329912.516603056807071 ], [ 3148653.203441665507853, 2329900.615551072172821 ], [ 3148666.424373806454241, 2329893.847663542721421 ], [ 3148703.631529913283885, 2329892.485948379151523 ], [ 3148716.810682635754347, 2329892.003674255218357 ], [ 3148717.461819256655872, 2329892.297179974149913 ], [ 3148750.752238989807665, 2329907.30129939969629 ], [ 3148837.975738284643739, 2329950.710553043521941 ], [ 3148853.162191237322986, 2329954.063185708597302 ], [ 3148904.248945631552488, 2329965.341273560654372 ], [ 3148915.43234547553584, 2329953.19727471517399 ], [ 3148927.450482875108719, 2329933.795248904265463 ], [ 3148939.79620386660099, 2329922.412450007628649 ], [ 3148954.742426089942455, 2329908.632089459802955 ], [ 3148961.520440184511244, 2329880.057553999591619 ], [ 3148967.318588366732001, 2329855.613793710246682 ], [ 3148975.918977631255984, 2329821.584075585007668 ], [ 3148976.734125242102891, 2329820.998425359837711 ], [ 3149002.214071116410196, 2329802.692141114734113 ], [ 3149043.969045074656606, 2329766.833700562361628 ], [ 3149097.281012559309602, 2329726.50065609999001 ], [ 3149108.89006737107411, 2329717.717827531974763 ], [ 3149112.481261087581515, 2329714.553523519542068 ], [ 3149175.30665878392756, 2329659.19532144581899 ], [ 3149203.595845157280564, 2329627.761205153539777 ], [ 3149268.913281749468297, 2329544.042662720195949 ], [ 3149280.516879576258361, 2329485.103421413339674 ], [ 3149294.589127594605088, 2329422.678672612644732 ], [ 3149323.250796679407358, 2329368.833920629229397 ], [ 3149327.460894921794534, 2329314.25552162155509 ], [ 3149491.264311893843114, 2329138.89474898763001 ], [ 3149515.514208137057722, 2329112.491059734486043 ], [ 3149521.361932010389864, 2329106.124066987074912 ], [ 3149523.01721684448421, 2329097.6028917953372 ], [ 3149530.149209410417825, 2329060.889394113328308 ], [ 3149542.191898623015732, 2329029.29536533774808 ], [ 3149569.394662078935653, 2328966.56931750709191 ], [ 3149588.879388206172734, 2328906.230326974764466 ], [ 3149614.064087704755366, 2328868.238778843544424 ], [ 3149647.534725659526885, 2328807.815907944459468 ], [ 3149685.12365, 2328739.023651513271034 ], [ 3149685.12365, 2325733.775649999734014 ], [ 3133954.773950000759214, 2325733.775649999734014 ], [ 3133954.773950000759214, 2329123.098597388714552 ], [ 3134112.78407867019996, 2329140.469186408445239 ], [ 3134150.502619693055749, 2329154.06899578217417 ], [ 3134197.260648549068719, 2329160.981316317804158 ], [ 3134223.669646350666881, 2329167.453326403163373 ], [ 3134247.321867513470352, 2329157.149393710307777 ], [ 3134280.546064497437328, 2329143.099872761871666 ], [ 3134280.549004023894668, 2329143.098638583905995 ], [ 3134313.676084905862808, 2329129.090297906659544 ], [ 3134350.218681328929961, 2329135.536413586698472 ], [ 3134388.966403578408062, 2329164.063973417039961 ], [ 3134388.970090518705547, 2329164.066669190302491 ], [ 3134448.258573446422815, 2329207.71710912277922 ], [ 3134482.675012767314911, 2329232.061085600405931 ], [ 3134580.187969410791993, 2329301.035614300984889 ], [ 3134722.026120052672923, 2329362.121986214071512 ], [ 3134771.217543916776776, 2329383.835753514897078 ], [ 3134813.861642713658512, 2329396.559376855380833 ], [ 3134850.770396741107106, 2329405.226027711294591 ], [ 3134863.128516087774187, 2329403.994527109432966 ], [ 3134863.132110295817256, 2329403.994192192330956 ], [ 3134915.605951063334942, 2329398.765364293940365 ], [ 3134947.828850688412786, 2329421.557650627568364 ], [ 3134947.831931649707258, 2329421.559743259567767 ], [ 3134967.23078674543649, 2329435.281309846788645 ], [ 3135020.782787811011076, 2329453.160453422926366 ], [ 3135045.238161233719438, 2329461.325216181110591 ], [ 3135155.016824153717607, 2329498.348069370724261 ], [ 3135229.545015734620392, 2329550.847092323005199 ], [ 3135321.363680726848543, 2329616.011282777879387 ], [ 3135330.34459166135639, 2329639.804533903021365 ], [ 3135353.22950422251597, 2329686.512921794783324 ], [ 3135413.024361590854824, 2329741.888079925905913 ], [ 3135505.671655847691, 2329781.260781971272081 ], [ 3135591.539988316595554, 2329847.23121367348358 ], [ 3135613.707566491793841, 2329883.403096345253289 ], [ 3135657.244287115521729, 2329901.55499256355688 ], [ 3135730.799944379366934, 2329953.583667142316699 ], [ 3135730.80946543905884, 2329953.590403505135328 ], [ 3135737.54991976544261, 2329958.358206654898822 ], [ 3135794.008438428863883, 2329918.863089620601386 ], [ 3135830.689896152354777, 2329879.613119603600353 ], [ 3135851.625471117906272, 2329832.038941667415202 ], [ 3135929.566651185508817, 2329757.092431611381471 ], [ 3135940.709381774067879, 2329670.046414490789175 ], [ 3135978.507457961328328, 2329617.492867699358612 ], [ 3136003.45345133729279, 2329582.808523973450065 ], [ 3136043.484722608700395, 2329527.150167028419673 ], [ 3136080.272044468671083, 2329488.535801007412374 ], [ 3136115.835450539831072, 2329426.579214636702091 ], [ 3136165.248666064348072, 2329369.357297365088016 ], [ 3136229.33135284576565, 2329329.812971014063805 ], [ 3136260.907745567150414, 2329281.242098903283477 ], [ 3136316.203625741880387, 2329233.460746044758707 ], [ 3136385.840990547090769, 2329203.526485925540328 ], [ 3136390.201691685244441, 2329202.360836437903345 ], [ 3136420.12742910720408, 2329194.361747127957642 ], [ 3136494.040476634167135, 2329174.605074729770422 ], [ 3136492.792929036542773, 2329035.450374315492809 ], [ 3136545.65831078030169, 2328977.039936405140907 ], [ 3136711.118531920481473, 2328794.22578766848892 ], [ 3136831.366831248626113, 2328661.366930768825114 ], [ 3136897.236700600944459, 2328588.589746742509305 ], [ 3137016.718033025972545, 2328574.531272738240659 ], [ 3137115.791790122166276, 2328563.39999530557543 ], [ 3137406.926034067757428, 2328530.691172251943499 ], [ 3137485.451440476346761, 2328557.258512374013662 ], [ 3137485.45486793667078, 2328557.25962932407856 ], [ 3137520.387440711259842, 2328569.078352473210543 ], [ 3137570.629434737376869, 2328568.703383265528828 ], [ 3137646.325458366423845, 2328555.136680297553539 ], [ 3137733.949329616501927, 2328525.912523239385337 ], [ 3137809.764590083621442, 2328515.927210924681276 ], [ 3137918.852384777739644, 2328519.822927643544972 ], [ 3138054.606556222774088, 2328512.914709702599794 ], [ 3138157.369536314159632, 2328526.770051506347954 ], [ 3138183.001503709703684, 2328488.900868162512779 ], [ 3138183.004021678119898, 2328488.897068366408348 ], [ 3138202.425922086462379, 2328460.202813889365643 ], [ 3138231.614830210339278, 2328417.078516548499465 ], [ 3138284.352893329225481, 2328382.700286041013896 ], [ 3138355.854055077768862, 2328336.0912801688537 ], [ 3138379.591738333459944, 2328325.172498406842351 ], [ 3138394.774398877751082, 2328318.188910020515323 ], [ 3138464.457487875595689, 2328264.40605077939108 ], [ 3138560.847581033594906, 2328137.176031145267189 ], [ 3138608.851612477563322, 2328078.67660475242883 ], [ 3138781.716402880847454, 2327944.220812490209937 ], [ 3138781.723141075577587, 2327944.215551075991243 ], [ 3138819.672447627410293, 2327914.698480477090925 ], [ 3138878.091460090596229, 2327869.260153143666685 ], [ 3138924.536255090963095, 2327822.350157254375517 ], [ 3138924.545215896330774, 2327822.341148683801293 ], [ 3138932.578529621474445, 2327814.22734458791092 ], [ 3138948.83918737526983, 2327754.115873924456537 ], [ 3138954.980334822554141, 2327731.413969785906374 ], [ 3139014.734515032730997, 2327691.782401350326836 ], [ 3139039.239221628755331, 2327675.529873909428716 ], [ 3139072.812508594244719, 2327636.843898809980601 ], [ 3139073.578840361442417, 2327635.960945758037269 ], [ 3139082.072412997949868, 2327585.416656030807644 ], [ 3139150.036621307954192, 2327513.222571170888841 ], [ 3139177.32156817195937, 2327445.78528064256534 ], [ 3139252.825604540295899, 2327466.337993535213172 ], [ 3139281.045403243042529, 2327474.019674701616168 ], [ 3139307.436007010750473, 2327483.035414223559201 ], [ 3139380.046596014872193, 2327507.841116125229746 ], [ 3139415.34633317636326, 2327538.121505265589803 ], [ 3139453.514642470981926, 2327585.861497058533132 ], [ 3139501.553967691957951, 2327656.011612228117883 ], [ 3139549.476652865298092, 2327720.059864715673029 ], [ 3139595.558836320415139, 2327783.908671913668513 ], [ 3139645.860411766916513, 2327835.774389429017901 ], [ 3139670.590738372411579, 2327845.552788109518588 ], [ 3139711.080685732886195, 2327861.562749111093581 ], [ 3139983.549512002617121, 2328041.844337279442698 ], [ 3140538.385792903602123, 2328408.95853318925947 ], [ 3140794.154664527624846, 2328578.191811930388212 ], [ 3140794.1845748052001, 2328578.211580409202725 ], [ 3140834.46204891661182, 2328604.861814951058477 ], [ 3141172.267625273671001, 2328833.176078928634524 ], [ 3141479.236360894050449, 2329040.649076946079731 ], [ 3141693.627196694724262, 2329186.878283979836851 ], [ 3142102.140998021233827, 2329465.513325006235391 ], [ 3142126.752565254922956, 2329482.300160945393145 ], [ 3142793.984159481711686, 2329937.400929239578545 ], [ 3142961.084806579165161, 2329876.959957292303443 ], [ 3143234.429717279970646, 2329630.71432523522526 ], [ 3143508.728014199063182, 2329383.614291808567941 ], [ 3143572.427883369382471, 2329337.794483039528131 ], [ 3143751.813660279847682, 2329208.762020751833916 ], [ 3143863.479030930437148, 2329128.441589828580618 ], [ 3143863.506852952297777, 2329128.421509550884366 ], [ 3143864.669094670563936, 2329127.585552209988236 ], [ 3143929.023797643370926, 2329081.295823493041098 ], [ 3144133.009601393714547, 2328934.571829676628113 ], [ 3144174.168928462546319, 2328894.879945663269609 ], [ 3144206.220831980928779, 2328863.970796480774879 ], [ 3144386.117179040797055, 2328690.489899573847651 ], [ 3144638.459540560375899, 2328450.753539070487022 ], [ 3144810.167543632909656, 2328554.338040316477418 ], [ 3145020.598689300473779, 2328520.305046162568033 ], [ 3145332.557989031076431, 2328469.853572970256209 ], [ 3145691.715523177757859, 2328411.771307284478098 ], [ 3145692.180642095394433, 2328411.69604669092223 ], [ 3145692.196549248881638, 2328411.693523890804499 ], [ 3145696.536142740398645, 2328410.991733831353486 ], [ 3146052.517419680487365, 2328314.151488883420825 ], [ 3146053.774568284861743, 2328313.809510715771466 ], [ 3146066.908483035862446, 2328310.236643645912409 ], [ 3146289.070639427285641, 2328249.801766479387879 ], [ 3146289.157487344928086, 2328351.330994790419936 ], [ 3146289.289911880157888, 2328505.671293087303638 ], [ 3146289.305531166493893, 2328523.869290938600898 ], [ 3146474.818337809294462, 2328848.393842625431716 ], [ 3146585.890680707525462, 2329042.69566034572199 ], [ 3146588.678995093330741, 2329047.573407944757491 ], [ 3146686.318518005311489, 2329218.376261761412024 ], [ 3146877.046946450136602, 2329552.019456228241324 ], [ 3146891.987961522303522, 2329567.59464285383001 ], [ 3146961.090069037862122, 2329639.629828532692045 ], [ 3147277.166933932341635, 2329969.122268138453364 ], [ 3147277.179037285968661, 2329969.13484437065199 ], [ 3147490.74543558806181, 2330191.76540561625734 ], [ 3147605.970590478274971, 2330255.873117471113801 ], [ 3147706.997554154135287, 2330374.730618218891323 ], [ 3147729.879716948606074, 2330401.651418990921229 ], [ 3147771.575628029182553, 2330450.706333948299289 ], [ 3147795.657927479594946, 2330479.03895756509155 ], [ 3147800.507759382016957, 2330475.68555927881971 ], [ 3147820.964875589124858, 2330461.54048805590719 ], [ 3147849.241037918254733, 2330436.201537255197763 ], [ 3147853.298795140348375, 2330428.991804837714881 ], [ 3147862.579936131834984, 2330412.501613926608115 ], [ 3147867.468557368963957, 2330401.141830121632665 ], [ 3147877.251876636408269, 2330378.40798481926322 ], [ 3147878.725775904022157, 2330373.613972808234394 ], [ 3147886.264827415347099, 2330349.091520810499787 ], [ 3147890.464060408994555, 2330335.432682114187628 ], [ 3147895.784405441489071, 2330299.954025254584849 ], [ 3147898.96373485494405, 2330284.483891893178225 ], [ 3147900.679761449340731, 2330276.134126289747655 ], [ 3147901.417346104513854, 2330272.545262702740729 ], [ 3147911.061314153950661, 2330207.859218002762645 ], [ 3147919.637499229051173, 2330186.021482387557626 ], [ 3147950.556354600936174, 2330152.087607986759394 ], [ 3147957.962565070018172, 2330145.520532133523375 ], [ 3147980.640593054238707, 2330125.411843092180789 ], [ 3148002.358198402449489, 2330097.175971874035895 ], [ 3148027.841828903183341, 2330073.349222392775118 ], [ 3148057.926154721528292, 2330046.673523952253163 ], [ 3148089.656151729170233, 2330017.67404197063297 ], [ 3148119.787987285293639, 2329966.613636556547135 ], [ 3148132.130334560759366, 2329949.185190417338163 ], [ 3148167.915193502325565, 2329944.857084021903574 ], [ 3148180.46893755486235, 2329941.753551722504199 ], [ 3148211.754242341034114, 2329934.019296296872199 ], [ 3148233.274239712394774, 2329923.085205835290253 ], [ 3148288.909754849970341, 2329922.339215917512774 ], [ 3148311.240740294102579, 2329916.339515371248126 ], [ 3148357.409914776217192, 2329888.83688567019999 ], [ 3148364.056677641347051, 2329889.050214904360473 ], [ 3148365.605901008471847, 2329889.099919392727315 ] ] ] } },
{ "type": "Feature", "properties": { "ENP_GRAL": 5.0, "ENP_GRAL_NAME": "Espacios Protegidos Red Natura 2000", "color": "#A87000" }, "geometry": { "type": "MultiPolygon", "coordinates": [ [ [ [ 3149647.534725659526885, 2328807.815907944459468 ], [ 3149614.064087704755366, 2328868.238778843544424 ], [ 3149588.879388206172734, 2328906.230326974764466 ], [ 3149569.394662078935653, 2328966.56931750709191 ], [ 3149542.191898623015732, 2329029.29536533774808 ], [ 3149530.149209410417825, 2329060.889394113328308 ], [ 3149523.01721684448421, 2329097.6028917953372 ], [ 3149521.361932010389864, 2329106.124066987074912 ], [ 3149515.514208137057722, 2329112.491059734486043 ], [ 3149491.264311893843114, 2329138.89474898763001 ], [ 3149327.460894921794534, 2329314.25552162155509 ], [ 3149323.250796679407358, 2329368.833920629229397 ], [ 3149294.589127594605088, 2329422.678672612644732 ], [ 3149280.516879576258361, 2329485.103421413339674 ], [ 3149268.913281749468297, 2329544.042662720195949 ], [ 3149203.595845157280564, 2329627.761205153539777 ], [ 3149175.30665878392756, 2329659.19532144581899 ], [ 3149112.481261087581515, 2329714.553523519542068 ], [ 3149108.89006737107411, 2329717.717827531974763 ], [ 3149097.281012559309602, 2329726.50065609999001 ], [ 3149043.969045074656606, 2329766.833700562361628 ], [ 3149002.214071116410196, 2329802.692141114734113 ], [ 3148976.734125242102891, 2329820.998425359837711 ], [ 3148975.918977631255984, 2329821.584075585007668 ], [ 3148967.318588366732001, 2329855.613793710246682 ], [ 3148961.520440184511244, 2329880.057553999591619 ], [ 3148954.742426089942455, 2329908.632089459802955 ], [ 3148939.79620386660099, 2329922.412450007628649 ], [ 3148927.450482875108719, 2329933.795248904265463 ], [ 3148915.43234547553584, 2329953.19727471517399 ], [ 3148904.248945631552488, 2329965.341273560654372 ], [ 3148853.162076517008245, 2329954.06310453126207 ], [ 3148837.975738284643739, 2329950.710553043521941 ], [ 3148750.752238989807665, 2329907.30129939969629 ], [ 3148717.461819256655872, 2329892.297179974149913 ], [ 3148716.810682635754347, 2329892.003674255218357 ], [ 3148703.631529913283885, 2329892.485948379151523 ], [ 3148666.424373806454241, 2329893.847663542721421 ], [ 3148653.203441665507853, 2329900.615551072172821 ], [ 3148629.954901431687176, 2329912.516603056807071 ], [ 3148613.209584191441536, 2329915.492320437449962 ], [ 3148584.331562764942646, 2329912.498702044598758 ], [ 3148559.892074167728424, 2329905.669326239731163 ], [ 3148554.433153464458883, 2329904.039080764167011 ], [ 3148544.966504516080022, 2329901.211972998455167 ], [ 3148496.261625228915364, 2329882.443956401664764 ], [ 3148450.001475205179304, 2329872.382590047083795 ], [ 3148433.430261263623834, 2329870.249053186737001 ], [ 3148396.138040876016021, 2329890.079942901618779 ], [ 3148379.865694984793663, 2329889.557594635523856 ], [ 3148372.208849004469812, 2329889.311894822865725 ], [ 3148365.605901008471847, 2329889.099919392727315 ], [ 3148364.056677641347051, 2329889.050214904360473 ], [ 3148357.409914776217192, 2329888.83688567019999 ], [ 3148311.240740294102579, 2329916.339515371248126 ], [ 3148288.909754849970341, 2329922.339215917512774 ], [ 3148233.274239712394774, 2329923.085205835290253 ], [ 3148211.754242341034114, 2329934.019296296872199 ], [ 3148180.46893755486235, 2329941.753551722504199 ], [ 3148167.915193502325565, 2329944.857084021903574 ], [ 3148132.130334560759366, 2329949.185190417338163 ], [ 3148119.787987285293639, 2329966.613636556547135 ], [ 3148089.656151729170233, 2330017.67404197063297 ], [ 3148057.926154721528292, 2330046.673523952253163 ], [ 3148027.841828903183341, 2330073.349222392775118 ], [ 3148002.358198402449489, 2330097.175971874035895 ], [ 3147980.640593054238707, 2330125.411843092180789 ], [ 3147957.962565070018172, 2330145.520532133523375 ], [ 3147950.556354600936174, 2330152.087607986759394 ], [ 3147919.637499229051173, 2330186.021482387557626 ], [ 3147911.061314153950661, 2330207.859218002762645 ], [ 3147901.417346104513854, 2330272.545262702740729 ], [ 3147900.679761449340731, 2330276.134126289747655 ], [ 3147898.96373485494405, 2330284.483891893178225 ], [ 3147895.784405441489071, 2330299.954025254584849 ], [ 3147890.464060408994555, 2330335.432682114187628 ], [ 3147886.264827415347099, 2330349.091520810499787 ], [ 3147878.725775904022157, 2330373.613972808234394 ], [ 3147877.251876636408269, 2330378.40798481926322 ], [ 3147867.468557368963957, 2330401.141830121632665 ], [ 3147862.579936131834984, 2330412.501613926608115 ], [ 3147853.298795140348375, 2330428.991804837714881 ], [ 3147849.241037918254733, 2330436.201537255197763 ], [ 3147820.964875589124858, 2330461.54048805590719 ], [ 3147800.507759382016957, 2330475.68555927881971 ], [ 3147795.657927479594946, 2330479.03895756509155 ], [ 3147771.575628029182553, 2330450.706333948299289 ], [ 3147729.879716948606074, 2330401.651418990921229 ], [ 3147706.997554154135287, 2330374.730618218891323 ], [ 3147605.970590478274971, 2330255.873117471113801 ], [ 3147490.74543558806181, 2330191.76540561625734 ], [ 3147277.179037285968661, 2329969.13484437065199 ], [ 3147277.166933932341635, 2329969.122268138453364 ], [ 3146961.090069037862122, 2329639.629828532692045 ], [ 3146891.987961522303522, 2329567.59464285383001 ], [ 3146877.046946450136602, 2329552.019456228241324 ], [ 3146686.318518005311489, 2329218.376261761412024 ], [ 3146588.678995093330741, 2329047.573407944757491 ], [ 3146585.890680707525462, 2329042.69566034572199 ], [ 3146474.818337809294462, 2328848.393842625431716 ], [ 3146289.305531166493893, 2328523.869290938600898 ], [ 3146289.289911880157888, 2328505.671293087303638 ], [ 3146289.157487344928086, 2328351.330994790419936 ], [ 3146289.070639427285641, 2328249.801766479387879 ], [ 3146066.908483035862446, 2328310.236643645912409 ], [ 3146053.774568284861743, 2328313.809510715771466 ], [ 3146052.517419680487365, 2328314.151488883420825 ], [ 3145696.536142740398645, 2328410.991733831353486 ], [ 3145692.196549248881638, 2328411.693523890804499 ], [ 3145692.180642095394433, 2328411.69604669092223 ], [ 3145691.715523177757859, 2328411.771307284478098 ], [ 3145332.557989031076431, 2328469.853572970256209 ], [ 3145020.598689300473779, 2328520.305046162568033 ], [ 3144810.167543632909656, 2328554.338040316477418 ], [ 3144638.459540560375899, 2328450.753539070487022 ], [ 3144386.117179040797055, 2328690.489899573847651 ], [ 3144206.220831980928779, 2328863.970796480774879 ], [ 3144174.168928462546319, 2328894.879945663269609 ], [ 3144133.009601393714547, 2328934.571829676628113 ], [ 3143929.023797643370926, 2329081.295823493041098 ], [ 3143864.669094670563936, 2329127.585552209988236 ], [ 3143863.506852952297777, 2329128.421509550884366 ], [ 3143863.479030930437148, 2329128.441589828580618 ], [ 3143751.813660279847682, 2329208.762020751833916 ], [ 3143572.427883369382471, 2329337.794483039528131 ], [ 3143508.728014199063182, 2329383.614291808567941 ], [ 3143234.429717279970646, 2329630.71432523522526 ], [ 3142961.084806579165161, 2329876.959957292303443 ], [ 3142793.984159481711686, 2329937.400929239578545 ], [ 3142126.752565254922956, 2329482.300160945393145 ], [ 3142102.140998021233827, 2329465.513325006235391 ], [ 3141693.627196694724262, 2329186.878283979836851 ], [ 3141479.236360894050449, 2329040.649076946079731 ], [ 3141172.267625273671001, 2328833.176078928634524 ], [ 3140834.46204891661182, 2328604.861814951058477 ], [ 3140794.1845748052001, 2328578.211580409202725 ], [ 3140794.154664527624846, 2328578.191811930388212 ], [ 3140538.385792903602123, 2328408.95853318925947 ], [ 3139983.549512002617121, 2328041.844337279442698 ], [ 3139711.080685732886195, 2327861.562749111093581 ], [ 3139670.590738372411579, 2327845.552788109518588 ], [ 3139645.860411766916513, 2327835.774389429017901 ], [ 3139595.558836320415139, 2327783.908671913668513 ], [ 3139549.476652865298092, 2327720.059864715673029 ], [ 3139501.553967691957951, 2327656.011612228117883 ], [ 3139453.514642470981926, 2327585.861497058533132 ], [ 3139415.34633317636326, 2327538.121505265589803 ], [ 3139380.046596014872193, 2327507.841116125229746 ], [ 3139307.436007010750473, 2327483.035414223559201 ], [ 3139281.045403243042529, 2327474.019674701616168 ], [ 3139252.825604540295899, 2327466.337993535213172 ], [ 3139177.32156817195937, 2327445.78528064256534 ], [ 3139150.036621307954192, 2327513.222571170888841 ], [ 3139082.072412997949868, 2327585.416656030807644 ], [ 3139073.578840361442417, 2327635.960945758037269 ], [ 3139072.812508594244719, 2327636.843898809980601 ], [ 3139039.239221628755331, 2327675.529873909428716 ], [ 3139014.734515032730997, 2327691.782401350326836 ], [ 3138954.980334822554141, 2327731.413969785906374 ], [ 3138948.83918737526983, 2327754.115873924456537 ], [ 3138932.578529621474445, 2327814.22734458791092 ], [ 3138924.545215896330774, 2327822.341148683801293 ], [ 3138924.536255090963095, 2327822.350157254375517 ], [ 3138878.091460090596229, 2327869.260153143666685 ], [ 3138819.672447627410293, 2327914.698480477090925 ], [ 3138781.723141075577587, 2327944.215551075991243 ], [ 3138781.716402880847454, 2327944.220812490209937 ], [ 3138608.851612477563322, 2328078.67660475242883 ], [ 3138560.847581033594906, 2328137.176031145267189 ], [ 3138464.457487875595689, 2328264.40605077939108 ], [ 3138394.774398877751082, 2328318.188910020515323 ], [ 3138379.591738333459944, 2328325.172498406842351 ], [ 3138355.854055077768862, 2328336.0912801688537 ], [ 3138284.352893329225481, 2328382.700286041013896 ], [ 3138231.614830210339278, 2328417.078516548499465 ], [ 3138202.425922086462379, 2328460.202813889365643 ], [ 3138183.004021678119898, 2328488.897068366408348 ], [ 3138183.001503709703684, 2328488.900868162512779 ], [ 3138157.369536314159632, 2328526.770051506347954 ], [ 3138054.606556222774088, 2328512.914709702599794 ], [ 3137918.852384777739644, 2328519.822927643544972 ], [ 3137809.764590083621442, 2328515.927210924681276 ], [ 3137733.949329616501927, 2328525.912523239385337 ], [ 3137646.325458366423845, 2328555.136680297553539 ], [ 3137570.629434737376869, 2328568.703383265528828 ], [ 3137520.387440711259842, 2328569.078352473210543 ], [ 3137485.45486793667078, 2328557.25962932407856 ], [ 3137485.451440476346761, 2328557.258512374013662 ], [ 3137406.926034067757428, 2328530.691172251943499 ], [ 3137115.791790122166276, 2328563.39999530557543 ], [ 3137016.718033025972545, 2328574.531272738240659 ], [ 3136897.236700600944459, 2328588.589746742509305 ], [ 3136831.366831248626113, 2328661.366930768825114 ], [ 3136711.118531920481473, 2328794.22578766848892 ], [ 3136545.65831078030169, 2328977.039936405140907 ], [ 3136492.792929036542773, 2329035.450374315492809 ], [ 3136494.040476634167135, 2329174.605074729770422 ], [ 3136420.12742910720408, 2329194.361747127957642 ], [ 3136390.201691685244441, 2329202.360836437903345 ], [ 3136385.840990547090769, 2329203.526485925540328 ], [ 3136316.203625741880387, 2329233.460746044758707 ], [ 3136260.907745567150414, 2329281.242098903283477 ], [ 3136229.33135284576565, 2329329.812971014063805 ], [ 3136165.248666064348072, 2329369.357297365088016 ], [ 3136115.835450539831072, 2329426.579214636702091 ], [ 3136080.272044468671083, 2329488.535801007412374 ], [ 3136043.484722608700395, 2329527.150167028419673 ], [ 3136003.45345133729279, 2329582.808523973450065 ], [ 3135978.507457961328328, 2329617.492867699358612 ], [ 3135940.709381774067879, 2329670.046414490789175 ], [ 3135929.566651185508817, 2329757.092431611381471 ], [ 3135851.625471117906272, 2329832.038941667415202 ], [ 3135830.689896152354777, 2329879.613119603600353 ], [ 3135794.008438428863883, 2329918.863089620601386 ], [ 3135737.54991976544261, 2329958.358206654898822 ], [ 3135730.80946543905884, 2329953.590403505135328 ], [ 3135730.799944379366934, 2329953.583667142316699 ], [ 3135657.244287115521729, 2329901.55499256355688 ], [ 3135613.707566491793841, 2329883.403096345253289 ], [ 3135591.539988316595554, 2329847.23121367348358 ], [ 3135505.671655847691, 2329781.260781971272081 ], [ 3135413.024361590854824, 2329741.888079925905913 ], [ 3135353.22950422251597, 2329686.512921794783324 ], [ 3135330.34459166135639, 2329639.804533903021365 ], [ 3135321.363680726848543, 2329616.011282777879387 ], [ 3135229.545015734620392, 2329550.847092323005199 ], [ 3135155.016824153717607, 2329498.348069370724261 ], [ 3135045.238161233719438, 2329461.325216181110591 ], [ 3135020.782787811011076, 2329453.160453422926366 ], [ 3134967.23078674543649, 2329435.281309846788645 ], [ 3134947.831931649707258, 2329421.559743259567767 ], [ 3134947.828850688412786, 2329421.557650627568364 ], [ 3134915.605951063334942, 2329398.765364293940365 ], [ 3134863.132110295817256, 2329403.994192192330956 ], [ 3134863.128516087774187, 2329403.994527109432966 ], [ 3134850.770396741107106, 2329405.226027711294591 ], [ 3134813.861642713658512, 2329396.559376855380833 ], [ 3134771.217543916776776, 2329383.835753514897078 ], [ 3134722.026120052672923, 2329362.121986214071512 ], [ 3134580.187969410791993, 2329301.035614300984889 ], [ 3134482.675012767314911, 2329232.061085600405931 ], [ 3134448.258573446422815, 2329207.71710912277922 ], [ 3134388.970090518705547, 2329164.066669190302491 ], [ 3134388.966403578408062, 2329164.063973417039961 ], [ 3134350.218681328929961, 2329135.536413586698472 ], [ 3134313.676084905862808, 2329129.090297906659544 ], [ 3134280.549004023894668, 2329143.098638583905995 ], [ 3134280.546064497437328, 2329143.099872761871666 ], [ 3134247.321867513470352, 2329157.149393710307777 ], [ 3134223.669646350666881, 2329167.453326403163373 ], [ 3134197.260648549068719, 2329160.981316317804158 ], [ 3134150.502619693055749, 2329154.06899578217417 ], [ 3134112.78407867019996, 2329140.469186408445239 ], [ 3133954.773950000759214, 2329123.098597388714552 ], [ 3133954.773950000759214, 2336251.716524655930698 ], [ 3133969.362123848404735, 2336256.655080084688962 ], [ 3133969.36627091653645, 2336256.657490781508386 ], [ 3133978.624271999578923, 2336263.2077587521635 ], [ 3133984.368534447625279, 2336266.997999656945467 ], [ 3133995.509271236136556, 2336273.199485671240836 ], [ 3134013.756987072061747, 2336280.315464853774756 ], [ 3134017.321955570951104, 2336281.601896181702614 ], [ 3134026.407102930359542, 2336288.028744441457093 ], [ 3134056.356743230484426, 2336295.089968796353787 ], [ 3134094.40422516874969, 2336325.495525629259646 ], [ 3134102.22355305776, 2336324.103509686887264 ], [ 3134102.758793954271823, 2336333.137724103406072 ], [ 3134100.670309629291296, 2336345.304987757466733 ], [ 3134098.756880034226924, 2336351.066132385283709 ], [ 3134089.654285232536495, 2336368.066421836614609 ], [ 3134075.596908886916935, 2336392.07598837884143 ], [ 3134059.665531273931265, 2336413.380111053586006 ], [ 3134042.766184023115784, 2336431.751061132643372 ], [ 3134034.376191166695207, 2336442.210243489127606 ], [ 3134022.806185525842011, 2336457.351372317411005 ], [ 3134010.980428616050631, 2336470.859019362833351 ], [ 3133995.973036020994186, 2336485.263016193173826 ], [ 3133989.612087587825954, 2336491.462346552871168 ], [ 3133982.53016620548442, 2336500.406125548295677 ], [ 3133977.918688908684999, 2336505.444797677919269 ], [ 3133965.23160779196769, 2336528.998799817636609 ], [ 3133954.773950000759214, 2336548.77909326273948 ], [ 3133954.773950000759214, 2336898.574313506484032 ], [ 3133961.498800531029701, 2336907.298638802487403 ], [ 3133973.360051824245602, 2336917.06175625231117 ], [ 3133985.674250585027039, 2336926.183818710502237 ], [ 3133999.02234193123877, 2336936.404884710442275 ], [ 3134014.515870853327215, 2336949.923759157769382 ], [ 3134028.553691763430834, 2336964.185520245227963 ], [ 3134044.483445135876536, 2336983.900862338487059 ], [ 3134048.628965527750552, 2336989.812610596884042 ], [ 3134052.737714006565511, 2337001.047020804602653 ], [ 3134054.146465714555234, 2337012.866937013342977 ], [ 3134054.463268904946744, 2337018.372681204229593 ], [ 3134053.083111528307199, 2337031.845698271412402 ], [ 3134044.810062354430556, 2337045.961045319214463 ], [ 3134034.155701534822583, 2337053.605656901374459 ], [ 3134016.815728642977774, 2337061.631920600775629 ], [ 3134007.768556757830083, 2337065.539010177832097 ], [ 3133993.942126378882676, 2337068.009658311493695 ], [ 3133983.906438868492842, 2337068.17507772706449 ], [ 3133975.229639987461269, 2337067.794037986546755 ], [ 3133960.942396067082882, 2337065.796022916212678 ], [ 3133954.773950000759214, 2337065.445964410435408 ], [ 3133954.773950000759214, 2337090.72041876334697 ], [ 3133964.676383448764682, 2337091.622475413605571 ], [ 3133976.513940393459052, 2337093.069547791033983 ], [ 3133989.704943459481001, 2337093.389987791888416 ], [ 3133999.852166324853897, 2337092.395520323421806 ], [ 3134014.857405187562108, 2337089.632526142522693 ], [ 3134034.861653041094542, 2337080.827706829179078 ], [ 3134056.85849496209994, 2337067.978041840717196 ], [ 3134063.962607532739639, 2337062.56201840005815 ], [ 3134070.255943240597844, 2337051.443563260603696 ], [ 3134074.456533120945096, 2337044.022408051881939 ], [ 3134079.095724309328943, 2337010.92822901904583 ], [ 3134075.185969708953053, 2336987.862862516660243 ], [ 3134056.344897444359958, 2336958.525535611901432 ], [ 3134035.118924328126013, 2336934.610452383756638 ], [ 3133993.710691700689495, 2336900.921509775798768 ], [ 3133976.426907911896706, 2336885.665368529967964 ], [ 3133974.740959216840565, 2336870.382360349874943 ], [ 3133981.309001156128943, 2336866.477806679904461 ], [ 3133987.154314804822206, 2336862.892992853652686 ], [ 3133992.181631717830896, 2336856.023129866458476 ], [ 3133992.640718774870038, 2336849.470827227924019 ], [ 3133992.843383381608874, 2336846.163146236445755 ], [ 3133990.414075823966414, 2336831.397877821233124 ], [ 3133981.392884805798531, 2336803.287667259573936 ], [ 3133982.33489543851465, 2336788.693311929237098 ], [ 3133988.455084897112101, 2336774.206109700258821 ], [ 3133994.332951406016946, 2336763.431844595819712 ], [ 3133998.034036710858345, 2336754.292819141875952 ], [ 3134000.815780289471149, 2336746.129902181215584 ], [ 3134002.888938870280981, 2336732.705616821534932 ], [ 3134004.857097279280424, 2336715.864376343786716 ], [ 3134004.989675299264491, 2336706.458612468559295 ], [ 3134004.593109120614827, 2336694.554315285757184 ], [ 3134001.54407327529043, 2336679.976185793988407 ], [ 3133998.20902435714379, 2336665.645939793903381 ], [ 3133992.947660860605538, 2336651.293550692964345 ], [ 3133989.865603247657418, 2336640.239130350761116 ], [ 3133988.539135636761785, 2336635.169536174740642 ], [ 3133986.154062789864838, 2336620.672205057926476 ], [ 3133989.304005976766348, 2336606.844746639020741 ], [ 3133996.761737639084458, 2336596.544695645105094 ], [ 3134007.531455906573683, 2336586.517037681303918 ], [ 3134015.971091591287404, 2336576.981500572524965 ], [ 3134029.330549997277558, 2336561.690708686597645 ], [ 3134045.140937054529786, 2336542.44516539061442 ], [ 3134055.536767641082406, 2336531.09050955530256 ], [ 3134067.477024415507913, 2336517.151996044907719 ], [ 3134078.202052094973624, 2336505.164918172173202 ], [ 3134085.414221465121955, 2336492.467540168669075 ], [ 3134088.919202244840562, 2336483.518776611890644 ], [ 3134092.909869626164436, 2336471.233292622957379 ], [ 3134096.522256251424551, 2336459.629306520801038 ], [ 3134101.447402090765536, 2336448.214396750554442 ], [ 3134108.226748254150152, 2336437.438675531186163 ], [ 3134113.95052405167371, 2336430.456760575994849 ], [ 3134121.928856710903347, 2336421.129243046510965 ], [ 3134128.379773443564773, 2336412.679364025127143 ], [ 3134136.519010390155017, 2336401.136392345651984 ], [ 3134141.774194829165936, 2336391.871090027503669 ], [ 3134153.297719882801175, 2336372.82176366308704 ], [ 3134155.273753148503602, 2336360.675232040230185 ], [ 3134153.778542130254209, 2336342.990608208347112 ], [ 3134149.501756016165018, 2336325.954552380833775 ], [ 3134147.112910226918757, 2336312.041912171989679 ], [ 3134145.554432980716228, 2336312.19410652294755 ], [ 3134146.806449993979186, 2336309.398404207546264 ], [ 3134152.780826781876385, 2336284.809945309069008 ], [ 3134183.264736689161509, 2336264.269611357711256 ], [ 3134207.29433955065906, 2336259.991856371983886 ], [ 3134224.201450479216874, 2336252.391053251922131 ], [ 3134224.208296468947083, 2336252.388920314610004 ], [ 3134237.338442275300622, 2336250.052412970457226 ], [ 3134283.792864778544754, 2336239.621234274469316 ], [ 3134287.359208403155208, 2336237.410044352523983 ], [ 3134287.363493905868381, 2336237.408367234747857 ], [ 3134289.968007468152791, 2336236.944716222118586 ], [ 3134296.088773873634636, 2336232.001069615129381 ], [ 3134296.099288428202271, 2336231.99350936897099 ], [ 3134319.677278503309935, 2336217.382349465042353 ], [ 3134338.452014874666929, 2336196.027897990308702 ], [ 3134338.415854471735656, 2336188.423371832817793 ], [ 3134339.510838599409908, 2336186.883225634228438 ], [ 3134338.376297881361097, 2336179.986090620048344 ], [ 3134338.282156199682504, 2336160.033597279340029 ], [ 3134340.876032056286931, 2336140.839124674908817 ], [ 3134349.143915389664471, 2336127.51803416153416 ], [ 3134349.146661959588528, 2336127.514396259561181 ], [ 3134360.947797578759491, 2336116.937590976245701 ], [ 3134395.011518689338118, 2336098.480893229600042 ], [ 3134415.003405618481338, 2336094.922034083865583 ], [ 3134432.440152749419212, 2336079.268687755800784 ], [ 3134432.448335216380656, 2336079.262355341110379 ], [ 3134435.722353477496654, 2336077.123231610283256 ], [ 3134473.155789744108915, 2336048.699889962095767 ], [ 3134473.18621676415205, 2336048.677814483642578 ], [ 3134491.833584067411721, 2336035.736821380909532 ], [ 3134550.652787707280368, 2335992.150846470147371 ], [ 3134662.973584040533751, 2336043.970566614996642 ], [ 3134662.97617273312062, 2336043.972746863495559 ], [ 3134685.61329884454608, 2336066.50269137090072 ], [ 3134717.462580121122301, 2336102.333407974336296 ], [ 3134734.362682668026537, 2336128.14455494005233 ], [ 3134754.253152727149427, 2336147.659572295844555 ], [ 3134772.58437817171216, 2336165.732414063997567 ], [ 3134799.142337444704026, 2336200.041672202758491 ], [ 3134810.530113438609987, 2336218.737079538404942 ], [ 3134811.577925690449774, 2336222.493267851881683 ], [ 3134812.122867792379111, 2336224.969679305329919 ], [ 3134818.41172849573195, 2336249.211470284499228 ], [ 3134821.451900376938283, 2336267.691166105680168 ], [ 3134828.784420726820827, 2336280.795687704812735 ], [ 3134843.84806159697473, 2336291.947645807638764 ], [ 3134859.574787283781916, 2336296.641281655058265 ], [ 3134875.29536713194102, 2336304.79429136030376 ], [ 3134886.31724147638306, 2336316.550431354902685 ], [ 3134891.284244944341481, 2336329.960747277364135 ], [ 3134898.2605807390064, 2336344.396800675429404 ], [ 3134916.550828173756599, 2336363.274483133107424 ], [ 3134937.652745843864977, 2336380.68016722984612 ], [ 3134945.669866689946502, 2336388.904446445871145 ], [ 3135015.588586870580912, 2336463.310452112462372 ], [ 3135043.606854103505611, 2336489.912167700007558 ], [ 3135043.611455806996673, 2336489.917341773398221 ], [ 3135056.184443966019899, 2336505.802914226893336 ], [ 3135060.871713735163212, 2336513.050433315336704 ], [ 3135065.499205951578915, 2336541.176505461335182 ], [ 3135072.107453762087971, 2336581.343834964558482 ], [ 3135074.803813881240785, 2336586.811865975148976 ], [ 3135076.066207550466061, 2336594.486598529387265 ], [ 3135081.470675342716277, 2336613.352421110495925 ], [ 3135088.525657775811851, 2336625.4688516035676 ], [ 3135096.700657754205167, 2336636.002601578831673 ], [ 3135101.037117558531463, 2336640.010419864207506 ], [ 3135109.223992289975286, 2336656.61144594848156 ], [ 3135156.744513583369553, 2336696.825393127277493 ], [ 3135156.748673735186458, 2336696.829731583595276 ], [ 3135169.786044153850526, 2336712.449015523307025 ], [ 3135189.933533857576549, 2336734.223984458949417 ], [ 3135209.8550132997334, 2336757.422402305528522 ], [ 3135224.347931038588285, 2336775.592707417905331 ], [ 3135239.126084631774575, 2336801.090083259623498 ], [ 3135252.501353418454528, 2336819.459342109505087 ], [ 3135268.768047418445349, 2336845.614004967734218 ], [ 3135284.818428782746196, 2336867.657135393470526 ], [ 3135294.698317554779351, 2336882.959724619984627 ], [ 3135302.947057681158185, 2336893.941450011450797 ], [ 3135306.808638560585678, 2336900.631919791456312 ], [ 3135314.748112395405769, 2336918.124298321548849 ], [ 3135319.784173642285168, 2336934.750282824970782 ], [ 3135323.626517876051366, 2336952.510896356776357 ], [ 3135328.267599194310606, 2336982.118297677952796 ], [ 3135332.184871441684663, 2336984.587255083955824 ], [ 3135332.188560430426151, 2336984.748923060018569 ], [ 3135378.170802857261151, 2337056.485375436488539 ], [ 3135378.184187320061028, 2337056.506965823471546 ], [ 3135382.054271455854177, 2337062.92247709678486 ], [ 3135401.709116080775857, 2337092.377910041250288 ], [ 3135426.008753215428442, 2337129.258413074538112 ], [ 3135520.74309416487813, 2337153.637614980340004 ], [ 3135521.08963043615222, 2337153.313347222283483 ], [ 3135521.407498484943062, 2337153.395829385146499 ], [ 3135540.251195136923343, 2337135.354713723994792 ], [ 3135540.353276303969324, 2337135.258022008929402 ], [ 3135559.828933578450233, 2337117.004576972220093 ], [ 3135560.032564809545875, 2337116.814741929993033 ], [ 3135560.034668573178351, 2337116.812742177397013 ], [ 3135576.392688950058073, 2337101.646937466226518 ], [ 3135612.489464729558676, 2337067.649841621518135 ], [ 3135612.49640045594424, 2337067.643324920441955 ], [ 3135612.945907811168581, 2337067.220989432185888 ], [ 3135635.002389795146883, 2337046.548737960401922 ], [ 3135700.239664985798299, 2337022.302201379090548 ], [ 3135700.449204036500305, 2337022.225288083776832 ], [ 3135734.534955858718604, 2337009.864076604135334 ], [ 3135842.604868752881885, 2336971.72231763927266 ], [ 3135910.207158657722175, 2336946.31726248562336 ], [ 3136054.876286783255637, 2336892.900540499947965 ], [ 3136063.283200482837856, 2336889.45905964449048 ], [ 3136063.333017989061773, 2336889.43962843157351 ], [ 3136093.756813862361014, 2336878.142590660601854 ], [ 3136213.218642964027822, 2336827.929142073262483 ], [ 3136413.952234747819602, 2336727.898735116235912 ], [ 3136414.234839621, 2336727.758844041731209 ], [ 3136431.257016255985945, 2336719.393069512210786 ], [ 3136438.282380755990744, 2336715.775492026470602 ], [ 3136438.39924837462604, 2336715.716294972226024 ], [ 3136445.655775946564972, 2336712.100239502266049 ], [ 3136493.510696430224925, 2336697.461977077648044 ], [ 3136493.852391110733151, 2336697.358397716656327 ], [ 3136493.859729667194188, 2336697.35617739520967 ], [ 3136510.333659941330552, 2336692.407817716710269 ], [ 3136556.233386213891208, 2336678.276778833009303 ], [ 3136556.247291713953018, 2336678.272577117662877 ], [ 3136557.199506199918687, 2336677.980396477039903 ], [ 3136671.202195733785629, 2336643.108601270709187 ], [ 3136718.189937778748572, 2336641.726657414808869 ], [ 3136718.365403327625245, 2336641.722347397822887 ], [ 3136723.079970869701356, 2336641.632519892882556 ], [ 3136754.355829174630344, 2336640.663884784560651 ], [ 3136754.389025575015694, 2336640.66295405337587 ], [ 3136755.555236058775336, 2336640.627778288908303 ], [ 3136781.968381760641932, 2336639.85092443600297 ], [ 3136922.799823530949652, 2336643.737122788093984 ], [ 3136937.733185699209571, 2336648.202330034226179 ], [ 3136937.816070175729692, 2336648.2280073906295 ], [ 3136942.278652097098529, 2336649.654006936121732 ], [ 3136948.037261757999659, 2336651.284312590025365 ], [ 3136948.040033376310021, 2336651.285139851737767 ], [ 3136948.14735698653385, 2336651.316422505304217 ], [ 3137009.475969246588647, 2336669.654434493742883 ], [ 3137050.950657566078007, 2336645.715591375716031 ], [ 3137143.370465142652392, 2336611.089966442901641 ], [ 3137143.522328233812004, 2336611.033990003634244 ], [ 3137143.525677740573883, 2336611.032784427516162 ], [ 3137155.831868519540876, 2336606.575766906607896 ], [ 3137257.185354623943567, 2336588.537366015836596 ], [ 3137257.202045968733728, 2336588.535309768281877 ], [ 3137287.962333640083671, 2336586.400487534701824 ], [ 3137288.249209065921605, 2336586.381431429646909 ], [ 3137303.054248488042504, 2336585.447406747378409 ], [ 3137316.116761285346001, 2336584.447244419250637 ], [ 3137316.37027676962316, 2336584.428741634357721 ], [ 3137370.007270032539964, 2336580.706158127170056 ], [ 3137428.456491703167558, 2336309.954727716278285 ], [ 3137381.788158247713, 2336248.293300750665367 ], [ 3137381.786096555180848, 2336248.290010831318796 ], [ 3137341.06114359991625, 2336167.717250833287835 ], [ 3137287.927259103395045, 2336063.350250680930912 ], [ 3137269.484624668490142, 2336027.010537249967456 ], [ 3137230.954534630291164, 2335911.051739513874054 ], [ 3137225.99048198480159, 2335870.818793838843703 ], [ 3137228.274395260494202, 2335846.737461098469794 ], [ 3137255.296194927766919, 2335767.452024617232382 ], [ 3137291.791386705357581, 2335660.642152793705463 ], [ 3137318.655247422400862, 2335582.513244492933154 ], [ 3137318.657257176935673, 2335582.508823729120195 ], [ 3137475.501661042217165, 2335317.886472507379949 ], [ 3137485.368400335777551, 2335270.697932966053486 ], [ 3137502.707390295341611, 2335238.641047527082264 ], [ 3137503.859538362827152, 2335219.017884236760437 ], [ 3137506.939313522540033, 2335116.274936797097325 ], [ 3137507.861922850832343, 2335070.215820928569883 ], [ 3137507.862178346142173, 2335070.210595019161701 ], [ 3137513.265034108422697, 2335013.374586074613035 ], [ 3137563.414559993892908, 2334906.350421154871583 ], [ 3137577.220601950772107, 2334877.134518962353468 ], [ 3137582.735619575250894, 2334867.296941423323005 ], [ 3137592.57067792955786, 2334844.652635731734335 ], [ 3137613.862721384502947, 2334799.598249953705817 ], [ 3137694.801881653256714, 2334729.611337796319276 ], [ 3137763.653913586866111, 2334670.075590645894408 ], [ 3137824.732241933699697, 2334662.108250835444778 ], [ 3137980.019020500592887, 2334642.08257644250989 ], [ 3138104.286079103592783, 2334626.317015932872891 ], [ 3138233.309454587288201, 2334610.508109317161143 ], [ 3138233.313080151565373, 2334610.508581552654505 ], [ 3138305.830823049880564, 2334636.05620176019147 ], [ 3138305.839791644830257, 2334636.060192671138793 ], [ 3138356.026756470091641, 2334662.965426792390645 ], [ 3138438.748911209404469, 2334707.159079174511135 ], [ 3138572.231752415187657, 2334778.766725784633309 ], [ 3138654.362706033978611, 2334822.907681950367987 ], [ 3138674.95913808606565, 2334834.052480007521808 ], [ 3138721.826429240871221, 2334876.199727517087013 ], [ 3138760.379996954929084, 2334934.652633102145046 ], [ 3138808.308923405595124, 2335000.480008180253208 ], [ 3138848.255337990820408, 2335043.044305216521025 ], [ 3138871.564906069077551, 2335084.302399566862732 ], [ 3138986.921217535622418, 2335158.854939826764166 ], [ 3139108.176381283439696, 2335219.965510457288474 ], [ 3139201.559430764056742, 2335286.03536837361753 ], [ 3139336.166656368412077, 2335377.783754038158804 ], [ 3139474.737711289897561, 2335434.789194602984935 ], [ 3139474.743973235599697, 2335434.79275303054601 ], [ 3139610.425100236199796, 2335523.956973215099424 ], [ 3139695.374821801204234, 2335579.707248658873141 ], [ 3139709.391243821941316, 2335591.098471308127046 ], [ 3139868.082912649493665, 2335728.805226288735867 ], [ 3139966.142902549821883, 2335814.016060941386968 ], [ 3140032.04143391456455, 2335870.700301604345441 ], [ 3140072.954935723915696, 2335904.536271458491683 ], [ 3140031.756016502622515, 2335871.054285400547087 ], [ 3140018.710499139502645, 2335914.339901534374803 ], [ 3140020.118979593738914, 2335938.83887540968135 ], [ 3140029.976873872801661, 2335950.95964018534869 ], [ 3140055.244398601353168, 2335956.589019550010562 ], [ 3140058.985434280708432, 2335965.673094292171299 ], [ 3140018.181810437701643, 2336040.415750132873654 ], [ 3139993.4544881680049, 2336086.535773226991296 ], [ 3139987.624198247678578, 2336137.571572230197489 ], [ 3139998.839898265432566, 2336216.233593070879579 ], [ 3139996.313320424873382, 2336243.634897850919515 ], [ 3139991.481556999497116, 2336322.899720312096179 ], [ 3139994.308062708005309, 2336395.548644239548594 ], [ 3139985.538454051595181, 2336421.380890234839171 ], [ 3139954.880791193805635, 2336507.675173962023109 ], [ 3139942.416890571359545, 2336538.668652148451656 ], [ 3139937.22596247959882, 2336575.3496891441755 ], [ 3139941.884511756245047, 2336624.164805011823773 ], [ 3139954.137874038890004, 2336692.776598269119859 ], [ 3139950.819005403667688, 2336708.183946216013283 ], [ 3139928.683420543558896, 2336738.962255926337093 ], [ 3139918.856870622374117, 2336748.468409024644643 ], [ 3139877.246836519334465, 2336794.743296719621867 ], [ 3139838.411659877281636, 2336836.719568460248411 ], [ 3139860.042330272495747, 2336900.47701609833166 ], [ 3139885.577147513628006, 2336925.231541765388101 ], [ 3139888.322029725648463, 2336928.743507565930486 ], [ 3139891.621964507270604, 2336947.546627808827907 ], [ 3139884.891750428825617, 2336990.943213465157896 ], [ 3139874.03666097857058, 2337049.27902728645131 ], [ 3139864.897983124479651, 2337093.391427473630756 ], [ 3139854.996201849542558, 2337116.713499099947512 ], [ 3139832.04576653894037, 2337153.216647880617529 ], [ 3139802.568584046326578, 2337185.023275336716324 ], [ 3139781.104832654818892, 2337202.066614463925362 ], [ 3139768.717582395300269, 2337209.035571406595409 ], [ 3139739.309105092659593, 2337225.661119624041021 ], [ 3139710.005153414793313, 2337256.733287363313138 ], [ 3139716.573342860676348, 2337307.179124443791807 ], [ 3139740.984283452387899, 2337339.951331387273967 ], [ 3139766.552709698677063, 2337362.893201649188995 ], [ 3139791.67278294172138, 2337376.163373426534235 ], [ 3139824.677564528770745, 2337418.145710943732411 ], [ 3139834.68559329630807, 2337438.744929467327893 ], [ 3139836.71633138647303, 2337463.240759279113263 ], [ 3139830.392350683920085, 2337505.74280323786661 ], [ 3139832.028361948207021, 2337518.801001549698412 ], [ 3139830.432480789255351, 2337524.359279267024249 ], [ 3139802.53871928434819, 2337564.835998399183154 ], [ 3139800.76614080928266, 2337626.068873583804816 ], [ 3139820.644467378035188, 2337659.607679818756878 ], [ 3139844.001314039342105, 2337676.556561262812465 ], [ 3139851.747517252340913, 2337690.844533320050687 ], [ 3139849.484357064589858, 2337711.268454529810697 ], [ 3139849.663461793679744, 2337723.750000941567123 ], [ 3139846.258419504389167, 2337760.0186115228571 ], [ 3139858.871067465748638, 2337775.918740460649133 ], [ 3139886.46648052893579, 2337784.147943576797843 ], [ 3139924.081440314650536, 2337788.717201333958656 ], [ 3139957.787718368228525, 2337792.141423240303993 ], [ 3139997.132385007105768, 2337806.281147461384535 ], [ 3140019.0495411073789, 2337819.061698575969785 ], [ 3140026.041181057691574, 2337825.700010456610471 ], [ 3140042.736240326426923, 2337848.648317610379308 ], [ 3140056.555109422653913, 2337871.469229714013636 ], [ 3140075.3517608596012, 2337929.968489768449217 ], [ 3140099.763049457222223, 2337989.684038570616394 ], [ 3140135.940086366608739, 2338041.823371113277972 ], [ 3140155.4967045718804, 2338069.378991250880063 ], [ 3140182.574903429485857, 2338078.538045803550631 ], [ 3140263.829629304353148, 2338089.062146733514965 ], [ 3140291.301103643141687, 2338110.414412441197783 ], [ 3140297.5277587804012, 2338117.30110171250999 ], [ 3140300.471892977133393, 2338123.458195392973721 ], [ 3140301.130110273137689, 2338131.917441383004189 ], [ 3140299.663115569390357, 2338176.872478764038533 ], [ 3140304.605853230692446, 2338224.311651232652366 ], [ 3140309.469712077639997, 2338286.320850774180144 ], [ 3140327.462922890670598, 2338359.216906857676804 ], [ 3140355.01580742187798, 2338378.579934780485928 ], [ 3140416.582431534305215, 2338397.229631460271776 ], [ 3140422.75957905780524, 2338400.891091725323349 ], [ 3140427.029897518455982, 2338406.068897907622159 ], [ 3140429.591012175194919, 2338412.597665646113455 ], [ 3140429.920786565169692, 2338424.340577674563974 ], [ 3140430.956528477370739, 2338459.372633390128613 ], [ 3140482.54928370192647, 2338509.051083405967802 ], [ 3140488.674850665498525, 2338516.305211666505784 ], [ 3140490.518988610245287, 2338521.755707495380193 ], [ 3140490.762862673960626, 2338529.68815888511017 ], [ 3140488.660270009189844, 2338538.096897105220705 ], [ 3140472.892081310972571, 2338566.182348663918674 ], [ 3140460.750638251192868, 2338646.98299818392843 ], [ 3140463.518527192529291, 2338690.96612709434703 ], [ 3140462.321898845024407, 2338694.186668887734413 ], [ 3140456.684506655670702, 2338701.091984275262803 ], [ 3140448.845879473723471, 2338707.885616368148476 ], [ 3140425.718403642065823, 2338722.763774294406176 ], [ 3140389.77369095524773, 2338736.555949812754989 ], [ 3140340.750852099619806, 2338761.749442615546286 ], [ 3140308.367624671198428, 2338784.67147665284574 ], [ 3140292.340971619356424, 2338821.267932503018528 ], [ 3140308.470394858159125, 2338877.309626798145473 ], [ 3140325.202494561672211, 2338919.600748346187174 ], [ 3140332.747201594989747, 2338957.556821011006832 ], [ 3140331.89525071810931, 2338964.022342577110976 ], [ 3140304.08457093173638, 2339014.040627551265061 ], [ 3140298.262578964233398, 2339034.474110307171941 ], [ 3140292.897543824277818, 2339067.85197435785085 ], [ 3140298.326269880868495, 2339104.569563242141157 ], [ 3140312.178942316677421, 2339142.764349999371916 ], [ 3140366.125654666218907, 2339142.764349999371916 ], [ 3140365.127129173837602, 2339141.725657763890922 ], [ 3140346.958555823192, 2339091.630982048343867 ], [ 3140343.400056019425392, 2339067.562644171062857 ], [ 3140347.054837265051901, 2339044.824641723185778 ], [ 3140350.445955442264676, 2339032.922865319997072 ], [ 3140380.108455739915371, 2338979.574183394666761 ], [ 3140383.308747745584697, 2338955.286726779304445 ], [ 3140373.270622090436518, 2338904.786517021246254 ], [ 3140355.765451028011739, 2338860.541431982070208 ], [ 3140345.315509463660419, 2338824.23285683337599 ], [ 3140348.332870821002871, 2338817.342661584261805 ], [ 3140366.239083420950919, 2338804.668017418589443 ], [ 3140409.63874984998256, 2338782.364259518682957 ], [ 3140447.886611174792051, 2338767.688449604436755 ], [ 3140478.446156540885568, 2338748.029145541600883 ], [ 3140492.344436390325427, 2338735.983636858873069 ], [ 3140506.111382460221648, 2338719.120365244336426 ], [ 3140494.989468701183796, 2338714.323332775384188 ], [ 3140500.211780610494316, 2338692.02957505453378 ], [ 3140510.896092806942761, 2338648.553669282235205 ], [ 3140520.858057618606836, 2338582.257175886072218 ], [ 3140536.20886316569522, 2338553.130158934742212 ], [ 3140536.478024418465793, 2338553.270191409159452 ], [ 3140556.615962889976799, 2338576.091975746676326 ], [ 3140567.972075380384922, 2338582.222523822449148 ], [ 3140598.677855437621474, 2338595.728507132269442 ], [ 3140632.737013421952724, 2338603.071496369317174 ], [ 3140660.686816481873393, 2338611.81927410652861 ], [ 3140684.383160114753991, 2338619.7085056216456 ], [ 3140701.863154454156756, 2338621.611907216720283 ], [ 3140716.456414771731943, 2338617.67100153490901 ], [ 3140754.785386779345572, 2338600.715746514964849 ], [ 3140778.235374758951366, 2338595.566969966515899 ], [ 3140823.801889947615564, 2338595.094260683748871 ], [ 3140865.257831698283553, 2338597.589447123464197 ], [ 3140904.941195906605572, 2338601.386141396593302 ], [ 3140918.648697814438492, 2338604.308063087053597 ], [ 3140955.393308614846319, 2338618.590621538460255 ], [ 3140986.995348679367453, 2338632.374432044569403 ], [ 3140995.231775315012783, 2338635.468765450641513 ], [ 3141007.886375495232642, 2338637.815882270224392 ], [ 3141030.890980780590326, 2338638.403141114860773 ], [ 3141068.536714596208185, 2338635.845991699956357 ], [ 3141101.765578655526042, 2338634.404981557745486 ], [ 3141129.542406087275594, 2338641.471238125115633 ], [ 3141167.269346377812326, 2338656.784079656004906 ], [ 3141207.685708083212376, 2338674.335908357985318 ], [ 3141242.098015365656465, 2338688.241548428311944 ], [ 3141269.222637252882123, 2338694.256557274144143 ], [ 3141292.640667296014726, 2338694.681183005683124 ], [ 3141326.743195637594908, 2338689.337145981844515 ], [ 3141354.723782514221966, 2338681.793631612323225 ], [ 3141408.129714176524431, 2338662.885601367335767 ], [ 3141446.252821474336088, 2338648.811881224159151 ], [ 3141478.912022736854851, 2338637.909779018256813 ], [ 3141508.476015651598573, 2338634.644513028673828 ], [ 3141535.482979885302484, 2338638.624335616827011 ], [ 3141552.325996008235961, 2338647.671932988334447 ], [ 3141575.731525361537933, 2338668.252799263224006 ], [ 3141597.634913114830852, 2338695.141845419071615 ], [ 3141618.359036944806576, 2338714.140445298049599 ], [ 3141644.206103068776429, 2338727.625612093135715 ], [ 3141659.099689550697803, 2338731.931375409010798 ], [ 3141701.474030254408717, 2338741.071937461383641 ], [ 3141735.235395964700729, 2338748.414888146333396 ], [ 3141760.957489863038063, 2338749.295881303027272 ], [ 3141778.494988080579787, 2338747.875898607075214 ], [ 3141808.409350766800344, 2338740.172572577372193 ], [ 3141827.029780291486531, 2338731.613451981917024 ], [ 3141845.761488796211779, 2338717.645733335055411 ], [ 3141862.007657723501325, 2338684.159003240056336 ], [ 3141865.696901929564774, 2338675.828919227235019 ], [ 3141886.660500897094607, 2338658.405383237171918 ], [ 3141914.20829902915284, 2338631.261305901687592 ], [ 3141934.316996140405536, 2338607.344965611584485 ], [ 3141951.841019752435386, 2338582.895806267857552 ], [ 3141978.436721880920231, 2338538.216164999641478 ], [ 3141985.8312250347808, 2338526.18717412604019 ], [ 3142002.995656908024102, 2338487.484044500626624 ], [ 3142024.94801427796483, 2338435.56073797820136 ], [ 3142037.042629440315068, 2338407.539905865676701 ], [ 3142068.697186715900898, 2338376.943307507783175 ], [ 3142107.268471891060472, 2338357.084233837202191 ], [ 3142147.455399341881275, 2338337.746359790675342 ], [ 3142166.454286925494671, 2338329.971534214913845 ], [ 3142200.419459407217801, 2338308.940268369857222 ], [ 3142222.388075737282634, 2338294.410920814611018 ], [ 3142243.765872966963798, 2338290.44366698153317 ], [ 3142259.155226855538785, 2338290.432031810283661 ], [ 3142292.3493931456469, 2338282.245826201979071 ], [ 3142318.186685889959335, 2338280.86970517039299 ], [ 3142360.206218641251326, 2338282.847198651172221 ], [ 3142398.553408729843795, 2338281.027036327403039 ], [ 3142427.257905618287623, 2338274.999650318175554 ], [ 3142462.277813520282507, 2338261.991974948905408 ], [ 3142493.491564339958131, 2338248.476959325838834 ], [ 3142514.68048560526222, 2338241.840550296008587 ], [ 3142551.472109669353813, 2338233.300360617227852 ], [ 3142570.99049514438957, 2338226.272226525470614 ], [ 3142585.570430150255561, 2338210.454814274329692 ], [ 3142600.549546684604138, 2338187.766834087669849 ], [ 3142624.201221527066082, 2338146.04569792188704 ], [ 3142639.985601608175784, 2338120.740403227508068 ], [ 3142665.421053860802203, 2338089.439642931800336 ], [ 3142685.577318921219558, 2338062.651501824147999 ], [ 3142724.533039424102753, 2338024.134244409389794 ], [ 3142756.566577176563442, 2337994.458421288058162 ], [ 3142778.352759251371026, 2337977.016837779432535 ], [ 3142805.999657981097698, 2337955.5716687659733 ], [ 3142818.781938510015607, 2337937.383771924301982 ], [ 3142839.492419785819948, 2337910.076752342749387 ], [ 3142859.571113119833171, 2337880.020404454320669 ], [ 3142886.721433400642127, 2337842.577546804212034 ], [ 3142901.261100834235549, 2337825.622509360779077 ], [ 3142922.15712339617312, 2337811.059689562767744 ], [ 3142944.805702610872686, 2337805.291815022472292 ], [ 3142966.811781359370798, 2337803.381327154114842 ], [ 3142988.789627445396036, 2337806.472321813926101 ], [ 3143008.657981930300593, 2337814.430343891493976 ], [ 3143026.550602417439222, 2337825.594998052343726 ], [ 3143038.888720337301493, 2337828.573195501696318 ], [ 3143062.442858830094337, 2337824.010001831687987 ], [ 3143081.894711701199412, 2337813.090375265106559 ], [ 3143104.834186709020287, 2337794.351310434751213 ], [ 3143129.512735638767481, 2337762.589938902761787 ], [ 3143155.484560782555491, 2337725.787606755271554 ], [ 3143173.043994220905006, 2337703.76558994827792 ], [ 3143195.084658894687891, 2337688.829702638555318 ], [ 3143216.776983974501491, 2337677.550267833285034 ], [ 3143235.457348966505378, 2337662.696460623294115 ], [ 3143264.997575653716922, 2337639.55248199403286 ], [ 3143279.047087309882045, 2337625.086568023078144 ], [ 3143299.993954492732882, 2337594.213246762752533 ], [ 3143317.793305593077093, 2337577.779738726094365 ], [ 3143338.27434545988217, 2337566.754413384012878 ], [ 3143362.22366732917726, 2337560.908391024917364 ], [ 3143388.767845882102847, 2337556.162710486911237 ], [ 3143411.269781025126576, 2337557.902451863512397 ], [ 3143430.238227407447994, 2337566.713520494289696 ], [ 3143451.054024794138968, 2337585.627607398666441 ], [ 3143459.057791098020971, 2337592.058797159232199 ], [ 3143501.041316438466311, 2337610.592272078618407 ], [ 3143558.400052684359252, 2337628.502428655978292 ], [ 3143597.885650275275111, 2337640.393052923027426 ], [ 3143618.599210470914841, 2337644.364727985113859 ], [ 3143652.806757618673146, 2337646.92565558059141 ], [ 3143685.306273083202541, 2337658.107530058827251 ], [ 3143725.578067599795759, 2337669.548501076642424 ], [ 3143748.979525564238429, 2337670.554989088326693 ], [ 3143787.293218497186899, 2337665.279054965358227 ], [ 3143809.427314279135317, 2337667.300922601949424 ], [ 3143828.185672180727124, 2337673.108485574834049 ], [ 3143849.684735661372542, 2337681.477943398058414 ], [ 3143863.133632373996079, 2337683.224826827179641 ], [ 3143880.081117374822497, 2337681.934026149567217 ], [ 3143911.352205445524305, 2337671.555773896165192 ], [ 3143928.839028844144195, 2337664.396099980920553 ], [ 3143940.698324314318597, 2337655.819036941975355 ], [ 3143959.44971740571782, 2337628.205929653253406 ], [ 3143978.780636561568826, 2337596.165484803263098 ], [ 3143996.071126792114228, 2337583.176073704846203 ], [ 3144022.462798065505922, 2337573.444450556300581 ], [ 3144036.432480279821903, 2337571.25238892249763 ], [ 3144070.16235567862168, 2337575.637305281125009 ], [ 3144104.162803273648024, 2337583.155883966013789 ], [ 3144114.826076216995716, 2337585.819362373556942 ], [ 3144118.471150147728622, 2337589.104340607766062 ], [ 3144127.065860003232956, 2337596.883452044799924 ], [ 3144135.307065873406827, 2337604.342592468485236 ], [ 3144145.626067944802344, 2337613.682428262196481 ], [ 3144152.458022842183709, 2337619.866014994680882 ], [ 3144160.622278943657875, 2337624.82311409432441 ], [ 3144165.453717634081841, 2337627.759984503500164 ], [ 3144173.234558063559234, 2337634.247049846686423 ], [ 3144177.448613223154098, 2337637.81784786330536 ], [ 3144180.093742355704308, 2337640.576433930080384 ], [ 3144183.188814247958362, 2337643.804324708878994 ], [ 3144190.653337114490569, 2337651.389915814623237 ], [ 3144205.056409051641822, 2337663.95769867952913 ], [ 3144213.311941617634147, 2337669.679791497532278 ], [ 3144237.681660266593099, 2337683.359266567975283 ], [ 3144244.030335896648467, 2337687.773931628093123 ], [ 3144258.180097457952797, 2337693.36463161604479 ], [ 3144288.136588206514716, 2337699.443174347747117 ], [ 3144304.76354792714119, 2337707.830262181349099 ], [ 3144312.464775153435767, 2337714.495140257291496 ], [ 3144315.228071920573711, 2337722.409022248815745 ], [ 3144319.143529281951487, 2337752.041634410619736 ], [ 3144321.984301163814962, 2337773.54071991564706 ], [ 3144326.723118541762233, 2337783.642781569622457 ], [ 3144331.843984519597143, 2337787.420841587241739 ], [ 3144358.622955129481852, 2337794.188720596954226 ], [ 3144373.651724685449153, 2337797.907912931405008 ], [ 3144379.896307768300176, 2337799.453401447739452 ], [ 3144406.994522443972528, 2337801.344447891693562 ], [ 3144415.537088789511472, 2337802.211387956980616 ], [ 3144429.325619533658028, 2337806.468171612359583 ], [ 3144441.608279846608639, 2337814.250496911816299 ], [ 3144447.033186174929142, 2337819.701793713495135 ], [ 3144453.355580569244921, 2337828.917361265048385 ], [ 3144464.836292903870344, 2337851.849328534677625 ], [ 3144471.546837860718369, 2337864.994000028818846 ], [ 3144487.140205474104732, 2337875.725053804926574 ], [ 3144493.868864313233644, 2337880.355564505793154 ], [ 3144503.286110087763518, 2337893.527178592048585 ], [ 3144514.11171312071383, 2337919.072192328516394 ], [ 3144522.204269807320088, 2337938.167841349728405 ], [ 3144531.271714813541621, 2337973.081527912989259 ], [ 3144550.600988904945552, 2338011.832254315726459 ], [ 3144582.25213492102921, 2338031.108480787836015 ], [ 3144593.460324645973742, 2338038.390686921775341 ], [ 3144624.227133994922042, 2338064.019722834229469 ], [ 3144652.064076942391694, 2338077.480525315739214 ], [ 3144674.159976448398083, 2338094.539066519588232 ], [ 3144694.35570351453498, 2338103.857394825667143 ], [ 3144709.30988068273291, 2338118.356161259114742 ], [ 3144715.289004712831229, 2338138.466185593046248 ], [ 3144721.12269341154024, 2338148.95834971126169 ], [ 3144734.376351581420749, 2338159.07626820448786 ], [ 3144748.981447292026132, 2338169.694247344043106 ], [ 3144764.444612929597497, 2338186.402091287542135 ], [ 3144769.37645392306149, 2338191.529106904286891 ], [ 3144791.656993121374398, 2338200.756761568598449 ], [ 3144807.077690905425698, 2338207.274141103960574 ], [ 3144820.959724631160498, 2338220.346605892758816 ], [ 3144833.102044824510813, 2338250.032514515798539 ], [ 3144841.718646238557994, 2338304.309637250378728 ], [ 3144847.737536237109452, 2338342.945980579126626 ], [ 3144859.919939566403627, 2338378.033507965970784 ], [ 3144865.429311123676598, 2338391.990838010329753 ], [ 3144873.731840032152832, 2338402.002948884386569 ], [ 3144890.96095800679177, 2338411.597282679751515 ], [ 3144899.1247413828969, 2338416.615194476209581 ], [ 3144900.389302499592304, 2338419.498748231679201 ], [ 3144902.20083843357861, 2338435.703339401166886 ], [ 3144904.796644267160445, 2338445.183588908985257 ], [ 3144909.243298740126193, 2338451.497171143535525 ], [ 3144933.832195646129549, 2338466.952164265327156 ], [ 3144953.570264651440084, 2338479.358196056913584 ], [ 3144967.557480489835143, 2338497.083681389223784 ], [ 3144974.076931774616241, 2338505.15495527908206 ], [ 3144986.379674346186221, 2338513.393439073115587 ], [ 3144997.100479496177286, 2338520.069024527445436 ], [ 3145008.903433252125978, 2338521.570371795445681 ], [ 3145017.697247356176376, 2338520.182196108158678 ], [ 3145038.319166526664048, 2338505.953231221996248 ], [ 3145051.619547711219639, 2338498.115727974101901 ], [ 3145062.078081498853862, 2338496.202471855096519 ], [ 3145086.835396212060004, 2338500.435816607438028 ], [ 3145092.373585595749319, 2338500.6080241817981 ], [ 3145137.637982023414224, 2338499.535009879153222 ], [ 3145174.044096336234361, 2338492.637455514632165 ], [ 3145226.404780071228743, 2338482.511832267045975 ], [ 3145268.982015455607325, 2338474.278161266818643 ], [ 3145316.254159863106906, 2338477.994414792396128 ], [ 3145354.414180120453238, 2338470.905268627218902 ], [ 3145359.074509110301733, 2338470.18402309063822 ], [ 3145403.20149925397709, 2338473.101560143753886 ], [ 3145442.893932839855552, 2338470.746453777886927 ], [ 3145450.845649048686028, 2338471.876539809629321 ], [ 3145468.268634126055986, 2338475.569934183731675 ], [ 3145479.529971988871694, 2338482.122255963273346 ], [ 3145494.298232054337859, 2338497.928620187100023 ], [ 3145498.603556672111154, 2338509.743622969835997 ], [ 3145504.0393495131284, 2338518.262284737080336 ], [ 3145511.36669584363699, 2338520.368321773596108 ], [ 3145517.548141130246222, 2338519.339731394313276 ], [ 3145537.330969632603228, 2338511.737890445627272 ], [ 3145545.708155966363847, 2338509.014827091712505 ], [ 3145552.855902214534581, 2338510.599725271575153 ], [ 3145558.93274906091392, 2338513.916159481275827 ], [ 3145564.603814478032291, 2338520.461625569500029 ], [ 3145568.846651725936681, 2338533.786697442643344 ], [ 3145575.603012571111321, 2338546.221337473019958 ], [ 3145586.954222558066249, 2338561.018251341301948 ], [ 3145610.893533212132752, 2338581.684653511270881 ], [ 3145635.227416294626892, 2338597.541067177429795 ], [ 3145649.055429102852941, 2338606.094947746954858 ], [ 3145655.995876340195537, 2338607.863494657445699 ], [ 3145674.153932295739651, 2338606.207569719292223 ], [ 3145706.031260376796126, 2338601.970734666567296 ], [ 3145732.636320316232741, 2338608.463325026445091 ], [ 3145763.94842860661447, 2338621.981515417341143 ], [ 3145775.449079423211515, 2338647.514047374948859 ], [ 3145790.811981954611838, 2338657.766818872652948 ], [ 3145817.425272203981876, 2338664.626089514233172 ], [ 3145834.465713689103723, 2338685.007032918278128 ], [ 3145866.328261751681566, 2338685.995020128786564 ], [ 3145888.205225485377014, 2338678.481061404105276 ], [ 3145894.829521926585585, 2338680.208439263980836 ], [ 3145905.801636937074363, 2338685.977916030678898 ], [ 3145912.331059387885034, 2338689.025890935212374 ], [ 3145922.042747186496854, 2338688.044383388012648 ], [ 3145942.281435347162187, 2338674.810704171657562 ], [ 3145959.054633101448417, 2338648.089452187530696 ], [ 3145973.085482429713011, 2338637.155985623132437 ], [ 3145981.076959380879998, 2338631.973553261253983 ], [ 3145988.327500126324594, 2338628.776525069028139 ], [ 3146000.314315426163375, 2338629.076850165147334 ], [ 3146010.839428528212011, 2338632.243720855563879 ], [ 3146019.726238248869777, 2338638.191421035677195 ], [ 3146025.315500204451382, 2338647.488830650225282 ], [ 3146028.546643720008433, 2338664.339203539304435 ], [ 3146025.977134444750845, 2338685.430794287007302 ], [ 3146046.695628854446113, 2338723.433188614435494 ], [ 3146057.416881428100169, 2338738.54269728064537 ], [ 3146062.126640158705413, 2338744.969744310714304 ], [ 3146063.345852400641888, 2338753.387809002306312 ], [ 3146065.605921148788184, 2338759.60086221806705 ], [ 3146070.872158283833414, 2338767.096677236258984 ], [ 3146075.001566314138472, 2338770.72185130417347 ], [ 3146090.73279287153855, 2338777.8560332194902 ], [ 3146095.877523858100176, 2338779.943011172115803 ], [ 3146137.176438190974295, 2338778.862183230929077 ], [ 3146167.750657799653709, 2338767.426522029098123 ], [ 3146182.100034039467573, 2338762.997848716564476 ], [ 3146192.093442033976316, 2338762.784079025033861 ], [ 3146208.110553024336696, 2338764.892482282593846 ], [ 3146235.343672376126051, 2338776.768751604482532 ], [ 3146263.241421123035252, 2338788.766574395354837 ], [ 3146320.470043648499995, 2338788.611148828174919 ], [ 3146357.447513038758188, 2338788.310445194132626 ], [ 3146406.382021674420685, 2338782.648864166811109 ], [ 3146419.295832056552172, 2338778.950677284039557 ], [ 3146445.870240314863622, 2338770.88490852015093 ], [ 3146468.1657252041623, 2338767.519064113963395 ], [ 3146476.260195946320891, 2338766.686954541131854 ], [ 3146492.746260626241565, 2338769.771894114091992 ], [ 3146520.238351405132562, 2338782.235562820918858 ], [ 3146548.873382692225277, 2338790.532750484067947 ], [ 3146581.254424981307238, 2338792.537024985998869 ], [ 3146610.39829642418772, 2338790.136338388547301 ], [ 3146627.653498026542366, 2338789.172786608804017 ], [ 3146651.835347472690046, 2338794.47273137094453 ], [ 3146709.50032749120146, 2338797.33299136441201 ], [ 3146736.335578265599906, 2338810.678603907115757 ], [ 3146741.291938743554056, 2338812.807252381462604 ], [ 3146778.394841043278575, 2338822.515910673420876 ], [ 3146805.798372693359852, 2338833.281258242670447 ], [ 3146836.120405265130103, 2338833.445033134892583 ], [ 3146879.477236669510603, 2338847.301497144624591 ], [ 3146935.795820376835763, 2338865.450464458204806 ], [ 3146966.298733688890934, 2338875.280259037856013 ], [ 3146997.59504089364782, 2338891.262618026696146 ], [ 3147005.872928536497056, 2338895.282630113884807 ], [ 3147023.442599561996758, 2338908.8073536651209 ], [ 3147028.9119116300717, 2338912.487602735869586 ], [ 3147050.627673893235624, 2338919.089343117084354 ], [ 3147080.671101361513138, 2338936.127717501483858 ], [ 3147094.997362024150789, 2338943.642561766318977 ], [ 3147129.867890837602317, 2338958.454614124726504 ], [ 3147156.467010695487261, 2338981.430991316214204 ], [ 3147168.121978536248207, 2338990.982304270379245 ], [ 3147204.761614468879998, 2339013.306143078021705 ], [ 3147222.562880198471248, 2339034.263150936923921 ], [ 3147234.014513148460537, 2339035.713828438892961 ], [ 3147263.105251437053084, 2339048.102723255753517 ], [ 3147282.115122886374593, 2339069.544214067514986 ], [ 3147299.977324953302741, 2339082.78378211054951 ], [ 3147317.799093146808445, 2339095.348667973652482 ], [ 3147345.449879415798932, 2339107.344641198404133 ], [ 3147378.231931489892304, 2339121.448992089368403 ], [ 3147386.511054798960686, 2339124.223008680157363 ], [ 3147414.291461276821792, 2339131.023442943580449 ], [ 3147427.77376149687916, 2339142.764349999371916 ], [ 3149685.12365, 2339142.764349999371916 ], [ 3149685.12365, 2328739.023651513271034 ], [ 3149647.534725659526885, 2328807.815907944459468 ] ] ], [ [ [ 3135099.92919401358813, 2339141.954543607775122 ], [ 3135092.776643884368241, 2339112.041760307736695 ], [ 3135077.504956759512424, 2339090.075691184028983 ], [ 3135061.669255969114602, 2339075.696501079481095 ], [ 3135053.615561843849719, 2339069.948510532733053 ], [ 3135040.749571494758129, 2339052.694217666983604 ], [ 3135008.561574344523251, 2339009.908178268931806 ], [ 3134988.250746234785765, 2338969.639979312196374 ], [ 3134977.801083210855722, 2338958.497500736732036 ], [ 3134964.556370043661445, 2338950.697094826959074 ], [ 3134950.535894233267754, 2338945.574234161525965 ], [ 3134941.583573308773339, 2338944.763109761290252 ], [ 3134920.260937474202365, 2338946.392604137770832 ], [ 3134898.990623668767512, 2338952.889118440449238 ], [ 3134877.903994216118008, 2338960.028155733831227 ], [ 3134870.60807500127703, 2338966.203030242118984 ], [ 3134867.04519826406613, 2338977.198744090273976 ], [ 3134871.03027652669698, 2338996.81031481269747 ], [ 3134856.070710057392716, 2339004.123190402053297 ], [ 3134842.520644435659051, 2339010.3638562457636 ], [ 3134828.534895273856819, 2339014.793989522382617 ], [ 3134814.242952635511756, 2339014.446698210202157 ], [ 3134799.536837478168309, 2339011.372433474753052 ], [ 3134785.871471028774977, 2339005.930001019965857 ], [ 3134794.79348584683612, 2338985.21563305426389 ], [ 3134760.589979319833219, 2338963.398732571862638 ], [ 3134743.99857088085264, 2338947.525897648651153 ], [ 3134724.840369271114469, 2338911.368155402131379 ], [ 3134722.626608716323972, 2338903.555071691516787 ], [ 3134722.336651692632586, 2338895.270897048525512 ], [ 3134727.747443339787424, 2338878.089097581803799 ], [ 3134725.621757194399834, 2338844.616144642233849 ], [ 3134708.458147749304771, 2338743.645635018125176 ], [ 3134676.901653143577278, 2338715.315366012044251 ], [ 3134641.535041770432144, 2338707.365673025138676 ], [ 3134617.293158718384802, 2338699.651695393025875 ], [ 3134599.99143576901406, 2338686.11770482826978 ], [ 3134597.883527212776244, 2338681.739460631273687 ], [ 3134591.660612055100501, 2338653.955884961877018 ], [ 3134587.003276052884758, 2338625.653052598237991 ], [ 3134581.132427998818457, 2338579.25314633268863 ], [ 3134575.390932016074657, 2338548.366709839552641 ], [ 3134554.509050182532519, 2338486.361651118844748 ], [ 3134535.245323313400149, 2338443.351033109240234 ], [ 3134520.765268647111952, 2338417.772441234905273 ], [ 3134519.625190349295735, 2338411.615089252125472 ], [ 3134520.661333612166345, 2338404.081821146421134 ], [ 3134533.585872785188258, 2338372.881397756747901 ], [ 3134538.833367263898253, 2338317.301307818386704 ], [ 3134487.293826347216964, 2338282.084685788489878 ], [ 3134479.171794163994491, 2338276.046626763883978 ], [ 3134472.695424952544272, 2338266.645197894889861 ], [ 3134469.476999862119555, 2338248.828900123946369 ], [ 3134474.54601989639923, 2338205.075523403473198 ], [ 3134470.453978932462633, 2338154.507920638658106 ], [ 3134456.508769022766501, 2338122.065699618775398 ], [ 3134439.921156835742295, 2338096.750013717450202 ], [ 3134430.916270496789366, 2338069.552928663790226 ], [ 3134421.323014200665057, 2338026.012470213696361 ], [ 3134403.633851590100676, 2337979.173640896566212 ], [ 3134390.516441758256406, 2337959.504393194802105 ], [ 3134338.877047976478934, 2337920.154250851366669 ], [ 3134263.380055701825768, 2337881.81166459992528 ], [ 3134230.228135298471898, 2337873.255946910008788 ], [ 3134188.986474704928696, 2337874.056076652370393 ], [ 3134157.427250030450523, 2337882.716137174982578 ], [ 3134154.770827677566558, 2337883.687115906737745 ], [ 3134150.984219719655812, 2337869.506527264136821 ], [ 3134125.935938999522477, 2337846.054755629971623 ], [ 3134111.486721900757402, 2337836.916694446001202 ], [ 3134104.982541495934129, 2337831.157984249759465 ], [ 3134101.502795843873173, 2337824.670160836074501 ], [ 3134099.170211360789835, 2337812.907886280678213 ], [ 3134091.878191868774593, 2337780.080218483228236 ], [ 3134079.947759507223964, 2337750.169389912392944 ], [ 3134074.206344496458769, 2337740.222105585038662 ], [ 3134066.29016484785825, 2337720.672920744866133 ], [ 3134061.458821897394955, 2337710.064142497722059 ], [ 3134052.598446351941675, 2337680.897042843513191 ], [ 3134043.528168379794806, 2337652.038641063030809 ], [ 3134030.080060109496117, 2337618.312444039154798 ], [ 3134000.524651825428009, 2337581.581575197167695 ], [ 3133971.606231936253607, 2337546.170930030755699 ], [ 3133967.268575493246317, 2337539.326427798252553 ], [ 3133956.962569065392017, 2337510.903811663389206 ], [ 3133954.773950000759214, 2337503.951273834332824 ], [ 3133954.773950000759214, 2337569.824931831564754 ], [ 3133959.036598461680114, 2337575.514514809474349 ], [ 3133969.815790648572147, 2337589.590209764428437 ], [ 3133983.954202498774976, 2337605.284455612301826 ], [ 3133989.75999846868217, 2337611.843610747717321 ], [ 3133996.239873706363142, 2337619.192619804292917 ], [ 3134002.34664648026228, 2337628.064015188254416 ], [ 3134007.603098363615572, 2337637.661236972548068 ], [ 3134013.091777090914547, 2337651.06571736279875 ], [ 3134019.531979476101696, 2337668.356421300210059 ], [ 3134023.199124410748482, 2337679.433219293132424 ], [ 3134028.229131171479821, 2337698.185630631633103 ], [ 3134034.234817119315267, 2337717.41578128002584 ], [ 3134039.606475838460028, 2337729.885325435083359 ], [ 3134042.937493319623172, 2337738.60007240017876 ], [ 3134045.947390172630548, 2337747.218703861348331 ], [ 3134050.2485900237225, 2337754.979975296650082 ], [ 3134055.958300380967557, 2337765.340751768089831 ], [ 3134060.847132239956409, 2337775.176423853263259 ], [ 3134062.675363338086754, 2337781.04454498225823 ], [ 3134065.253663568757474, 2337789.503028264269233 ], [ 3134046.41952670365572, 2337797.835931622423232 ], [ 3134053.999678961932659, 2337842.333660001866519 ], [ 3134065.142152014188468, 2337863.107881433796138 ], [ 3134081.181761073879898, 2337877.309213212691247 ], [ 3134095.050139694940299, 2337886.07994859199971 ], [ 3134106.42522657988593, 2337896.729915765114129 ], [ 3134110.489729860797524, 2337911.951303946785629 ], [ 3134129.239169539883733, 2337938.035897097084671 ], [ 3134152.922130182385445, 2337937.484930450096726 ], [ 3134172.027558388654143, 2337930.501504752319306 ], [ 3134195.558770433068275, 2337924.044418985955417 ], [ 3134223.793901186436415, 2337923.496622258797288 ], [ 3134245.200984717346728, 2337929.021234575193375 ], [ 3134302.671100977342576, 2337954.103744979482144 ], [ 3134323.033804678358138, 2337943.74153411667794 ], [ 3134335.748753439169377, 2337951.452469736337662 ], [ 3134355.686783130280674, 2337967.141189347486943 ], [ 3134370.388739814981818, 2337980.047665045130998 ], [ 3134378.500805330462754, 2337992.211608048062772 ], [ 3134383.925044145435095, 2338005.870277922600508 ], [ 3134394.462345591280609, 2338034.488709446974099 ], [ 3134373.36421291437, 2338040.930775733198971 ], [ 3134382.735265062190592, 2338083.462582536973059 ], [ 3134394.584349510259926, 2338119.249819993972778 ], [ 3134412.355897963047028, 2338146.372333707287908 ], [ 3134421.373412289191037, 2338167.350713760592043 ], [ 3134424.405372591689229, 2338204.818187777418643 ], [ 3134419.048776168376207, 2338251.053414996247739 ], [ 3134425.492483741603792, 2338286.723294759169221 ], [ 3134442.635613068006933, 2338311.60945503693074 ], [ 3134458.066363445483148, 2338323.080789961386472 ], [ 3134486.389842612668872, 2338342.433995527215302 ], [ 3134484.62004394736141, 2338361.178370993118733 ], [ 3134472.116216421592981, 2338391.363267110660672 ], [ 3134469.083856275305152, 2338413.409529223106802 ], [ 3134473.21533112321049, 2338435.721620928496122 ], [ 3134490.640822525136173, 2338466.503101837355644 ], [ 3134507.976999778300524, 2338505.210032475180924 ], [ 3134526.973241170868278, 2338561.616196388378739 ], [ 3134531.806005259975791, 2338587.613885032944381 ], [ 3134537.611770841758698, 2338633.499905201606452 ], [ 3134542.652793786488473, 2338664.133792120032012 ], [ 3134550.43525354610756, 2338698.880363874137402 ], [ 3134559.997279855422676, 2338718.740780981257558 ], [ 3134593.271577294915915, 2338744.769102687481791 ], [ 3134627.969990669749677, 2338755.810506942681968 ], [ 3134652.914474498014897, 2338761.417444089893252 ], [ 3134662.15882854256779, 2338769.716741257347167 ], [ 3134675.984371995087713, 2338851.049925430677831 ], [ 3134677.347622238099575, 2338872.51544156530872 ], [ 3134672.159106147941202, 2338888.991200422868133 ], [ 3134672.96447444986552, 2338912.00043236836791 ], [ 3134678.262420847546309, 2338930.697978882584721 ], [ 3134699.924974287860096, 2338975.979383745230734 ], [ 3134716.42948907148093, 2338998.221925021614879 ], [ 3134727.125844894908369, 2339009.015604970511049 ], [ 3134740.075120370369405, 2339016.868660508655012 ], [ 3134753.354372794739902, 2339023.647054205648601 ], [ 3134782.298949836753309, 2339033.223804097156972 ], [ 3134797.423145301640034, 2339035.813650061842054 ], [ 3134812.549319925718009, 2339037.18416623165831 ], [ 3134839.916749569587409, 2339033.640237698797137 ], [ 3134857.783249349333346, 2339029.944019493181258 ], [ 3134871.494452352635562, 2339023.947720797732472 ], [ 3134896.895253878552467, 2339015.394684420898557 ], [ 3134919.253349984996021, 2339005.659698510542512 ], [ 3134944.425880653783679, 2339002.965214436408132 ], [ 3134970.638343026395887, 2339023.488097816705704 ], [ 3135003.871048470959067, 2339072.598108639474958 ], [ 3135031.717646649107337, 2339127.745467300061136 ], [ 3135035.870327405165881, 2339142.764349999371916 ], [ 3135100.161080687306821, 2339142.764349999371916 ], [ 3135099.92919401358813, 2339141.954543607775122 ] ] ] ] } }
]
}
