{
"type": "FeatureCollection",
"name": "Castejón",
"crs": { "type": "name", "properties": { "name": "urn:ogc:def:crs:EPSG::3035" } },
"features": [
{ "type": "Feature", "properties": { "SITE_NAME": "Balsa de Agua Salada", "ODESIGNATE": "Reserva Natural", "NUT2": 22, "SITE_CODE_": "ES220007", "DESIG_ABBR": "ES04", "SITE_CDDA": "92752_CDDA", "Sup_ha": 16.333482843799999 }, "geometry": { "type": "Polygon", "coordinates": [ [ [ 3353992.50056212535128, 2187304.555466715246439 ], [ 3353994.08115744497627, 2187304.282838414888829 ], [ 3354012.416494107805192, 2187296.462225726805627 ], [ 3354014.316306363325566, 2187295.020520924124867 ], [ 3354020.00386793166399, 2187289.988457289990038 ], [ 3354023.673163529951125, 2187286.924848242662847 ], [ 3354026.816835700534284, 2187283.749398089013994 ], [ 3354032.551779946312308, 2187279.012922586407512 ], [ 3354036.66752368863672, 2187275.568685731850564 ], [ 3354037.164897632785141, 2187274.875014274381101 ], [ 3354038.481329017318785, 2187269.17872942565009 ], [ 3354042.590389869641513, 2187261.278990791644901 ], [ 3354047.522909536957741, 2187255.971875888295472 ], [ 3354054.164885471109301, 2187248.040559499524534 ], [ 3354058.723437920678407, 2187244.823733403813094 ], [ 3354063.587322875857353, 2187237.198894949629903 ], [ 3354065.223160316701978, 2187230.333405397366732 ], [ 3354066.259543595369905, 2187219.114722066558897 ], [ 3354065.926915219053626, 2187211.373108943458647 ], [ 3354066.363601541612297, 2187201.473148001357913 ], [ 3354065.990391233935952, 2187192.21935610473156 ], [ 3354063.020265600644052, 2187188.27490864507854 ], [ 3354057.915868104435503, 2187183.685696837957948 ], [ 3354054.642205728683621, 2187181.009007486514747 ], [ 3354050.83784122299403, 2187176.296932333614677 ], [ 3354048.141023483593017, 2187173.419600897934288 ], [ 3354044.941506811883301, 2187169.312134652398527 ], [ 3354042.925894049927592, 2187162.468411716166884 ], [ 3354042.014445951674134, 2187158.067828197963536 ], [ 3354042.079902608878911, 2187155.32174024451524 ], [ 3354043.386095698922873, 2187145.778391560539603 ], [ 3354045.244229160249233, 2187140.292471411637962 ], [ 3354048.389946169685572, 2187133.976940042339265 ], [ 3354051.181019473820925, 2187129.241732728201896 ], [ 3354054.379913098644465, 2187119.473136281594634 ], [ 3354056.883867749013007, 2187110.432274373713881 ], [ 3354058.849246568512172, 2187106.24447263404727 ], [ 3354061.051143387332559, 2187101.003242758102715 ], [ 3354063.891931689344347, 2187093.423483711667359 ], [ 3354069.008309829980135, 2187084.84366571623832 ], [ 3354072.183712612837553, 2187081.865229942835867 ], [ 3354072.87878506584093, 2187081.137677385937423 ], [ 3354080.744547426234931, 2187077.654403189197183 ], [ 3354083.173803580459207, 2187075.716283693443984 ], [ 3354086.049263850320131, 2187073.397275124676526 ], [ 3354091.485901539213955, 2187071.852302590850741 ], [ 3354096.484843722544611, 2187072.003053774125874 ], [ 3354100.993700738064945, 2187071.630795935634524 ], [ 3354111.358168969862163, 2187076.730981452856213 ], [ 3354119.814176227897406, 2187081.957848822697997 ], [ 3354128.649302260018885, 2187087.017762143630534 ], [ 3354136.0539156710729, 2187092.020665912423283 ], [ 3354143.019420032389462, 2187096.187815069686621 ], [ 3354148.917748790234327, 2187100.032334092073143 ], [ 3354158.290830941405147, 2187105.911367834545672 ], [ 3354168.431280011311173, 2187112.772030049003661 ], [ 3354175.756573397666216, 2187117.282187598757446 ], [ 3354187.385867438744754, 2187122.670833823736757 ], [ 3354198.413304230198264, 2187112.970496182329953 ], [ 3354204.337270829826593, 2187106.884768483228981 ], [ 3354209.892764392308891, 2187099.14072738122195 ], [ 3354215.898191537708044, 2187090.407650009728968 ], [ 3354220.397253285627812, 2187080.516303118318319 ], [ 3354217.957766436040401, 2187078.607450488954782 ], [ 3354214.027957923710346, 2187075.6387436138466 ], [ 3354210.311578339431435, 2187072.734523819759488 ], [ 3354205.764459308702499, 2187068.454361675307155 ], [ 3354202.044613198377192, 2187066.158652258571237 ], [ 3354196.149867568165064, 2187061.705699879676104 ], [ 3354189.985415547154844, 2187055.577303143683821 ], [ 3354186.110296296421438, 2187051.687603418249637 ], [ 3354183.369490005075932, 2187047.906288802623749 ], [ 3354179.386935491580516, 2187042.718509344384074 ], [ 3354175.333729737903923, 2187038.35319105302915 ], [ 3354171.411117747426033, 2187034.167825397104025 ], [ 3354170.712865118868649, 2187033.156004999298602 ], [ 3353660.835191242862493, 2187033.156004999298602 ], [ 3353697.026602291502059, 2187059.044029420241714 ], [ 3353725.609095970634371, 2187084.60214520804584 ], [ 3353759.301814247388393, 2187111.001000609714538 ], [ 3353786.952853807248175, 2187138.340203302912414 ], [ 3353790.163073568139225, 2187140.622781821060926 ], [ 3353793.173587475437671, 2187146.079440272878855 ], [ 3353794.617541196756065, 2187155.047343801707029 ], [ 3353794.479315775446594, 2187161.756016766186804 ], [ 3353793.215554350521415, 2187169.671511824708432 ], [ 3353791.814109975472093, 2187178.623703471384943 ], [ 3353790.123525845818222, 2187186.410426090005785 ], [ 3353787.990288123954087, 2187193.969414393883198 ], [ 3353786.569389875046909, 2187203.431390918791294 ], [ 3353786.056456729769707, 2187217.902273993007839 ], [ 3353789.321962721180171, 2187213.591659502126276 ], [ 3353791.88521284237504, 2187211.225270158611238 ], [ 3353794.404447461478412, 2187207.954799620900303 ], [ 3353799.612378452438861, 2187200.57455918751657 ], [ 3353804.511497093830258, 2187192.538568552117795 ], [ 3353816.071808715350926, 2187181.733369744382799 ], [ 3353818.035278701689094, 2187180.685824839398265 ], [ 3353824.184290945529938, 2187181.043491257354617 ], [ 3353831.377606597729027, 2187182.841765362303704 ], [ 3353833.476554207503796, 2187183.89775468269363 ], [ 3353838.348263515159488, 2187188.932217347435653 ], [ 3353843.951670774258673, 2187195.359902101568878 ], [ 3353849.084288730286062, 2187200.754419282544404 ], [ 3353855.077305641025305, 2187210.862387438304722 ], [ 3353857.54274234874174, 2187216.716989086009562 ], [ 3353861.766444345936179, 2187228.446637004613876 ], [ 3353865.52113180141896, 2187236.003367378842086 ], [ 3353869.73609359562397, 2187246.418015015311539 ], [ 3353874.876876417547464, 2187258.799823390785605 ], [ 3353879.07957104081288, 2187268.507589070126414 ], [ 3353882.366967059671879, 2187274.422836723737419 ], [ 3353890.247618168126792, 2187282.382098306436092 ], [ 3353896.82668135734275, 2187287.932563181966543 ], [ 3353904.989933236967772, 2187292.602065078914165 ], [ 3353914.401913745328784, 2187297.461300035007298 ], [ 3353922.050207978114486, 2187300.193884028121829 ], [ 3353930.603290441911668, 2187302.871647807769477 ], [ 3353940.523669724352658, 2187305.212476938031614 ], [ 3353951.893966806586832, 2187307.100841077044606 ], [ 3353958.125994051806629, 2187307.34291644115001 ], [ 3353964.485038265585899, 2187308.373375613708049 ], [ 3353977.797739994246513, 2187307.192025125026703 ], [ 3353981.717374108731747, 2187306.313526595477015 ], [ 3353992.50056212535128, 2187304.555466715246439 ] ] ] } },
{ "type": "Feature", "properties": { "SITE_NAME": "Soto Alto", "ODESIGNATE": "Enclave Natural", "NUT2": 22, "SITE_CODE_": "ES220102", "DESIG_ABBR": "ES18", "SITE_CDDA": "349394_CDDA", "Sup_ha": 10.0824257891 }, "geometry": { "type": "Polygon", "coordinates": [ [ [ 3358119.926157550886273, 2193259.029688709881157 ], [ 3358049.553031418472528, 2193244.42334653949365 ], [ 3358033.390274601988494, 2193243.664929277263582 ], [ 3357980.850403434596956, 2193250.900551276747137 ], [ 3357928.882102618925273, 2193261.683942751958966 ], [ 3357857.182760669384152, 2193282.959652858786285 ], [ 3357837.083065703511238, 2193291.793589760083705 ], [ 3357781.264423820190132, 2193322.789654957596213 ], [ 3357754.805770865641534, 2193336.264972596429288 ], [ 3357735.642645131796598, 2193339.569133169017732 ], [ 3357733.864753298461437, 2193339.875765230040997 ], [ 3357714.431746941525489, 2193341.504469216335565 ], [ 3357697.046631403267384, 2193344.502093711402267 ], [ 3357676.661131289787591, 2193351.562213046941906 ], [ 3357656.930189761798829, 2193362.054365881718695 ], [ 3357612.15003399644047, 2193384.057251935359091 ], [ 3357632.992254707030952, 2193380.463432141579688 ], [ 3357652.155365305021405, 2193377.159226154442877 ], [ 3357661.419503951445222, 2193379.208222332876176 ], [ 3357677.299957788549364, 2193388.928429644554853 ], [ 3357689.167666335124522, 2193395.795412479434162 ], [ 3357724.736896610818803, 2193396.651257514487952 ], [ 3357774.769955604337156, 2193376.37640214478597 ], [ 3357862.889293250627816, 2193334.138891014736146 ], [ 3357892.434705179650337, 2193327.221394981257617 ], [ 3357922.65059271780774, 2193323.83478288166225 ], [ 3357938.868025497533381, 2193323.672140504233539 ], [ 3358018.07289361115545, 2193332.602867195382714 ], [ 3358074.710366746410728, 2193336.308758954983205 ], [ 3358101.846400714945048, 2193347.836068158969283 ], [ 3358118.988111173734069, 2193358.452980251051486 ], [ 3358122.223128771875054, 2193367.821429200004786 ], [ 3358124.925628824159503, 2193395.310879103839397 ], [ 3358126.354506026022136, 2193421.196636321488768 ], [ 3358127.402446973603219, 2193456.061388987582177 ], [ 3358125.18367818556726, 2193470.016364586539567 ], [ 3358131.105177449528128, 2193489.759436793625355 ], [ 3358146.27493895124644, 2193511.45291994838044 ], [ 3358166.083910076878965, 2193538.626314261928201 ], [ 3358179.161830558441579, 2193558.047070269007236 ], [ 3358203.916621572338045, 2193571.80810727365315 ], [ 3358210.663574340753257, 2193579.659398777410388 ], [ 3358230.67518091481179, 2193586.033890872262418 ], [ 3358231.486104852985591, 2193585.995269669219851 ], [ 3358232.751242158003151, 2193585.935263379011303 ], [ 3358268.759657841641456, 2193584.22805445920676 ], [ 3358287.019659911748022, 2193583.510651361662894 ], [ 3358369.039839346893132, 2193583.448161602485925 ], [ 3358425.195587134920061, 2193582.274243669118732 ], [ 3358448.667998767923564, 2193587.44463260890916 ], [ 3358479.342217577621341, 2193595.536146648228168 ], [ 3358532.360760959796607, 2193609.521698862779886 ], [ 3358546.425827209837735, 2193613.23196981754154 ], [ 3358605.053027370478958, 2193631.180609427392483 ], [ 3358622.598834885749966, 2193637.372692216187716 ], [ 3358624.503701904788613, 2193639.298244697973132 ], [ 3358626.570702056400478, 2193641.387684065848589 ], [ 3358631.330165011808276, 2193646.198638652451336 ], [ 3358636.598053527064621, 2193654.141968801617622 ], [ 3358637.900818584486842, 2193656.106093618087471 ], [ 3358638.167854611296207, 2193656.138453577179462 ], [ 3358650.325776257086545, 2193657.610301529988647 ], [ 3358666.215214307419956, 2193657.301694785244763 ], [ 3358668.096939472481608, 2193653.95902863284573 ], [ 3358668.109667835757136, 2193653.93657682929188 ], [ 3358668.109699701890349, 2193653.908413453027606 ], [ 3358668.155978440307081, 2193643.131058820523322 ], [ 3358668.157126020640135, 2193642.887973954901099 ], [ 3358666.66773440502584, 2193642.543398052453995 ], [ 3358651.600967418402433, 2193639.05755162332207 ], [ 3358627.382440132088959, 2193629.255216778255999 ], [ 3358599.306228464469314, 2193618.193791165016592 ], [ 3358561.860125293489546, 2193606.31693774368614 ], [ 3358520.646231047809124, 2193597.520566982217133 ], [ 3358483.21952186897397, 2193585.133871871046722 ], [ 3358464.012141740415245, 2193576.189652585424483 ], [ 3358446.979817231651396, 2193569.402541698887944 ], [ 3358424.216537469532341, 2193561.071473148651421 ], [ 3358420.756271237973124, 2193555.634838252328336 ], [ 3358419.992825971450657, 2193554.435438340995461 ], [ 3358417.420034573413432, 2193550.392765585333109 ], [ 3358420.416852062568069, 2193535.594476318918169 ], [ 3358429.204530327115208, 2193523.342902201227844 ], [ 3358424.632442072499543, 2193506.304747097194195 ], [ 3358396.233156432397664, 2193462.988394423853606 ], [ 3358335.974097350146621, 2193400.248310360126197 ], [ 3358309.254107676446438, 2193356.642472215928137 ], [ 3358296.545150218531489, 2193344.552092141006142 ], [ 3358265.815885660238564, 2193308.828875722829252 ], [ 3358231.705338975880295, 2193286.147057383321226 ], [ 3358202.182699949480593, 2193280.601952961180359 ], [ 3358169.754902890883386, 2193268.36641320772469 ], [ 3358119.926157550886273, 2193259.029688709881157 ] ] ] } },
{ "type": "Feature", "properties": { "SITE_NAME": "Soto del Ramalete", "ODESIGNATE": "Reserva Natural", "NUT2": 22, "SITE_CODE_": "ES220044", "DESIG_ABBR": "ES04", "SITE_CDDA": "151296_CDDA", "Sup_ha": 48.714031731 }, "geometry": { "type": "Polygon", "coordinates": [ [ [ 3360125.468261448200792, 2192133.092860785312951 ], [ 3360127.722533453721553, 2192135.742866807617247 ], [ 3360128.637926243711263, 2192139.535088934935629 ], [ 3360129.662694596219808, 2192141.485543014016002 ], [ 3360131.130279638804495, 2192143.663429088890553 ], [ 3360132.763485473580658, 2192145.610201381146908 ], [ 3360133.352695343084633, 2192146.116255592554808 ], [ 3360137.802995845675468, 2192147.273543684277683 ], [ 3360138.612859786022455, 2192146.627540572080761 ], [ 3360142.191972314845771, 2192139.224620719440281 ], [ 3360141.532415726687759, 2192133.869039134122431 ], [ 3360141.500657864846289, 2192133.67184253456071 ], [ 3360137.45835353853181, 2192116.137547923251987 ], [ 3360132.87938425457105, 2192105.988124248571694 ], [ 3360128.618032800965011, 2192097.809647052083164 ], [ 3360124.515261061023921, 2192090.616480072960258 ], [ 3360120.590672479942441, 2192083.899329077918082 ], [ 3360118.69630976812914, 2192081.592328981030732 ], [ 3360113.507158372085541, 2192068.914780125021935 ], [ 3360107.197879766579717, 2192059.367533431388438 ], [ 3360101.715759885497391, 2192051.804494763724506 ], [ 3360096.052065825555474, 2192044.374136545229703 ], [ 3360090.324889193754643, 2192036.549582513980567 ], [ 3360085.214911276940256, 2192030.036533778067678 ], [ 3360078.866686764638871, 2192021.508845067117363 ], [ 3360073.689786187838763, 2192015.210001121275127 ], [ 3360067.041734138038009, 2192007.341492313891649 ], [ 3360060.485367847140878, 2192000.672695282846689 ], [ 3360059.488722695503384, 2191999.527872892096639 ], [ 3360043.951062648557127, 2191976.175931684672832 ], [ 3360038.338461545296013, 2191968.433019282761961 ], [ 3360035.304621400311589, 2191964.094256952870637 ], [ 3360030.295371548738331, 2191954.424238776788116 ], [ 3360027.406163840554655, 2191947.832192654721439 ], [ 3360023.88034970453009, 2191940.438510255888104 ], [ 3360018.77594649977982, 2191930.176984537392855 ], [ 3360011.47358370013535, 2191918.876502356026322 ], [ 3360006.409516877029091, 2191910.127492962405086 ], [ 3359999.370010411832482, 2191901.718750746455044 ], [ 3359994.288245219737291, 2191896.011220404412597 ], [ 3359988.172978424467146, 2191887.038149207364768 ], [ 3359982.518058491870761, 2191880.922981876414269 ], [ 3359976.166279156226665, 2191873.003517746925354 ], [ 3359970.918779482133687, 2191867.527020451147109 ], [ 3359963.528242769651115, 2191860.090542571619153 ], [ 3359959.854115550406277, 2191855.558284430764616 ], [ 3359954.617221434600651, 2191848.257045243866742 ], [ 3359949.48783281352371, 2191842.253770917654037 ], [ 3359943.840030969120562, 2191834.921967329457402 ], [ 3359937.768727147951722, 2191826.852880972437561 ], [ 3359932.734693752136081, 2191821.441081213764846 ], [ 3359925.8873624606058, 2191811.074820956680924 ], [ 3359920.366626306902617, 2191804.531393095850945 ], [ 3359908.232716603670269, 2191795.380441737826914 ], [ 3359899.827708791941404, 2191789.840444671455771 ], [ 3359892.613393841311336, 2191786.019834143575281 ], [ 3359885.876980039291084, 2191782.015370044391602 ], [ 3359875.041450106538832, 2191775.881640479899943 ], [ 3359868.146249505225569, 2191770.891803172882646 ], [ 3359864.359230328351259, 2191768.80993007030338 ], [ 3359858.113161386456341, 2191765.328661659732461 ], [ 3359852.274641366209835, 2191762.486243017949164 ], [ 3359841.694942597299814, 2191754.789058200083673 ], [ 3359833.000644872896373, 2191748.083717656321824 ], [ 3359826.084461980499327, 2191741.071712038479745 ], [ 3359816.423808695748448, 2191730.886691732797772 ], [ 3359809.664610559586436, 2191722.328467010520399 ], [ 3359804.254875059705228, 2191716.474903748370707 ], [ 3359800.970599472522736, 2191709.951158329844475 ], [ 3359799.138295109383762, 2191699.834678349085152 ], [ 3359798.596984918229282, 2191693.952302607707679 ], [ 3359798.136917996220291, 2191685.422330656088889 ], [ 3359796.692555580753833, 2191676.454603566322476 ], [ 3359796.585212217178196, 2191669.48448963323608 ], [ 3359796.687933359760791, 2191657.515242259018123 ], [ 3359795.656383534427732, 2191651.109657166525722 ], [ 3359793.697045854758471, 2191640.204903580248356 ], [ 3359791.80473461933434, 2191629.085928941145539 ], [ 3359790.498088579624891, 2191619.081425185315311 ], [ 3359789.880586562678218, 2191617.769873887766153 ], [ 3359788.247820397373289, 2191604.479401991236955 ], [ 3359786.639531938824803, 2191592.602387673221529 ], [ 3359785.158139970619231, 2191581.513979685492814 ], [ 3359783.565857310779393, 2191569.73569559212774 ], [ 3359782.553737295325845, 2191557.148330072406679 ], [ 3359780.613963877782226, 2191545.733892601914704 ], [ 3359779.594811686314642, 2191534.363050068728626 ], [ 3359780.45260772947222, 2191522.6688153129071 ], [ 3359782.435787663795054, 2191509.767982199322432 ], [ 3359786.034730127546936, 2191496.183334079571068 ], [ 3359788.532944405917078, 2191485.219218438491225 ], [ 3359791.018754046875983, 2191473.548254025634378 ], [ 3359795.150556813459843, 2191458.858833152800798 ], [ 3359800.278933729976416, 2191445.314450041390955 ], [ 3359803.286851359531283, 2191434.363881256897002 ], [ 3359806.324737461283803, 2191426.750319313723594 ], [ 3359809.570706624537706, 2191417.277986000292003 ], [ 3359812.208289872854948, 2191407.809022764675319 ], [ 3359812.76741592399776, 2191404.977989986073226 ], [ 3359815.482647256460041, 2191393.470067858230323 ], [ 3359817.389839395880699, 2191385.140032682567835 ], [ 3359820.410245632752776, 2191374.896107564680278 ], [ 3359826.636071656830609, 2191353.667692286428064 ], [ 3359833.113959047943354, 2191337.156084298621863 ], [ 3359837.540205433964729, 2191325.555751317180693 ], [ 3359840.274575958494097, 2191319.210124432109296 ], [ 3359847.750825218856335, 2191306.375147883314639 ], [ 3359852.741507458500564, 2191293.867374083492905 ], [ 3359857.224215751513839, 2191283.877861762885004 ], [ 3359864.202942076139152, 2191271.736548519227654 ], [ 3359869.719262816011906, 2191259.340658373665065 ], [ 3359875.018805466592312, 2191247.488652663305402 ], [ 3359879.522472476586699, 2191239.521213836967945 ], [ 3359886.347679342143238, 2191228.317825113423169 ], [ 3359892.481522242538631, 2191217.233593544922769 ], [ 3359897.445669339504093, 2191206.45224063610658 ], [ 3359905.299521097913384, 2191190.918948737904429 ], [ 3359909.356919505633414, 2191183.332386042457074 ], [ 3359926.173855536617339, 2191156.632216341793537 ], [ 3359936.322692140936852, 2191139.589297731872648 ], [ 3359943.587178711779416, 2191129.221683624200523 ], [ 3359949.768461883999407, 2191118.433155859354883 ], [ 3359955.986838206648827, 2191109.765091782901436 ], [ 3359960.389807486906648, 2191104.954928203951567 ], [ 3359965.392778466455638, 2191098.825855863280594 ], [ 3359968.922605040483177, 2191094.267559106927365 ], [ 3359973.600685829296708, 2191093.055989187210798 ], [ 3359980.376187049783766, 2191090.368927653878927 ], [ 3359986.236023014876992, 2191089.561697420664132 ], [ 3359990.435985272284597, 2191088.533914279658347 ], [ 3359992.822583780158311, 2191088.22378468606621 ], [ 3359995.856723993085325, 2191086.89060629857704 ], [ 3359998.853858858346939, 2191083.43685252731666 ], [ 3360001.353423120453954, 2191080.676552420016378 ], [ 3360003.607917198911309, 2191077.654638068284839 ], [ 3360005.18671428412199, 2191074.850458373315632 ], [ 3360007.171435705386102, 2191070.153218774590641 ], [ 3360008.84946324955672, 2191061.659963150043041 ], [ 3360008.877917658071965, 2191056.793554855510592 ], [ 3360007.682111114729196, 2191053.150870990008116 ], [ 3360006.170624049846083, 2191050.069009298458695 ], [ 3359995.588946940843016, 2191045.512018159031868 ], [ 3359984.977214818820357, 2191043.289626346901059 ], [ 3359980.415716980118304, 2191041.442393763456494 ], [ 3359974.102663343306631, 2191038.17541183065623 ], [ 3359968.814392720349133, 2191036.858567290939391 ], [ 3359960.538019050844014, 2191034.638933558017015 ], [ 3359953.676385718397796, 2191032.377845398150384 ], [ 3359948.000256060156971, 2191029.912647761404514 ], [ 3359942.438630130607635, 2191027.528696269728243 ], [ 3359935.474680321291089, 2191025.893146698828787 ], [ 3359929.438518327660859, 2191023.084764071274549 ], [ 3359924.157382774166763, 2191020.551291135139763 ], [ 3359919.844653592910618, 2191018.357540575787425 ], [ 3359915.748875377234071, 2191015.619678916409612 ], [ 3359912.522706571035087, 2191013.238465087022632 ], [ 3359907.762079735286534, 2191008.893670144025236 ], [ 3359904.144354206044227, 2191005.972237668931484 ], [ 3359900.969458737410605, 2191003.278337094001472 ], [ 3359893.289694190956652, 2190994.676210455130786 ], [ 3359887.034310343675315, 2191001.223795693833381 ], [ 3359880.491468877065927, 2191009.137306295335293 ], [ 3359876.155467128381133, 2191013.733565472532064 ], [ 3359871.270771788898855, 2191019.335637599695474 ], [ 3359866.883581638801843, 2191024.244470186065882 ], [ 3359863.897261225618422, 2191025.873365249484777 ], [ 3359860.928296124562621, 2191030.132540876511484 ], [ 3359853.854567603208125, 2191036.010702218394727 ], [ 3359849.649057423695922, 2191040.786842091474682 ], [ 3359846.087309332564473, 2191045.148183115292341 ], [ 3359843.07253941334784, 2191051.643495258875191 ], [ 3359836.101178788114339, 2191056.896419601514935 ], [ 3359832.096800409257412, 2191061.030197638086975 ], [ 3359827.385003532748669, 2191065.184714345261455 ], [ 3359823.574720727279782, 2191069.892744375392795 ], [ 3359817.227787965908647, 2191075.240624235477298 ], [ 3359810.635588147677481, 2191080.326925523579121 ], [ 3359794.385695805773139, 2191091.635460096877068 ], [ 3359790.273705643601716, 2191094.471104003023356 ], [ 3359781.600076642818749, 2191101.131543766707182 ], [ 3359749.12661843560636, 2191122.022498391102999 ], [ 3359745.67444290779531, 2191124.541762672364712 ], [ 3359740.274968713987619, 2191128.207213962450624 ], [ 3359732.477958676405251, 2191134.007498507387936 ], [ 3359728.697620218154043, 2191136.380856863223016 ], [ 3359716.72546317614615, 2191144.622650585137308 ], [ 3359714.395116501487792, 2191146.543640780262649 ], [ 3359702.802118445746601, 2191154.618809311185032 ], [ 3359692.643228192813694, 2191162.14296396728605 ], [ 3359681.895302700810134, 2191169.160837842151523 ], [ 3359677.2699837051332, 2191172.591389851644635 ], [ 3359670.515660612378269, 2191177.300633422564715 ], [ 3359661.095851549878716, 2191185.001271384768188 ], [ 3359652.011140054091811, 2191191.631218252237886 ], [ 3359642.990121559239924, 2191198.655427730642259 ], [ 3359631.384752877056599, 2191206.023872467223555 ], [ 3359623.093956324271858, 2191211.909293411299586 ], [ 3359613.037428542971611, 2191218.808132152073085 ], [ 3359601.941938660573214, 2191226.189994619693607 ], [ 3359591.802405133843422, 2191233.204431208316237 ], [ 3359580.754413902759552, 2191240.881866410840303 ], [ 3359566.826111614704132, 2191248.954450892284513 ], [ 3359557.573979042470455, 2191253.283750735688955 ], [ 3359545.584048278164119, 2191264.567204646300524 ], [ 3359540.320067554712296, 2191270.336106015834957 ], [ 3359537.137723178602755, 2191274.530923353973776 ], [ 3359532.558281214907765, 2191281.397253918461502 ], [ 3359529.681024559307843, 2191286.856183626223356 ], [ 3359525.454379401169717, 2191295.282257206272334 ], [ 3359518.913156311959028, 2191305.72780623100698 ], [ 3359514.351226523052901, 2191315.224614708218724 ], [ 3359511.909649355802685, 2191322.127518075983971 ], [ 3359507.936730786692351, 2191332.130415145307779 ], [ 3359503.994145747739822, 2191339.798650368116796 ], [ 3359499.807899448089302, 2191349.737035054247826 ], [ 3359495.115361562930048, 2191359.053795405197889 ], [ 3359491.414146021008492, 2191367.591688668821007 ], [ 3359487.596688561141491, 2191379.188450456596911 ], [ 3359483.202207349706441, 2191390.985851091332734 ], [ 3359478.539566657505929, 2191403.639747803099453 ], [ 3359475.124051372520626, 2191413.951726974919438 ], [ 3359472.04739066818729, 2191428.256677743978798 ], [ 3359469.93578085443005, 2191432.165680645033717 ], [ 3359468.416822937317193, 2191435.972333886660635 ], [ 3359466.897576287388802, 2191445.451062460895628 ], [ 3359466.736959611065686, 2191447.605818706564605 ], [ 3359466.355858108494431, 2191450.912502514198422 ], [ 3359465.115450956858695, 2191463.381704366765916 ], [ 3359464.32490474358201, 2191469.189886022359133 ], [ 3359464.021426955237985, 2191470.457503932528198 ], [ 3359462.8288528714329, 2191477.550492540933192 ], [ 3359458.407849884126335, 2191491.074319801293314 ], [ 3359455.666318347211927, 2191498.636752681806684 ], [ 3359452.035862810444087, 2191506.35239958204329 ], [ 3359445.949938656762242, 2191517.732369747944176 ], [ 3359443.002115983515978, 2191524.013766065705568 ], [ 3359439.791409090161324, 2191533.075053029693663 ], [ 3359435.05302065378055, 2191544.627909149974585 ], [ 3359431.039556146133691, 2191558.790401486679912 ], [ 3359425.697733429260552, 2191572.270493492018431 ], [ 3359421.50433853501454, 2191589.097504869103432 ], [ 3359420.290489831008017, 2191594.168280163314193 ], [ 3359417.573514724615961, 2191608.816415330395103 ], [ 3359413.845738547854125, 2191624.752804200630635 ], [ 3359411.815336167812347, 2191631.686364118941128 ], [ 3359404.194557334296405, 2191646.774589464534074 ], [ 3359398.627020039130002, 2191659.483330902643502 ], [ 3359393.215092106722295, 2191668.113767353352159 ], [ 3359386.518824997358024, 2191676.96557587524876 ], [ 3359382.177531103137881, 2191685.310297801624984 ], [ 3359377.23449664702639, 2191698.113777697551996 ], [ 3359371.848749500699341, 2191710.689814662095159 ], [ 3359368.821532968897372, 2191722.150442488957196 ], [ 3359366.041273679118603, 2191730.732330967672169 ], [ 3359361.872358453925699, 2191748.973055253271013 ], [ 3359358.906724606640637, 2191763.968043006025255 ], [ 3359357.684336339123547, 2191767.72360313963145 ], [ 3359352.617965786717832, 2191779.130677678156644 ], [ 3359347.444011739455163, 2191789.239291957579553 ], [ 3359340.327763970941305, 2191802.417480667121708 ], [ 3359333.90153060015291, 2191812.944619016256183 ], [ 3359325.957962634041905, 2191829.810488027520478 ], [ 3359317.337161486502737, 2191844.362256591208279 ], [ 3359306.566016308497638, 2191863.842394764069468 ], [ 3359298.61013909894973, 2191880.001310151070356 ], [ 3359291.238301490899175, 2191894.742960101924837 ], [ 3359282.314062316436321, 2191910.562374657485634 ], [ 3359277.147123530507088, 2191925.126455008052289 ], [ 3359267.016456164419651, 2191939.128127872478217 ], [ 3359256.848774869460613, 2191951.009403294883668 ], [ 3359253.366699810605496, 2191955.863570056855679 ], [ 3359243.821717725135386, 2191970.97972606588155 ], [ 3359235.36501800082624, 2191982.768465467728674 ], [ 3359221.768110643140972, 2192001.723097366280854 ], [ 3359212.249594681430608, 2192015.112965792417526 ], [ 3359198.525802576448768, 2192033.279004568234086 ], [ 3359188.291118840221316, 2192045.374440226238221 ], [ 3359184.831934133544564, 2192049.110538959968835 ], [ 3359175.461620487272739, 2192059.638896285556257 ], [ 3359169.319369825534523, 2192069.408064785413444 ], [ 3359162.422193394042552, 2192078.902322684880346 ], [ 3359157.842837366741151, 2192085.768986516166478 ], [ 3359151.192588485777378, 2192098.05657411692664 ], [ 3359150.587386674713343, 2192103.123975028283894 ], [ 3359153.018103687092662, 2192103.717642025090754 ], [ 3359159.481089586392045, 2192100.983050099574029 ], [ 3359175.436109580099583, 2192092.256948998197913 ], [ 3359185.889318399131298, 2192087.821614141575992 ], [ 3359204.714268948882818, 2192074.853082059882581 ], [ 3359219.203473548404872, 2192066.480949951335788 ], [ 3359239.966980506200343, 2192056.723478954285383 ], [ 3359249.326416211668402, 2192053.692117761820555 ], [ 3359264.177070642821491, 2192053.866840970236808 ], [ 3359281.380567453801632, 2192056.674468375742435 ], [ 3359290.605899738613516, 2192059.743339134380221 ], [ 3359311.201433677226305, 2192064.701098656281829 ], [ 3359388.295396101661026, 2192083.215323010925204 ], [ 3359535.568799789063632, 2192110.091817328706384 ], [ 3359575.659820619504899, 2192099.940111708827317 ], [ 3359811.7958565345034, 2192163.560071875806898 ], [ 3360034.550241569057107, 2192000.382689289283007 ], [ 3360104.582519015762955, 2192220.252150314860046 ], [ 3360106.981377788819373, 2192226.320809302851558 ], [ 3360108.053861644119024, 2192228.566893918905407 ], [ 3360110.20223607076332, 2192232.450465017464012 ], [ 3360111.939437528606504, 2192236.303719693794847 ], [ 3360114.70003151614219, 2192239.575451843440533 ], [ 3360115.99823390180245, 2192242.592707178555429 ], [ 3360116.777816207148135, 2192244.281465815380216 ], [ 3360118.645754333585501, 2192248.314858279656619 ], [ 3360120.377925221808255, 2192250.244472655467689 ], [ 3360123.773387265391648, 2192251.786129891872406 ], [ 3360126.255207487847656, 2192252.067373505793512 ], [ 3360129.289183965884149, 2192250.734082349576056 ], [ 3360130.67921038530767, 2192249.27909342572093 ], [ 3360132.695552399847656, 2192244.77890626527369 ], [ 3360132.24764136178419, 2192236.95591197675094 ], [ 3360132.168285368476063, 2192236.463166568428278 ], [ 3360132.224914063699543, 2192232.402127093635499 ], [ 3360131.00084026530385, 2192227.954011335968971 ], [ 3360130.695985754951835, 2192221.018023890443146 ], [ 3360129.501897853799164, 2192214.235196830704808 ], [ 3360128.307925460394472, 2192207.452451481483877 ], [ 3360127.801845524460077, 2192201.158752467017621 ], [ 3360126.599094629753381, 2192193.060721222311258 ], [ 3360125.757728112861514, 2192187.837654984556139 ], [ 3360125.039974928833544, 2192184.01126656960696 ], [ 3360124.230466127861291, 2192178.985380158759654 ], [ 3360123.796736530028284, 2192174.401048760861158 ], [ 3360123.588558516465127, 2192170.588119018357247 ], [ 3360123.562366349622607, 2192166.642539385706186 ], [ 3360123.123246527742594, 2192160.134834190364927 ], [ 3360122.562534389086068, 2192154.762012327089906 ], [ 3360122.536161785945296, 2192150.816565648652613 ], [ 3360122.338746305089444, 2192145.17866190103814 ], [ 3360122.527689272537827, 2192138.157471437007189 ], [ 3360122.979347858577967, 2192134.028351672459394 ], [ 3360123.460915988311172, 2192133.236260516569018 ], [ 3360124.203544361051172, 2192132.804414283484221 ], [ 3360125.468261448200792, 2192133.092860785312951 ] ] ] } },
{ "type": "Feature", "properties": { "SITE_NAME": "Soto Giraldelli", "ODESIGNATE": "Enclave Natural", "NUT2": 22, "SITE_CODE_": "ES220112", "DESIG_ABBR": "ES18", "SITE_CDDA": "349409_CDDA", "Sup_ha": 17.350532168400001 }, "geometry": { "type": "Polygon", "coordinates": [ [ [ 3359010.445317073725164, 2193458.584503999445587 ], [ 3359027.008453797549009, 2193432.838096830062568 ], [ 3359035.021881613414735, 2193420.821570673026145 ], [ 3359044.816930128261447, 2193407.889997503720224 ], [ 3359054.634761556051672, 2193393.840551380999386 ], [ 3359063.599055704660714, 2193379.533001750707626 ], [ 3359075.059202955104411, 2193363.073334555607289 ], [ 3359085.674535020254552, 2193347.670889703556895 ], [ 3359095.474811744876206, 2193336.663094974588603 ], [ 3359106.261117364745587, 2193322.952961271628737 ], [ 3359119.291242626029998, 2193308.045843351166695 ], [ 3359129.837761352304369, 2193295.997745676897466 ], [ 3359140.128593680914491, 2193279.841084045358002 ], [ 3359147.693946075160056, 2193265.673352441284806 ], [ 3359153.950650677550584, 2193255.985449389088899 ], [ 3359160.530080318916589, 2193244.520046941936016 ], [ 3359166.476377308834344, 2193231.644391183275729 ], [ 3359173.161553561687469, 2193218.945228642318398 ], [ 3359176.830626012291759, 2193210.209933185018599 ], [ 3359181.727276056073606, 2193199.642242046073079 ], [ 3359189.716213149018586, 2193186.212014098186046 ], [ 3359196.315060328226537, 2193174.236751811113209 ], [ 3359204.289753812365234, 2193157.567825770005584 ], [ 3359208.844264417421073, 2193149.287323829252273 ], [ 3359209.112393059302121, 2193142.758779274765402 ], [ 3359207.863573467358947, 2193125.552908455021679 ], [ 3359207.703227469697595, 2193110.691464322153479 ], [ 3359205.837049180176109, 2193103.51797233056277 ], [ 3359201.910609539132565, 2193088.596930397674441 ], [ 3359197.246983232907951, 2193076.031061394605786 ], [ 3359192.302797148935497, 2193063.614842480514199 ], [ 3359188.623458087444305, 2193051.487223523668945 ], [ 3359183.836184251122177, 2193043.196693362668157 ], [ 3359176.226616074796766, 2193028.100163897499442 ], [ 3359172.570108543150127, 2193020.526390299201012 ], [ 3359166.826909586321563, 2193012.603317759931087 ], [ 3359165.380551668349653, 2193010.756016473285854 ], [ 3359161.58626914024353, 2193005.910132734570652 ], [ 3359153.179594407323748, 2192997.838575670495629 ], [ 3359143.121669897809625, 2192990.861850944813341 ], [ 3359139.299436704255641, 2192989.191247527953237 ], [ 3359132.931689189281315, 2192986.845191789790988 ], [ 3359132.308992799837142, 2192986.892064708285034 ], [ 3359126.404794035479426, 2192987.338276447262615 ], [ 3359125.609527533873916, 2192987.398488845676184 ], [ 3359123.073055003769696, 2192988.727452102582902 ], [ 3359118.119924704544246, 2192991.323096777312458 ], [ 3359114.288669804576784, 2192994.009257480502129 ], [ 3359102.167089986149222, 2192991.237150666769594 ], [ 3359091.082778275944293, 2192979.778295013122261 ], [ 3359078.529001358896494, 2192969.281651696190238 ], [ 3359069.801227923016995, 2192959.847444974817336 ], [ 3359062.752667213324457, 2192950.123570949304849 ], [ 3359048.145714524202049, 2192930.662626477889717 ], [ 3359038.784848515875638, 2192919.81836345884949 ], [ 3359027.88910054275766, 2192907.010186987929046 ], [ 3359019.46662906371057, 2192898.839874701574445 ], [ 3359008.548004630953074, 2192892.821822564583272 ], [ 3358992.492787131574005, 2192887.689330629538745 ], [ 3358964.853958217427135, 2192886.275726079009473 ], [ 3358939.823907711077482, 2192885.931618198752403 ], [ 3358920.325567066669464, 2192884.63384320307523 ], [ 3358904.42554135248065, 2192881.095201051328331 ], [ 3358889.2842055875808, 2192871.551066798623651 ], [ 3358878.136294696480036, 2192865.370086170732975 ], [ 3358867.695618993137032, 2192853.49633985478431 ], [ 3358856.697755533270538, 2192841.313499753829092 ], [ 3358842.944736090488732, 2192827.782655712217093 ], [ 3358830.745441691484302, 2192815.705538951326162 ], [ 3358823.619353817310184, 2192808.020870942156762 ], [ 3358814.415409313514829, 2192795.630178575403988 ], [ 3358806.661193700507283, 2192782.786901821382344 ], [ 3358801.295553537085652, 2192772.165316244587302 ], [ 3358796.047994284890592, 2192761.016842973418534 ], [ 3358790.581774929072708, 2192747.880438948515803 ], [ 3358787.129970396868885, 2192733.383918372448534 ], [ 3358783.656936424784362, 2192716.865231641102582 ], [ 3358780.425754882395267, 2192701.216532947961241 ], [ 3358777.912319329567254, 2192683.722139928489923 ], [ 3358776.321561771444976, 2192668.803524165879935 ], [ 3358774.901750229299068, 2192655.57720659673214 ], [ 3358774.023455928079784, 2192642.561400230042636 ], [ 3358772.556002787780017, 2192634.711568988393992 ], [ 3358764.454327416606247, 2192633.576113756746054 ], [ 3358748.395530441310257, 2192634.724019823595881 ], [ 3358733.86860150238499, 2192635.830993998795748 ], [ 3358733.652691927272826, 2192635.847551108337939 ], [ 3358733.659310827497393, 2192635.888646479696035 ], [ 3358733.668580462690443, 2192635.946199712809175 ], [ 3358726.432714389171451, 2192652.791639178991318 ], [ 3358726.067319681402296, 2192667.541139850858599 ], [ 3358726.446384540759027, 2192678.718574300408363 ], [ 3358727.098968654870987, 2192685.290974923409522 ], [ 3358724.389431244228035, 2192704.394642516039312 ], [ 3358723.329190304502845, 2192714.199615374673158 ], [ 3358719.300083608366549, 2192733.936113454401493 ], [ 3358714.703041011001915, 2192755.188328587450087 ], [ 3358714.262081680819392, 2192763.16468326933682 ], [ 3358713.722107672598213, 2192782.502287710085511 ], [ 3358713.578428721986711, 2192800.638184655457735 ], [ 3358713.536565525457263, 2192805.931338380090892 ], [ 3358717.018208955414593, 2192818.857548929750919 ], [ 3358717.577627236954868, 2192820.934010858181864 ], [ 3358729.235037608072162, 2192849.816695115529001 ], [ 3358734.920183750335127, 2192859.269055027049035 ], [ 3358739.963095107581466, 2192871.668048814870417 ], [ 3358745.806777935940772, 2192887.778090146370232 ], [ 3358751.662798405159265, 2192904.595011639874429 ], [ 3358756.33171840198338, 2192924.756255607120693 ], [ 3358761.237153650727123, 2192938.191919630393386 ], [ 3358764.630918546579778, 2192948.545924423728138 ], [ 3358772.769433554261923, 2192968.817963148467243 ], [ 3358779.354020888917148, 2192981.964165301062167 ], [ 3358791.907713662832975, 2193003.804980428889394 ], [ 3358800.901792992837727, 2193015.522749975323677 ], [ 3358822.370346528012305, 2193031.572621162515134 ], [ 3358835.052911854349077, 2193039.717234803363681 ], [ 3358848.993146517779678, 2193043.695070982910693 ], [ 3358871.151405591517687, 2193051.421643532346934 ], [ 3358885.079306150786579, 2193054.692607002332807 ], [ 3358900.372501563746482, 2193060.766709910240024 ], [ 3358911.33875670703128, 2193067.080387933645397 ], [ 3358931.625494093634188, 2193071.382102070376277 ], [ 3358948.031746945343912, 2193075.542468740604818 ], [ 3358963.71996072307229, 2193081.54848868958652 ], [ 3358973.18146953638643, 2193089.235620492137969 ], [ 3358983.950170053169131, 2193101.255406221374869 ], [ 3358989.65993584971875, 2193112.121648222208023 ], [ 3358995.122598653659225, 2193131.538452595006675 ], [ 3358995.678287884686142, 2193152.003823002800345 ], [ 3358995.214132179506123, 2193178.11427496932447 ], [ 3358996.20196555647999, 2193200.632177155464888 ], [ 3358997.616642165463418, 2193211.934977169614285 ], [ 3358998.029287979006767, 2193231.513340991921723 ], [ 3358995.035757690668106, 2193274.063436385709792 ], [ 3358994.906890525948256, 2193287.759248809888959 ], [ 3358996.300396820530295, 2193308.38408148707822 ], [ 3358996.669066815171391, 2193321.386409294325858 ], [ 3358985.709882386494428, 2193359.232420444488525 ], [ 3358977.327725239563733, 2193386.606915920507163 ], [ 3358972.072978018317372, 2193405.035489455331117 ], [ 3358966.155085886828601, 2193424.388580808416009 ], [ 3358964.759901963174343, 2193429.592251074034721 ], [ 3358961.826481608208269, 2193444.784533057361841 ], [ 3358958.933633411303163, 2193450.144998045638204 ], [ 3358952.84822373278439, 2193455.85325385350734 ], [ 3358946.900326376780868, 2193460.525038067717105 ], [ 3358942.691558482125401, 2193471.581849334295839 ], [ 3358941.991363642271608, 2193476.057993882335722 ], [ 3358941.959599407855421, 2193475.860794620588422 ], [ 3358937.884963161777705, 2193480.817372452933341 ], [ 3358931.944120353087783, 2193484.272401026450098 ], [ 3358921.771610536146909, 2193488.558418996166438 ], [ 3358895.210650155320764, 2193491.314420885406435 ], [ 3358878.16951572149992, 2193494.556124540045857 ], [ 3358874.017204639036208, 2193495.879770583473146 ], [ 3358847.212782001588494, 2193500.905881798360497 ], [ 3358832.861620141658932, 2193491.225669541861862 ], [ 3358797.620348900556564, 2193473.499155718833208 ], [ 3358786.851622669491917, 2193467.151457799598575 ], [ 3358777.29633900988847, 2193461.404767158441246 ], [ 3358762.765240349806845, 2193454.3890486122109 ], [ 3358739.157075360883027, 2193441.442917229607701 ], [ 3358728.060200487729162, 2193434.949425331316888 ], [ 3358716.679497461300343, 2193429.213671910110861 ], [ 3358684.60611592233181, 2193415.397405771538615 ], [ 3358672.951936733908951, 2193408.594747136346996 ], [ 3358657.914609018713236, 2193400.957307476550341 ], [ 3358639.850234054494649, 2193393.436569704208523 ], [ 3358622.853311453014612, 2193386.238247754983604 ], [ 3358607.426129584666342, 2193380.592380057554692 ], [ 3358593.455959518440068, 2193373.277414171025157 ], [ 3358584.346967239398509, 2193367.150044962298125 ], [ 3358572.488151513040066, 2193361.598022227175534 ], [ 3358561.728255520109087, 2193356.565662895794958 ], [ 3358545.260411330033094, 2193348.870996901299804 ], [ 3358532.567296267487109, 2193342.551326786633581 ], [ 3358520.403324156533927, 2193335.735084740445018 ], [ 3358507.44907371327281, 2193329.055389725603163 ], [ 3358496.629299799911678, 2193323.020388208329678 ], [ 3358488.698766235727817, 2193317.905210210941732 ], [ 3358480.609409119002521, 2193311.8046430866234 ], [ 3358470.466892999596894, 2193313.755862122401595 ], [ 3358464.310797632671893, 2193314.61468493938446 ], [ 3358467.454121996182948, 2193317.111297930590808 ], [ 3358475.555737114977092, 2193323.918862184975296 ], [ 3358482.147544400766492, 2193330.176315213553607 ], [ 3358492.051952369045466, 2193338.091104603372514 ], [ 3358498.675394359976053, 2193344.54557801829651 ], [ 3358503.062345144338906, 2193350.980670575983822 ], [ 3358508.382276839576662, 2193358.166403532028198 ], [ 3358516.7292047762312, 2193370.90752325206995 ], [ 3358522.474307531956583, 2193381.362436595372856 ], [ 3358532.973150703590363, 2193397.378812182694674 ], [ 3358543.066249885130674, 2193409.61632520891726 ], [ 3358555.568830813281238, 2193420.425478285178542 ], [ 3358570.530488196294755, 2193432.63396697351709 ], [ 3358584.54120417824015, 2193441.461141939740628 ], [ 3358595.812629979103804, 2193449.038883023895323 ], [ 3358611.74968327768147, 2193463.888018376193941 ], [ 3358612.416438756510615, 2193464.509227589238435 ], [ 3358628.769694545306265, 2193477.794450591318309 ], [ 3358638.085502729285508, 2193484.914536603726447 ], [ 3358640.231599722988904, 2193486.554703784640878 ], [ 3358646.32265866920352, 2193492.717898935079575 ], [ 3358653.573999484535307, 2193500.055230055004358 ], [ 3358664.506766034755856, 2193509.312058605253696 ], [ 3358678.522906004451215, 2193514.390685172751546 ], [ 3358681.549967143218964, 2193515.126820208039135 ], [ 3358693.632490736432374, 2193518.065464546903968 ], [ 3358712.178280896041542, 2193519.122220390941948 ], [ 3358733.170718135777861, 2193526.543230014853179 ], [ 3358753.656740278936923, 2193533.342639709357172 ], [ 3358769.558481677435338, 2193539.412949207704514 ], [ 3358782.270948826335371, 2193545.223079950548708 ], [ 3358796.92740088282153, 2193550.495305141434073 ], [ 3358814.448327515739948, 2193555.273716700728983 ], [ 3358836.860534756910056, 2193558.904947556555271 ], [ 3358854.681468414142728, 2193557.351851689629257 ], [ 3358870.68891370575875, 2193556.516541637480259 ], [ 3358890.603520158678293, 2193554.096191816963255 ], [ 3358910.59220711980015, 2193550.244959984906018 ], [ 3358930.603819942567497, 2193545.275526752695441 ], [ 3358935.380351393483579, 2193544.046847257763147 ], [ 3358944.243983835913241, 2193538.568647844716907 ], [ 3358953.762141079641879, 2193530.85059142485261 ], [ 3358966.688051251228899, 2193519.708839764352888 ], [ 3358974.680332581978291, 2193511.342153755016625 ], [ 3358986.740106898359954, 2193487.89154143165797 ], [ 3358995.536660179495811, 2193476.955332928802818 ], [ 3359004.026379156392068, 2193467.895186612848192 ], [ 3359010.445317073725164, 2193458.584503999445587 ] ] ] } },
{ "type": "Feature", "properties": { "SITE_NAME": "Sotos de Murillos de las Limas", "ODESIGNATE": "Enclave Natural", "NUT2": 22, "SITE_CODE_": "ES220069", "DESIG_ABBR": "ES18", "SITE_CDDA": "349523_CDDA", "Sup_ha": 110.761255238 }, "geometry": { "type": "MultiPolygon", "coordinates": [ [ [ [ 3361014.798503953497857, 2190226.012273158878088 ], [ 3361020.113843903876841, 2190194.711887926328927 ], [ 3361022.480149134993553, 2190180.097679580561817 ], [ 3361023.06624562991783, 2190176.478976192418486 ], [ 3361022.554193744435906, 2190160.058310721535236 ], [ 3361020.475918470881879, 2190146.645166041329503 ], [ 3361017.388247371651232, 2190126.71549624344334 ], [ 3361012.756324443034828, 2190100.471457411535084 ], [ 3361009.542731064837426, 2190073.578208200167865 ], [ 3361005.242097276262939, 2190052.543833284173161 ], [ 3361001.041870124638081, 2190034.024095680564642 ], [ 3360996.606551020406187, 2190019.089922543149441 ], [ 3360993.795936100184917, 2190004.787128214724362 ], [ 3360989.921768147032708, 2189989.553601656574756 ], [ 3360988.500791887752712, 2189979.467946851160377 ], [ 3360989.078028568066657, 2189973.595340988598764 ], [ 3360990.731562064960599, 2189963.688686870504171 ], [ 3360993.215985590592027, 2189955.158084725029767 ], [ 3360995.557211361359805, 2189950.891695706173778 ], [ 3360998.253177607432008, 2189946.243930322583765 ], [ 3361003.133681004866958, 2189940.718204278033227 ], [ 3361004.457048169337213, 2189939.851900781039149 ], [ 3361025.327619560994208, 2189923.190321074333042 ], [ 3361039.545981211587787, 2189910.612145639955997 ], [ 3361058.84732598811388, 2189886.72607010602951 ], [ 3361070.895973940379918, 2189873.914086493197829 ], [ 3361084.199195000808686, 2189858.0332235340029 ], [ 3361084.199195000808686, 2189747.202354818116874 ], [ 3361077.392085152678192, 2189750.953817361034453 ], [ 3361057.446371305733919, 2189761.379281625151634 ], [ 3361042.222548268269747, 2189771.497348723001778 ], [ 3361022.47383233346045, 2189787.560435634106398 ], [ 3360996.053474772255868, 2189808.216878584120423 ], [ 3360966.413379040546715, 2189836.619008555077016 ], [ 3360952.84747648704797, 2189850.097581182606518 ], [ 3360927.076790280174464, 2189866.590900433249772 ], [ 3360899.779719473794103, 2189888.107380145229399 ], [ 3360870.448665503412485, 2189911.493589978199452 ], [ 3360845.472971394658089, 2189935.446112908422947 ], [ 3360818.868966454640031, 2189959.375297632068396 ], [ 3360805.76496721804142, 2189978.243470886256546 ], [ 3360803.663333392702043, 2189993.337831129319966 ], [ 3360801.434230847284198, 2190002.636947258841246 ], [ 3360795.722317969426513, 2190007.927786168642342 ], [ 3360780.951756927184761, 2190022.120456699747592 ], [ 3360771.288096849340945, 2190032.090846152044833 ], [ 3360765.055190806277096, 2190043.191756990272552 ], [ 3360760.699266224168241, 2190053.969339674338698 ], [ 3360757.604451530613005, 2190065.64351245900616 ], [ 3360755.238407343626022, 2190073.647450353018939 ], [ 3360752.722384506370872, 2190081.980977015569806 ], [ 3360748.625847377814353, 2190090.586852704174817 ], [ 3360744.3317477311939, 2190099.226773312315345 ], [ 3360849.955698171630502, 2190090.646726389415562 ], [ 3360840.010760786011815, 2190112.110409735236317 ], [ 3360818.130078253336251, 2190143.935812987852842 ], [ 3360761.141175774391741, 2190211.183214829768986 ], [ 3360693.015106316190213, 2190219.986183618195355 ], [ 3360682.136704522185028, 2190221.15186261665076 ], [ 3360671.265093262307346, 2190226.772882132790983 ], [ 3360659.814512357115746, 2190235.734595556743443 ], [ 3360651.637761418707669, 2190247.373092107474804 ], [ 3360645.039596891961992, 2190261.879314274527133 ], [ 3360642.02399812778458, 2190274.046397734899074 ], [ 3360641.647083801683038, 2190290.620323882438242 ], [ 3360641.650972657371312, 2190309.559301524423063 ], [ 3360641.854556580074131, 2190325.324125798884779 ], [ 3360642.188307284377515, 2190346.940986515022814 ], [ 3360637.916428153868765, 2190391.025781623087823 ], [ 3360646.030826011672616, 2190387.196522266604006 ], [ 3360656.170235474593937, 2190385.85431412095204 ], [ 3360663.834315712563694, 2190388.68619988579303 ], [ 3360667.187484567053616, 2190391.855716752819717 ], [ 3360667.719819961115718, 2190396.422963118646294 ], [ 3360667.83408833341673, 2190402.176253845915198 ], [ 3360668.100724013522267, 2190424.00725539913401 ], [ 3360662.863007969222963, 2190458.940544731449336 ], [ 3360642.971833111718297, 2190524.5555484816432 ], [ 3360595.934656102210283, 2190625.233579523395747 ], [ 3360537.769822554662824, 2190713.548693709541112 ], [ 3360490.029574532527477, 2190782.748137990478426 ], [ 3360434.510566664859653, 2190849.03457698924467 ], [ 3360397.641794535797089, 2190887.393810421228409 ], [ 3360353.200659066904336, 2190924.12107542809099 ], [ 3360304.903947562444955, 2190950.77706771530211 ], [ 3360288.391147916205227, 2190959.193567233160138 ], [ 3360268.814524850808084, 2190965.605901150498539 ], [ 3360269.521779539529234, 2190965.585400555748492 ], [ 3360291.644859782420099, 2190973.723715433850884 ], [ 3360324.252966532483697, 2190977.624513429123908 ], [ 3360354.661795671563596, 2190977.954299972392619 ], [ 3360388.866244720295072, 2190981.681110008154064 ], [ 3360440.017229093704373, 2190981.57585585443303 ], [ 3360473.631398697383702, 2190976.5930270627141 ], [ 3360513.341819851193577, 2190969.749186262022704 ], [ 3360559.856164239346981, 2190955.352045113686472 ], [ 3360613.047381960321218, 2190938.285001995973289 ], [ 3360654.493758597411215, 2190927.090828423388302 ], [ 3360679.050352203194052, 2190915.66779379080981 ], [ 3360709.382793329190463, 2190895.349303109105676 ], [ 3360712.806728974916041, 2190892.024640471674502 ], [ 3360730.54091780167073, 2190872.118914447259158 ], [ 3360754.5940559678711, 2190845.120571326464415 ], [ 3360778.776958444621414, 2190815.931236706674099 ], [ 3360794.629775406327099, 2190796.796634070575237 ], [ 3360857.37131075700745, 2190698.912461154628545 ], [ 3360862.867280503269285, 2190690.338433002121747 ], [ 3360891.801533731631935, 2190627.925270576961339 ], [ 3360925.45914970478043, 2190541.026633403263986 ], [ 3360938.627803318668157, 2190507.027815062087029 ], [ 3360960.92807002319023, 2190451.495966161601245 ], [ 3360961.961719415616244, 2190448.922433314844966 ], [ 3360962.33993848785758, 2190447.504032470751554 ], [ 3360978.290554485749453, 2190387.716783350333571 ], [ 3360979.182049263268709, 2190384.375724831130356 ], [ 3360991.554924067109823, 2190328.085079532116652 ], [ 3360991.838881951291114, 2190326.793726183474064 ], [ 3361008.176823767833412, 2190264.953818591311574 ], [ 3361008.647191233467311, 2190262.830220421776175 ], [ 3361014.798503953497857, 2190226.012273158878088 ] ] ], [ [ [ 3360145.911620537284762, 2191166.970350683666766 ], [ 3360128.171699951402843, 2191165.875234432518482 ], [ 3360114.208476902451366, 2191163.015228142030537 ], [ 3360091.351181747857481, 2191162.295637604780495 ], [ 3360072.441661538556218, 2191161.503391839098185 ], [ 3360045.576756297145039, 2191165.526041095145047 ], [ 3360023.184671882074326, 2191175.259691776242107 ], [ 3360013.420272246003151, 2191181.162190990988165 ], [ 3360005.606409723870456, 2191185.88564977562055 ], [ 3360001.156935091596097, 2191191.644551769830287 ], [ 3359991.072367990389466, 2191204.697255734354258 ], [ 3359978.175525946076959, 2191219.175366826821119 ], [ 3359965.245013174600899, 2191236.59661729587242 ], [ 3359948.392801420763135, 2191263.7079121703282 ], [ 3359938.09922136599198, 2191283.003946495242417 ], [ 3359930.780177863780409, 2191298.678840863052756 ], [ 3359928.738870028406382, 2191303.051009882707149 ], [ 3359920.187693879008293, 2191333.795687650330365 ], [ 3359915.766391997225583, 2191352.991441469173878 ], [ 3359915.378487034700811, 2191363.308726924005896 ], [ 3359914.344712557271123, 2191390.812571916729212 ], [ 3359913.973528267350048, 2191409.310211782343686 ], [ 3359914.646481035277247, 2191429.248240708373487 ], [ 3359916.366962743923068, 2191455.690575100947171 ], [ 3359923.702386214397848, 2191475.391904446762055 ], [ 3359931.517489596270025, 2191497.441480488050729 ], [ 3359939.263046458829194, 2191515.080480451695621 ], [ 3359939.373300835955888, 2191515.331400123424828 ], [ 3359957.367434043437243, 2191554.566447227261961 ], [ 3359958.429521874058992, 2191568.37639148067683 ], [ 3359958.666829191148281, 2191571.459496104624122 ], [ 3359961.46011798735708, 2191588.803862790577114 ], [ 3359966.065045790746808, 2191608.570768759585917 ], [ 3359975.662191909272224, 2191624.033515967894346 ], [ 3359989.173435718752444, 2191636.694710386916995 ], [ 3360007.466387022286654, 2191660.448261456564069 ], [ 3360009.969096139073372, 2191663.697991540655494 ], [ 3360027.036447009071708, 2191681.41820902004838 ], [ 3360037.074412350542843, 2191694.576738805510104 ], [ 3360044.980107984971255, 2191703.9502167776227 ], [ 3360047.326435294933617, 2191706.13303198479116 ], [ 3360053.339100391138345, 2191711.7262082695961 ], [ 3360063.337008107453585, 2191725.966774978674948 ], [ 3360063.615239454433322, 2191726.363054305315018 ], [ 3360063.715708279516548, 2191726.341383494902402 ], [ 3360068.325062416493893, 2191725.348758032079786 ], [ 3360075.412621527910233, 2191722.709154881536961 ], [ 3360086.758504319936037, 2191717.512427762616426 ], [ 3360103.938138249330223, 2191701.890962670557201 ], [ 3360098.029429098591208, 2191688.527184154372662 ], [ 3360096.827635709196329, 2191684.936463343910873 ], [ 3360093.760306615848094, 2191675.770507622510195 ], [ 3360092.549498287495226, 2191672.15217097196728 ], [ 3360091.903977393172681, 2191668.144305930007249 ], [ 3360090.438591090496629, 2191659.045310410205275 ], [ 3360090.438510141801089, 2191658.974830707069486 ], [ 3360090.454863729886711, 2191647.799984960351139 ], [ 3360094.240754907485098, 2191636.006163332145661 ], [ 3360098.73926117317751, 2191630.067913454957306 ], [ 3360100.77116020116955, 2191627.385660807602108 ], [ 3360107.811547088902444, 2191613.106652159709483 ], [ 3360112.873759503941983, 2191603.481347556691617 ], [ 3360115.048417696729302, 2191599.346694040112197 ], [ 3360119.703280403278768, 2191590.496533369179815 ], [ 3360118.376352641731501, 2191588.327023445628583 ], [ 3360114.60404879739508, 2191582.158630394376814 ], [ 3360105.211575269699097, 2191571.116996413096786 ], [ 3360098.415480725467205, 2191560.438160203397274 ], [ 3360092.425601983442903, 2191549.721660868264735 ], [ 3360087.181938209570944, 2191537.965101949404925 ], [ 3360082.798038428649306, 2191505.702214083168656 ], [ 3360075.875141412951052, 2191451.999719083774835 ], [ 3360066.225481724366546, 2191392.0827656830661 ], [ 3360056.63748445501551, 2191335.699937936849892 ], [ 3360055.484229744412005, 2191324.757489333860576 ], [ 3360056.063573789317161, 2191310.072795060928911 ], [ 3360058.181143813300878, 2191291.07175587117672 ], [ 3360063.764632429461926, 2191278.461862881667912 ], [ 3360072.900657908990979, 2191265.847320021130145 ], [ 3360087.695971138775349, 2191241.723957276903093 ], [ 3360100.6722630886361, 2191227.738606284372509 ], [ 3360110.894898718222976, 2191214.936816950328648 ], [ 3360125.802510698791593, 2191205.378858708776534 ], [ 3360140.113890668842942, 2191196.531465148087591 ], [ 3360161.191580956801772, 2191189.353807169478387 ], [ 3360178.048258127644658, 2191181.181790220551193 ], [ 3360182.583709247410297, 2191173.41159781627357 ], [ 3360183.125841807108372, 2191162.278277029749006 ], [ 3360171.765853891149163, 2191164.236253012437373 ], [ 3360159.813362072221935, 2191166.296242526732385 ], [ 3360145.911620537284762, 2191166.970350683666766 ] ] ] ] } },
{ "type": "Feature", "properties": { "SITE_NAME": "Sotos del Ebro en Alfaro", "ODESIGNATE": "Reserva Natural", "NUT2": 23, "SITE_CODE_": "ES230002", "DESIG_ABBR": "ES04", "SITE_CDDA": "349521_CDDA", "Sup_ha": 474.43864882899999 }, "geometry": { "type": "Polygon", "coordinates": [ [ [ 3354177.482247455045581, 2196252.841801750473678 ], [ 3354162.99121664557606, 2196186.462288201320916 ], [ 3354163.023256135638803, 2196186.427385583985597 ], [ 3354200.926899534184486, 2196145.066970647312701 ], [ 3354214.984846063423902, 2196129.727088456507772 ], [ 3354254.509165341500193, 2196086.598569829948246 ], [ 3354254.516708489041775, 2196086.536390863358974 ], [ 3354260.628167106304318, 2196036.263157156296074 ], [ 3354272.807257080450654, 2195936.078163883183151 ], [ 3354276.729842531494796, 2195903.811489257030189 ], [ 3354276.771679443307221, 2195903.467571469489485 ], [ 3354276.787434152793139, 2195903.467689847573638 ], [ 3354277.742230818606913, 2195903.473354029003531 ], [ 3354621.092705049552023, 2195905.535711758770049 ], [ 3354728.833471805788577, 2195906.183291953988373 ], [ 3354753.366762780584395, 2195906.330799772869796 ], [ 3354756.109845465049148, 2195903.862442160956562 ], [ 3354822.46597020374611, 2195844.153558529913425 ], [ 3354885.0867785718292, 2195787.80597569886595 ], [ 3355053.125933352857828, 2195636.601898078341037 ], [ 3355058.371430662460625, 2195631.881902552209795 ], [ 3355163.880960317328572, 2195494.734152127988636 ], [ 3355185.958268340677023, 2195466.036907353438437 ], [ 3355185.951530475635082, 2195466.004541739355773 ], [ 3355137.454872599802911, 2195234.341040016151965 ], [ 3355118.891759926918894, 2195256.794325310271233 ], [ 3355037.0219033844769, 2195355.821780500002205 ], [ 3355013.411393250338733, 2195384.380489774979651 ], [ 3354974.533181464765221, 2195392.283059218898416 ], [ 3354897.317658870480955, 2195407.97848855657503 ], [ 3354881.687531305477023, 2195411.155604057945311 ], [ 3354856.479675690177828, 2195399.538522661197931 ], [ 3354619.184222936630249, 2195290.180991368833929 ], [ 3354607.254349842201918, 2195284.683115457184613 ], [ 3354495.460372801870108, 2195233.163061277009547 ], [ 3354478.401871039532125, 2195225.301723684184253 ], [ 3354459.475687178783119, 2195216.579663678072393 ], [ 3354430.650383571628481, 2195209.632759872358292 ], [ 3354345.645397330168635, 2195189.146750551648438 ], [ 3354344.346253289375454, 2195188.833697088994086 ], [ 3354221.942201759666204, 2195200.473083010874689 ], [ 3354187.363275951705873, 2195203.761200877837837 ], [ 3354030.593340223655105, 2195238.911016961093992 ], [ 3353873.924224294256419, 2195199.086927485652268 ], [ 3353652.153512626420707, 2195441.962410291656852 ], [ 3353558.44144440209493, 2195465.221666147001088 ], [ 3353468.684735325165093, 2195544.523266276344657 ], [ 3353414.993997750803828, 2195557.838820743374527 ], [ 3353357.349089381285012, 2195634.607726495247334 ], [ 3353357.321926760487258, 2195634.643915289547294 ], [ 3353366.63274305826053, 2195673.531209847889841 ], [ 3353366.638268950395286, 2195673.554161966778338 ], [ 3353366.610827005468309, 2195673.633347791619599 ], [ 3353353.19592053629458, 2195712.310644653625786 ], [ 3353325.378432678990066, 2195792.512938211672008 ], [ 3353323.693224770948291, 2195797.37166316062212 ], [ 3353323.663342385552824, 2195797.457753067836165 ], [ 3353325.935208569746464, 2195797.083823388442397 ], [ 3353451.24118608655408, 2195776.458018381148577 ], [ 3353552.383184195496142, 2196237.387933876365423 ], [ 3353552.759332010056823, 2196239.10217955429107 ], [ 3353554.462930430658162, 2196246.865856831893325 ], [ 3353554.467498620040715, 2196246.886644477490336 ], [ 3353554.45612919004634, 2196246.890429337508976 ], [ 3353275.011888284701854, 2196339.676089047919959 ], [ 3353322.45028294948861, 2196375.347695 ], [ 3354204.226214963942766, 2196375.347695 ], [ 3354177.482247455045581, 2196252.841801750473678 ] ] ] } },
{ "type": "Feature", "properties": { "SITE_NAME": "Sotos y Riberas del Ebro", "ODESIGNATE": "Espacio Protegido Red Natura 2000", "NUT2": 23, "SITE_CODE_": "ES230009", "DESIG_ABBR": "ES96", "SITE_CDDA": "348780_CDDA", "Sup_ha": 2385.066731 }, "geometry": { "type": "Polygon", "coordinates": [ [ [ 3354163.023256135638803, 2196186.427385583985597 ], [ 3354163.013287105597556, 2196186.381902316585183 ], [ 3354254.516708489041775, 2196086.536390863358974 ], [ 3354254.532165667507797, 2196086.519543147180229 ], [ 3354276.787434152793139, 2195903.467689847573638 ], [ 3354276.797098329756409, 2195903.388431650120765 ], [ 3354753.388126736972481, 2195906.250435433350503 ], [ 3355058.394972120411694, 2195631.806227870285511 ], [ 3355185.951530475635082, 2195466.004541739355773 ], [ 3355185.983427694998682, 2195465.963081056252122 ], [ 3355189.03354294737801, 2195466.936104538384825 ], [ 3355196.042967837303877, 2195464.065874387975782 ], [ 3355203.272554605267942, 2195461.805942330975085 ], [ 3355210.666213960386813, 2195460.186241435352713 ], [ 3355215.089056326076388, 2195459.534783016890287 ], [ 3355218.686281128786504, 2195459.744909001979977 ], [ 3355222.174533043522388, 2195460.601844619493932 ], [ 3355225.447096927091479, 2195462.073350484482944 ], [ 3355227.613888101652265, 2195463.360804928466678 ], [ 3355230.039053386542946, 2195464.046585103031248 ], [ 3355232.573191586416215, 2195464.085555995348841 ], [ 3355235.043620900716633, 2195463.477115121670067 ], [ 3355236.760692329145968, 2195462.603577579371631 ], [ 3355248.62071175314486, 2195459.34238357283175 ], [ 3355253.217955496162176, 2195457.820119837764651 ], [ 3355257.96939385868609, 2195456.939790133852512 ], [ 3355262.592104176059365, 2195456.709677471313626 ], [ 3355267.592666428536177, 2195457.123438048176467 ], [ 3355271.858256537932903, 2195458.079269628040493 ], [ 3355274.800447907298803, 2195459.516599038615823 ], [ 3355277.395716885104775, 2195461.510100178420544 ], [ 3355279.266401076223701, 2195463.669098409824073 ], [ 3355279.529408455360681, 2195463.97825689567253 ], [ 3355281.136255239136517, 2195466.831034461501986 ], [ 3355281.589980728924274, 2195468.008799152448773 ], [ 3355287.516075905412436, 2195475.930753899738193 ], [ 3355288.019349273759872, 2195476.785965975373983 ], [ 3355289.571796628180891, 2195478.230033359024674 ], [ 3355291.518645694479346, 2195479.727623238693923 ], [ 3355293.683091011829674, 2195479.992430889979005 ], [ 3355295.874662740621716, 2195479.543513027951121 ], [ 3355298.366245884913951, 2195478.68832450080663 ], [ 3355302.893938662018627, 2195476.104361856356263 ], [ 3355306.571625601500273, 2195473.474557338282466 ], [ 3355313.530282149091363, 2195467.706010945606977 ], [ 3355320.062589253298938, 2195461.433638748712838 ], [ 3355350.895358198788017, 2195433.213293199893087 ], [ 3355357.681823136750609, 2195426.502054112497717 ], [ 3355364.911219100467861, 2195420.271526558790356 ], [ 3355372.557089264504611, 2195414.546532401815057 ], [ 3355380.564932162873447, 2195409.366859906353056 ], [ 3355388.906702971085906, 2195404.74747553281486 ], [ 3355397.546067300718278, 2195400.714904750697315 ], [ 3355406.435225252993405, 2195397.287521346006542 ], [ 3355413.039014871697873, 2195395.176083073951304 ], [ 3355420.253813037648797, 2195393.202359460294247 ], [ 3355427.276496318168938, 2195390.603374225553125 ], [ 3355434.039510066621006, 2195387.400908580515534 ], [ 3355440.516397743485868, 2195383.61978425225243 ], [ 3355446.629727161023766, 2195379.283486069180071 ], [ 3355452.344752189237624, 2195374.428394698072225 ], [ 3355457.61843710206449, 2195369.102449792902917 ], [ 3355460.007453098427504, 2195366.350543297827244 ], [ 3355481.42603478487581, 2195341.070919995661825 ], [ 3355514.737209704704583, 2195295.153018221724778 ], [ 3355548.212259264197201, 2195259.639989361166954 ], [ 3355567.79980632988736, 2195237.046510718297213 ], [ 3355620.859404489398003, 2195168.335414924658835 ], [ 3355680.560610873159021, 2195094.974296289496124 ], [ 3355867.588218871504068, 2194870.760268271435052 ], [ 3355895.759693446103483, 2194836.982999544590712 ], [ 3355810.305526583921164, 2194729.837297341320664 ], [ 3355683.426296159625053, 2194664.943666005972773 ], [ 3355643.480286810081452, 2194680.270660531241447 ], [ 3355597.552410892210901, 2194693.377940706908703 ], [ 3355513.165809109341353, 2194714.597169217653573 ], [ 3355467.977231860626489, 2194728.134188363328576 ], [ 3355437.955710283014923, 2194733.919854973442852 ], [ 3355402.905962905846536, 2194740.380328915081918 ], [ 3355377.157202984206378, 2194749.875793533399701 ], [ 3355362.626875742338598, 2194756.160094128455967 ], [ 3355331.079922807402909, 2194769.805807432625443 ], [ 3355311.333600468933582, 2194778.813015170395374 ], [ 3355287.674214544240385, 2194789.619487184565514 ], [ 3355263.294680731371045, 2194801.249098113738 ], [ 3355244.027175474446267, 2194807.935211129486561 ], [ 3355224.548652638681233, 2194812.996544644702226 ], [ 3355209.144764971919358, 2194816.190240879077464 ], [ 3355192.571732236072421, 2194817.924410425126553 ], [ 3355173.180885780137032, 2194818.615095525514334 ], [ 3355163.057003767229617, 2194818.538011399563402 ], [ 3355151.797223027329892, 2194819.22408392932266 ], [ 3355144.180702623911202, 2194819.838872069027275 ], [ 3355136.185703457333148, 2194821.633152337744832 ], [ 3355130.890995130408555, 2194823.174398149363697 ], [ 3355127.787893473170698, 2194824.833964212797582 ], [ 3355125.859872946515679, 2194826.351626401767135 ], [ 3355124.892802578862756, 2194827.784576445352286 ], [ 3355123.838466840330511, 2194830.377176620531827 ], [ 3355123.501757992897183, 2194835.155455096624792 ], [ 3355123.814680878072977, 2194839.933105587493628 ], [ 3355124.179518059827387, 2194841.693432325962931 ], [ 3355124.792577330488712, 2194844.616319131106138 ], [ 3355126.389935847371817, 2194849.111653631087393 ], [ 3355122.468648354988545, 2194856.908824862446636 ], [ 3355110.579772765748203, 2194881.1626330553554 ], [ 3355078.258034194819629, 2194894.283817529678345 ], [ 3355024.90385251166299, 2194920.716309871524572 ], [ 3354976.304074639454484, 2194940.048708858899772 ], [ 3354840.592203353531659, 2195009.048895501997322 ], [ 3354728.842307881452143, 2195074.979963765945286 ], [ 3354674.229315144941211, 2195111.870840409770608 ], [ 3354619.29705582279712, 2195136.509833192452788 ], [ 3354608.826078281272203, 2195143.603500894736499 ], [ 3354345.217185327783227, 2195188.964042278006673 ], [ 3354344.371405404992402, 2195188.755414446815848 ], [ 3354187.379109452478588, 2195203.681790614034981 ], [ 3354030.609550906345248, 2195238.828907810151577 ], [ 3353873.941882930696011, 2195199.001833491493016 ], [ 3353652.170590783469379, 2195441.883797468151897 ], [ 3353558.458663479890674, 2195465.141408180817962 ], [ 3353468.701336790807545, 2195544.441696576308459 ], [ 3353415.010653786826879, 2195557.756329912692308 ], [ 3353357.337831174023449, 2195634.560541051905602 ], [ 3353357.349089381285012, 2195634.607726495247334 ], [ 3353366.653513642027974, 2195673.471104109659791 ], [ 3353366.63274305826053, 2195673.531209847889841 ], [ 3353323.677009932231158, 2195797.374359373934567 ], [ 3353323.693224770948291, 2195797.37166316062212 ], [ 3353451.254495825152844, 2195776.376813757233322 ], [ 3353554.481824700720608, 2196246.797261885367334 ], [ 3353554.462930430658162, 2196246.865856831893325 ], [ 3353554.45612919004634, 2196246.890429337508976 ], [ 3353525.373314851429313, 2196352.425387963186949 ], [ 3353515.88210780872032, 2196375.347695 ], [ 3354204.262830543797463, 2196375.347695 ], [ 3354163.023256135638803, 2196186.427385583985597 ] ] ] } }
]
}
