{
"type": "FeatureCollection",
"name": "Canredondo",
"crs": { "type": "name", "properties": { "name": "urn:ogc:def:crs:EPSG::3035" } },
"features": [
{ "type": "Feature", "properties": { "SITE_NAME": "Alto Tajo", "ODESIGNATE": "Parque Natural", "NUT2": 42, "SITE_CODE_": "ES420004", "DESIG_ABBR": "ES10", "SITE_CDDA": "349169_CDDA", "Sup_ha": 107404.872625 }, "geometry": { "type": "Polygon", "coordinates": [ [ [ 3267529.717619203031063, 2047033.543920349096879 ], [ 3267537.375859236344695, 2047062.586195038631558 ], [ 3267539.309125744272023, 2047087.5569853419438 ], [ 3267538.276065818965435, 2047113.040230651851743 ], [ 3267538.232294704765081, 2047138.351734422612935 ], [ 3267531.523826193064451, 2047153.68204870284535 ], [ 3267521.37998377578333, 2047166.568712384672835 ], [ 3267516.714846583083272, 2047171.95887811947614 ], [ 3267511.079783227294683, 2047178.469913179986179 ], [ 3267506.917762816417962, 2047184.250189226586372 ], [ 3267506.348305233754218, 2047193.458333448739722 ], [ 3267512.023847587872297, 2047203.611257166136056 ], [ 3267512.336643802002072, 2047205.581979568116367 ], [ 3267520.50935217179358, 2047212.267474319785833 ], [ 3267523.328291599173099, 2047213.715377013431862 ], [ 3267529.356915536336601, 2047216.811792832799256 ], [ 3267536.591292725875974, 2047217.586124553345144 ], [ 3267540.702278155833483, 2047217.887562441872433 ], [ 3267555.012972631026059, 2047218.450953814666718 ], [ 3267564.224396356847137, 2047218.884484856622294 ], [ 3267574.581172664649785, 2047220.130574196809903 ], [ 3267577.184445361606777, 2047223.730092750862241 ], [ 3267579.943202811758965, 2047228.314016929361969 ], [ 3267582.289548582863063, 2047243.091332857031375 ], [ 3267582.715115302242339, 2047271.359123899135739 ], [ 3267582.41388781554997, 2047307.849670214345679 ], [ 3267582.682251333724707, 2047335.132257404737175 ], [ 3267592.162708282470703, 2047362.848060071468353 ], [ 3267599.614930854644626, 2047381.75821231584996 ], [ 3267622.785938045009971, 2047440.554637480061501 ], [ 3267637.290243384428322, 2047472.106007605325431 ], [ 3267669.341479037888348, 2047541.827034611487761 ], [ 3267715.477244762703776, 2047634.060849086148664 ], [ 3267742.553922960534692, 2047683.027799071976915 ], [ 3267755.569118949584663, 2047701.022414252860472 ], [ 3267765.982181385159492, 2047715.41841775062494 ], [ 3267773.997897964902222, 2047721.118782789213583 ], [ 3267781.857143285218626, 2047725.833695613080636 ], [ 3267790.030008754692972, 2047732.519297430757433 ], [ 3267796.068168281111866, 2047738.561671315459535 ], [ 3267803.927331360988319, 2047743.276702145813033 ], [ 3267811.111827459186316, 2047750.132682006107643 ], [ 3267816.317860552109778, 2047757.330723393941298 ], [ 3267820.691798103507608, 2047765.684628030285239 ], [ 3267822.412435120902956, 2047776.520458505488932 ], [ 3267821.782410594634712, 2047783.65824690181762 ], [ 3267821.323676470201463, 2047788.855126725044101 ], [ 3267819.402118235826492, 2047802.345680723665282 ], [ 3267818.469824089668691, 2047815.665706675266847 ], [ 3267819.095185618847609, 2047819.606094114715233 ], [ 3267818.682090616319329, 2047829.799646378261968 ], [ 3267819.570902595762163, 2047841.792313054902479 ], [ 3267825.559418210759759, 2047853.915075961733237 ], [ 3267868.761579308658838, 2047882.888799322769046 ], [ 3267911.791213040240109, 2047917.652010027319193 ], [ 3267934.995333549566567, 2047936.398379349848256 ], [ 3267941.011151768267155, 2047941.258445465471596 ], [ 3268025.907847259193659, 2048002.502015610923991 ], [ 3268083.84095969516784, 2048041.077609058935195 ], [ 3268105.079112310893834, 2048059.675855673849583 ], [ 3268110.284638047218323, 2048066.873098730342463 ], [ 3268114.032939068973064, 2048071.28668282716535 ], [ 3268134.38882741658017, 2048097.123501498252153 ], [ 3268171.79456774611026, 2048174.911049394635484 ], [ 3268182.922842224128544, 2048198.05284274299629 ], [ 3268217.971276827156544, 2048278.033460501115769 ], [ 3268226.876009671017528, 2048295.725820776307955 ], [ 3268261.24288614699617, 2048358.616439401870593 ], [ 3268267.594493124168366, 2048366.628672143211588 ], [ 3268273.788927593734115, 2048373.655570135219023 ], [ 3268274.884046537335962, 2048380.552178010810167 ], [ 3268273.326075324323028, 2048389.930568505544215 ], [ 3268268.828804899938405, 2048396.178110950626433 ], [ 3268268.332790464628488, 2048396.867181286215782 ], [ 3268262.193966187536716, 2048402.988831259310246 ], [ 3268253.402226510457695, 2048411.593351142015308 ], [ 3268246.587790187448263, 2048419.856222883798182 ], [ 3268239.360230755060911, 2048438.312479351647198 ], [ 3268234.422513692174107, 2048458.396556139923632 ], [ 3268234.223013626411557, 2048482.723796755075455 ], [ 3268240.48041075700894, 2048522.13032025215216 ], [ 3268247.199173442553729, 2048542.438574492698535 ], [ 3268252.200696529820561, 2048557.556259892648086 ], [ 3268264.59100575465709, 2048571.609914745436981 ], [ 3268285.779133093543351, 2048596.29011606820859 ], [ 3268294.264306847006083, 2048604.945895117241889 ], [ 3268300.459530806634575, 2048611.973777199396864 ], [ 3268305.822688361629844, 2048620.156305936630815 ], [ 3268310.979255955666304, 2048633.436196664115414 ], [ 3268317.1807582648471, 2048659.694128141505644 ], [ 3268328.181910715997219, 2048722.572835547849536 ], [ 3268337.662297860253602, 2048750.288415570277721 ], [ 3268342.505241427570581, 2048761.597618220141158 ], [ 3268347.868490892462432, 2048769.781252530403435 ], [ 3268355.521497364155948, 2048779.592820302583277 ], [ 3268367.128948258236051, 2048788.720805546268821 ], [ 3268374.000414226204157, 2048793.607566793914884 ], [ 3268378.580988916568458, 2048796.86436416907236 ], [ 3268388.574216989800334, 2048802.223411671817303 ], [ 3268397.89164271671325, 2048809.722401122329757 ], [ 3268402.109367880038917, 2048817.09117210097611 ], [ 3268405.132224384695292, 2048829.727465975563973 ], [ 3268404.562599851749837, 2048838.935523080639541 ], [ 3268404.305743030272424, 2048850.114430663874373 ], [ 3268400.927054427564144, 2048860.819953450001776 ], [ 3268396.559485584497452, 2048871.697053428506479 ], [ 3268395.001688767690212, 2048881.075353895779699 ], [ 3268395.78332828823477, 2048886.001363690011203 ], [ 3268402.29166966304183, 2048894.998935821233317 ], [ 3268408.799221185967326, 2048903.996645200066268 ], [ 3268417.441045928746462, 2048913.636759952874854 ], [ 3268425.094853245653212, 2048923.449415220646188 ], [ 3268431.083003191743046, 2048935.572543113492429 ], [ 3268434.937788630835712, 2048947.053211284801364 ], [ 3268435.51355886971578, 2048957.075156123610213 ], [ 3268434.94407147821039, 2048966.283300993731245 ], [ 3268432.34768349211663, 2048971.223941258620471 ], [ 3268430.263755564577878, 2048975.189555553719401 ], [ 3268424.701559081673622, 2048991.334157495992258 ], [ 3268421.009439289104193, 2049000.068959537427872 ], [ 3268412.593641904182732, 2049043.024007001891732 ], [ 3268398.927573877386749, 2049104.092487224144861 ], [ 3268394.623523958493024, 2049147.348211616743356 ], [ 3268391.869756539352238, 2049161.995493544032797 ], [ 3268390.937502806074917, 2049175.31442339043133 ], [ 3268390.525430753827095, 2049185.507793587166816 ], [ 3268386.313561525195837, 2049197.369327074382454 ], [ 3268383.76714964909479, 2049206.919198291609064 ], [ 3268385.526724220253527, 2049217.997312725987285 ], [ 3268385.644922122824937, 2049218.741603914415464 ], [ 3268390.331475660204887, 2049229.065466996282339 ], [ 3268396.683384235017002, 2049237.077683099545538 ], [ 3268402.72189371753484, 2049243.120265746954829 ], [ 3268408.084736651275307, 2049251.302879280643538 ], [ 3268409.962517676874995, 2049263.125286797760054 ], [ 3268411.163828889839351, 2049277.087764027994126 ], [ 3268411.064460840076208, 2049289.252011987380683 ], [ 3268411.170630670152605, 2049296.319049577927217 ], [ 3268409.769516318570822, 2049306.682823919923976 ], [ 3268403.793961466290057, 2049333.020098739303648 ], [ 3268394.489854679442942, 2049363.982543247751892 ], [ 3268391.110911732539535, 2049374.688285680022091 ], [ 3268388.877235087566078, 2049386.20782829192467 ], [ 3268389.033636272884905, 2049387.193305602530017 ], [ 3268389.766097525600344, 2049398.200725512579083 ], [ 3268394.296453882474452, 2049407.540201726136729 ], [ 3268402.938126294407994, 2049417.181468871654943 ], [ 3268412.412192478775978, 2049425.665795135544613 ], [ 3268426.830321065150201, 2049433.295923942001536 ], [ 3268434.845717839896679, 2049438.996817956678569 ], [ 3268440.414986066985875, 2049442.083283608779311 ], [ 3268446.454032358713448, 2049448.124666071962565 ], [ 3268452.805867725983262, 2049456.136905390070751 ], [ 3268455.046305907890201, 2049463.84746698057279 ], [ 3268458.275003705639392, 2049471.387669803341851 ], [ 3268459.526477594859898, 2049479.268612032523379 ], [ 3268459.639634107239544, 2049505.566847723675892 ], [ 3268451.26754642650485, 2049523.208174461033195 ], [ 3268448.0952104087919, 2049528.817635731538758 ], [ 3268443.621034758165479, 2049532.626736883772537 ], [ 3268413.234971744474024, 2049545.975882653845474 ], [ 3268375.588100948370993, 2049553.916678513167426 ], [ 3268360.158214514143765, 2049557.171288770390674 ], [ 3268341.686217748560011, 2049562.388086312450469 ], [ 3268328.314196939580142, 2049567.735025146044791 ], [ 3268318.064696060493588, 2049573.555215766420588 ], [ 3268312.082865134812891, 2049580.662371222628281 ], [ 3268306.413659331388772, 2049589.739303800975904 ], [ 3268302.408797438256443, 2049596.504746680613607 ], [ 3268300.538265136070549, 2049603.913585276575759 ], [ 3268299.057087273336947, 2049607.839571033837274 ], [ 3268297.678687028586864, 2049611.492924903752282 ], [ 3268292.841256055049598, 2049619.41413605818525 ], [ 3268286.027783808298409, 2049627.67710929363966 ], [ 3268276.922788383439183, 2049634.311348817078397 ], [ 3268267.81576219573617, 2049637.355356650426984 ], [ 3268264.382783445063978, 2049638.502752471715212 ], [ 3268249.709358016029, 2049642.050712737254798 ], [ 3268223.17061687912792, 2049647.64910464012064 ], [ 3268214.1164008397609, 2049648.201673532137647 ], [ 3268205.218404834158719, 2049649.738541560946032 ], [ 3268194.655470672063529, 2049653.588229061337188 ], [ 3268183.367418656125665, 2049665.660747364396229 ], [ 3268155.534001112915576, 2049688.690578345442191 ], [ 3268146.430049641989172, 2049695.324882009066641 ], [ 3268146.38019407633692, 2049701.40651973686181 ], [ 3268146.536685931961983, 2049702.391884230775759 ], [ 3268149.921943488065153, 2049710.91633710404858 ], [ 3268152.525351203978062, 2049714.515886625042185 ], [ 3268161.679945778101683, 2049701.799808245385066 ], [ 3268172.448848805390298, 2049692.852785951923579 ], [ 3268181.396582779474556, 2049685.234191092429683 ], [ 3268190.970548606943339, 2049681.554884684970602 ], [ 3268197.058654298074543, 2049681.514551289612427 ], [ 3268205.12488315673545, 2049681.133409676840529 ], [ 3268234.402504000347108, 2049680.509598452597857 ], [ 3268238.533793111331761, 2049680.421658037463203 ], [ 3268286.723110973834991, 2049683.22799423802644 ], [ 3268305.458470715209842, 2049686.063360107364133 ], [ 3268327.316233528777957, 2049689.371896213153377 ], [ 3268344.073659292422235, 2049692.549261541804299 ], [ 3268362.809038576669991, 2049695.384745931718498 ], [ 3268377.276906975079328, 2049696.934257642831653 ], [ 3268389.766880276147276, 2049698.824737402610481 ], [ 3268399.966217081062496, 2049699.086326329037547 ], [ 3268409.540145308710635, 2049695.407380566932261 ], [ 3268438.31211918592453, 2049678.288982030004263 ], [ 3268488.465850778855383, 2049642.293464151909575 ], [ 3268542.523943710140884, 2049611.696499433135614 ], [ 3268575.563128346111625, 2049595.864996766671538 ], [ 3268591.744689846411347, 2049589.019866414833814 ], [ 3268606.575290670152754, 2049586.456973145250231 ], [ 3268625.986091812606901, 2049587.152176064439118 ], [ 3268642.430974483024329, 2049588.359563264762983 ], [ 3268664.964836318511516, 2049589.526943215867504 ], [ 3268686.196167490445077, 2049588.894088589353487 ], [ 3268733.027964745648205, 2049576.753725026734173 ], [ 3268768.514326160773635, 2049563.536557795014232 ], [ 3268789.276930204592645, 2049559.948963969014585 ], [ 3268792.086582075804472, 2049558.451500897295773 ], [ 3268795.052448476199061, 2049557.938332525314763 ], [ 3268802.805241637863219, 2049555.587271922267973 ], [ 3268811.546815446577966, 2049553.064657571958378 ], [ 3268814.356410619802773, 2049551.566194008570164 ], [ 3268825.751466105692089, 2049546.560808304231614 ], [ 3268831.57751467358321, 2049538.468677482334897 ], [ 3268834.124103655107319, 2049528.918897411320359 ], [ 3268835.368534522131085, 2049517.569921412272379 ], [ 3268845.898336993996054, 2049417.567152128554881 ], [ 3268849.107637895736843, 2049367.415395485702902 ], [ 3268850.039542174432427, 2049354.095647770212963 ], [ 3268853.261998066678643, 2049342.404928846750408 ], [ 3268858.931115781422704, 2049333.327549237059429 ], [ 3268866.215284222271293, 2049328.02030151989311 ], [ 3268875.583079237490892, 2049329.438299739034846 ], [ 3268884.587925137020648, 2049334.968089767498896 ], [ 3268901.71492747310549, 2049353.26392364804633 ], [ 3268912.647036870010197, 2049364.533683762419969 ], [ 3268925.919442200101912, 2049371.351019766181707 ], [ 3268933.778839498758316, 2049376.065825464902446 ], [ 3268939.191577232442796, 2049378.167291834019125 ], [ 3268952.620901805348694, 2049385.968904915964231 ], [ 3268960.323917683213949, 2049389.698337150504813 ], [ 3268969.328684435691684, 2049395.228253492619842 ], [ 3268984.578621576540172, 2049401.702911354135722 ], [ 3269006.073209878522903, 2049409.123518838780001 ], [ 3269015.754110403824598, 2049412.511220240266994 ], [ 3269028.40031439717859, 2049415.387289577163756 ], [ 3269043.493970729410648, 2049420.876568515086547 ], [ 3269054.945135780610144, 2049429.020088216522709 ], [ 3269066.240017897449434, 2049436.178216283675283 ], [ 3269073.580715791322291, 2049444.019543006084859 ], [ 3269077.64214931987226, 2049450.403170092962682 ], [ 3269081.390282019972801, 2049454.817149364389479 ], [ 3269087.066384654026479, 2049464.969762005610391 ], [ 3269089.825532257091254, 2049469.554009543964639 ], [ 3269095.032139481045306, 2049476.752780481241643 ], [ 3269105.49503172095865, 2049485.066554321441799 ], [ 3269113.823913817293942, 2049492.737655431497842 ], [ 3269123.611098868306726, 2049503.192465347470716 ], [ 3269133.710771769285202, 2049515.618179329670966 ], [ 3269143.341846965253353, 2049525.088681807508692 ], [ 3269145.884819896891713, 2049529.177766974084079 ], [ 3269150.162084922194481, 2049536.055611419025809 ], [ 3269157.658979256637394, 2049544.882356912828982 ], [ 3269166.144776962697506, 2049553.538951868191361 ], [ 3269174.680318417958915, 2049556.112879497231916 ], [ 3269185.398912994191051, 2049553.24815284833312 ], [ 3269185.402253259904683, 2049553.246158654801548 ], [ 3269201.112125773914158, 2049543.448429718613625 ], [ 3269208.864833563566208, 2049541.096752947196364 ], [ 3269217.919716619886458, 2049540.544378604041412 ], [ 3269227.130712883546948, 2049540.976315741194412 ], [ 3269239.621164321899414, 2049542.867144932039082 ], [ 3269248.625494651962072, 2049548.397478782106191 ], [ 3269256.954735637642443, 2049556.067623984534293 ], [ 3269263.618763024918735, 2049566.050268672872335 ], [ 3269271.115393730811775, 2049574.877272901358083 ], [ 3269282.048296228051186, 2049586.146143852500245 ], [ 3269291.835300001315773, 2049596.602324078325182 ], [ 3269300.477033608127385, 2049606.243376452475786 ], [ 3269312.348024865612388, 2049623.423739042598754 ], [ 3269332.066355730872601, 2049647.133068963652477 ], [ 3269333.693344228900969, 2049649.089420604519546 ], [ 3269340.920594698749483, 2049652.801193833118305 ], [ 3269342.541040676180273, 2049653.633420667843893 ], [ 3269356.80200869217515, 2049660.279033219907433 ], [ 3269383.710258439183235, 2049669.801107078557834 ], [ 3269395.368455290328711, 2049672.847848038887605 ], [ 3269406.869575242977589, 2049674.90933458157815 ], [ 3269420.192307983525097, 2049675.643804616993293 ], [ 3269433.671327762305737, 2049677.363671526778489 ], [ 3269445.016335201915354, 2049678.440856683533639 ], [ 3269454.070897467434406, 2049677.887763992417604 ], [ 3269459.689608451444656, 2049674.893535088514909 ], [ 3269466.611048354767263, 2049673.697605618741363 ], [ 3269475.302477351389825, 2049677.256330143194646 ], [ 3269501.328353426419199, 2049694.015851501841098 ], [ 3269562.171107154339552, 2049718.930150996427983 ], [ 3269631.912814282812178, 2049742.30765962949954 ], [ 3269643.726973454467952, 2049746.340305618243292 ], [ 3269657.361783761531115, 2049749.044997576624155 ], [ 3269668.707266960293055, 2049750.121337517630309 ], [ 3269678.231235458515584, 2049752.524671161081642 ], [ 3269686.923195806331933, 2049756.083536814665422 ], [ 3269693.637526962440461, 2049759.985085228225216 ], [ 3269708.368081772699952, 2049769.586327202152461 ], [ 3269716.228050416801125, 2049774.300825261510909 ], [ 3269724.919294179417193, 2049777.860933317570016 ], [ 3269738.554815373849124, 2049780.565622986061499 ], [ 3269749.067533010616899, 2049782.797841872787103 ], [ 3269760.256030640564859, 2049782.890143387252465 ], [ 3269763.157219457440078, 2049783.02639508084394 ], [ 3269769.467527850996703, 2049783.32268946361728 ], [ 3269787.577347729820758, 2049782.218320524552837 ], [ 3269794.497935864143074, 2049781.022785408888012 ], [ 3269798.296322740614414, 2049779.353455340722576 ], [ 3269801.262238291092217, 2049778.8418589734938 ], [ 3269804.0630400381051, 2049776.801229618489742 ], [ 3269806.725434971041977, 2049774.861337659414858 ], [ 3269811.669883095659316, 2049771.258407093118876 ], [ 3269814.008583099581301, 2049769.5542039538268 ], [ 3269815.829324822407216, 2049768.227453992003575 ], [ 3269822.593728323932737, 2049766.046514653367922 ], [ 3269828.888854408636689, 2049760.9105859848205 ], [ 3269834.195868122391403, 2049755.944660572335124 ], [ 3269837.837436685338616, 2049753.291047703940421 ], [ 3269841.479021234437823, 2049750.637533819535747 ], [ 3269847.774077622685581, 2049745.500508844153956 ], [ 3269854.745033177081496, 2049738.223651161650196 ], [ 3269855.420858052559197, 2049736.082716259174049 ], [ 3269858.437050549313426, 2049729.488592069596052 ], [ 3269858.223623049911112, 2049715.354100810363889 ], [ 3269858.323345759883523, 2049703.190193442162126 ], [ 3269859.283194715157151, 2049686.076775021618232 ], [ 3269860.444486552383751, 2049665.372940581990406 ], [ 3269862.778195361606777, 2049641.689217180246487 ], [ 3269867.50863586878404, 2049626.701639915350825 ], [ 3269870.574532423634082, 2049614.026316256960854 ], [ 3269871.434619971551001, 2049610.234961522510275 ], [ 3269872.964429017622024, 2049603.490842474624515 ], [ 3269876.187233556061983, 2049591.799692999105901 ], [ 3269877.589265522081405, 2049581.436405748594552 ], [ 3269879.353013877291232, 2049566.96056231460534 ], [ 3269879.609962324611843, 2049555.782005273969844 ], [ 3269880.698056134860963, 2049543.448178962105885 ], [ 3269879.809994288720191, 2049531.455452429596335 ], [ 3269875.641924742609262, 2049518.004805681062862 ], [ 3269875.172901913523674, 2049516.491234390530735 ], [ 3269871.473957130685449, 2049504.554142659064382 ], [ 3269868.607980329077691, 2049492.902922774199396 ], [ 3269866.887021291069686, 2049482.06587491184473 ], [ 3269862.043297263793647, 2049470.75724413106218 ], [ 3269858.188320809043944, 2049459.27617850410752 ], [ 3269853.188420359045267, 2049446.982141457265243 ], [ 3269850.322356231510639, 2049435.330941649852321 ], [ 3269847.456393363885581, 2049423.679725389694795 ], [ 3269846.880561225581914, 2049413.656835098285228 ], [ 3269847.057861220091581, 2049405.91567236953415 ], [ 3269847.136668519582599, 2049402.478539749281481 ], [ 3269846.248638068791479, 2049390.485821778187528 ], [ 3269845.829065098892897, 2049381.449441414093599 ], [ 3269844.264322951436043, 2049371.59790510404855 ], [ 3269842.856536891311407, 2049362.731541086221114 ], [ 3269836.191707180812955, 2049352.748605808708817 ], [ 3269831.8177968878299, 2049344.393859715899453 ], [ 3269827.131068138405681, 2049334.070505727548152 ], [ 3269820.62242091121152, 2049325.0729788930621 ], [ 3269818.368804947473109, 2049321.957012593047693 ], [ 3269815.416564461309463, 2049317.874855594942346 ], [ 3269811.717712393030524, 2049307.379320044303313 ], [ 3269806.768055848777294, 2049289.002693539485335 ], [ 3269804.833177560474724, 2049282.344583006110042 ], [ 3269804.425756562966853, 2049281.152368838666007 ], [ 3269802.047838162165135, 2049274.193354214541614 ], [ 3269768.329136158339679, 2049147.422567153116688 ], [ 3269763.629477029666305, 2049130.017994140507653 ], [ 3269760.491464529186487, 2049093.549101189244539 ], [ 3269757.625472496729344, 2049081.897920285118744 ], [ 3269753.770290976390243, 2049070.41702411393635 ], [ 3269749.240302071440965, 2049061.077884451020509 ], [ 3269744.865613890811801, 2049052.724403011845425 ], [ 3269742.312684407457709, 2049043.044014150742441 ], [ 3269742.882032633759081, 2049033.835295799653977 ], [ 3269742.932562554255128, 2049027.753871668595821 ], [ 3269742.462346844840795, 2049024.797847240464762 ], [ 3269743.657987848855555, 2049019.530576874502003 ], [ 3269745.372508158907294, 2049011.1370159315411 ], [ 3269745.942034824751318, 2049001.929383686743677 ], [ 3269746.355292019434273, 2048991.736363982316107 ], [ 3269748.225817780010402, 2048984.327126778429374 ], [ 3269748.119391036219895, 2048977.260436540935189 ], [ 3269748.532752490602434, 2048967.06740177818574 ], [ 3269747.124141587875783, 2048958.20120894163847 ], [ 3269743.582234123721719, 2048948.69107388984412 ], [ 3269742.174515974707901, 2048939.824728097300977 ], [ 3269741.5986760975793, 2048929.801880281884223 ], [ 3269741.18007118627429, 2048920.765367863466963 ], [ 3269741.74865198880434, 2048911.556794472504407 ], [ 3269741.016819186042994, 2048900.54962745308876 ], [ 3269742.055497399996966, 2048894.296996138757095 ], [ 3269741.635951613076031, 2048885.259637378854677 ], [ 3269740.602896269410849, 2048878.750114427879453 ], [ 3269740.385221171192825, 2048877.378661247203127 ], [ 3269739.965662740170956, 2048868.341204893076792 ], [ 3269740.172383251599967, 2048863.24519224697724 ], [ 3269739.233048418536782, 2048857.334177501732484 ], [ 3269740.115661543793976, 2048850.096126783406362 ], [ 3269740.166214386932552, 2048844.01471043471247 ], [ 3269741.360913269221783, 2048838.746501174988225 ], [ 3269744.533917989581823, 2048833.13784318161197 ], [ 3269747.862920818384737, 2048828.513506482820958 ], [ 3269753.012281029950827, 2048822.563625105191022 ], [ 3269753.284615756943822, 2048822.365256584016606 ], [ 3269758.475603731814772, 2048818.583260714542121 ], [ 3269762.636760376859456, 2048812.803492655046284 ], [ 3269760.396930669434369, 2048805.092686638934538 ], [ 3269757.868986744433641, 2048801.982621109578758 ], [ 3269755.347102777101099, 2048798.880011099856347 ], [ 3269750.297275393269956, 2048792.667335901875049 ], [ 3269743.789098314009607, 2048783.669754104688764 ], [ 3269739.884379949886352, 2048778.271233671810478 ], [ 3269736.655630450695753, 2048770.731777237262577 ], [ 3269734.934815682470798, 2048759.894769185688347 ], [ 3269732.068796728271991, 2048748.243624869501218 ], [ 3269729.358963415026665, 2048737.57798351184465 ], [ 3269729.195868995040655, 2048717.362151522189379 ], [ 3269729.452326314523816, 2048706.183867545099929 ], [ 3269730.021994066424668, 2048696.976139403413981 ], [ 3269730.591580404434353, 2048687.768527535023168 ], [ 3269732.462368707172573, 2048680.359373208135366 ], [ 3269735.322369748726487, 2048672.78003691136837 ], [ 3269796.334360094740987, 2048577.217077191686258 ], [ 3269799.562753488309681, 2048574.196128082461655 ], [ 3269739.217316761612892, 2047979.337443640222773 ], [ 3270050.037663381546736, 2047736.87354875006713 ], [ 3270452.338682713918388, 2047909.658400667831302 ], [ 3270484.315692697186023, 2047906.931420038454235 ], [ 3270505.386379943229258, 2047884.936290008947253 ], [ 3270543.159172164276242, 2047827.933831393485889 ], [ 3270583.257777502760291, 2047790.41509799589403 ], [ 3270602.834403890185058, 2047768.67814221419394 ], [ 3270648.243054701946676, 2047735.595976927084848 ], [ 3270675.877536562737077, 2047701.759854261763394 ], [ 3270717.238393276929855, 2047677.025159841636196 ], [ 3270747.080397428944707, 2047661.928255570819601 ], [ 3270772.283581719733775, 2047651.456638830713928 ], [ 3270795.131507320329547, 2047655.158422825857997 ], [ 3270808.110861478373408, 2047664.38885190221481 ], [ 3271394.861765738110989, 2047290.513908005552366 ], [ 3271612.69200692512095, 2047188.115572858601809 ], [ 3271685.393715226557106, 2047166.95658869552426 ], [ 3271862.136502772569656, 2047115.684253523126245 ], [ 3272071.80942751839757, 2047079.474863003473729 ], [ 3272170.098685, 2047035.957139315549284 ], [ 3272170.098685, 2046994.160015 ], [ 3267504.773107993882149, 2046994.160015 ], [ 3267529.717619203031063, 2047033.543920349096879 ] ] ] } }
]
}
