{
"type": "FeatureCollection",
"name": "Fresneda_de_la_Sierra",
"crs": { "type": "name", "properties": { "name": "urn:ogc:def:crs:EPSG::3035" } },
"features": [
{ "type": "Feature", "properties": { "SITE_NAME": "Serrania de Cuenca", "ODESIGNATE": "Parque Natural", "NUT2": 42, "SITE_CODE_": "ES423016", "DESIG_ABBR": "ES10", "SITE_CDDA": "389021_CDDA", "Sup_ha": 73978.983882700006 }, "geometry": { "type": "Polygon", "coordinates": [ [ [ 3294600.7923654015176, 2001803.648056519916281 ], [ 3294861.427663536276668, 2001830.209485759027302 ], [ 3295104.060217152349651, 2001808.279539642622694 ], [ 3295305.857942324131727, 2001741.271823215764016 ], [ 3295338.412254832219332, 2001728.305204999865964 ], [ 3294492.031021495349705, 2001728.305204999865964 ], [ 3294600.7923654015176, 2001803.648056519916281 ] ] ] } }
]
}
