{
"type": "FeatureCollection",
"name": "Navalcán",
"crs": { "type": "name", "properties": { "name": "urn:ogc:def:crs:EPSG::3035" } },
"features": [
{ "type": "Feature", "properties": { "SITE_NAME": "Sotos del Río Guadyerbas y Arenales del Baldío de Velada", "ODESIGNATE": "Reserva Fluvial", "NUT2": 42, "SITE_CODE_": "ES425002", "DESIG_ABBR": "ES91", "SITE_CDDA": "349510_CDDA", "Sup_ha": 1864.7044911200001 }, "geometry": { "type": "Polygon", "coordinates": [ [ [ 3039463.33462496753782, 2009909.222814876586199 ], [ 3039484.116229868493974, 2009919.803055728320032 ], [ 3039503.946988961659372, 2009930.525316756684333 ], [ 3039521.283996528480202, 2009940.484237228753045 ], [ 3039535.760492574423552, 2009949.641744515858591 ], [ 3039548.674076495692134, 2009959.011414712993428 ], [ 3039553.447882147505879, 2009962.989411539165303 ], [ 3039553.832760216202587, 2009963.658906642347574 ], [ 3039557.434101429767907, 2009969.057874921709299 ], [ 3039561.384748938493431, 2009974.202634012559429 ], [ 3039563.174825049005449, 2009976.3175885877572 ], [ 3039577.718236453831196, 2009993.01263207453303 ], [ 3039586.647782783024013, 2010005.772116135573015 ], [ 3039587.263628708198667, 2010006.642073907889426 ], [ 3039591.214279031381011, 2010011.786835850216448 ], [ 3039595.497147994115949, 2010016.655502686975524 ], [ 3039600.09418810158968, 2010021.227169918594882 ], [ 3039600.670102842152119, 2010021.758689646143466 ], [ 3039613.966394561808556, 2010033.929606414400041 ], [ 3039631.417405154556036, 2010050.1822561675217 ], [ 3039631.456954050809145, 2010050.218991801142693 ], [ 3039634.916647752281278, 2010053.287385594332591 ], [ 3039651.266142780892551, 2010067.107038048561662 ], [ 3039652.697715494781733, 2010068.293864019447938 ], [ 3039654.888427929952741, 2010070.023268096148968 ], [ 3039665.066615260206163, 2010077.823967211181298 ], [ 3039671.293475707061589, 2010082.596265030791983 ], [ 3039674.267462051473558, 2010084.787242788355798 ], [ 3039678.044613139238209, 2010087.330257952678949 ], [ 3039695.392033912241459, 2010098.429318957962096 ], [ 3039697.030861426144838, 2010099.45511836046353 ], [ 3039702.674972057342529, 2010102.657030482310802 ], [ 3039708.522935930173844, 2010105.478526097489521 ], [ 3039710.203317319974303, 2010106.202757933642715 ], [ 3039727.095071218907833, 2010113.296374326338992 ], [ 3039741.59805070143193, 2010119.407206921139732 ], [ 3039746.052069688215852, 2010121.156982994871214 ], [ 3039752.231958105228841, 2010123.182804509066045 ], [ 3039758.538543600589037, 2010124.796851468738168 ], [ 3039760.283180708065629, 2010125.165822580689564 ], [ 3039770.403679646085948, 2010127.211351166944951 ], [ 3039786.761292647570372, 2010131.626478972844779 ], [ 3039819.648304352536798, 2010143.715048505691811 ], [ 3039824.681160525884479, 2010145.86501340707764 ], [ 3039824.713190335780382, 2010145.878767695976421 ], [ 3039851.588624434545636, 2010157.34847474982962 ], [ 3039854.360751660075039, 2010158.481706721242517 ], [ 3039874.037264139391482, 2010166.176388735184446 ], [ 3039876.132977681234479, 2010166.968356835655868 ], [ 3039880.297768500633538, 2010168.383248188067228 ], [ 3039898.141991270706058, 2010174.002508997917175 ], [ 3039900.157096305396408, 2010174.613456732826307 ], [ 3039906.463690130971372, 2010176.227523286826909 ], [ 3039912.869796490296721, 2010177.422900344943628 ], [ 3039914.973111491184682, 2010177.673511685105041 ], [ 3039919.348035542294383, 2010178.19463254371658 ], [ 3039923.118773073889315, 2010178.446244041901082 ], [ 3039925.476106957066804, 2010178.558613840956241 ], [ 3039932.366461917757988, 2010184.28899864340201 ], [ 3039938.112609559670091, 2010189.06786493351683 ], [ 3039938.948388881981373, 2010189.755087827565148 ], [ 3039944.113100368529558, 2010193.675498972646892 ], [ 3039949.529091566801071, 2010197.244343011407182 ], [ 3039953.003363694995642, 2010199.273829852230847 ], [ 3039973.027524273842573, 2010210.423444767482579 ], [ 3039974.218198521528393, 2010211.075563 ], [ 3039986.230325163342059, 2010217.546675672754645 ], [ 3039991.610369453206658, 2010220.883587636053562 ], [ 3040001.09151890873909, 2010226.885742448735982 ], [ 3040012.179462939500809, 2010234.429727117996663 ], [ 3040016.113847584463656, 2010236.970317701809108 ], [ 3040021.757974228356034, 2010240.172267015790567 ], [ 3040027.605954592581838, 2010242.993801268050447 ], [ 3040033.632779320701957, 2010245.422551065683365 ], [ 3040039.812683270312846, 2010247.448409557109699 ], [ 3040046.119284532032907, 2010249.062494339887053 ], [ 3040052.525398296304047, 2010250.257889912463725 ], [ 3040058.73955610441044, 2010251.00662926514633 ], [ 3040071.360256033949554, 2010252.124318155227229 ], [ 3040071.62434465624392, 2010252.147329806815833 ], [ 3040075.390275762416422, 2010252.398695012787357 ], [ 3040090.566666942555457, 2010253.12276506354101 ], [ 3040091.15013472456485, 2010253.148914516437799 ], [ 3040097.073250235058367, 2010256.474997987505049 ], [ 3040099.550060655456036, 2010257.819096187129617 ], [ 3040105.398044888395816, 2010260.640639891615137 ], [ 3040108.707249615341425, 2010262.031735056545585 ], [ 3040113.800580129493028, 2010264.063756931340322 ], [ 3040113.843934830743819, 2010264.081068855477497 ], [ 3040121.7549510570243, 2010267.232859498355538 ], [ 3040124.429220774676651, 2010268.253212742274627 ], [ 3040130.60912976320833, 2010270.279083039378747 ], [ 3040136.915736286900938, 2010271.893179942853749 ], [ 3040138.005215824116021, 2010272.127481032628566 ], [ 3040148.892607814632356, 2010274.404931342462078 ], [ 3040154.209248054772615, 2010275.366039440268651 ], [ 3040160.687500776723027, 2010276.137804486323148 ], [ 3040167.21023284457624, 2010276.482436987105757 ], [ 3040169.386472190730274, 2010276.502212871564552 ], [ 3040185.26481894031167, 2010276.472591547295451 ], [ 3040186.758839434478432, 2010276.458563778083771 ], [ 3040197.015119330957532, 2010276.285850162617862 ], [ 3040198.304381609894335, 2010276.374643970513716 ], [ 3040198.42763471417129, 2010276.383205728139728 ], [ 3040199.991301268339157, 2010276.492871792521328 ], [ 3040205.398522806353867, 2010277.552369117503986 ], [ 3040209.484984490089118, 2010278.264301010640338 ], [ 3040215.963241029530764, 2010279.03607391868718 ], [ 3040222.485977099277079, 2010279.380714397411793 ], [ 3040223.180877615697682, 2010279.39219822594896 ], [ 3040230.466862365603447, 2010279.486877662595361 ], [ 3040235.582988464273512, 2010280.971608007792383 ], [ 3040236.996889556292444, 2010281.370590116363019 ], [ 3040250.198847636580467, 2010284.989132013637573 ], [ 3040250.746069776825607, 2010285.13745812093839 ], [ 3040262.926752959378064, 2010288.400727285072207 ], [ 3040267.160090097226202, 2010289.435005637118593 ], [ 3040269.682318639475852, 2010289.957930241478607 ], [ 3040280.992441242095083, 2010292.149526869645342 ], [ 3040281.353667638264596, 2010292.212097048992291 ], [ 3040284.876340579241514, 2010292.822029141709208 ], [ 3040291.354601948522031, 2010293.593812580220401 ], [ 3040293.560942876152694, 2010293.758514050161466 ], [ 3040304.273599235806614, 2010303.344154343940318 ], [ 3040307.773394043557346, 2010306.32976494776085 ], [ 3040312.938121153507382, 2010310.250214861240238 ], [ 3040318.354129054583609, 2010313.819099830230698 ], [ 3040320.508962645195425, 2010315.100442525232211 ], [ 3040321.362351981922984, 2010315.593119164463133 ], [ 3040325.454679170623422, 2010320.356944308616221 ], [ 3040344.661119937896729, 2010342.768846984952688 ], [ 3040353.405019637197256, 2010354.100807113340124 ], [ 3040355.283446103334427, 2010356.458669402170926 ], [ 3040359.566346264909953, 2010361.327402841998264 ], [ 3040364.163419349119067, 2010365.899141813628376 ], [ 3040368.213547712657601, 2010369.462691141758114 ], [ 3040380.670311253983527, 2010379.823990030912682 ], [ 3040396.574925663415343, 2010395.723319438518956 ], [ 3040399.089646054431796, 2010398.148398252204061 ], [ 3040403.500211901962757, 2010401.985435857903212 ], [ 3040403.980947026051581, 2010402.403694474836811 ], [ 3040404.054969103541225, 2010402.463782565668225 ], [ 3040412.750505537725985, 2010409.519180442206562 ], [ 3040417.841217533685267, 2010413.379553793696687 ], [ 3040423.2572320997715, 2010416.94845070457086 ], [ 3040428.901379242539406, 2010420.150447455234826 ], [ 3040434.749380674213171, 2010422.972030971432105 ], [ 3040440.776226951275021, 2010425.400831669801846 ], [ 3040446.956152832135558, 2010427.426742448471487 ], [ 3040453.26277632266283, 2010429.040880705695599 ], [ 3040459.668912512715906, 2010430.236330705462024 ], [ 3040466.147181435488164, 2010431.008136776974425 ], [ 3040472.66992953652516, 2010431.352810604730621 ], [ 3040479.209142225794494, 2010431.26905611762777 ], [ 3040482.746180296875536, 2010430.99160363106057 ], [ 3040493.733682010322809, 2010440.958022472681478 ], [ 3040516.861779343336821, 2010458.121178256347775 ], [ 3040529.621791733894497, 2010469.529933816986158 ], [ 3040548.626210825983435, 2010496.040343915345147 ], [ 3040556.911508797202259, 2010507.232259620213881 ], [ 3040567.350165536627173, 2010517.653996337205172 ], [ 3040570.263115403708071, 2010520.562292692717165 ], [ 3040596.954991442617029, 2010543.171155769843608 ], [ 3040636.181782462634146, 2010557.468777341768146 ], [ 3040653.772075087297708, 2010558.39113384950906 ], [ 3040665.004014421254396, 2010569.565149954520166 ], [ 3040661.045085973106325, 2010615.923556927125901 ], [ 3041144.181658747605979, 2010587.635897654574364 ], [ 3041169.569111627992243, 2010590.717277122428641 ], [ 3041175.174184223636985, 2010593.213543861405924 ], [ 3041203.707438820507377, 2010605.921159202000126 ], [ 3041222.831485941074789, 2010609.104004264809191 ], [ 3041243.632400908041745, 2010616.041836300864816 ], [ 3041262.341802484821528, 2010625.378485918277875 ], [ 3041264.540983617771417, 2010626.177032121922821 ], [ 3041267.788650322239846, 2010629.787721523083746 ], [ 3041269.25687686400488, 2010631.384046879131347 ], [ 3041273.853981680236757, 2010635.95586925977841 ], [ 3041278.129492751322687, 2010639.706370689440519 ], [ 3041288.719789841212332, 2010648.461501399753615 ], [ 3041289.335612358525395, 2010648.966382251353934 ], [ 3041292.147739111445844, 2010651.168134443229064 ], [ 3041297.839615053497255, 2010655.458473528502509 ], [ 3041303.809116662479937, 2010659.962462816853076 ], [ 3041306.197291946038604, 2010661.708076440962031 ], [ 3041311.613345778081566, 2010665.277071707416326 ], [ 3041317.257534900680184, 2010668.47917171404697 ], [ 3041323.105580845382065, 2010671.300862933974713 ], [ 3041329.132473976816982, 2010673.729775317478925 ], [ 3041335.312448859214783, 2010675.755801313556731 ], [ 3041341.61912328004837, 2010677.370057798456401 ], [ 3041348.025312116369605, 2010678.565628540469334 ], [ 3041352.178193476516753, 2010679.11019735597074 ], [ 3041354.024593913927674, 2010679.312666751910001 ], [ 3041365.526135587133467, 2010681.882797169964761 ], [ 3041365.749309487640858, 2010681.932453151093796 ], [ 3041372.15549980988726, 2010683.128027207450941 ], [ 3041378.633824410382658, 2010683.899959384929389 ], [ 3041385.15662950091064, 2010684.244760844390839 ], [ 3041391.695900246500969, 2010684.161134963156655 ], [ 3041393.287872685585171, 2010684.075806243345141 ], [ 3041402.514141613617539, 2010683.507879752665758 ], [ 3041405.011545132379979, 2010683.32281416724436 ], [ 3041430.878638724330813, 2010681.080158333759755 ], [ 3041433.317023954354227, 2010680.838718498125672 ], [ 3041439.805317199323326, 2010679.900916412705556 ], [ 3041442.421493495814502, 2010679.399531233124435 ], [ 3041445.157521832734346, 2010678.83759964001365 ], [ 3041456.927496290765703, 2010680.560664877295494 ], [ 3041462.801664830651134, 2010681.242231236537918 ], [ 3041469.324476308189332, 2010681.587044990621507 ], [ 3041472.571247216314077, 2010681.599163915263489 ], [ 3041491.865950861945748, 2010681.35669031413272 ], [ 3041495.158458174206316, 2010681.260959398699924 ], [ 3041501.686226493213326, 2010680.749138188315555 ], [ 3041508.174525489099324, 2010679.811346294591203 ], [ 3041514.59558046143502, 2010678.451614912599325 ], [ 3041517.854267291259021, 2010677.592178996652365 ], [ 3041539.456137141212821, 2010671.508675887482241 ], [ 3041540.932713672984391, 2010671.080712755443528 ], [ 3041560.174105075653642, 2010665.345376453129575 ], [ 3041561.765162387862802, 2010664.8569119151216 ], [ 3041567.969639356248081, 2010662.672478669788688 ], [ 3041572.48233902733773, 2010660.79156710836105 ], [ 3041588.241650620475411, 2010653.774545616703108 ], [ 3041601.174697520211339, 2010648.069567393511534 ], [ 3041603.041083445772529, 2010647.223747963551432 ], [ 3041605.791001959703863, 2010645.893684019101784 ], [ 3041607.014656953513622, 2010646.00250540743582 ], [ 3041607.311795529909432, 2010646.028460493311286 ], [ 3041608.190641363151371, 2010646.100050867768005 ], [ 3041628.729623218532652, 2010647.680695025483146 ], [ 3041650.489462754689157, 2010650.011702199000865 ], [ 3041671.288044943939894, 2010653.191307042026892 ], [ 3041671.304059971123934, 2010653.193726167082787 ], [ 3041677.782406758517027, 2010653.965701640350744 ], [ 3041680.30838380753994, 2010654.150297742569819 ], [ 3041700.556835807394236, 2010655.370662409346551 ], [ 3041701.909335114061832, 2010655.442876384593546 ], [ 3041723.023916421458125, 2010656.427028643665835 ], [ 3041725.668270271737128, 2010656.515067169675604 ], [ 3041732.207569017075002, 2010656.431492073694244 ], [ 3041738.735358072444797, 2010655.919706698972732 ], [ 3041744.214731718879193, 2010655.156241145916283 ], [ 3041752.737226935103536, 2010653.728790432913229 ], [ 3041755.931127741001546, 2010653.712240351131186 ], [ 3041759.961564009077847, 2010653.610046594636515 ], [ 3041761.153912845533341, 2010653.548529989551753 ], [ 3041785.390350881032646, 2010652.154148228000849 ], [ 3041790.725795204285532, 2010651.703886620700359 ], [ 3041793.07679473888129, 2010651.413978483295068 ], [ 3041814.208110515959561, 2010648.554682823363692 ], [ 3041814.812945155892521, 2010648.470957668730989 ], [ 3041815.090851102955639, 2010648.431633285246789 ], [ 3041825.04442769754678, 2010646.507836545119062 ], [ 3041831.370776773430407, 2010644.732017635833472 ], [ 3041837.57527989288792, 2010642.54762473423034 ], [ 3041840.527452025562525, 2010641.34604749828577 ], [ 3041860.405476820655167, 2010632.890273028053343 ], [ 3041889.729745179414749, 2010622.329852061346173 ], [ 3041951.052061202935874, 2010646.34021390019916 ], [ 3041995.530776323750615, 2010663.755792882060632 ], [ 3041996.063637821935117, 2010663.95726148574613 ], [ 3041997.011565289460123, 2010664.281450232723728 ], [ 3042005.093951458111405, 2010666.86246809293516 ], [ 3042005.236156648956239, 2010666.907790127210319 ], [ 3042006.7661849912256, 2010667.953845146810636 ], [ 3042010.715323058422655, 2010673.002299592830241 ], [ 3042013.92170339031145, 2010677.890590911498293 ], [ 3042020.005233592353761, 2010689.692331014433876 ], [ 3042020.331569014117122, 2010690.303964922903106 ], [ 3042023.904965506400913, 2010696.778769666096196 ], [ 3042028.90186080057174, 2010705.832704285159707 ], [ 3042035.357651859521866, 2010719.963912067236379 ], [ 3042036.268259769771248, 2010721.758090892806649 ], [ 3042044.990491445641965, 2010737.320596396923065 ], [ 3042047.61715204641223, 2010742.803624556399882 ], [ 3042048.337493156082928, 2010744.191676401300356 ], [ 3042050.84041559509933, 2010747.838584325974807 ], [ 3042116.804708566982299, 2010826.707640809938312 ], [ 3042121.70456622261554, 2010832.623757666675374 ], [ 3042128.080311527475715, 2010840.105274142930284 ], [ 3042132.831373826600611, 2010847.124939783709124 ], [ 3042133.161860569380224, 2010847.600860721897334 ], [ 3042136.877276072278619, 2010852.818703684257343 ], [ 3042139.946731216274202, 2010859.395059256348759 ], [ 3042141.81760852271691, 2010866.852294088574126 ], [ 3042143.079074641689658, 2010874.593792103463784 ], [ 3042142.59513848926872, 2010885.114574123639613 ], [ 3042141.535907449200749, 2010894.648609152296558 ], [ 3042139.918430330231786, 2010902.338727209484205 ], [ 3042137.872745028696954, 2010911.075009067775682 ], [ 3042135.368384407833219, 2010920.109060736838728 ], [ 3042132.819648536853492, 2010929.652406389825046 ], [ 3042132.419321970548481, 2010931.396352491341531 ], [ 3042132.233012993820012, 2010932.492491375189275 ], [ 3042130.040892419405282, 2010947.365218799328431 ], [ 3042129.13086755387485, 2010953.842545944033191 ], [ 3042127.395579110831022, 2010966.66355792642571 ], [ 3042125.362695482559502, 2010973.996943176956847 ], [ 3042124.898944102227688, 2010975.973995435284451 ], [ 3042124.510315202176571, 2010978.907031204085797 ], [ 3042123.913273117505014, 2010987.06926084542647 ], [ 3042123.849800220225006, 2010988.482094417093322 ], [ 3042124.001305785495788, 2010991.680058110971004 ], [ 3042125.344136846251786, 2011003.671992874471471 ], [ 3042125.499554102309048, 2011004.8184815030545 ], [ 3042126.618682042229921, 2011009.205455264076591 ], [ 3042129.427194522693753, 2011016.925997175276279 ], [ 3042130.232718605548143, 2011020.306809269357473 ], [ 3042130.066196830011904, 2011021.460227759089321 ], [ 3042127.946497050579637, 2011025.050114798126742 ], [ 3042125.43175887176767, 2011027.44191647740081 ], [ 3042123.590185184031725, 2011029.38590659876354 ], [ 3042121.988381539005786, 2011031.47094431030564 ], [ 3042118.649396761320531, 2011036.311009406810626 ], [ 3042117.694040925242007, 2011037.803523694863543 ], [ 3042115.787850791588426, 2011041.760039317421615 ], [ 3042114.757481075823307, 2011045.177553162677214 ], [ 3042113.137834267690778, 2011052.336174244526774 ], [ 3042112.970850391779095, 2011053.133894800208509 ], [ 3042112.650001424830407, 2011055.30135767091997 ], [ 3042111.805535325780511, 2011063.427268874133006 ], [ 3042110.662669595330954, 2011067.288984264712781 ], [ 3042110.077608989086002, 2011069.689311855239794 ], [ 3042109.790011699311435, 2011071.554052785970271 ], [ 3042108.94514421839267, 2011078.827926186844707 ], [ 3042107.579946838319302, 2011085.687935281777754 ], [ 3042105.28932463331148, 2011091.722406507236883 ], [ 3042103.044432581868023, 2011094.67064267070964 ], [ 3042101.382036391180009, 2011097.138359242584556 ], [ 3042099.475852560717613, 2011101.094877682626247 ], [ 3042098.278505007270724, 2011105.310114554595202 ], [ 3042097.826350573915988, 2011109.662586477119476 ], [ 3042097.698389733210206, 2011117.659067510860041 ], [ 3042097.687120142858475, 2011124.666442221961915 ], [ 3042097.291119410190731, 2011125.978348599513993 ], [ 3042094.693347247317433, 2011129.876051668310538 ], [ 3042090.310243668034673, 2011135.307069425005466 ], [ 3042088.19998336955905, 2011138.346058300696313 ], [ 3042086.293804014101624, 2011142.302578802686185 ], [ 3042085.609810593072325, 2011144.364227531012148 ], [ 3042083.09080190770328, 2011153.202909876592457 ], [ 3042082.577452613040805, 2011155.35650003538467 ], [ 3042082.125368004664779, 2011159.702375629683957 ], [ 3042082.211082448251545, 2011162.232107073767111 ], [ 3042082.691062029451132, 2011167.894110186723992 ], [ 3042082.217070887796581, 2011172.413922140141949 ], [ 3042080.671055459417403, 2011182.274677844019607 ], [ 3042080.549728468060493, 2011183.148077222984284 ], [ 3042079.60728763602674, 2011190.925927667412907 ], [ 3042079.42807315196842, 2011193.531180614838377 ], [ 3042079.744932429865003, 2011197.936598891858011 ], [ 3042080.736060444265604, 2011203.963740041479468 ], [ 3042081.772920418996364, 2011208.052849673433229 ], [ 3042082.53113745059818, 2011209.973968805745244 ], [ 3042085.885435387026519, 2011217.526053929934278 ], [ 3042086.485470063984394, 2011219.26657708059065 ], [ 3042084.836067540571094, 2011219.438610014971346 ], [ 3042082.971491621341556, 2011219.704162487993017 ], [ 3042079.35319812502712, 2011220.368552415398881 ], [ 3042075.265490472316742, 2011221.480470252223313 ], [ 3042071.288424267433584, 2011223.331178621621802 ], [ 3042068.224271040409803, 2011225.399726924719289 ], [ 3042063.155261634383351, 2011229.382356826914474 ], [ 3042062.610848299227655, 2011229.822255692211911 ], [ 3042059.480416426435113, 2011232.912184432847425 ], [ 3042056.857635008636862, 2011236.601952061755583 ], [ 3042052.421142620034516, 2011244.265434425557032 ], [ 3042045.225746873766184, 2011253.787092678016052 ], [ 3042042.631731400731951, 2011259.070378893287852 ], [ 3042041.83347312733531, 2011263.385045412229374 ], [ 3042041.330778563395143, 2011268.388873064192012 ], [ 3042042.12115313205868, 2011273.348021556856111 ], [ 3042043.461589688435197, 2011277.096536855911836 ], [ 3042045.719334873370826, 2011280.774625954916701 ], [ 3042048.28090797085315, 2011284.027764550875872 ], [ 3042051.43147088540718, 2011286.897822936531156 ], [ 3042054.792490465566516, 2011289.058283326681703 ], [ 3042059.80353968590498, 2011291.064026974374428 ], [ 3042064.938727606087923, 2011291.819213970797136 ], [ 3042070.742920655291528, 2011291.528041138546541 ], [ 3042076.996602358296514, 2011289.395195369841531 ], [ 3042082.416876778006554, 2011286.112484043696895 ], [ 3042086.219878397881985, 2011282.004947321722284 ], [ 3042088.881759130395949, 2011277.729506645118818 ], [ 3042091.14658476319164, 2011272.492342822020873 ], [ 3042091.776685269549489, 2011268.358590400312096 ], [ 3042095.665357418358326, 2011268.5291023098398 ], [ 3042096.843452643603086, 2011268.406186982989311 ], [ 3042103.033253262750804, 2011267.945265152258798 ], [ 3042105.568149275146425, 2011267.626085450872779 ], [ 3042109.79287514090538, 2011266.489380020881072 ], [ 3042114.001807145308703, 2011264.502157476963475 ], [ 3042121.409015131182969, 2011260.039177322061732 ], [ 3042124.553932707756758, 2011257.803651335416362 ], [ 3042127.684366442263126, 2011254.713727101217955 ], [ 3042130.161244129762053, 2011251.270633689360693 ], [ 3042133.923084415495396, 2011245.007773379096761 ], [ 3042135.86938822735101, 2011240.984019807074219 ], [ 3042137.066725167445838, 2011236.768780270358548 ], [ 3042137.511708801612258, 2011232.734347981400788 ], [ 3042137.73473030840978, 2011225.040851646801457 ], [ 3042137.652783068362623, 2011222.357739494415 ], [ 3042136.916532414034009, 2011213.662631996208802 ], [ 3042136.695144117809832, 2011211.845604312606156 ], [ 3042135.653957568109035, 2011207.679034883156419 ], [ 3042133.200356493704021, 2011200.561688182409853 ], [ 3042132.796076277270913, 2011199.389058780390769 ], [ 3042132.030154370702803, 2011197.44569985056296 ], [ 3042129.67957510240376, 2011192.153475154889748 ], [ 3042130.09764077886939, 2011188.703461258206517 ], [ 3042131.675125923939049, 2011178.642143507953733 ], [ 3042131.8419378134422, 2011177.365754230646417 ], [ 3042132.631421409547329, 2011169.838061640737578 ], [ 3042132.765153823420405, 2011167.635799983516335 ], [ 3042132.679440054111183, 2011165.106068794615567 ], [ 3042132.417480744421482, 2011162.016220232704654 ], [ 3042134.057029384188354, 2011159.984654170228168 ], [ 3042135.442703349515796, 2011158.097979882266372 ], [ 3042140.798864440061152, 2011150.061600102111697 ], [ 3042141.523451678454876, 2011148.909287771442905 ], [ 3042143.429633360821754, 2011144.952770178904757 ], [ 3042144.002734539099038, 2011143.268969067372382 ], [ 3042146.043827085755765, 2011136.506238034926355 ], [ 3042146.545876405667514, 2011134.861225518863648 ], [ 3042147.192663498688489, 2011132.255352501524612 ], [ 3042147.646486819256097, 2011127.717853693990037 ], [ 3042147.662041688337922, 2011117.756462858989835 ], [ 3042148.72858188347891, 2011116.173228322295472 ], [ 3042150.635637154337019, 2011112.214530661469325 ], [ 3042154.996614797972143, 2011100.725506205577403 ], [ 3042156.162492660805583, 2011096.666859153658152 ], [ 3042157.350707619450986, 2011090.695930876536295 ], [ 3042158.155390550382435, 2011086.652618602616712 ], [ 3042158.457854314241558, 2011084.711765968473628 ], [ 3042159.168798672966659, 2011078.590781870530918 ], [ 3042160.355327148921788, 2011074.581458300817758 ], [ 3042160.940388783812523, 2011072.181131697027013 ], [ 3042161.26123799290508, 2011070.013669287320226 ], [ 3042162.005537741817534, 2011062.973536042263731 ], [ 3042162.726074242964387, 2011060.425373004982248 ], [ 3042164.594115754123777, 2011058.565948446979746 ], [ 3042166.435689431615174, 2011056.621959747048095 ], [ 3042169.002379633486271, 2011053.028426402481273 ], [ 3042175.517237854190171, 2011041.99494607700035 ], [ 3042177.40448560891673, 2011038.070482614217326 ], [ 3042178.601842990145087, 2011033.855251116212457 ], [ 3042178.799048624001443, 2011032.684212504886091 ], [ 3042180.366419526748359, 2011021.82560280803591 ], [ 3042180.621314061339945, 2011018.650772207649425 ], [ 3042180.314391057938337, 2011014.306319730589166 ], [ 3042179.94835361931473, 2011012.46234390954487 ], [ 3042177.905859587714076, 2011003.89017086639069 ], [ 3042177.710956545546651, 2011003.072239030618221 ], [ 3042176.957867151126266, 2011000.529240579577163 ], [ 3042174.671368583105505, 2010994.243093312019482 ], [ 3042173.915136669762433, 2010987.488846770022064 ], [ 3042174.16058431006968, 2010984.133096125908196 ], [ 3042175.984422493260354, 2010977.553846965078264 ], [ 3042176.448174867313355, 2010975.576795566361398 ], [ 3042176.676325900945812, 2010974.184715275187045 ], [ 3042178.625262736342847, 2010959.783803465776145 ], [ 3042179.49354581348598, 2010953.602401990210637 ], [ 3042181.449368268251419, 2010940.334894015220925 ], [ 3042183.559795542154461, 2010932.430891944561154 ], [ 3042186.137153331190348, 2010923.135891839629039 ], [ 3042186.391570444684476, 2010922.140416837064549 ], [ 3042188.619919607881457, 2010912.623895880533382 ], [ 3042188.744680318981409, 2010912.062399613671005 ], [ 3042190.715748106129467, 2010902.682763474527746 ], [ 3042191.059960833750665, 2010900.482267880579457 ], [ 3042192.343949241563678, 2010888.924747281474993 ], [ 3042192.471219263039529, 2010887.302760594291613 ], [ 3042193.112294960767031, 2010873.366862411843613 ], [ 3042193.135357775259763, 2010872.632755719125271 ], [ 3042192.821532913018018, 2010868.245559196919203 ], [ 3042190.967600214295089, 2010856.86798007087782 ], [ 3042190.545525203458965, 2010854.823915985180065 ], [ 3042187.846571667119861, 2010844.065887246513739 ], [ 3042187.225920820608735, 2010841.984505714615807 ], [ 3042186.277548695914447, 2010839.645792606286705 ], [ 3042181.268912582658231, 2010828.914738666266203 ], [ 3042180.443117660935968, 2010827.303771817358211 ], [ 3042179.032161653973162, 2010825.076563169714063 ], [ 3042174.192255962640047, 2010818.279525507241488 ], [ 3042168.845667358953506, 2010810.379867183510214 ], [ 3042167.349664396606386, 2010808.397211480652913 ], [ 3042160.18407988268882, 2010799.98820103565231 ], [ 3042155.430439388379455, 2010794.247004386270419 ], [ 3042091.417032352648675, 2010717.710686721839011 ], [ 3042089.776495459023863, 2010714.286151965381578 ], [ 3042089.0551658696495, 2010712.896350553259254 ], [ 3042087.035687149502337, 2010709.293013312853873 ], [ 3042080.442130890674889, 2010697.528626672690734 ], [ 3042074.019683844409883, 2010683.470320290885866 ], [ 3042073.185879018623382, 2010681.814168860204518 ], [ 3042066.174114477820694, 2010669.109362049261108 ], [ 3042802.889075000304729, 2010688.158666853560135 ], [ 3042802.889075000304729, 2009899.762124999891967 ], [ 3039443.360361758153886, 2009899.762124999891967 ], [ 3039463.33462496753782, 2009909.222814876586199 ] ] ] } }
]
}
