{
"type": "FeatureCollection",
"name": "Navas_de_Jadraque,_Las",
"crs": { "type": "name", "properties": { "name": "urn:ogc:def:crs:EPSG::3035" } },
"features": [
{ "type": "Feature", "properties": { "SITE_NAME": "Sierra Norte de Guadalajara", "ODESIGNATE": "Parque Natural", "NUT2": 42, "SITE_CODE_": "ES424016", "DESIG_ABBR": "ES10", "SITE_CDDA": "555545971_CDDA", "Sup_ha": 116989.116366 }, "geometry": { "type": "Polygon", "coordinates": [ [ [ 3220524.440104999113828, 2098122.362094999756664 ], [ 3226077.539995001163334, 2098122.362094999756664 ], [ 3226077.539995001163334, 2093622.242905000690371 ], [ 3220524.440104999113828, 2093622.242905000690371 ], [ 3220524.440104999113828, 2098122.362094999756664 ] ], [ [ 3223153.955505636520684, 2095982.460382365854457 ], [ 3223152.585582925006747, 2095980.064293232280761 ], [ 3223151.488751092925668, 2095978.147294054739177 ], [ 3223148.999218801036477, 2095973.435183637309819 ], [ 3223146.599249199032784, 2095968.524304091697559 ], [ 3223145.652299534063786, 2095966.427604074822739 ], [ 3223144.398190812207758, 2095963.65017748856917 ], [ 3223143.140233679674566, 2095960.695631068898365 ], [ 3223142.446864570491016, 2095959.067137359175831 ], [ 3223141.696634467691183, 2095957.18971896613948 ], [ 3223140.838561743032187, 2095955.042376244673505 ], [ 3223140.151898582465947, 2095953.244344624690711 ], [ 3223139.598124457523227, 2095951.794131960486993 ], [ 3223139.17601219471544, 2095950.645959563087672 ], [ 3223138.663633184507489, 2095949.252050694311038 ], [ 3223138.330149151850492, 2095948.313329190481454 ], [ 3223137.96203411789611, 2095947.277413397328928 ], [ 3223136.472894694656134, 2095943.868992436444387 ], [ 3223133.595472465269268, 2095954.691256661433727 ], [ 3223130.442770908586681, 2095966.549327175831422 ], [ 3223128.801100135780871, 2095974.128714111866429 ], [ 3223126.557159763295203, 2095974.809940298320726 ], [ 3223124.94039088441059, 2095975.301524134585634 ], [ 3223100.378713862039149, 2095982.757000474724919 ], [ 3223087.437464762944728, 2095986.687171032186598 ], [ 3223087.218231512699276, 2095986.753847382031381 ], [ 3223086.366894899867475, 2095987.012343389214948 ], [ 3223085.940675369463861, 2095987.141636817483231 ], [ 3223080.488564456813037, 2095988.795740142930299 ], [ 3223073.62860934343189, 2095990.876955788116902 ], [ 3223067.976673227734864, 2095992.592733916826546 ], [ 3223067.673150126822293, 2095992.68666293262504 ], [ 3223066.927590701729059, 2095984.011554992292076 ], [ 3223037.533359181135893, 2095981.160575729096308 ], [ 3223017.170969104394317, 2095979.17742832377553 ], [ 3222984.982194844633341, 2095976.062459961744025 ], [ 3222982.27565432805568, 2095970.633956611854956 ], [ 3222982.69606828968972, 2095968.959450859576464 ], [ 3222983.650875159539282, 2095964.393955684732646 ], [ 3222983.67280247900635, 2095964.289132580859587 ], [ 3222983.68928448529914, 2095964.21058486495167 ], [ 3222983.8588383407332, 2095963.399462876608595 ], [ 3222976.401771155185997, 2095962.632826850283891 ], [ 3222965.592569214291871, 2095961.115027946652845 ], [ 3222960.298969780094922, 2095973.969695969019085 ], [ 3222959.686543400399387, 2095973.850828799651936 ], [ 3222945.135136775206774, 2095971.065933167701587 ], [ 3222932.114071308169514, 2095969.040439367294312 ], [ 3222920.546420107595623, 2095965.741790744708851 ], [ 3222916.31637015286833, 2095965.663339263293892 ], [ 3222903.029372987803072, 2095961.497120302170515 ], [ 3222892.80374824302271, 2095959.830112628638744 ], [ 3222879.246951091103256, 2095956.474867124808952 ], [ 3222878.088143198750913, 2095975.166593440109864 ], [ 3222875.122147504240274, 2095986.227309561800212 ], [ 3222872.307915164157748, 2095996.365631113993004 ], [ 3222871.684462233446538, 2096003.772439549909905 ], [ 3222860.031619253568351, 2095999.366899232845753 ], [ 3222848.895349520258605, 2095993.730120309628546 ], [ 3222848.914556344971061, 2095992.442320854403079 ], [ 3222848.972242672927678, 2095988.692373233381659 ], [ 3222849.009776893537492, 2095983.78315422963351 ], [ 3222849.00877392757684, 2095983.544450807385147 ], [ 3222849.00849486514926, 2095983.473484327783808 ], [ 3222848.991226192563772, 2095979.146800896385685 ], [ 3222848.903812391683459, 2095974.918047809042037 ], [ 3222848.862052185926586, 2095971.587008376372978 ], [ 3222848.86158561008051, 2095971.545351856853813 ], [ 3222848.860675016418099, 2095971.472975878277794 ], [ 3222848.855100739747286, 2095971.005004597827792 ], [ 3222848.878381039947271, 2095969.973203422734514 ], [ 3222848.939869636204094, 2095967.274549491936341 ], [ 3222849.056219994090497, 2095965.858889556024224 ], [ 3222849.243778495118022, 2095963.592414918821305 ], [ 3222849.745141437277198, 2095959.868065223796293 ], [ 3222850.222896408289671, 2095957.090274675516412 ], [ 3222850.408445026725531, 2095956.01529963244684 ], [ 3222851.104379365220666, 2095952.254201440839097 ], [ 3222851.123330184724182, 2095952.151720460504293 ], [ 3222851.131086267530918, 2095952.110049082664773 ], [ 3222851.16018581064418, 2095951.952917838701978 ], [ 3222851.205895048100501, 2095951.705971607938409 ], [ 3222851.221823551692069, 2095951.619517122860998 ], [ 3222851.955595022067428, 2095947.648605793714523 ], [ 3222852.71404595952481, 2095943.120772284222767 ], [ 3222853.393058412708342, 2095938.284734703833237 ], [ 3222853.949979798868299, 2095932.815949335461482 ], [ 3222854.285706683062017, 2095927.875325672095641 ], [ 3222854.38961361721158, 2095926.345637925202027 ], [ 3222854.512138736434281, 2095922.906543191289529 ], [ 3222854.663404791615903, 2095918.742867208085954 ], [ 3222854.614902372471988, 2095914.814594062045217 ], [ 3222854.569567151367664, 2095910.899141357513145 ], [ 3222853.873803056776524, 2095903.958613199647516 ], [ 3222853.458242218010128, 2095901.339966532541439 ], [ 3222852.520450377836823, 2095895.430463911732659 ], [ 3222858.701094535179436, 2095890.158782494952902 ], [ 3222870.201228875201195, 2095880.646973595721647 ], [ 3222880.636338613461703, 2095872.688922327011824 ], [ 3222891.182211448904127, 2095863.599035610910505 ], [ 3222893.480577957816422, 2095861.40443667396903 ], [ 3222893.551318029873073, 2095861.336895963177085 ], [ 3222893.697466746903956, 2095861.197353872703388 ], [ 3222903.273306110873818, 2095852.047185165574774 ], [ 3222903.516419707797468, 2095851.814865463413298 ], [ 3222892.630291261244565, 2095825.962775975000113 ], [ 3222888.814145908690989, 2095817.100134337786585 ], [ 3222885.598295134492218, 2095809.631273588864133 ], [ 3222883.375558347906917, 2095804.980968070914969 ], [ 3222876.329902122728527, 2095790.241226751124486 ], [ 3222876.052150460891426, 2095789.021699958480895 ], [ 3222875.848529476672411, 2095788.112112666247413 ], [ 3222875.822103533893824, 2095787.993835215689614 ], [ 3222875.75923221744597, 2095787.713034025160596 ], [ 3222874.091201066039503, 2095779.263546369038522 ], [ 3222871.311274228151888, 2095768.343018247978762 ], [ 3222870.590194767341018, 2095756.090415278682485 ], [ 3222878.400103620719165, 2095761.000119099626318 ], [ 3222883.689800316933542, 2095763.638144244905561 ], [ 3222885.379586011171341, 2095764.480883879819885 ], [ 3222892.23792018275708, 2095766.983591247349977 ], [ 3222892.324232758488506, 2095766.96581261465326 ], [ 3222898.367370260413736, 2095765.720279296627268 ], [ 3222912.947225622832775, 2095757.931254051160067 ], [ 3222919.003052556887269, 2095753.541431707330048 ], [ 3222927.738319143652916, 2095747.767195178195834 ], [ 3222946.090624663047493, 2095739.260515164583921 ], [ 3222946.276902161538601, 2095739.182056666817516 ], [ 3222946.83683711476624, 2095738.946590349078178 ], [ 3222948.847549888305366, 2095738.100967490579933 ], [ 3222948.364682901650667, 2095734.673282314324751 ], [ 3222948.356377423740923, 2095734.614352010190487 ], [ 3222947.530264279339463, 2095728.752865353599191 ], [ 3222947.412546370178461, 2095727.917556622298434 ], [ 3222947.808762484230101, 2095727.817805433413014 ], [ 3222949.65768800675869, 2095727.352415709523484 ], [ 3222949.580935775302351, 2095727.20643977727741 ], [ 3222949.55054968688637, 2095727.149129151366651 ], [ 3222949.350825148634613, 2095726.768790415022522 ], [ 3222948.412683143280447, 2095723.665916834492236 ], [ 3222948.377125613857061, 2095723.548319251975045 ], [ 3222948.25470435526222, 2095723.142756100045517 ], [ 3222947.542238567490131, 2095720.781308359466493 ], [ 3222946.117166561074555, 2095716.716110166627914 ], [ 3222946.017822537105531, 2095716.432649799855426 ], [ 3222946.00342368427664, 2095716.391496852273121 ], [ 3222945.847983714658767, 2095715.947722076904029 ], [ 3222945.624984842259437, 2095715.310680494410917 ], [ 3222945.442199364304543, 2095714.788601541426033 ], [ 3222945.111309429630637, 2095713.843857757514343 ], [ 3222944.820120985619724, 2095712.759383508237079 ], [ 3222942.727693003136665, 2095704.968096897471696 ], [ 3222941.274092298932374, 2095699.818841715343297 ], [ 3222939.496959589421749, 2095693.516189197078347 ], [ 3222935.150742281228304, 2095678.076419348595664 ], [ 3222944.016546374186873, 2095666.716885706176981 ], [ 3222953.34489796217531, 2095658.453463601181284 ], [ 3222964.27140945661813, 2095649.193355466937646 ], [ 3222969.353571306914091, 2095653.233152297092602 ], [ 3222978.138450370635837, 2095656.605023926356807 ], [ 3222987.342919097281992, 2095663.429283715086058 ], [ 3222995.511645550839603, 2095670.746384018100798 ], [ 3223011.958635307848454, 2095683.042017411440611 ], [ 3223016.35700845066458, 2095688.163390554953367 ], [ 3223020.981525644659996, 2095692.736089957179502 ], [ 3223028.375297023914754, 2095699.679909825557843 ], [ 3223030.857407547067851, 2095694.18185957102105 ], [ 3223033.410307498648763, 2095689.124001816147938 ], [ 3223041.110765244811773, 2095679.939396385103464 ], [ 3223044.375651417300105, 2095683.392688684165478 ], [ 3223048.30388961546123, 2095686.880705190356821 ], [ 3223052.182634867727757, 2095688.906500682933256 ], [ 3223055.152845025062561, 2095689.639750677859411 ], [ 3223060.026364792138338, 2095689.407518173102289 ], [ 3223062.325591797940433, 2095695.566396131413057 ], [ 3223065.664224279578775, 2095698.855993498116732 ], [ 3223068.693678843788803, 2095702.756045769900084 ], [ 3223067.521378324367106, 2095708.175338777247816 ], [ 3223066.27454602252692, 2095712.598826778121293 ], [ 3223063.686584172770381, 2095716.861369978869334 ], [ 3223073.564285095781088, 2095723.29437895026058 ], [ 3223076.802868058439344, 2095717.211250807158649 ], [ 3223080.074332737363875, 2095711.065763287944719 ], [ 3223087.447581147309393, 2095715.750519508961588 ], [ 3223091.087773425504565, 2095712.962852066149935 ], [ 3223096.447131886146963, 2095712.551228101365268 ], [ 3223102.712446319870651, 2095715.459713182644919 ], [ 3223107.975630895234644, 2095716.58300840947777 ], [ 3223113.330987854860723, 2095711.571217260323465 ], [ 3223114.238523482345045, 2095714.900572941638529 ], [ 3223115.570275906473398, 2095718.645702653797343 ], [ 3223118.926660621538758, 2095723.601005547214299 ], [ 3223121.38650203216821, 2095727.648049260955304 ], [ 3223125.401639370247722, 2095731.988197184400633 ], [ 3223125.853626569267362, 2095734.841087765758857 ], [ 3223126.919999818317592, 2095734.132096966961399 ], [ 3223127.211417715065181, 2095733.937049183063209 ], [ 3223127.393409125506878, 2095733.815270857652649 ], [ 3223128.065778172574937, 2095733.365300815552473 ], [ 3223131.45322988089174, 2095731.245115817990154 ], [ 3223137.062180020846426, 2095731.5955730821006 ], [ 3223141.712733677588403, 2095739.75419371528551 ], [ 3223148.467155174352229, 2095747.479587596841156 ], [ 3223143.672729438170791, 2095751.534954366739839 ], [ 3223151.638109002728015, 2095759.500713417772204 ], [ 3223160.66556893941015, 2095754.920035403920338 ], [ 3223164.021819269284606, 2095758.008617377374321 ], [ 3223173.103993684984744, 2095763.497035098494962 ], [ 3223165.598513633478433, 2095770.516690479125828 ], [ 3223173.874449240043759, 2095777.258862781105563 ], [ 3223184.7809092476964, 2095781.201826889999211 ], [ 3223192.519688804168254, 2095785.67174233449623 ], [ 3223203.769395462237298, 2095790.459541292162612 ], [ 3223207.357302191201597, 2095794.054494774900377 ], [ 3223209.484470896888524, 2095797.056715104961768 ], [ 3223210.239989303983748, 2095801.930520334513858 ], [ 3223210.536992561072111, 2095809.060470855096355 ], [ 3223216.83893530163914, 2095811.761087623657659 ], [ 3223214.941008135676384, 2095831.582641623914242 ], [ 3223220.612870221491903, 2095837.195065947016701 ], [ 3223228.339235011488199, 2095847.729139648843557 ], [ 3223232.080940229352564, 2095854.988845292245969 ], [ 3223230.957422512583435, 2095859.055621371138841 ], [ 3223228.599520789459348, 2095870.581852841423824 ], [ 3223228.241914390586317, 2095875.199662663741037 ], [ 3223226.319001346826553, 2095883.734525933396071 ], [ 3223224.823351639322937, 2095890.372852534987032 ], [ 3223225.529823531862348, 2095899.360597340157256 ], [ 3223226.236312729306519, 2095908.348441167501733 ], [ 3223225.26841310877353, 2095910.694480152102187 ], [ 3223220.425212890375406, 2095912.34961876925081 ], [ 3223219.245383446570486, 2095912.220734320580959 ], [ 3223213.09155226033181, 2095912.969577067065984 ], [ 3223211.72097550611943, 2095912.769896636949852 ], [ 3223211.122224605642259, 2095912.682579988380894 ], [ 3223210.805138618685305, 2095912.636436544824392 ], [ 3223210.009575082920492, 2095912.520409401971847 ], [ 3223204.818093234207481, 2095917.183316527865827 ], [ 3223212.814616098068655, 2095945.491296911612153 ], [ 3223216.55835639918223, 2095956.178412315435708 ], [ 3223216.581670179031789, 2095956.672871660906821 ], [ 3223217.082148641347885, 2095967.287825135979801 ], [ 3223217.246214042883366, 2095970.768441425170749 ], [ 3223204.817947518080473, 2095971.536584184039384 ], [ 3223204.643313917797059, 2095967.773952409159392 ], [ 3223204.54482701420784, 2095965.652261418756098 ], [ 3223189.250517484731972, 2095967.871676827780902 ], [ 3223186.297986383084208, 2095969.292635675286874 ], [ 3223178.330672457814217, 2095972.493973919423297 ], [ 3223169.402674197219312, 2095976.315885313320905 ], [ 3223163.544706321321428, 2095979.45169106638059 ], [ 3223162.638207169249654, 2095983.004114136565477 ], [ 3223162.376833092886955, 2095983.062533627031371 ], [ 3223155.359120383858681, 2095984.630260675447062 ], [ 3223153.955505636520684, 2095982.460382365854457 ] ] ] } }
]
}
