{
"type": "FeatureCollection",
"name": "Robledillo_de_Mohernando",
"crs": { "type": "name", "properties": { "name": "urn:ogc:def:crs:EPSG::3035" } },
"features": [
{ "type": "Feature", "properties": { "SITE_NAME": "Lagunas de Puebla de Beleña", "ODESIGNATE": "Reserva Natural", "NUT2": 42, "SITE_CODE_": "ES424003", "DESIG_ABBR": "ES04", "SITE_CDDA": "349037_CDDA", "Sup_ha": 202.91453227700001 }, "geometry": { "type": "Polygon", "coordinates": [ [ [ 3205880.530780809000134, 2074087.009025932755321 ], [ 3205868.270829315297306, 2074047.414529339643195 ], [ 3205854.203701676800847, 2073926.632749053183943 ], [ 3205849.330241768620908, 2073841.503348853671923 ], [ 3205846.478900454938412, 2073795.13144204672426 ], [ 3205845.439819711260498, 2073770.231940460158512 ], [ 3205844.054619527421892, 2073762.633447440806776 ], [ 3205838.34901267150417, 2073761.202714868355542 ], [ 3205838.39767857408151, 2073761.202226111432537 ], [ 3205832.923316693864763, 2073759.82504810183309 ], [ 3205814.567343669943511, 2073755.20804076269269 ], [ 3205759.937098839320242, 2073742.060769497416914 ], [ 3205614.644149562343955, 2073706.332919164327905 ], [ 3205506.01135468063876, 2073681.043576289201155 ], [ 3205401.779074710793793, 2073655.13846852700226 ], [ 3205358.254114639945328, 2073644.318139435257763 ], [ 3205324.740602889563888, 2073635.84321634308435 ], [ 3205284.529563716612756, 2073625.680516941938549 ], [ 3205273.565920842345804, 2073622.903858877951279 ], [ 3205210.300251970998943, 2073607.060266849817708 ], [ 3205195.142037711571902, 2073603.263119260082021 ], [ 3205175.538215794134885, 2073598.843812139937654 ], [ 3205155.510929048061371, 2073593.424767734017223 ], [ 3205142.759532008320093, 2073590.200264242943376 ], [ 3205120.610930081922561, 2073582.943133685970679 ], [ 3205105.234853833913803, 2073573.389897496439517 ], [ 3205085.740677980706096, 2073556.613641455769539 ], [ 3205073.175285925157368, 2073545.010010668076575 ], [ 3205057.165533592924476, 2073528.750140815740451 ], [ 3205046.045430686324835, 2073518.757965279975906 ], [ 3205034.867601812351495, 2073506.750148221384734 ], [ 3204936.390147604048252, 2073405.105383457615972 ], [ 3204904.354960026219487, 2073372.041564499493688 ], [ 3204818.924503967165947, 2073284.132507860893384 ], [ 3204818.791945481672883, 2073283.996097872965038 ], [ 3204716.704543494619429, 2073895.154936208389699 ], [ 3204714.47012840397656, 2073896.715030412655324 ], [ 3204712.236681264359504, 2073898.275462369434536 ], [ 3204705.48351651802659, 2073897.710811120225117 ], [ 3204705.469257737509906, 2073897.708639704622328 ], [ 3204705.330510625150055, 2073897.696992774959654 ], [ 3204692.966366320848465, 2073895.499048347119242 ], [ 3204690.209835351444781, 2073895.088768803747371 ], [ 3204633.82591275498271, 2073886.604552907403558 ], [ 3204625.680025815498084, 2073885.321646658936515 ], [ 3204619.37858602963388, 2073884.334681228036061 ], [ 3204585.274065163452178, 2073875.527852020226419 ], [ 3204564.80495488550514, 2073870.792126569664106 ], [ 3204564.659855620935559, 2073870.758492892608047 ], [ 3204561.590502507518977, 2073878.313979524420574 ], [ 3204485.559185509569943, 2074112.956355 ], [ 3205890.764220657292753, 2074112.956355 ], [ 3205880.530780809000134, 2074087.009025932755321 ] ] ] } }
]
}
