{
"type": "FeatureCollection",
"name": "Ruidera",
"crs": { "type": "name", "properties": { "name": "urn:ogc:def:crs:EPSG::3035" } },
"features": [
{ "type": "Feature", "properties": { "SITE_NAME": "Lagunas de Ruidera", "ODESIGNATE": "Parque Natural", "NUT2": 42, "SITE_CODE_": "ES420002", "DESIG_ABBR": "ES10", "SITE_CDDA": "349038_CDDA", "Sup_ha": 3772.6031848100001 }, "geometry": { "type": "Polygon", "coordinates": [ [ [ 3198387.177967325318605, 1867642.179529403103516 ], [ 3198971.96409356687218, 1866975.685330118983984 ], [ 3199261.386659322306514, 1865691.988063365453854 ], [ 3199291.42835471779108, 1865242.517254705540836 ], [ 3199705.691925891675055, 1864850.067410946357995 ], [ 3200263.587101585231721, 1863878.189751108875498 ], [ 3201068.500981432385743, 1863505.876154432073236 ], [ 3202303.45864041056484, 1862934.169783964985982 ], [ 3202288.667212709784508, 1862418.275488163810223 ], [ 3202776.890972811263055, 1861782.133424717467278 ], [ 3203124.985307034105062, 1861523.789214426651597 ], [ 3203765.900825556833297, 1860614.232105023693293 ], [ 3204136.910687355324626, 1860144.935486023779958 ], [ 3204028.502104286104441, 1859069.827489136718214 ], [ 3205105.410668923519552, 1858798.044569823658094 ], [ 3205888.587287169415504, 1858298.256154152099043 ], [ 3206347.718308003153652, 1858016.464141639415175 ], [ 3205729.127347263041884, 1857162.880537280580029 ], [ 3206376.309335105121136, 1856834.961078160675243 ], [ 3205781.685181004926562, 1856611.521805594209582 ], [ 3205832.334775140043348, 1856553.339434999506921 ], [ 3203592.020814924035221, 1856553.339434999506921 ], [ 3203533.024504689499736, 1857016.984186278190464 ], [ 3203651.054882181808352, 1857738.557803667616099 ], [ 3202901.67668105661869, 1858334.631934946635738 ], [ 3202410.226980030536652, 1858219.725507779279724 ], [ 3202489.484284630976617, 1859789.159486406715587 ], [ 3202387.041406437754631, 1860062.671917388914153 ], [ 3202273.412388127297163, 1860660.043976469431072 ], [ 3201382.256711651571095, 1862278.578393653267995 ], [ 3200645.177133220247924, 1862539.212843512184918 ], [ 3199467.789654383435845, 1863391.472913501784205 ], [ 3198369.130755102261901, 1865328.077550729969516 ], [ 3198318.439799279440194, 1866158.829770756885409 ], [ 3197984.199179254472256, 1866891.109444629168138 ], [ 3197092.664470596238971, 1867839.561493890359998 ], [ 3196992.307603671215475, 1867900.992765000555664 ], [ 3198245.364036462735385, 1867900.992765000555664 ], [ 3198387.177967325318605, 1867642.179529403103516 ] ] ] } }
]
}
