{
"type": "FeatureCollection",
"name": "Villanueva_de_Alcorón",
"crs": { "type": "name", "properties": { "name": "urn:ogc:def:crs:EPSG::3035" } },
"features": [
{ "type": "Feature", "properties": { "SITE_NAME": "Alto Tajo", "ODESIGNATE": "Parque Natural", "NUT2": 42, "SITE_CODE_": "ES420004", "DESIG_ABBR": "ES10", "SITE_CDDA": "349169_CDDA", "Sup_ha": 107404.872625 }, "geometry": { "type": "MultiPolygon", "coordinates": [ [ [ [ 3296548.77563666831702, 2034393.720748718362302 ], [ 3296543.554041118826717, 2034385.704930516891181 ], [ 3296537.948535760398954, 2034376.227341087767854 ], [ 3296535.168849631678313, 2034367.14401670335792 ], [ 3296531.095737470313907, 2034354.580001466209069 ], [ 3296527.21009795088321, 2034334.72924017207697 ], [ 3296523.412355076521635, 2034315.369258326478302 ], [ 3296520.140358085744083, 2034296.060510968323797 ], [ 3296517.894065565429628, 2034278.09304284141399 ], [ 3296517.492212808690965, 2034274.914322937605903 ], [ 3296511.63712767418474, 2034263.860806686105207 ], [ 3296507.502641587518156, 2034254.241533284075558 ], [ 3296504.170764934271574, 2034248.217714039841667 ], [ 3296500.90879823314026, 2034241.028436800930649 ], [ 3296498.884406107477844, 2034235.174351511988789 ], [ 3296497.247034341562539, 2034227.594378776149824 ], [ 3296496.858181238174438, 2034218.018943367991596 ], [ 3296494.199445525649935, 2034207.903043558588251 ], [ 3296489.875434987712651, 2034198.690728881396353 ], [ 3296477.912565652746707, 2034184.933920590905473 ], [ 3296466.991280666552484, 2034177.301400249125436 ], [ 3296455.911507333628833, 2034171.234051536070183 ], [ 3296438.095698506105691, 2034165.870382873574272 ], [ 3296418.714254330843687, 2034162.940695225261152 ], [ 3296407.199574766680598, 2034161.824955403339118 ], [ 3296398.420607613865286, 2034158.225270300637931 ], [ 3296391.662460814230144, 2034153.52931893360801 ], [ 3296388.628729411400855, 2034151.309130845824257 ], [ 3296385.210469313431531, 2034148.264704286819324 ], [ 3296374.562610401771963, 2034136.457090644864365 ], [ 3296353.416807715781033, 2034152.0839791118633 ], [ 3296352.289776311721653, 2034152.793820776045322 ], [ 3296324.768865842372179, 2034170.184420858509839 ], [ 3296314.590925135184079, 2034175.263647102052346 ], [ 3296303.075674531981349, 2034181.00794236571528 ], [ 3296315.843154196627438, 2034205.691849097143859 ], [ 3296285.91317240614444, 2034230.826211031293496 ], [ 3296302.114523901138455, 2034264.483768001431599 ], [ 3296287.157125777099282, 2034269.713391639757901 ], [ 3296279.788312966935337, 2034274.824813077691942 ], [ 3296272.188023709692061, 2034280.096956206019968 ], [ 3296257.094983674120158, 2034270.429998934734613 ], [ 3296246.211899820715189, 2034265.218427935615182 ], [ 3296231.152916482184082, 2034258.007096375105903 ], [ 3296213.502113602589816, 2034252.392742423573509 ], [ 3296206.019252388738096, 2034250.010962596163154 ], [ 3296202.84193142876029, 2034257.548373663797975 ], [ 3296196.793783867266029, 2034267.128380625043064 ], [ 3296192.513659532181919, 2034272.191729511599988 ], [ 3296191.382057938724756, 2034272.233167506987229 ], [ 3296189.432919870130718, 2034272.304725373629481 ], [ 3296187.860190545674413, 2034270.367899810895324 ], [ 3296187.858010035939515, 2034270.3650371148251 ], [ 3296185.937876988667995, 2034266.947412263602018 ], [ 3296184.990507028531283, 2034264.635616321349517 ], [ 3296184.307526172138751, 2034262.962317312601954 ], [ 3296180.671299717389047, 2034256.842520050005987 ], [ 3296177.269421593751758, 2034251.110606541857123 ], [ 3296176.543358279392123, 2034249.270487464498729 ], [ 3296175.217906967271119, 2034245.904477500356734 ], [ 3296168.483066259883344, 2034239.508987195556983 ], [ 3296130.208768670447171, 2034254.560432395199314 ], [ 3296092.058338069356978, 2034270.329730190336704 ], [ 3296006.517087213695049, 2034306.452139548026025 ], [ 3295932.270121393725276, 2034342.17013221886009 ], [ 3295881.883380740880966, 2034372.600613419665024 ], [ 3295868.560775970574468, 2034383.097700950456783 ], [ 3295782.331541737075895, 2034451.048680481035262 ], [ 3295740.48063122946769, 2034486.557587435236201 ], [ 3295727.79931255383417, 2034497.318817486520857 ], [ 3295579.048008630983531, 2034608.109061069320887 ], [ 3295499.225101632531732, 2034674.554431846830994 ], [ 3295460.524006646126509, 2034706.921223619254306 ], [ 3295455.752419782336801, 2034710.919038214022294 ], [ 3295448.586446801200509, 2034716.91794828674756 ], [ 3295428.116058684885502, 2034734.478519416414201 ], [ 3295327.080938344821334, 2034821.151909996522591 ], [ 3295280.072270007804036, 2034870.72214715089649 ], [ 3295243.006417280994356, 2034912.511941059725359 ], [ 3295201.307770231738687, 2034957.121540974825621 ], [ 3295160.754188760183752, 2035002.546570276841521 ], [ 3295119.264013851061463, 2035042.06166257080622 ], [ 3295066.843004254624248, 2035089.52855052263476 ], [ 3295012.391131000127643, 2035143.414969539968297 ], [ 3294961.114324760623276, 2035191.696998545434326 ], [ 3294915.304607867728919, 2035236.002921402221546 ], [ 3294868.349291125312448, 2035279.494416467379779 ], [ 3294839.769394350238144, 2035310.718147272942588 ], [ 3294820.664254668634385, 2035331.205746988067403 ], [ 3294779.643032706342638, 2035373.677304967306554 ], [ 3294736.903851833660156, 2035424.537697006482631 ], [ 3294697.807552082464099, 2035472.747856763191521 ], [ 3294660.534070583060384, 2035519.63340717414394 ], [ 3294631.434055460151285, 2035553.982397987507284 ], [ 3294603.01046543661505, 2035586.191836091456935 ], [ 3294567.820329590700567, 2035620.577058326918632 ], [ 3294536.794545916374773, 2035649.186602579662576 ], [ 3294501.813573244027793, 2035678.476757164578885 ], [ 3294451.423626040574163, 2035719.524578800192103 ], [ 3294406.240685207303613, 2035748.546635163715109 ], [ 3294400.973037727642804, 2035752.001185238594189 ], [ 3294389.557211278006434, 2035759.487960157450289 ], [ 3294383.232765587978065, 2035763.635605682618916 ], [ 3294365.221967665944248, 2035771.793014618335292 ], [ 3294320.457055008970201, 2035790.625680985394865 ], [ 3294185.093337660655379, 2035845.479305706685409 ], [ 3294129.526661303825676, 2035867.996746263233945 ], [ 3294109.538496335037053, 2035876.494716114364564 ], [ 3294044.993869390804321, 2035898.730854746187106 ], [ 3293930.425927296280861, 2035938.679995813872665 ], [ 3293835.919400768354535, 2035971.939251412637532 ], [ 3293787.160162135027349, 2035989.099017553729936 ], [ 3293711.025591159239411, 2036015.893156165722758 ], [ 3293661.992801714222878, 2036033.437008186941966 ], [ 3293637.563518324866891, 2036044.703666665125638 ], [ 3293528.077213950455189, 2036095.198813979281113 ], [ 3293466.013990321196616, 2036123.822462735697627 ], [ 3293124.186001988127828, 2036274.722147486405447 ], [ 3293117.575703016482294, 2036277.882526524132118 ], [ 3292970.475728181190789, 2036349.742505497531965 ], [ 3292894.842359818518162, 2036398.171969573711976 ], [ 3292788.132830581627786, 2036481.294752652291209 ], [ 3292742.898379264865071, 2036516.399550033733249 ], [ 3292689.274564110673964, 2036559.19189031352289 ], [ 3292485.86016505304724, 2036721.520035017747432 ], [ 3292482.21595501108095, 2036724.170198080828413 ], [ 3292440.882958296686411, 2036757.262923716567457 ], [ 3292437.138695257715881, 2036760.260681913467124 ], [ 3292390.759475458413363, 2036794.550815474009141 ], [ 3292291.548374728299677, 2036848.053376329364255 ], [ 3292251.208189320750535, 2036869.162168610608205 ], [ 3292200.481097626499832, 2036903.278234150493518 ], [ 3292081.362260918598622, 2036983.391158726066351 ], [ 3291744.794770883396268, 2037212.326256207190454 ], [ 3291602.74627040559426, 2037309.632084066979587 ], [ 3291565.272122025489807, 2037335.142834962112829 ], [ 3291485.37028082087636, 2037389.536706457613036 ], [ 3291456.429952723905444, 2037405.648180667776614 ], [ 3291369.608440758660436, 2037453.985905356006697 ], [ 3291280.445279964711517, 2037506.773137204814702 ], [ 3291257.242625761777163, 2037524.710848348215222 ], [ 3291208.04201870597899, 2037562.747224546270445 ], [ 3291190.448350313585252, 2037579.94218373671174 ], [ 3291076.767451513092965, 2037689.568532780976966 ], [ 3291027.995875714812428, 2037734.391844425117597 ], [ 3291017.22097636340186, 2037743.330624755239114 ], [ 3291005.301227956078947, 2037751.453910523559898 ], [ 3290947.524980611633509, 2037790.744605410611257 ], [ 3290863.828520387411118, 2037839.557090977439657 ], [ 3290852.585369755048305, 2037845.540318331914023 ], [ 3290821.511278353631496, 2037861.008742512203753 ], [ 3290768.940698641818017, 2037888.272908732527867 ], [ 3290758.374624762684107, 2037892.114743238547817 ], [ 3290702.055942338891327, 2037914.965292088221759 ], [ 3290596.603625232353806, 2037948.298028972931206 ], [ 3290449.459549963474274, 2037987.798038631211966 ], [ 3290329.225450262892991, 2038017.605641955044121 ], [ 3290253.024890256114304, 2038036.796515568625182 ], [ 3290145.751325600780547, 2038052.230109950760379 ], [ 3290072.41415075911209, 2038063.845156516879797 ], [ 3290028.12028418853879, 2038066.412311999825761 ], [ 3290012.818066323176026, 2038066.011385101359338 ], [ 3289987.314399842638522, 2038065.342504875501618 ], [ 3289909.813406212255359, 2038063.50903056957759 ], [ 3289853.70492327073589, 2038062.038414832670242 ], [ 3289761.890573629643768, 2038059.633851419668645 ], [ 3289680.745946174487472, 2038060.450573487440124 ], [ 3289632.132281227968633, 2038067.809662810759619 ], [ 3289577.064660873264074, 2038079.314529320923612 ], [ 3289493.577974779997021, 2038103.809967985609546 ], [ 3289433.669484087266028, 2038123.232723846333101 ], [ 3289402.283514198381454, 2038136.7314283833839 ], [ 3289377.976296596229076, 2038150.024590279441327 ], [ 3289311.665421771816909, 2038186.739869917510077 ], [ 3289172.74606940895319, 2038265.303997684270144 ], [ 3289102.791271665599197, 2038304.670916710281745 ], [ 3289093.526885687373579, 2038310.313803209457546 ], [ 3289048.504196431487799, 2038340.329159952234477 ], [ 3288938.368532116524875, 2038421.021061296574771 ], [ 3288900.424235675483942, 2038450.829264149535447 ], [ 3288813.814326043240726, 2038532.528739869827405 ], [ 3288728.9230927224271, 2038625.065566033590585 ], [ 3288633.986106988508254, 2038718.319255414884537 ], [ 3288609.627458035945892, 2038737.693413315340877 ], [ 3288591.254380562808365, 2038749.964148192899302 ], [ 3288581.83356714528054, 2038754.622765380423516 ], [ 3288573.034326157532632, 2038759.611687931930646 ], [ 3288625.32479322142899, 2038783.053739118855447 ], [ 3288697.814865551888943, 2038831.79005680908449 ], [ 3288739.586863161064684, 2038856.977223853813484 ], [ 3288762.123787106946111, 2038877.381858200067654 ], [ 3288776.947744297794998, 2038878.370582581264898 ], [ 3288800.255674732849002, 2038878.404237871523947 ], [ 3288812.591177813708782, 2038879.315557345515117 ], [ 3288817.386093613225967, 2038881.525542645016685 ], [ 3288836.494344545062631, 2038893.919454323127866 ], [ 3288857.385213811416179, 2038899.934854944236577 ], [ 3288893.467641876079142, 2038914.465004676952958 ], [ 3288962.158358488697559, 2038964.867892850888893 ], [ 3288990.801205929368734, 2038976.125774101121351 ], [ 3289009.932185762561858, 2038983.456195080420002 ], [ 3289091.550612935330719, 2038989.638745353324339 ], [ 3289101.924443672876805, 2039001.007080215029418 ], [ 3289109.185187117662281, 2039008.357934577390552 ], [ 3289130.957633031066507, 2039014.727571033407003 ], [ 3289187.98320908844471, 2039019.579885294195265 ], [ 3289237.490937157534063, 2039020.667434328002855 ], [ 3289282.916230006143451, 2039030.047303757863119 ], [ 3289317.141280958428979, 2039033.260769253363833 ], [ 3289422.249829227104783, 2039047.035637899534777 ], [ 3289865.218201276380569, 2039062.840812346432358 ], [ 3289892.629496764391661, 2039063.898575268918648 ], [ 3289915.36394544923678, 2039047.12299677520059 ], [ 3289974.699530394747853, 2039017.679941874928772 ], [ 3290167.697464206255972, 2038870.104274558834732 ], [ 3290646.331301462836564, 2038521.83584941457957 ], [ 3290732.435053469613194, 2038459.185433971695602 ], [ 3290943.497681389097124, 2038316.600798311410472 ], [ 3290970.668004435487092, 2038309.893790995934978 ], [ 3291038.331792949233204, 2038293.191147078992799 ], [ 3291105.736361099407077, 2038263.373268699971959 ], [ 3291169.733866208232939, 2038189.521619128296152 ], [ 3291212.749085610732436, 2038268.729673990979791 ], [ 3291418.459065834060311, 2038524.231617606244981 ], [ 3291509.70645029656589, 2038686.108082584803924 ], [ 3291669.125267533585429, 2038853.451186379184946 ], [ 3291759.403444727417082, 2038891.03372846217826 ], [ 3291849.131137534976006, 2038961.597221123985946 ], [ 3291954.688988851383328, 2039004.644716235809028 ], [ 3292020.246417513582855, 2039077.345508875092492 ], [ 3292022.228224833961576, 2039206.019080176949501 ], [ 3292049.401049366220832, 2039206.400783622870222 ], [ 3292112.69364549126476, 2039157.054049604572356 ], [ 3292246.592182918451726, 2039050.018888251157477 ], [ 3292327.832658554427326, 2038982.911029139067978 ], [ 3292362.345323172863573, 2038952.685210705501959 ], [ 3292394.450331001076847, 2038934.510416699340567 ], [ 3292414.850203924812376, 2038942.635488828644156 ], [ 3292537.599685217719525, 2039017.634479253785685 ], [ 3292608.255854071117938, 2039040.382153065875173 ], [ 3292647.591549201868474, 2039059.414119445253164 ], [ 3292808.543854877818376, 2039062.572124000405893 ], [ 3292978.305955405347049, 2039055.613484500907362 ], [ 3293136.58155532181263, 2039047.090907666366547 ], [ 3293231.048441529739648, 2039025.772343401098624 ], [ 3293376.406606790609658, 2039009.86123344860971 ], [ 3293464.740816570352763, 2039010.341923482483253 ], [ 3293688.079787747934461, 2039407.512183181243017 ], [ 3293842.524565882980824, 2039615.178654470248148 ], [ 3294014.802525400184095, 2039703.411525149596855 ], [ 3294068.805725566577166, 2039760.900628575123847 ], [ 3294070.478733523283154, 2039880.013242305722088 ], [ 3294181.605651717633009, 2039964.60464935307391 ], [ 3294289.119312510825694, 2040216.270687410607934 ], [ 3294222.706384928431362, 2040353.678684269776568 ], [ 3294095.016548169776797, 2040408.540989523986354 ], [ 3294257.564357405528426, 2040655.289352193009108 ], [ 3294386.769199861213565, 2040783.821868019644171 ], [ 3294599.841348413843662, 2040913.098783192224801 ], [ 3294746.957829538732767, 2040924.713302843738347 ], [ 3294895.863496508914977, 2040953.222193233435974 ], [ 3294995.31620186381042, 2040995.807302454020828 ], [ 3295185.848574886564165, 2040920.013619168195873 ], [ 3295216.8796495962888, 2040926.310066045727581 ], [ 3295311.384285617619753, 2040977.336244966369122 ], [ 3295435.371343207545578, 2041186.70625802106224 ], [ 3295548.432015504688025, 2041415.664585798513144 ], [ 3295752.334126278758049, 2041378.552487428532913 ], [ 3295885.635133128147572, 2041343.471637828042731 ], [ 3295989.099016183055937, 2041438.99720642156899 ], [ 3296183.931985578499734, 2041442.404583345633 ], [ 3296138.181146905757487, 2041615.211680099600926 ], [ 3296181.421157449483871, 2041678.096062469063327 ], [ 3296216.91283768741414, 2041805.049752830527723 ], [ 3296178.130007287021726, 2041831.960857335012406 ], [ 3296187.212065429892391, 2041893.544408016838133 ], [ 3296187.444132359232754, 2041895.11790460604243 ], [ 3296215.186385999433696, 2041913.111150195356458 ], [ 3296246.202901244629174, 2041906.64839939866215 ], [ 3296298.13287295261398, 2041895.828099203994498 ], [ 3296298.838776086457074, 2041895.68103461060673 ], [ 3296303.316168152727187, 2041902.213179683312774 ], [ 3296311.714061222970486, 2041914.465039873030037 ], [ 3296340.716002441011369, 2041956.776306788669899 ], [ 3296247.405151193961501, 2042213.658781678183004 ], [ 3296247.920384161639959, 2042216.74862281489186 ], [ 3296248.819499590899795, 2042222.141407899791375 ], [ 3296252.571527127642184, 2042244.643824564758688 ], [ 3296228.402013104874641, 2042456.23764269775711 ], [ 3296181.506161569617689, 2042606.982514302246273 ], [ 3296128.066594901960343, 2042668.796478803735226 ], [ 3296127.036520172841847, 2042936.616648663533852 ], [ 3296099.485761253163218, 2043110.848554823314771 ], [ 3296100.274337344802916, 2043148.658658221829683 ], [ 3296050.264166471548378, 2043368.243741552345455 ], [ 3296024.602432923391461, 2043403.01667519332841 ], [ 3296003.963489754125476, 2043437.431210183305666 ], [ 3295986.909289648756385, 2043471.22886820929125 ], [ 3295975.609921192750335, 2043508.083744128467515 ], [ 3295971.421713673043996, 2043545.738632917869836 ], [ 3295990.027767852880061, 2043590.601364647503942 ], [ 3296013.370149560272694, 2043620.237651370698586 ], [ 3296014.592760029714555, 2043621.789961847942322 ], [ 3296019.812596389558166, 2043633.082825434859842 ], [ 3296033.530554288998246, 2043662.761062104953453 ], [ 3296039.721632590983063, 2043676.155040411278605 ], [ 3296033.009463373105973, 2043720.315692324889824 ], [ 3296016.506058901082724, 2043769.197083689272404 ], [ 3296016.46421581832692, 2043769.286855211015791 ], [ 3295994.6613206313923, 2043816.092197245685384 ], [ 3295993.958499372936785, 2043817.600862134248018 ], [ 3295990.618620296008885, 2043819.615672514541075 ], [ 3295956.406823263503611, 2043840.253932273481041 ], [ 3295951.637086967937648, 2043842.332884779665619 ], [ 3295937.583660733886063, 2043848.458132101455703 ], [ 3295937.224191568326205, 2043848.614810877479613 ], [ 3295937.04051479510963, 2043848.523172662593424 ], [ 3295928.059241725131869, 2043844.043108078185469 ], [ 3295925.158529151696712, 2043842.59624188230373 ], [ 3295908.720775908324867, 2043837.836056546773762 ], [ 3295891.318117674440145, 2043857.021471941377968 ], [ 3295888.251272814814001, 2043871.715811671456322 ], [ 3295893.075269399676472, 2043902.747461014660075 ], [ 3295897.750029005575925, 2043932.818608374102041 ], [ 3295894.545469400007278, 2043985.482778287492692 ], [ 3295892.297631937544793, 2043998.903915000380948 ], [ 3296551.263814999721944, 2043998.903915000380948 ], [ 3296551.263814999721944, 2034395.775230585364625 ], [ 3296548.77563666831702, 2034393.720748718362302 ] ] ], [ [ [ 3276845.625119735952467, 2043817.725062086014077 ], [ 3276955.230116958729923, 2043633.323331410530955 ], [ 3277058.109655831940472, 2043460.239143058657646 ], [ 3277093.272530646063387, 2043348.918161816429347 ], [ 3277099.814143674913794, 2043315.796571246581152 ], [ 3277123.69262650096789, 2043194.897235052660108 ], [ 3277129.657825606875122, 2043072.42131256358698 ], [ 3277127.778084156569093, 2042751.173508087638766 ], [ 3277127.090807424858212, 2042633.633073005825281 ], [ 3277090.616722112521529, 2041981.082595450337976 ], [ 3277316.131231240462512, 2041641.601955085992813 ], [ 3277227.983876699581742, 2041361.293221353786066 ], [ 3277179.150821707211435, 2041239.164723361143842 ], [ 3277018.361499758902937, 2041045.266651942860335 ], [ 3277198.460862264968455, 2040786.49090224923566 ], [ 3277259.912500814534724, 2040697.964168924838305 ], [ 3277442.46598100848496, 2040516.694062535418198 ], [ 3277789.420365728437901, 2040219.02303857775405 ], [ 3278027.816674801521003, 2039973.47722718724981 ], [ 3278073.873530986718833, 2039937.197287986287847 ], [ 3278135.856709124520421, 2039905.254528937162831 ], [ 3278346.044764772057533, 2039629.157389235449955 ], [ 3278426.077896031551063, 2039467.601712088333443 ], [ 3278550.302257916890085, 2039354.08577844267711 ], [ 3278746.656675528269261, 2039157.2916616469156 ], [ 3278837.000371070578694, 2039041.524226306937635 ], [ 3278918.025358585640788, 2038879.800484717357904 ], [ 3278990.309840134810656, 2038759.052350742742419 ], [ 3279131.600107270758599, 2038496.870846854988486 ], [ 3279230.168568284716457, 2038362.483967724721879 ], [ 3279330.611925176810473, 2038239.918248718837276 ], [ 3279318.368444367311895, 2037957.662183319916949 ], [ 3279372.721348372288048, 2037879.981859424617141 ], [ 3279261.980575376190245, 2037738.171222693054006 ], [ 3279256.824412629473954, 2037730.046855960506946 ], [ 3279209.589436430484056, 2037655.620540775125846 ], [ 3279177.047978601884097, 2037541.296185920014977 ], [ 3279160.715214488562196, 2037483.915528409183025 ], [ 3279142.386869945563376, 2037472.476404068525881 ], [ 3279029.857841566205025, 2037402.244658816372976 ], [ 3278908.077558564953506, 2037464.73396659642458 ], [ 3278830.032157830893993, 2037505.514749764231965 ], [ 3278770.652101207524538, 2037552.69101031916216 ], [ 3278733.597033037338406, 2037604.113767571281642 ], [ 3278708.782264624256641, 2037645.836033985717222 ], [ 3278692.668342875316739, 2037668.348344217985868 ], [ 3278669.973037646152079, 2037673.779819420306012 ], [ 3278640.941610177047551, 2037688.905724613461643 ], [ 3278583.092956287786365, 2037708.494849822949618 ], [ 3278548.313656545709819, 2037724.611974231200293 ], [ 3278509.192214572336525, 2037750.585851352196187 ], [ 3278475.896683785133064, 2037776.061069553717971 ], [ 3278446.371346859727055, 2037800.886205152142793 ], [ 3278362.905808642972261, 2037881.564600435551256 ], [ 3278256.18539353273809, 2037815.973038946976885 ], [ 3278169.659756751731038, 2037840.508121717255563 ], [ 3277947.233104901388288, 2037677.47976828715764 ], [ 3277925.40239820536226, 2037663.534746208926663 ], [ 3277896.320116395596415, 2037629.08238957892172 ], [ 3277875.850322486367077, 2037604.942491598427296 ], [ 3277853.143290885724127, 2037623.422378639224917 ], [ 3277768.634444837458432, 2037674.649693700950593 ], [ 3277702.906790929846466, 2037681.165600283071399 ], [ 3277643.374868005514145, 2037677.938722023973241 ], [ 3277597.028099344111979, 2037672.438038539607078 ], [ 3277550.433209653943777, 2037659.269612323725596 ], [ 3277508.905838585458696, 2037642.816514602396637 ], [ 3277476.681988216936588, 2037624.592185825342312 ], [ 3277441.800664858426899, 2037606.82618139591068 ], [ 3277368.086914718616754, 2037584.559175731148571 ], [ 3277303.915266433730721, 2037552.785132298478857 ], [ 3277239.452312565408647, 2037499.536990714725107 ], [ 3277215.453666047658771, 2037489.826253141276538 ], [ 3277135.679007463157177, 2037499.323104919400066 ], [ 3277042.590904412325472, 2037526.031456318218261 ], [ 3276948.297493795398623, 2037551.882497771643102 ], [ 3276872.46891502244398, 2037586.268126975046471 ], [ 3276837.358986953739077, 2037636.189051674911752 ], [ 3276775.134006143081933, 2037676.114892109995708 ], [ 3276684.870524901896715, 2037717.120475890580565 ], [ 3276590.269442307762802, 2037756.19681917107664 ], [ 3276527.020484999753535, 2037765.266832392429933 ], [ 3276527.020484999753535, 2043998.903915000380948 ], [ 3276750.512358856387436, 2043998.903915000380948 ], [ 3276845.625119735952467, 2043817.725062086014077 ] ] ] ] } },
{ "type": "Feature", "properties": { "SITE_NAME": "Serrezuela de Valsalobre", "ODESIGNATE": "Monumento Natural", "NUT2": 42, "SITE_CODE_": "ES423008", "DESIG_ABBR": "ES19", "SITE_CDDA": "349466_CDDA", "Sup_ha": 767.22408322599995 }, "geometry": { "type": "Polygon", "coordinates": [ [ [ 3293599.206707138568163, 2033771.691163837676868 ], [ 3293625.772824390325695, 2033768.63815203262493 ], [ 3293779.888861721847206, 2033754.264835949288681 ], [ 3293821.719706617295742, 2033746.562110895756632 ], [ 3293923.748772871680558, 2033755.315738698467612 ], [ 3294014.102598036173731, 2033760.513297650730237 ], [ 3294155.870953573379666, 2033694.639964869245887 ], [ 3294325.664193846751004, 2033618.887199344113469 ], [ 3294389.120865218807012, 2033601.39413103624247 ], [ 3294516.160763234831393, 2033568.410046999808401 ], [ 3294554.234556912444532, 2033559.836818285053596 ], [ 3294692.716076876502484, 2033486.436902854591608 ], [ 3294812.647974637337029, 2033433.429048923077062 ], [ 3294929.853066488169134, 2033386.455531128915027 ], [ 3295063.701982571743429, 2033358.372966887662187 ], [ 3295135.743855952750891, 2033323.721735620871186 ], [ 3295229.96383412508294, 2033265.52609462919645 ], [ 3295322.972599679604173, 2033214.115606347564608 ], [ 3295386.42891452414915, 2033163.741464477265254 ], [ 3295482.975894316099584, 2033121.840680594788864 ], [ 3295581.751339795067906, 2033075.479237974155694 ], [ 3295632.685835055075586, 2033051.572602910222486 ], [ 3295674.210523225367069, 2033015.743065470363945 ], [ 3295713.96727154077962, 2032981.438984564971179 ], [ 3295832.403582752216607, 2032897.327043658355251 ], [ 3295896.551979691721499, 2032800.799190066289157 ], [ 3295938.604349317960441, 2032741.966276091756299 ], [ 3295976.702967957593501, 2032707.084215063136071 ], [ 3295998.998175449669361, 2032667.837716772453859 ], [ 3296008.664781467057765, 2032562.642297062790021 ], [ 3296007.987792659550905, 2032552.693519876338542 ], [ 3296002.583052052184939, 2032534.163500164402649 ], [ 3295996.833422643132508, 2032513.456072960514575 ], [ 3295991.405112284235656, 2032497.6142386586871 ], [ 3295987.644326217006892, 2032486.630084489006549 ], [ 3295986.141459031961858, 2032462.95561143849045 ], [ 3295986.799913948401809, 2032450.093056000303477 ], [ 3295987.423789572436363, 2032437.012746853753924 ], [ 3295986.551753549836576, 2032424.413500150665641 ], [ 3295981.585931063164026, 2032397.30844181147404 ], [ 3295979.506208152510226, 2032381.338057695887983 ], [ 3295979.262788120657206, 2032362.637394927442074 ], [ 3295980.833836980164051, 2032342.811133266659454 ], [ 3295978.118945738300681, 2032317.177514655282721 ], [ 3295969.428102671168745, 2032302.610268659424037 ], [ 3295949.36863058200106, 2032275.707691916031763 ], [ 3295896.477229455951601, 2032223.592080434784293 ], [ 3295865.921800459269434, 2032193.43510304717347 ], [ 3295839.774661417119205, 2032160.758134262170643 ], [ 3295811.963577156420797, 2032117.875496654305607 ], [ 3295794.472705498337746, 2032087.066740681184456 ], [ 3295769.523242990020663, 2032046.613482734421268 ], [ 3295755.480656543746591, 2032028.715386393247172 ], [ 3295741.565404821187258, 2032014.361168060684577 ], [ 3295696.372427685186267, 2031976.078061300329864 ], [ 3295650.201158323790878, 2031941.827976652421057 ], [ 3295607.95662547275424, 2031907.868853935971856 ], [ 3295590.695835761260241, 2031886.682563355425373 ], [ 3295575.406330608762801, 2031867.73372864164412 ], [ 3295560.777942958753556, 2031857.044792343862355 ], [ 3295540.018999371677637, 2031846.444038815330714 ], [ 3295524.008167021907866, 2031833.873003620654345 ], [ 3295511.956085888668895, 2031820.352125498699024 ], [ 3295495.279791812412441, 2031794.802052964223549 ], [ 3295474.704250591807067, 2031760.735519347479567 ], [ 3295462.032614561729133, 2031741.980586409103125 ], [ 3295444.78641798812896, 2031731.097889471100643 ], [ 3295428.266477608587593, 2031724.88020588317886 ], [ 3295354.998475990258157, 2031706.025341949192807 ], [ 3295329.625624662730843, 2031694.327158394735307 ], [ 3295312.256556128617376, 2031667.93832738045603 ], [ 3295275.906771744601429, 2031563.024660938186571 ], [ 3295268.650527622550726, 2031521.440956664038822 ], [ 3295263.772260316181928, 2031469.40976000088267 ], [ 3295267.425962890964001, 2031450.042680268874392 ], [ 3295270.219208229333162, 2031429.485020802821964 ], [ 3295258.282833190169185, 2031384.820666632382199 ], [ 3295247.603485590778291, 2031331.01030846289359 ], [ 3295247.661032493691891, 2031295.500726231606677 ], [ 3295236.165025144815445, 2031278.069820773787796 ], [ 3295214.269518197979778, 2031267.111978631000966 ], [ 3295170.733796486631036, 2031242.548635213635862 ], [ 3295140.873741747811437, 2031219.502872625831515 ], [ 3295102.905487654730678, 2031179.185730972327292 ], [ 3295077.061207452323288, 2031153.435747444396839 ], [ 3295028.622231079731137, 2031096.25953900301829 ], [ 3295003.013311476446688, 2031061.847761919023469 ], [ 3294968.869415488559753, 2031016.73789880448021 ], [ 3294959.346591892186552, 2031007.185136179439723 ], [ 3294946.829830401577055, 2030996.889958994695917 ], [ 3294926.938250934705138, 2030985.855275900801644 ], [ 3294900.813301866408437, 2030974.313469087937847 ], [ 3294871.743545722682029, 2030967.172107957303524 ], [ 3294811.635896855965257, 2030962.207231432432309 ], [ 3294789.842180488165468, 2030958.894922585459426 ], [ 3294770.717427209485322, 2030947.112544934032485 ], [ 3294742.428461450152099, 2030915.664888004073873 ], [ 3294717.045522253029048, 2030899.633520682808012 ], [ 3294693.638516495935619, 2030891.107251505833119 ], [ 3294675.416651295498013, 2030887.965193886309862 ], [ 3294659.636985007207841, 2030882.834069310454652 ], [ 3294638.551277791149914, 2030871.555120267439634 ], [ 3294621.27516901679337, 2030869.109916260000318 ], [ 3294588.122474278789014, 2030866.499637738335878 ], [ 3294549.053515807725489, 2030868.512043230934069 ], [ 3294528.569177640601993, 2030875.957663224311545 ], [ 3294484.326944354455918, 2030893.676602849271148 ], [ 3294441.22248921263963, 2030911.377478134352714 ], [ 3294423.382451850920916, 2030915.622627034084871 ], [ 3294397.693929515313357, 2030912.588102663867176 ], [ 3294372.145498303696513, 2030915.413333772448823 ], [ 3294344.336148352827877, 2030921.373185085598379 ], [ 3294288.876591940410435, 2030944.248433501226828 ], [ 3294233.235809120349586, 2030965.97825923981145 ], [ 3294196.928884903900325, 2030980.460231308592483 ], [ 3294182.479343875311315, 2030983.730070849647745 ], [ 3294156.568190889898688, 2030984.264251857064664 ], [ 3294123.449662435799837, 2030984.584510880755261 ], [ 3294089.166653053369373, 2030985.42268181941472 ], [ 3294065.744745886418968, 2030993.498588770395145 ], [ 3294044.75268488842994, 2031003.686001555761322 ], [ 3294014.717677362263203, 2031024.534804084571078 ], [ 3293975.411624638363719, 2031059.864558569621295 ], [ 3293957.521619083359838, 2031076.326695356750861 ], [ 3293925.031001806259155, 2031109.774492259137332 ], [ 3293885.094534404575825, 2031172.775334269972518 ], [ 3293876.002311629243195, 2031185.381897324463353 ], [ 3293868.939343732316047, 2031208.681939390487969 ], [ 3293855.12042823061347, 2031232.083840268664062 ], [ 3293833.200995163060725, 2031257.360130690736696 ], [ 3293821.807809986174107, 2031275.381845213472843 ], [ 3293813.981179793830961, 2031282.995670121628791 ], [ 3293798.391795020550489, 2031288.607535930350423 ], [ 3293776.536135809030384, 2031304.333272277144715 ], [ 3293750.461966853123158, 2031320.539918319322169 ], [ 3293727.647746437229216, 2031318.254887840244919 ], [ 3293656.181149629410356, 2031279.959541725926101 ], [ 3293511.712066344451159, 2031188.456693925196305 ], [ 3293403.194224765524268, 2031117.07579868263565 ], [ 3293210.370626578107476, 2031000.502993186702952 ], [ 3293082.32633036468178, 2030882.398591791745275 ], [ 3293032.652614244725555, 2030864.637617649277672 ], [ 3292833.329291571862996, 2030928.775417971191928 ], [ 3292758.996702435892075, 2030940.551473089493811 ], [ 3292694.406091989483684, 2030976.95820381725207 ], [ 3292656.002687490545213, 2031004.306711878627539 ], [ 3292584.825587363913655, 2031017.563943763030693 ], [ 3292546.130856869276613, 2030970.090449837269261 ], [ 3292462.350208840332925, 2030935.432726342696697 ], [ 3292387.568728278391063, 2030913.897695004940033 ], [ 3292255.584877962246537, 2030895.62780615594238 ], [ 3292047.139735935255885, 2030946.667944341665134 ], [ 3291848.795985250268131, 2030948.416936122113839 ], [ 3291826.983022670261562, 2030913.721853367984295 ], [ 3291760.237003177870065, 2030944.93616358237341 ], [ 3291685.035465067718178, 2030943.204481214983389 ], [ 3291603.917898016050458, 2030933.384580535348505 ], [ 3291564.991655004676431, 2030940.588312888517976 ], [ 3291531.677032142877579, 2030948.344234789488837 ], [ 3291492.876959823071957, 2031011.68107266142033 ], [ 3291598.10955715412274, 2031044.669755707960576 ], [ 3291737.812212232034653, 2031067.174507412360981 ], [ 3291875.523732292931527, 2031178.554349606623873 ], [ 3291905.22541298950091, 2031303.965397969353944 ], [ 3291938.045834052376449, 2031383.309152494883165 ], [ 3291955.431612696032971, 2031489.086002144729719 ], [ 3292013.50964264664799, 2031590.390742092859 ], [ 3292081.555226008873433, 2031657.602958215866238 ], [ 3292145.992397848982364, 2031784.626359740737826 ], [ 3292171.918957678135484, 2031831.261259972350672 ], [ 3292263.905531192664057, 2031896.883882101858035 ], [ 3292392.090627519413829, 2032026.10095569700934 ], [ 3292469.183697924949229, 2032106.925497830379754 ], [ 3292600.567377052269876, 2032170.323233121074736 ], [ 3292662.917553595732898, 2032253.692890030797571 ], [ 3292721.949373804032803, 2032318.915353168500587 ], [ 3292867.190063233487308, 2032451.767110826680437 ], [ 3292983.277599225752056, 2032572.940327277872711 ], [ 3293061.736178123392165, 2032668.210086449049413 ], [ 3293129.830918532330543, 2032779.428170888917521 ], [ 3293128.746225215028971, 2032788.215086135780439 ], [ 3293135.380689725279808, 2032801.238870412111282 ], [ 3293217.552556928712875, 2032952.025031510042027 ], [ 3293239.192589876707643, 2033058.588371082674712 ], [ 3293249.451938875485212, 2033215.170553965028375 ], [ 3293272.583665692713112, 2033400.904185878112912 ], [ 3293272.915435388684273, 2033511.639974523102865 ], [ 3293260.507317737210542, 2033672.628884117817506 ], [ 3293222.395208079833537, 2033770.755062634125352 ], [ 3293185.453541569411755, 2033876.268751030787826 ], [ 3293167.614322052337229, 2033938.023366086184978 ], [ 3293171.220254431478679, 2033951.568319184705615 ], [ 3293181.230827332474291, 2033947.822221609065309 ], [ 3293220.749240363016725, 2033933.940010831458494 ], [ 3293304.204306566622108, 2033904.403749611461535 ], [ 3293329.129197339061648, 2033888.985268964665011 ], [ 3293348.984112838283181, 2033884.051398661220446 ], [ 3293421.65741667849943, 2033859.405869336333126 ], [ 3293459.04795151297003, 2033848.925461505772546 ], [ 3293490.661260743625462, 2033829.406966095324606 ], [ 3293569.233660561963916, 2033780.895171678159386 ], [ 3293578.496654613874853, 2033773.230686704162508 ], [ 3293599.206707138568163, 2033771.691163837676868 ] ] ] } }
]
}
