{
"type": "FeatureCollection",
"name": "Bezares",
"crs": { "type": "name", "properties": { "name": "urn:ogc:def:crs:EPSG::3035" } },
"features": [
{ "type": "Feature", "properties": { "SITE_NAME": "Sierras de Demanda, Urbión, Cebollera y Cameros", "ODESIGNATE": "Espacio Protegido Red Natura 2000", "NUT2": 23, "SITE_CODE_": "ES230004", "DESIG_ABBR": "ES96", "SITE_CDDA": "389271_CDDA", "Sup_ha": 150081.53723700001 }, "geometry": { "type": "MultiPolygon", "coordinates": [ [ [ [ 3277984.050225073471665, 2225427.271772755309939 ], [ 3277980.83555662073195, 2225368.458706424571574 ], [ 3278012.826154082082212, 2225340.261687139980495 ], [ 3278006.319286789745092, 2225305.85919033177197 ], [ 3278120.982347903307527, 2225245.425483820959926 ], [ 3278123.182617947924882, 2225205.43940224731341 ], [ 3278072.358757053967565, 2225216.621454542502761 ], [ 3278051.843451600987464, 2225166.05333000048995 ], [ 3277968.384330000728369, 2225166.05333000048995 ], [ 3277968.384330000728369, 2225418.195483444724232 ], [ 3277984.050225073471665, 2225427.271772755309939 ] ] ], [ [ [ 3280058.007632210385054, 2225171.670545488595963 ], [ 3280122.557838210836053, 2225235.010557836852968 ], [ 3280062.315627780277282, 2225315.244594096206129 ], [ 3280064.928500500507653, 2225371.850041901692748 ], [ 3280040.542459425982088, 2225365.667632568627596 ], [ 3280024.275229180697352, 2225361.547751562669873 ], [ 3280008.853572701103985, 2225357.635350989643484 ], [ 3280036.694517354480922, 2225534.702514356002212 ], [ 3279997.915150209330022, 2225516.73319576960057 ], [ 3279967.898454087786376, 2225593.706995902117342 ], [ 3279893.650680259801447, 2225580.713344137649983 ], [ 3279753.213923576753587, 2225711.23340590018779 ], [ 3279813.639513832516968, 2225874.287531715352088 ], [ 3279813.792819248978049, 2225874.544696722179651 ], [ 3279813.861341795884073, 2225874.654418716207147 ], [ 3279815.712066988926381, 2225878.184578870423138 ], [ 3279817.181555881630629, 2225880.99036266701296 ], [ 3279818.318181347567588, 2225883.620973352342844 ], [ 3279818.677505934610963, 2225884.460696070920676 ], [ 3279819.469469865784049, 2225886.279444676823914 ], [ 3279819.727629758417606, 2225887.309160755947232 ], [ 3279820.529838050715625, 2225890.444169871509075 ], [ 3279821.414372620172799, 2225893.899410160724074 ], [ 3279821.899812999181449, 2225896.582692664116621 ], [ 3279822.24251314252615, 2225898.510166584979743 ], [ 3279822.817693897988647, 2225901.684747875668108 ], [ 3279823.202212762087584, 2225903.807709017302841 ], [ 3279823.686672874726355, 2225907.048797541297972 ], [ 3279824.594892879482359, 2225913.156280066817999 ], [ 3279824.708021081052721, 2225913.917250299360603 ], [ 3279825.053795308340341, 2225916.239602547604591 ], [ 3279825.132926762104034, 2225916.540112936869264 ], [ 3279825.854407812003046, 2225919.364751609973609 ], [ 3279826.500238742213696, 2225921.847717846278101 ], [ 3279826.530875612050295, 2225921.974182344041765 ], [ 3279827.487779677845538, 2225924.372510650195181 ], [ 3279828.503049250226468, 2225926.943164356984198 ], [ 3279828.52250438882038, 2225927.000606153160334 ], [ 3279829.74723086040467, 2225929.423223559278995 ], [ 3279829.941044174600393, 2225929.805132578592747 ], [ 3279830.437701129354537, 2225930.803416600916535 ], [ 3279832.15588996745646, 2225934.204597299918532 ], [ 3279832.513617865741253, 2225935.034459764603525 ], [ 3279833.123524568974972, 2225936.418556643649936 ], [ 3279834.045572953298688, 2225938.53907371358946 ], [ 3279836.067839984316379, 2225943.691962285898626 ], [ 3279838.299608421977609, 2225949.386246690992266 ], [ 3279839.778200673870742, 2225953.751823277678341 ], [ 3279841.099554508458823, 2225957.64800514606759 ], [ 3279842.888163533527404, 2225963.551339512690902 ], [ 3279845.230243398807943, 2225971.304855293594301 ], [ 3279845.774129306897521, 2225973.095874267630279 ], [ 3279846.837322930805385, 2225975.962339999619871 ], [ 3279847.166750060394406, 2225976.868107387796044 ], [ 3279848.426379528362304, 2225980.257968711201102 ], [ 3279850.565502100624144, 2225985.380351262632757 ], [ 3279855.879335361532867, 2225998.070564116351306 ], [ 3279858.826400918886065, 2226005.110300108790398 ], [ 3279858.950094516854733, 2226005.372626789379865 ], [ 3279859.002070533577353, 2226005.505510655231774 ], [ 3279863.173866707831621, 2226014.967864865902811 ], [ 3279868.482295929919928, 2226027.060831201262772 ], [ 3279868.732878128066659, 2226027.605205380357802 ], [ 3279870.283148395828903, 2226031.410793595481664 ], [ 3279872.140769480261952, 2226035.923221101053059 ], [ 3279873.72077308408916, 2226039.348490267060697 ], [ 3279875.648921760264784, 2226043.544459883123636 ], [ 3279919.265561387408525, 2226168.243459362071007 ], [ 3279954.128226378932595, 2226250.496263220906258 ], [ 3279968.439428443089128, 2226304.627173892688006 ], [ 3279988.910894173197448, 2226347.352849685586989 ], [ 3280060.064242303371429, 2226553.746854163240641 ], [ 3280090.203785942401737, 2226611.35428928444162 ], [ 3280113.351437748409808, 2226745.208112884312868 ], [ 3280135.952063706703484, 2226812.788297557272017 ], [ 3280155.114813330583274, 2226867.919015135150403 ], [ 3280186.893404454924166, 2226936.768768569454551 ], [ 3280224.485500386916101, 2226896.666653553955257 ], [ 3280316.199493407271802, 2226892.928191876038909 ], [ 3280317.220575406216085, 2226891.462576331570745 ], [ 3280317.178753688000143, 2226891.26708861021325 ], [ 3280316.958747698925436, 2226890.159744146279991 ], [ 3280315.552444643806666, 2226882.983215268235654 ], [ 3280328.135382123291492, 2226868.998454448301345 ], [ 3280329.144234487786889, 2226874.348290898837149 ], [ 3280337.231764561962336, 2226862.749042768962681 ], [ 3280455.578566216863692, 2226929.426647441927344 ], [ 3280513.008889021351933, 2226981.324358665850013 ], [ 3280617.621263215318322, 2227078.683551765047014 ], [ 3280706.966432265006006, 2226989.78659287514165 ], [ 3280740.31147, 2227028.129282572306693 ], [ 3280740.31147, 2225166.05333000048995 ], [ 3280061.745008398778737, 2225166.05333000048995 ], [ 3280058.007632210385054, 2225171.670545488595963 ] ] ] ] } }
]
}
