{
"type": "FeatureCollection",
"name": "Nalda",
"crs": { "type": "name", "properties": { "name": "urn:ogc:def:crs:EPSG::3035" } },
"features": [
{ "type": "Feature", "properties": { "SITE_NAME": "Peñas de Iregua, Leza y Jubera", "ODESIGNATE": "Espacio Protegido Red Natura 2000", "NUT2": 23, "SITE_CODE_": "ES230005", "DESIG_ABBR": "ES96", "SITE_CDDA": "389272_CDDA", "Sup_ha": 8624.3203002600003 }, "geometry": { "type": "MultiPolygon", "coordinates": [ [ [ [ 3297901.847087030764669, 2216529.262455273419619 ], [ 3297922.100880777463317, 2216654.474086022004485 ], [ 3297951.444659999571741, 2216789.027098781894892 ], [ 3297951.444659999571741, 2216484.106457843910903 ], [ 3297901.847087030764669, 2216529.262455273419619 ] ] ], [ [ [ 3297939.378753303084522, 2218928.51543756108731 ], [ 3297926.314533130731434, 2218947.644260711502284 ], [ 3297904.376385586336255, 2218956.719710512086749 ], [ 3297843.899470275267959, 2218981.740838634781539 ], [ 3297803.00374144827947, 2218973.646695844829082 ], [ 3297765.350613975897431, 2219012.631173138506711 ], [ 3297752.719502924010158, 2219056.89473026804626 ], [ 3297715.09328953968361, 2219164.297372898552567 ], [ 3297768.644016085658222, 2219277.640024738851935 ], [ 3297767.411626052577049, 2219310.798633353319019 ], [ 3297710.906320061534643, 2219355.595648159272969 ], [ 3297680.80649540014565, 2219387.185033734887838 ], [ 3297679.37888792809099, 2219459.910914169158787 ], [ 3297671.534280954860151, 2219533.752676900941879 ], [ 3297750.294435019604862, 2219816.557351842522621 ], [ 3297842.348967334255576, 2219923.205082260072231 ], [ 3297911.972196526359767, 2220013.986714808735996 ], [ 3297744.347727688029408, 2220282.363123809918761 ], [ 3297682.995062373578548, 2220446.604818376712501 ], [ 3297611.310690871905535, 2220615.177885466720909 ], [ 3297572.284814538434148, 2220577.869130349252373 ], [ 3297570.803889632225037, 2220527.949252570047975 ], [ 3297519.893226053565741, 2220512.47412776760757 ], [ 3297453.602891188114882, 2220469.263011243194342 ], [ 3297415.498443447519094, 2220383.64405375206843 ], [ 3297404.933037495240569, 2220359.125579545740038 ], [ 3297305.858344195876271, 2220303.876302311196923 ], [ 3297205.709687755908817, 2220255.413001116365194 ], [ 3297149.993784386664629, 2220223.541095901280642 ], [ 3297084.680515246465802, 2220173.571388191543519 ], [ 3296862.453620616346598, 2220036.343564664945006 ], [ 3296638.192277410067618, 2219873.621137240435928 ], [ 3296622.619308493100107, 2219790.683108818717301 ], [ 3296618.346884694881737, 2219723.509206261951476 ], [ 3296601.86134610325098, 2219594.59720548056066 ], [ 3296574.783809239510447, 2219468.034204439725727 ], [ 3296550.435643961653113, 2219426.145973417907953 ], [ 3296505.499183834064752, 2219366.044050674885511 ], [ 3296488.384659151080996, 2219219.502312245778739 ], [ 3296472.299121644347906, 2219093.055396611336619 ], [ 3296467.495186056476086, 2218981.879219292663038 ], [ 3296446.879940724465996, 2218895.246893775649369 ], [ 3296423.161843471229076, 2218870.988588710781187 ], [ 3296427.035639087669551, 2218745.125698335003108 ], [ 3296470.60251653753221, 2218647.838914623018354 ], [ 3296453.275064406916499, 2218554.046166074462235 ], [ 3296422.785946419462562, 2218474.199563122820109 ], [ 3296399.007435593754053, 2218436.267176737077534 ], [ 3296453.935100527014583, 2218354.237555459141731 ], [ 3296493.051836469676346, 2218297.258401437196881 ], [ 3296526.777738535311073, 2218247.29882123041898 ], [ 3296501.21682107867673, 2218225.388323277235031 ], [ 3296345.293221530038863, 2218145.053938914090395 ], [ 3296236.453361123800278, 2218056.542076581623405 ], [ 3296148.760284073650837, 2218003.875968993641436 ], [ 3296077.213483134284616, 2217996.551525895483792 ], [ 3296001.102495630271733, 2217987.993555857799947 ], [ 3295914.082096703816205, 2217994.00382708478719 ], [ 3295809.635403582826257, 2218027.879876851569861 ], [ 3295696.544549479149282, 2218008.014143091626465 ], [ 3295501.383303801529109, 2218007.500326319132 ], [ 3295411.058223582804203, 2217893.458479546941817 ], [ 3295320.879907193593681, 2217823.486182806547731 ], [ 3295212.74160436168313, 2217742.44605376245454 ], [ 3295121.528201283421367, 2217666.0752142672427 ], [ 3295045.914216217584908, 2217614.350583509076387 ], [ 3294947.063328763470054, 2217562.105861133895814 ], [ 3294793.258445287123322, 2217542.733682844322175 ], [ 3294722.350142385810614, 2217520.094467698130757 ], [ 3294568.817040244117379, 2217516.894473966211081 ], [ 3294441.120501911733299, 2217515.79005207773298 ], [ 3294233.750003858469427, 2217538.18412627838552 ], [ 3294065.071366590913385, 2217555.866269471123815 ], [ 3293911.012943690642715, 2217563.91010680841282 ], [ 3293848.28747679758817, 2217577.354980576783419 ], [ 3293816.810860283207148, 2217554.953736084513366 ], [ 3293693.199100662022829, 2217435.5527767771855 ], [ 3293611.237262051552534, 2217359.084665195085108 ], [ 3293561.863727934192866, 2217469.548724744468927 ], [ 3293318.110732580069453, 2218097.865046247839928 ], [ 3293212.768513179849833, 2218506.971758642233908 ], [ 3293171.717220775783062, 2218683.401691317558289 ], [ 3292820.164964105468243, 2218774.476418891455978 ], [ 3292538.983714112080634, 2218842.1497165504843 ], [ 3292579.190082187298685, 2218990.25231174333021 ], [ 3292617.571858430281281, 2219127.014799240510911 ], [ 3292658.519853706937283, 2219193.891561808995903 ], [ 3292683.47716832626611, 2219233.645923539996147 ], [ 3292754.191300277132541, 2219283.686235674191266 ], [ 3292837.577072251588106, 2219354.827237967401743 ], [ 3292858.364399875979871, 2219411.526564817409962 ], [ 3292879.012769212946296, 2219467.743230027146637 ], [ 3292884.245046235155314, 2219485.586615446023643 ], [ 3292893.339823603630066, 2219541.785993754863739 ], [ 3292911.175491382367909, 2219580.245199631433934 ], [ 3292942.583517261780798, 2219602.657921036705375 ], [ 3292980.270881158765405, 2219649.321030444465578 ], [ 3293020.637649839743972, 2219698.052279081195593 ], [ 3293052.582788004074246, 2219766.495622439309955 ], [ 3293067.501863782294095, 2219858.682385344058275 ], [ 3293079.548931472469121, 2219933.121989306993783 ], [ 3293074.012197450734675, 2219984.771125642582774 ], [ 3293034.022319135721773, 2220024.16766095906496 ], [ 3293014.924214798957109, 2220092.368401762563735 ], [ 3293028.588356182910502, 2220134.087809887714684 ], [ 3292924.871711779385805, 2220152.133090628311038 ], [ 3292830.158526771701872, 2220168.612095871940255 ], [ 3292756.789565264247358, 2220187.966775864828378 ], [ 3292674.214518674649298, 2220193.210677700582892 ], [ 3292597.963488021399826, 2220194.820061493199319 ], [ 3292568.524408443830907, 2220156.352211472578347 ], [ 3292488.921499151736498, 2220079.991523066535592 ], [ 3292451.053243649657816, 2220074.922626840882003 ], [ 3292411.952424551360309, 2220077.164280598983169 ], [ 3292403.381705375388265, 2220052.805613074451685 ], [ 3292387.504107529297471, 2219997.786046831868589 ], [ 3292313.577662446070462, 2219927.523755624890327 ], [ 3292282.100466884672642, 2219905.123335274402052 ], [ 3292233.780029901303351, 2219878.557563148438931 ], [ 3292194.941672937944531, 2219853.383115153759718 ], [ 3292150.459263048134744, 2219793.710440210532397 ], [ 3292111.222020341083407, 2219766.071126866154373 ], [ 3292080.702887363731861, 2219706.503192950505763 ], [ 3292053.569264533929527, 2219739.101834515109658 ], [ 3292006.597038473002613, 2219821.276918064337224 ], [ 3291969.593231656588614, 2219850.524499236606061 ], [ 3291861.432492269668728, 2219855.65968133462593 ], [ 3291702.890980517491698, 2219878.695458650123328 ], [ 3291542.662360409740359, 2219934.454540459439158 ], [ 3291501.033870476298034, 2219992.384952879045159 ], [ 3291466.586518225260079, 2220051.600165727548301 ], [ 3291448.510795052163303, 2220054.745627025142312 ], [ 3291340.31434721685946, 2219987.91331996396184 ], [ 3291321.247810278087854, 2219970.44973742775619 ], [ 3291344.666534617543221, 2219943.058654544875026 ], [ 3291395.835978683084249, 2219929.592544215265661 ], [ 3291382.774252920411527, 2219906.522230787202716 ], [ 3291333.885244986508042, 2219919.591507778968662 ], [ 3291118.43147328030318, 2219977.866148790810257 ], [ 3291033.074231821112335, 2220008.939997264184058 ], [ 3291001.646423081401736, 2219986.531499402597547 ], [ 3290987.158349286299199, 2219954.585812936071306 ], [ 3291007.944238574709743, 2219867.842423220630735 ], [ 3291029.857690433505923, 2219831.589537724852562 ], [ 3291020.24973427830264, 2219800.822095827199519 ], [ 3290971.407221818342805, 2219799.691334421746433 ], [ 3290920.909503749571741, 2219831.794994508847594 ], [ 3290867.533377726562321, 2219859.847988439723849 ], [ 3290801.400277846492827, 2219852.60280077625066 ], [ 3290725.525481702759862, 2219798.900605214759707 ], [ 3290695.484537401236594, 2219785.374480966478586 ], [ 3290683.359480963088572, 2219810.800494332797825 ], [ 3290643.656405539251864, 2219794.394076318014413 ], [ 3290620.587782949674875, 2219738.091450308449566 ], [ 3290575.286626563407481, 2219716.070013421587646 ], [ 3290549.76015194458887, 2219715.950586157850921 ], [ 3290476.110257085412741, 2219682.642996573355049 ], [ 3290303.934315604623407, 2219571.697992247529328 ], [ 3290191.01620829384774, 2219509.743920667562634 ], [ 3290114.422298385761678, 2219531.183962048497051 ], [ 3290048.748831611592323, 2219569.487850756384432 ], [ 3289987.770198569167405, 2219617.60890447627753 ], [ 3289907.903576411306858, 2219654.825052010361105 ], [ 3289814.060207371599972, 2219683.322808066848665 ], [ 3289768.496702944859862, 2219700.883476705290377 ], [ 3289766.587544691748917, 2219702.00647682370618 ], [ 3289742.836748738773167, 2219715.993789723608643 ], [ 3289681.003590095322579, 2219729.796919154468924 ], [ 3289621.223951106891036, 2219737.160261334851384 ], [ 3289501.883206373080611, 2219684.942021236754954 ], [ 3289394.328212653752416, 2219580.492301299236715 ], [ 3289387.47197336750105, 2219570.615565601736307 ], [ 3289314.910244869068265, 2219466.076660512946546 ], [ 3289244.883146563544869, 2219419.467998834326863 ], [ 3289226.497340000234544, 2219395.916511855088174 ], [ 3289226.497340000234544, 2222015.42699340544641 ], [ 3289390.594731819815934, 2221967.511478411965072 ], [ 3289712.750924443360418, 2221989.999701486900449 ], [ 3289921.155871742870659, 2221925.834626677911729 ], [ 3289995.320662602782249, 2221971.723361828364432 ], [ 3290072.60732132056728, 2221976.518317007925361 ], [ 3290168.651813470758498, 2222038.874005959369242 ], [ 3290246.118994310032576, 2222057.323504826053977 ], [ 3290321.18887554993853, 2222035.133098541293293 ], [ 3290370.41345673520118, 2222010.851936462335289 ], [ 3290442.283954796381295, 2222018.617618761025369 ], [ 3290474.292150755878538, 2221997.33318649744615 ], [ 3290534.80340418452397, 2221918.879260633140802 ], [ 3290626.684755221009254, 2221815.197346229106188 ], [ 3290661.587284132372588, 2221685.95148778706789 ], [ 3290735.503198816906661, 2221567.656438160222024 ], [ 3290765.065706024877727, 2221517.906192896421999 ], [ 3290831.177934009116143, 2221439.999188910238445 ], [ 3290860.017504659015685, 2221388.854322534054518 ], [ 3290874.268767363391817, 2221305.274158273357898 ], [ 3290904.535041450057179, 2221263.004853033926338 ], [ 3291036.245185618754476, 2221203.080659959465265 ], [ 3291098.684253670740873, 2221173.45980916544795 ], [ 3291173.252699981443584, 2221190.05334850307554 ], [ 3291221.351298584137112, 2221200.761310741771013 ], [ 3291313.245483796577901, 2221138.21782100526616 ], [ 3291317.405259639956057, 2221135.385313576087356 ], [ 3291346.204129237681627, 2221116.029025085270405 ], [ 3291346.570280053187162, 2221115.782830837182701 ], [ 3291355.046193453948945, 2221110.080477189272642 ], [ 3291485.198084532283247, 2221069.183229100890458 ], [ 3291622.367788218427449, 2220971.309507543221116 ], [ 3291761.311231252271682, 2221041.915038120467216 ], [ 3291831.857541386038065, 2221134.053665364626795 ], [ 3291937.308823932893574, 2221212.51522667799145 ], [ 3292085.666286300402135, 2221298.199624515138566 ], [ 3292213.429294013418257, 2221342.873696704395115 ], [ 3292289.490344509948045, 2221382.859297866001725 ], [ 3292400.753241346217692, 2221440.035411583259702 ], [ 3292461.292305787093937, 2221498.941951632034034 ], [ 3292532.656865884084255, 2221553.430456601083279 ], [ 3292577.469961267895997, 2221615.073541697580367 ], [ 3292587.371156684588641, 2221640.81277865730226 ], [ 3292614.634583128150553, 2221711.734043432399631 ], [ 3292617.473935796413571, 2221719.116710441187024 ], [ 3292635.698355840519071, 2221745.546633698511869 ], [ 3292651.748371720314026, 2221768.827120198402554 ], [ 3292668.954115296248347, 2221793.792055991012603 ], [ 3292736.653404790908098, 2221696.340954468585551 ], [ 3292821.662652526050806, 2221591.326466605067253 ], [ 3292853.958072428591549, 2221576.076481515541673 ], [ 3292876.090260573197156, 2221583.883363010361791 ], [ 3292894.687494113110006, 2221555.30405837437138 ], [ 3292938.535768317524344, 2221496.987751786597073 ], [ 3293000.154388555325568, 2221490.827921653166413 ], [ 3293048.245132427662611, 2221472.829749131109565 ], [ 3293106.648979334160686, 2221432.762574939522892 ], [ 3293135.112107970751822, 2221404.433480663690716 ], [ 3293148.608591537922621, 2221390.99494809191674 ], [ 3293148.823328887112439, 2221385.04753955733031 ], [ 3293150.280567995738238, 2221344.072466868441552 ], [ 3293162.152814712375402, 2221302.978188001085073 ], [ 3293200.967443483415991, 2221270.374614000320435 ], [ 3293250.146718157455325, 2221259.790336926002055 ], [ 3293250.255310715641826, 2221259.771442702040076 ], [ 3293283.781103898771107, 2221223.526418959256262 ], [ 3293306.945538421161473, 2221180.457406760193408 ], [ 3293330.135749089065939, 2221166.832697686273605 ], [ 3293330.229682133067399, 2221166.785942546557635 ], [ 3293346.570025647059083, 2221158.124111734330654 ], [ 3293368.575270622968674, 2221146.459346999414265 ], [ 3293368.679075793828815, 2221146.410874328110367 ], [ 3293396.530127230100334, 2221118.249439403414726 ], [ 3293410.626142498105764, 2221090.453785265795887 ], [ 3293456.961858206428587, 2221061.610647327266634 ], [ 3293520.074087850283831, 2221050.630058341193944 ], [ 3293543.379547035321593, 2221051.137032156810164 ], [ 3293585.476673343218863, 2221039.251072470098734 ], [ 3293602.775118268094957, 2221031.679687632713467 ], [ 3293616.223159064538777, 2221043.0252201766707 ], [ 3293666.023390979506075, 2221006.990384439472109 ], [ 3293692.911630870308727, 2221006.367233514785767 ], [ 3293714.359422765672207, 2221005.869511354248971 ], [ 3293739.973464210052043, 2221005.275462460704148 ], [ 3293772.498979315161705, 2221034.59007775131613 ], [ 3293793.922968739178032, 2221037.958801193162799 ], [ 3293804.537697642575949, 2221046.09721715701744 ], [ 3293809.821328687481582, 2221050.145211699884385 ], [ 3293825.709818624425679, 2221062.333342279307544 ], [ 3293854.174283093772829, 2221066.494498333893716 ], [ 3293873.959207298234105, 2221088.395384408999234 ], [ 3293930.23550871713087, 2221106.481909869238734 ], [ 3293984.344531496986747, 2221097.06822619214654 ], [ 3294031.784629131201655, 2221060.937541055493057 ], [ 3294062.006064545363188, 2221032.871118654031307 ], [ 3294092.479791971389204, 2221020.47347880480811 ], [ 3294175.719115970190614, 2221047.554615276865661 ], [ 3294219.900852964725345, 2221005.401885341852903 ], [ 3294268.175534185487777, 2220960.002903356682509 ], [ 3294295.969929525628686, 2220945.537254983559251 ], [ 3294326.078211255837232, 2220945.367968316655606 ], [ 3294363.493662347551435, 2220975.859539416618645 ], [ 3294388.838059106841683, 2221003.889364758972079 ], [ 3294416.246377904899418, 2221001.148670413065702 ], [ 3294459.311236867215484, 2220952.094548967666924 ], [ 3294527.267485483549535, 2220956.492034918628633 ], [ 3294555.005672527477145, 2220956.228326108772308 ], [ 3294569.364935785531998, 2220944.606924490537494 ], [ 3294608.728869067039341, 2220958.54022154957056 ], [ 3294648.602149719372392, 2220932.850116141140461 ], [ 3294689.731510723475367, 2220914.544399707112461 ], [ 3294736.773168149869889, 2220875.949708684813231 ], [ 3294750.354484058450907, 2220869.116657420061529 ], [ 3294786.108150000218302, 2220851.148117476142943 ], [ 3294858.678109681233764, 2220826.856298109516501 ], [ 3294877.771688918583095, 2220826.738191887270659 ], [ 3294886.705254558939487, 2220826.684443681966513 ], [ 3294928.137690804433078, 2220826.431131490506232 ], [ 3295005.838288220111281, 2220847.887818671762943 ], [ 3295066.762959023937583, 2220895.071250245906413 ], [ 3295139.107683811802417, 2220926.583120594266802 ], [ 3295164.49333062954247, 2220937.433723890222609 ], [ 3295196.421443244908005, 2220951.079462852329016 ], [ 3295218.521404535975307, 2220951.725907326675951 ], [ 3295266.280029040295631, 2220953.11952384468168 ], [ 3295311.328771592117846, 2220931.121881279163063 ], [ 3295311.434174390044063, 2220931.083272564224899 ], [ 3295380.560372015461326, 2220914.487172911409289 ], [ 3295421.677222377620637, 2220881.992421961389482 ], [ 3295497.121344209183007, 2220875.45844994764775 ], [ 3295500.323095574043691, 2220852.093157249968499 ], [ 3295566.830854408908635, 2220833.428713159635663 ], [ 3295670.433347821235657, 2220843.274766186717898 ], [ 3295764.112697473727167, 2220877.665468134917319 ], [ 3295818.507779784500599, 2220898.615212905220687 ], [ 3295861.181021132972091, 2220898.815814631525427 ], [ 3295869.551910530310124, 2220898.860093722585589 ], [ 3295912.436933453660458, 2220891.400858875364065 ], [ 3296070.629120039287955, 2220937.886106975376606 ], [ 3296088.466522813774645, 2220937.15566682908684 ], [ 3296158.15531577821821, 2220934.320094418246299 ], [ 3296199.34177949745208, 2220945.403124358970672 ], [ 3296257.407028652727604, 2220989.029967881273478 ], [ 3296296.258664117194712, 2221028.39589807856828 ], [ 3296322.652966876979917, 2221077.024435966741294 ], [ 3296361.6166006391868, 2221088.484018366783857 ], [ 3296437.755169086158276, 2221114.775725484360009 ], [ 3296498.919893525075167, 2221120.356762170325965 ], [ 3296600.562960011418909, 2221132.582631852012128 ], [ 3296722.402610861696303, 2221183.364513707347214 ], [ 3296735.932887944858521, 2221252.47703914809972 ], [ 3296716.99403195315972, 2221364.743622618727386 ], [ 3296747.309772246517241, 2221401.539545966777951 ], [ 3296759.511927648447454, 2221461.253018390387297 ], [ 3296770.166563522536308, 2221491.838341378606856 ], [ 3296810.616301365196705, 2221523.830646246206015 ], [ 3296849.041289570275694, 2221561.750474272295833 ], [ 3296874.139055699110031, 2221589.823818382807076 ], [ 3296883.278155296109617, 2221629.796057065948844 ], [ 3296881.994934363756329, 2221697.937235315330327 ], [ 3296874.484912246465683, 2221725.599659088999033 ], [ 3296869.181050254032016, 2221768.083925885148346 ], [ 3296905.591308346018195, 2221811.929562491830438 ], [ 3296924.795129744336009, 2221859.274686363060027 ], [ 3296965.81294651189819, 2221875.962709129787982 ], [ 3296976.307107387110591, 2221924.305680921301246 ], [ 3296998.274416201747954, 2221970.663345406763256 ], [ 3297065.757351029664278, 2222024.310321798548102 ], [ 3297066.258559186477214, 2222065.784995274618268 ], [ 3297101.133750096894801, 2222119.02104651927948 ], [ 3297211.080829013139009, 2222198.228000572882593 ], [ 3297269.935624539852142, 2222253.375755723100156 ], [ 3297364.372673049103469, 2222346.93802596302703 ], [ 3297425.651237298734486, 2222398.623229247517884 ], [ 3297467.795538587030023, 2222403.457954971119761 ], [ 3297540.376823818311095, 2222470.917291760910302 ], [ 3297629.165262270253152, 2222509.201692310161889 ], [ 3297683.807740767486393, 2222517.945117628667504 ], [ 3297729.023839778732508, 2222542.509681564755738 ], [ 3297798.350236777216196, 2222569.480343776289374 ], [ 3297840.325778651982546, 2222592.084431023802608 ], [ 3297871.976078068837523, 2222586.580022621899843 ], [ 3297890.05404114164412, 2222645.778713175095618 ], [ 3297914.6962178805843, 2222709.411186010111123 ], [ 3297951.444659999571741, 2222689.644400596618652 ], [ 3297951.444659999571741, 2218910.859768575057387 ], [ 3297939.378753303084522, 2218928.51543756108731 ] ] ] ] } }
]
}
