{
"type": "FeatureCollection",
"name": "Grandas_de_Salime",
"crs": { "type": "name", "properties": { "name": "urn:ogc:def:crs:EPSG::3035" } },
"features": [
{ "type": "Feature", "properties": { "SITE_NAME": "Alcornocal de Boxo", "ODESIGNATE": "Monumento Natural", "NUT2": 12, "SITE_CODE_": "ES120034", "DESIG_ABBR": "ES19", "SITE_CDDA": "349164_CDDA", "Sup_ha": 12.2093181552 }, "geometry": { "type": "Polygon", "coordinates": [ [ [ 2968117.079094474203885, 2393471.931972400750965 ], [ 2968073.038828737102449, 2393361.417977810371667 ], [ 2967995.81401009997353, 2393320.630738342180848 ], [ 2967943.877563799265772, 2393293.16706601344049 ], [ 2967899.259384115226567, 2393238.174384996760637 ], [ 2967858.635621910449117, 2393186.22767545003444 ], [ 2967861.424805635586381, 2393168.803152901120484 ], [ 2967855.14320760499686, 2393165.027168462984264 ], [ 2967845.023974452167749, 2393167.626609859988093 ], [ 2967842.652940740808845, 2393180.093003030400723 ], [ 2967825.418110790662467, 2393204.462097726762295 ], [ 2967821.912959639914334, 2393216.680914805736393 ], [ 2967808.689375649672002, 2393228.701333915814757 ], [ 2967787.632213473320007, 2393241.656179577112198 ], [ 2967772.749285750091076, 2393240.089814894367009 ], [ 2967768.142069809604436, 2393232.110774279106408 ], [ 2967768.017813424579799, 2393227.132005254272372 ], [ 2967784.274800647981465, 2393198.702225698158145 ], [ 2967789.173581546638161, 2393169.95637297956273 ], [ 2967786.485253632534295, 2393158.789708178956062 ], [ 2967784.617867028340697, 2393155.49658883549273 ], [ 2967765.530733479652554, 2393158.782924493774772 ], [ 2967752.500235836021602, 2393178.29941888153553 ], [ 2967742.398070712573826, 2393178.738548208028078 ], [ 2967725.403511454351246, 2393172.863898885902017 ], [ 2967716.84960093582049, 2393137.333432254381478 ], [ 2967716.722344742156565, 2393067.62547261081636 ], [ 2967772.366750735323876, 2393102.37743574520573 ], [ 2967743.453603143803775, 2393049.738876788876951 ], [ 2967733.205412549898028, 2393034.176960244309157 ], [ 2967639.248127280268818, 2393060.373003162909299 ], [ 2967638.826246980577707, 2393107.373172364197671 ], [ 2967635.607415318489075, 2393138.066574707627296 ], [ 2967631.387777146417648, 2393156.074044346809387 ], [ 2967623.221815382130444, 2393171.90346288215369 ], [ 2967609.111599690746516, 2393197.155653096735477 ], [ 2967604.923524319194257, 2393208.187059294898063 ], [ 2967603.070393443107605, 2393228.917354016099125 ], [ 2967615.300849432591349, 2393249.01398941827938 ], [ 2967624.548368345946074, 2393258.997039951384068 ], [ 2967636.464055658318102, 2393277.220110593363643 ], [ 2967636.221113722771406, 2393287.58123409980908 ], [ 2967628.643901984672993, 2393300.16985133336857 ], [ 2967632.613539896905422, 2393316.658049394842237 ], [ 2967644.989701383281499, 2393332.650391466449946 ], [ 2967655.823778852820396, 2393338.99558973684907 ], [ 2967668.778546534478664, 2393344.403412393759936 ], [ 2967688.531611610203981, 2393353.56217399938032 ], [ 2967703.736023902893066, 2393350.03082146961242 ], [ 2967716.781522428616881, 2393342.184908699244261 ], [ 2967725.511553601361811, 2393327.581976112909615 ], [ 2967726.043342266231775, 2393315.834090922027826 ], [ 2967719.821381611283869, 2393303.948302820324898 ], [ 2967711.647859531920403, 2393294.811432543210685 ], [ 2967714.532180773094296, 2393285.081009162124246 ], [ 2967720.533507661893964, 2393280.543057369068265 ], [ 2967725.67353652510792, 2393273.978853474371135 ], [ 2967734.317943971138448, 2393268.012585581745952 ], [ 2967749.996142009738833, 2393271.101658436469734 ], [ 2967763.582835361361504, 2393316.678093185182661 ], [ 2967767.973504470661283, 2393327.161456306930631 ], [ 2967773.806490236893296, 2393332.779631773009896 ], [ 2967782.196157855913043, 2393325.755151761695743 ], [ 2967784.377210889942944, 2393316.205533016007394 ], [ 2967779.983404716476798, 2393283.998867858201265 ], [ 2967790.435557140037417, 2393266.932404447346926 ], [ 2967807.57821121159941, 2393251.291926515288651 ], [ 2967824.878773860633373, 2393237.858330148272216 ], [ 2967837.431590436026454, 2393219.133070214185864 ], [ 2967850.060908856336027, 2393283.200937733054161 ], [ 2967895.735147161409259, 2393321.951707766391337 ], [ 2967945.886879464611411, 2393348.333790235221386 ], [ 2967990.050680493470281, 2393373.069995402824134 ], [ 2967985.250575610436499, 2393453.76871844753623 ], [ 2967966.455721937119961, 2393449.247959217522293 ], [ 2967947.26669103000313, 2393439.218957611359656 ], [ 2967932.071631100960076, 2393422.554840209893882 ], [ 2967905.679354455787688, 2393409.701974875759333 ], [ 2967876.6244230363518, 2393401.272812313400209 ], [ 2967863.761081544682384, 2393394.293462043628097 ], [ 2967846.052028125151992, 2393363.316804780159146 ], [ 2967842.247013532090932, 2393361.991603675764054 ], [ 2967833.111221795901656, 2393366.28908864594996 ], [ 2967833.398820021189749, 2393374.31759149255231 ], [ 2967846.089662791229784, 2393413.791335104964674 ], [ 2967837.893889157567173, 2393453.292332893237472 ], [ 2967845.885577342938632, 2393467.132481042295694 ], [ 2967872.155086828395724, 2393467.863266214728355 ], [ 2967893.671853587962687, 2393460.466117173433304 ], [ 2967917.09649914689362, 2393460.992780806496739 ], [ 2967943.488881241995841, 2393473.845634311437607 ], [ 2967967.519575498066843, 2393480.760900195688009 ], [ 2967986.496602513361722, 2393489.909196574240923 ], [ 2968006.957517514936626, 2393505.220689941663295 ], [ 2968018.065614021383226, 2393512.6509830346331 ], [ 2968030.594160731881857, 2393506.627811572514474 ], [ 2968070.875966061837971, 2393507.498639841098338 ], [ 2968088.458323906175792, 2393499.242546844296157 ], [ 2968081.344060412608087, 2393485.176949173677713 ], [ 2968055.316301583312452, 2393481.579255484044552 ], [ 2968032.557381605729461, 2393479.946650369558483 ], [ 2968012.401508395560086, 2393481.384921785444021 ], [ 2968038.718624651432037, 2393393.289063675329089 ], [ 2968078.491270345635712, 2393430.751361577771604 ], [ 2968101.682142993435264, 2393488.366335441824049 ], [ 2968109.313382927328348, 2393520.061927755363286 ], [ 2968052.390271127223969, 2393546.838279779534787 ], [ 2968001.48784710187465, 2393559.914549216162413 ], [ 2967950.492279462050647, 2393557.121616716496646 ], [ 2967893.442313035018742, 2393544.665323538705707 ], [ 2967882.5424201246351, 2393538.993649246171117 ], [ 2967883.405293396674097, 2393532.179269543848932 ], [ 2967881.981743889860809, 2393527.291279099415988 ], [ 2967861.892578524537385, 2393517.05065684299916 ], [ 2967842.273602591361851, 2393513.101161362603307 ], [ 2967818.192438807338476, 2393507.676279855426401 ], [ 2967803.290441568940878, 2393506.260604240000248 ], [ 2967789.721849746070802, 2393502.629757647868246 ], [ 2967770.186107159592211, 2393488.171314645092934 ], [ 2967759.040124645456672, 2393466.688471305649728 ], [ 2967756.304586797952652, 2393457.804728456772864 ], [ 2967724.13300036592409, 2393432.733856209553778 ], [ 2967713.825825417879969, 2393427.141440323088318 ], [ 2967701.833770541008562, 2393423.854626094456762 ], [ 2967689.513778445310891, 2393417.655632201582193 ], [ 2967687.451708398759365, 2393412.192507367581129 ], [ 2967686.989617850631475, 2393404.070905776694417 ], [ 2967682.398926275782287, 2393391.206302963197231 ], [ 2967676.990438144654036, 2393387.351809168700129 ], [ 2967664.537960084620863, 2393386.805146012455225 ], [ 2967642.736279007513076, 2393381.543808985035866 ], [ 2967634.79362615942955, 2393376.467625234741718 ], [ 2967614.718047305010259, 2393380.389847328420728 ], [ 2967598.919312432873994, 2393381.452109439298511 ], [ 2967570.933049187995493, 2393370.662783103063703 ], [ 2967560.722748476546258, 2393363.921831793151796 ], [ 2967548.474120939616114, 2393348.715121014043689 ], [ 2967544.725518778897822, 2393334.695861025713384 ], [ 2967564.974586715456098, 2393336.610477586276829 ], [ 2967590.037710874341428, 2393339.910590142477304 ], [ 2967604.575979760847986, 2393342.917718678247184 ], [ 2967618.835888436064124, 2393347.869355753064156 ], [ 2967638.116740665398538, 2393361.269548743031919 ], [ 2967642.845662714913487, 2393362.302003923803568 ], [ 2967645.145074013620615, 2393360.160840491298586 ], [ 2967644.944860416464508, 2393356.040504611097276 ], [ 2967637.592008253093809, 2393346.00258625857532 ], [ 2967616.434732082299888, 2393329.05326012102887 ], [ 2967585.693603288382292, 2393312.23327997745946 ], [ 2967564.454040294513106, 2393293.659017443656921 ], [ 2967542.815655845217407, 2393284.799533113371581 ], [ 2967520.967034462839365, 2393282.173151115421206 ], [ 2967508.056095654144883, 2393298.19180856551975 ], [ 2967507.180953153409064, 2393317.297839232254773 ], [ 2967518.774446887895465, 2393335.603665345348418 ], [ 2967530.403362873010337, 2393355.477477194275707 ], [ 2967539.964998787268996, 2393386.66395072825253 ], [ 2967543.467861804645509, 2393401.212315291166306 ], [ 2967561.550344291143119, 2393412.358429328072816 ], [ 2967576.509747257456183, 2393421.904109162278473 ], [ 2967597.049110776744783, 2393437.568482429720461 ], [ 2967603.340205349959433, 2393447.349252092186362 ], [ 2967593.704103848896921, 2393457.380911963991821 ], [ 2967583.091361594386399, 2393478.997784721665084 ], [ 2967585.393974395934492, 2393501.074759900569916 ], [ 2967599.974569754675031, 2393514.708396580070257 ], [ 2967601.958582044579089, 2393532.333487788680941 ], [ 2967611.306526769418269, 2393558.645609533879906 ], [ 2967636.650520021095872, 2393576.314709876663983 ], [ 2967666.199064305052161, 2393577.035696198698133 ], [ 2967696.433141618501395, 2393580.602973088156432 ], [ 2967739.046575799584389, 2393579.569852868560702 ], [ 2967744.32820125669241, 2393574.35556655889377 ], [ 2967760.53623379394412, 2393569.806076976470649 ], [ 2967776.632598050870001, 2393567.985508336685598 ], [ 2967798.598191263154149, 2393566.586098210886121 ], [ 2967811.18512320285663, 2393562.966967678628862 ], [ 2967816.000394788570702, 2393558.998199304565787 ], [ 2967832.454889923799783, 2393563.760590221732855 ], [ 2967847.854493932798505, 2393568.793932070955634 ], [ 2967880.678386017680168, 2393577.965794718824327 ], [ 2967904.161565694957972, 2393583.544467215426266 ], [ 2967929.479405781254172, 2393587.902752614580095 ], [ 2967947.279146494343877, 2393588.948383963666856 ], [ 2967965.199622286483645, 2393585.843095054849982 ], [ 2967982.586673201993108, 2393583.623953191563487 ], [ 2968002.168378532864153, 2393581.21550926938653 ], [ 2968026.151191825978458, 2393576.927353195846081 ], [ 2968044.071595012675971, 2393573.822105271741748 ], [ 2968047.915775237139314, 2393585.300369899719954 ], [ 2968055.465903604868799, 2393597.351298870053142 ], [ 2968072.411571154370904, 2393595.329824876505882 ], [ 2968091.318794634193182, 2393586.975149318575859 ], [ 2968086.898841151036322, 2393558.963900196366012 ], [ 2968116.750664678402245, 2393547.79782518139109 ], [ 2968142.563128727022558, 2393529.508380791172385 ], [ 2968117.079094474203885, 2393471.931972400750965 ] ] ] } },
{ "type": "Feature", "properties": { "SITE_NAME": "Negueira", "ODESIGNATE": "Espacio Protegido Red Natura 2000", "NUT2": 11, "SITE_CODE_": "ES112014", "DESIG_ABBR": "ES96", "SITE_CDDA": "349001_CDDA", "Sup_ha": 4567.3369854800003 }, "geometry": { "type": "Polygon", "coordinates": [ [ [ 2959078.037694565951824, 2385027.60755573073402 ], [ 2959039.508780183736235, 2384928.683876212220639 ], [ 2958994.119810167700052, 2384771.771325432229787 ], [ 2958969.114140508696437, 2384706.688321142923087 ], [ 2958940.533563480712473, 2384659.223330376669765 ], [ 2958918.197127736639231, 2384643.681041211821139 ], [ 2958892.937676455359906, 2384615.611049480270594 ], [ 2958842.417543684598058, 2384571.816558886319399 ], [ 2958818.841751500964165, 2384532.76145369745791 ], [ 2958793.957602011971176, 2384478.339871112257242 ], [ 2958787.85300761833787, 2384469.252881520427763 ], [ 2958716.639711992815137, 2384235.316172858234495 ], [ 2958712.230980251915753, 2384220.833374491892755 ], [ 2958796.560277435462922, 2384230.657383723650128 ], [ 2958839.051031276583672, 2384265.3939742394723 ], [ 2958870.989580131135881, 2384290.589380626566708 ], [ 2958931.763286924920976, 2384317.770179037004709 ], [ 2958988.572680938057601, 2384337.923270561732352 ], [ 2959070.175912152975798, 2384354.375239920336753 ], [ 2959171.039678778499365, 2384341.091098832432181 ], [ 2959218.562131037469953, 2384333.462525469716638 ], [ 2959265.831908632069826, 2384325.874597929418087 ], [ 2959386.917275244835764, 2384300.925170386210084 ], [ 2959398.179948138073087, 2384199.295753503683954 ], [ 2959419.258204500190914, 2384118.09576534293592 ], [ 2959425.240896774455905, 2383951.384867101442069 ], [ 2959445.81626180652529, 2383912.778379311785102 ], [ 2959456.604265623725951, 2383892.536467174068093 ], [ 2959475.492807193659246, 2383820.45621572015807 ], [ 2959471.482092696242034, 2383721.099611866287887 ], [ 2959469.056994820944965, 2383661.022425169590861 ], [ 2959469.145452511496842, 2383625.258565966505557 ], [ 2959475.094295753631741, 2383586.750888644251972 ], [ 2959494.748543841764331, 2383522.952031955588609 ], [ 2959513.082262872252613, 2383450.793088347185403 ], [ 2959539.469659321010113, 2383338.404078841209412 ], [ 2959556.187820449471474, 2383259.315892879851162 ], [ 2959570.200824549421668, 2383222.607421287335455 ], [ 2959612.725888570770621, 2383149.770516235847026 ], [ 2959805.806837670970708, 2382910.324915506411344 ], [ 2960005.593074976932257, 2382662.567550741136074 ], [ 2960216.575145042967051, 2382400.930305397138 ], [ 2960221.253266653977334, 2382399.088087353855371 ], [ 2960227.552652371115983, 2382396.607307577505708 ], [ 2960325.677666041068733, 2382357.96562297269702 ], [ 2960522.161171608604491, 2382280.590968241915107 ], [ 2960845.406962754204869, 2382153.300259773619473 ], [ 2960865.982857309281826, 2382107.126605367287993 ], [ 2960852.629655277356505, 2382076.209017541725188 ], [ 2960845.85150009021163, 2382060.514889486599714 ], [ 2960850.465689742006361, 2382037.085576267912984 ], [ 2960864.530917135532945, 2382022.414207391440868 ], [ 2960878.367650005966425, 2382007.981273609679192 ], [ 2960886.750745013356209, 2381987.517619515303522 ], [ 2960874.970818233676255, 2381975.225310436915606 ], [ 2960867.974971571937203, 2381967.925309605430812 ], [ 2960857.034770905040205, 2381933.617634783033282 ], [ 2960865.86974723264575, 2381919.988667534664273 ], [ 2960883.4975252058357, 2381912.277044033166021 ], [ 2960899.932039624080062, 2381897.762163064442575 ], [ 2960907.761580781079829, 2381878.332703756634146 ], [ 2960909.440728165209293, 2381874.165764867328107 ], [ 2960911.41542929969728, 2381841.816362249199301 ], [ 2960902.367727822624147, 2381795.374967481940985 ], [ 2960896.392520691268146, 2381769.811560019850731 ], [ 2960869.494567581452429, 2381711.690935307182372 ], [ 2960859.322875941172242, 2381689.712249862030149 ], [ 2960853.559851291123778, 2381656.672037253156304 ], [ 2960850.69464266858995, 2381629.82219530409202 ], [ 2960848.521203297656029, 2381609.455194680485874 ], [ 2960839.503858006559312, 2381579.860662219114602 ], [ 2960827.999501140322536, 2381542.103765601757914 ], [ 2960824.594073282089084, 2381505.51059775846079 ], [ 2960827.723930635489523, 2381490.684507301077247 ], [ 2960837.471399133093655, 2381476.646089129149914 ], [ 2960842.436275645159185, 2381462.095229284372181 ], [ 2960841.029262247495353, 2381448.781026253476739 ], [ 2960835.090867728926241, 2381412.123362591490149 ], [ 2960824.775238121859729, 2381348.019626149442047 ], [ 2960831.569811811670661, 2381320.279929606243968 ], [ 2960845.41585694020614, 2381305.26401599869132 ], [ 2960863.821221562102437, 2381295.263819743413478 ], [ 2960877.505385744851083, 2381292.47225136635825 ], [ 2960886.24065274791792, 2381290.690175647381693 ], [ 2960896.218301743734628, 2381291.091457720845938 ], [ 2960908.187896165065467, 2381289.385346002411097 ], [ 2960913.50645524635911, 2381277.970244830474257 ], [ 2960903.778016633354127, 2381249.564002425875515 ], [ 2960880.759873849339783, 2381222.389318237546831 ], [ 2960839.879475589841604, 2381195.260271101258695 ], [ 2960821.883414153940976, 2381179.883260710630566 ], [ 2960812.985545731615275, 2381155.600969219580293 ], [ 2960811.921624856069684, 2381152.697600628249347 ], [ 2960818.569632628001273, 2381134.31759797455743 ], [ 2960831.791606953367591, 2381115.339567966759205 ], [ 2960844.978585848584771, 2381084.905525546520948 ], [ 2960878.397826134227216, 2381020.779422079212964 ], [ 2960920.261390770319849, 2380962.352642936166376 ], [ 2960929.218466816935688, 2380950.321978888474405 ], [ 2960938.942005202174187, 2380937.262010754086077 ], [ 2960943.917554160580039, 2380916.960413236636668 ], [ 2960943.455789076164365, 2380912.462280039209872 ], [ 2960940.595158877316862, 2380884.594707059673965 ], [ 2960954.433900464791805, 2380871.523981177713722 ], [ 2960998.391092714853585, 2380814.458454138599336 ], [ 2961008.469233534764498, 2380784.612676537595689 ], [ 2961017.835157492663711, 2380750.11314461985603 ], [ 2961032.893248731270432, 2380730.316270188894123 ], [ 2961052.161619327962399, 2380712.909253921825439 ], [ 2961078.533582845702767, 2380678.248820983804762 ], [ 2961118.294132437556982, 2380628.145225119311363 ], [ 2961140.406002202071249, 2380615.929972275160253 ], [ 2961151.376292664092034, 2380590.339241818524897 ], [ 2961153.291155665181577, 2380585.872325051575899 ], [ 2961153.332791578490287, 2380583.335973038338125 ], [ 2961153.672307647764683, 2380562.675937790889293 ], [ 2961163.244305521249771, 2380547.05265797348693 ], [ 2961186.191932656802237, 2380501.235130231827497 ], [ 2961200.495077576488256, 2380470.443839808925986 ], [ 2961230.220385975670069, 2380435.612833810038865 ], [ 2961235.946737628430128, 2380417.756386733613908 ], [ 2961239.802698608487844, 2380405.732670425437391 ], [ 2961243.689156767446548, 2380376.553671992383897 ], [ 2961234.451687007211149, 2380343.377927725203335 ], [ 2961228.463801622856408, 2380326.210775249637663 ], [ 2961223.361646112985909, 2380311.582816126290709 ], [ 2961220.813448563218117, 2380284.010717137251049 ], [ 2961212.593437353149056, 2380264.786033052485436 ], [ 2961232.163273231592029, 2380242.296643250156194 ], [ 2961261.671796390321106, 2380208.385866716038436 ], [ 2961308.91518018161878, 2380146.366241876035929 ], [ 2961342.549590282607824, 2380074.702365615405142 ], [ 2961365.338401451241225, 2380022.29428109806031 ], [ 2961378.515824612695724, 2379991.989681509323418 ], [ 2961382.376147451810539, 2379921.72152495617047 ], [ 2961381.206236612517387, 2379867.545439591631293 ], [ 2961380.042888865806162, 2379813.666588717605919 ], [ 2961375.029735716059804, 2379716.0557920797728 ], [ 2961374.901462168432772, 2379713.557827723678201 ], [ 2961431.47341170348227, 2379625.304371881298721 ], [ 2961446.549491934943944, 2379606.911884260363877 ], [ 2961526.865255693905056, 2379508.929402536712587 ], [ 2961632.885402718558908, 2379384.723878703545779 ], [ 2961646.885408371221274, 2379368.32257078262046 ], [ 2961602.361393487080932, 2379329.042951724957675 ], [ 2961551.374157274141908, 2379289.147049162071198 ], [ 2961496.103921464178711, 2379233.684613979887217 ], [ 2961387.641723523847759, 2379097.652738954871893 ], [ 2961374.981855346355587, 2379081.774796650744975 ], [ 2961360.415154371410608, 2379063.505450513213873 ], [ 2961347.177993333898485, 2379017.03068541130051 ], [ 2961336.636789636686444, 2378980.02119898609817 ], [ 2961324.543914156965911, 2378929.715257650241256 ], [ 2961314.76385283190757, 2378884.035980829037726 ], [ 2961309.882657834328711, 2378828.838291195221245 ], [ 2961324.373325395397842, 2378795.721621692180634 ], [ 2961358.808732564561069, 2378717.023238657042384 ], [ 2961250.755190764553845, 2378525.782101644203067 ], [ 2961183.52939317561686, 2378407.321197168901563 ], [ 2961150.68293724488467, 2378349.441381487064064 ], [ 2961123.994187212083489, 2378272.969398265704513 ], [ 2961111.100278913974762, 2378236.024193281307817 ], [ 2961063.434413147158921, 2378182.82278074324131 ], [ 2961041.832864486146718, 2378158.712552446871996 ], [ 2960997.777167370542884, 2378025.406833035405725 ], [ 2960977.924420088529587, 2377966.260290149599314 ], [ 2960959.626545513514429, 2377911.745850000530481 ], [ 2954442.858160871546715, 2377911.745850000530481 ], [ 2954442.66900674905628, 2377912.369722630828619 ], [ 2954441.208088359795511, 2377917.188309399411082 ], [ 2954440.478243079967797, 2377919.597948850132525 ], [ 2954439.748037839308381, 2377922.006637039128691 ], [ 2954439.639033909887075, 2377922.366024622693658 ], [ 2954439.065652849152684, 2377924.429818207863718 ], [ 2954438.392776308581233, 2377926.854830402880907 ], [ 2954437.045354378409684, 2377931.705158159602433 ], [ 2954436.371578142046928, 2377934.130232298746705 ], [ 2954435.698898503556848, 2377936.555208943784237 ], [ 2954435.455305111128837, 2377937.43256358942017 ], [ 2954434.941003677435219, 2377938.955507628619671 ], [ 2954434.136352592147887, 2377941.341018467675894 ], [ 2954432.526445380412042, 2377946.113268623128533 ], [ 2954431.720796420238912, 2377948.498859262093902 ], [ 2954430.916260427795351, 2377950.884451088961214 ], [ 2954430.75887109991163, 2377951.35033613210544 ], [ 2954430.251093473285437, 2377953.311418337747455 ], [ 2954429.621423443779349, 2377955.748102174606174 ], [ 2954428.36139636579901, 2377960.620374773163348 ], [ 2954427.731595790013671, 2377963.056879146024585 ], [ 2954427.100862552411854, 2377965.493858034256846 ], [ 2954426.470865854993463, 2377967.930398151744157 ], [ 2954425.867119481787086, 2377970.372742875944823 ], [ 2954424.772008849307895, 2377975.284291666001081 ], [ 2954424.224772832356393, 2377977.739855617284775 ], [ 2954423.677766065113246, 2377980.195581313688308 ], [ 2954423.129564767703414, 2377982.65142241306603 ], [ 2954422.58227998111397, 2377985.106080337893218 ], [ 2954421.487170864827931, 2377990.017629459500313 ], [ 2954420.948642027564347, 2377992.475068588275462 ], [ 2954420.508158577606082, 2377994.950991170946509 ], [ 2954420.067724325694144, 2377997.426599844358861 ], [ 2954419.627224750816822, 2377999.902423780411482 ], [ 2954418.746553321368992, 2378004.854825627058744 ], [ 2954418.305088584776968, 2378007.330926736816764 ], [ 2954417.864556759595871, 2378009.80655337870121 ], [ 2954417.70384004060179, 2378010.712163273245096 ], [ 2954417.260141391307116, 2378012.246072043664753 ], [ 2954416.562017497606575, 2378014.663980978075415 ], [ 2954415.163969970308244, 2378019.500532675068825 ], [ 2954414.464897307101637, 2378021.918817492667586 ], [ 2954413.765906592831016, 2378024.3369858013466 ], [ 2954413.066834189929068, 2378026.755270673893392 ], [ 2954411.791169805452228, 2378028.973908878397197 ], [ 2954410.228716174140573, 2378020.187955877278 ], [ 2954405.681714782491326, 2377994.969552936963737 ], [ 2954398.916177466977388, 2377964.456041298806667 ], [ 2954388.515404801815748, 2377934.366111050359905 ], [ 2954379.136775732040405, 2377911.745850000530481 ], [ 2954288.379087685607374, 2377911.745850000530481 ], [ 2954290.14700918411836, 2377927.466842770110816 ], [ 2954292.010558856651187, 2377945.732039292808622 ], [ 2954290.80173038970679, 2377964.59744142415002 ], [ 2954287.696505572646856, 2377981.015391431748867 ], [ 2954278.892147693783045, 2378001.565422581508756 ], [ 2954272.290437635965645, 2378022.58140507619828 ], [ 2954271.652305367868394, 2378030.394811454694718 ], [ 2954270.823521948885173, 2378040.599303314462304 ], [ 2954268.562814986333251, 2378051.002244933042675 ], [ 2954266.921668144874275, 2378060.436341031454504 ], [ 2954264.685243302024901, 2378068.117186308838427 ], [ 2954262.371825485490263, 2378077.154088241513819 ], [ 2954260.275939270388335, 2378085.99255490116775 ], [ 2954258.936992180533707, 2378092.490877508185804 ], [ 2954257.280924128368497, 2378101.858754357788712 ], [ 2954255.231526071671396, 2378111.823230371344835 ], [ 2954251.561261084862053, 2378122.359968005679548 ], [ 2954244.658520863391459, 2378139.833925088867545 ], [ 2954239.88511901628226, 2378146.821030320599675 ], [ 2954233.023529032245278, 2378153.65162565652281 ], [ 2954227.76883180718869, 2378163.423431231640279 ], [ 2954223.034905285108835, 2378172.876636478118598 ], [ 2954218.19376754341647, 2378183.748225079383701 ], [ 2954213.350125117227435, 2378196.805401785299182 ], [ 2954208.921108519658446, 2378210.765127003658563 ], [ 2954201.864634711761028, 2378228.387108858209103 ], [ 2954194.19005845207721, 2378245.542070949450135 ], [ 2954187.207322267815471, 2378262.632847327273339 ], [ 2954183.270396714098752, 2378279.298643217422068 ], [ 2954180.56515085324645, 2378289.665962090715766 ], [ 2954177.664686872623861, 2378296.392904080450535 ], [ 2954173.439015877433121, 2378303.725016909651458 ], [ 2954172.291136058047414, 2378308.370031466241926 ], [ 2954167.928550470620394, 2378311.996779518667608 ], [ 2954164.940539799630642, 2378309.131630762480199 ], [ 2954162.707936331629753, 2378305.669674207922071 ], [ 2954161.333309932611883, 2378299.818810120690614 ], [ 2954160.084718113765121, 2378293.332575159147382 ], [ 2954159.049354927614331, 2378287.912874300964177 ], [ 2954158.1263497043401, 2378282.896121107507497 ], [ 2954154.582473979331553, 2378271.896238145884126 ], [ 2954151.905909577850252, 2378262.207119049970061 ], [ 2954146.541417653672397, 2378249.284368366003036 ], [ 2954141.414536083117127, 2378236.887301659677178 ], [ 2954138.661319118924439, 2378234.755861985031515 ], [ 2954135.072096040006727, 2378233.462806304451078 ], [ 2954123.269877513404936, 2378254.81929743476212 ], [ 2954110.684654135257006, 2378279.139152080286294 ], [ 2954096.035939859226346, 2378306.626355699729174 ], [ 2954087.514217905700207, 2378320.330182114616036 ], [ 2954081.441248754970729, 2378334.779364582151175 ], [ 2954070.80952806212008, 2378352.397637064103037 ], [ 2954068.09092369582504, 2378359.723235064651817 ], [ 2954063.307262203190476, 2378368.301266625989228 ], [ 2954059.273264381103218, 2378379.352807515766472 ], [ 2954056.262708039022982, 2378386.86291540786624 ], [ 2954055.772157330997288, 2378394.250367903150618 ], [ 2954056.415870431810617, 2378402.071249456144869 ], [ 2954057.694828688167036, 2378416.405829888768494 ], [ 2954057.973811202682555, 2378434.820207161363214 ], [ 2954057.288910526316613, 2378448.608051686547697 ], [ 2954054.018234768416733, 2378468.199535149149597 ], [ 2954051.075505215674639, 2378479.773358371574432 ], [ 2954047.254066507332027, 2378490.138434239663184 ], [ 2954042.995481484569609, 2378499.301157994195819 ], [ 2954038.477700437419116, 2378508.80623299209401 ], [ 2954035.456271408125758, 2378522.495210891589522 ], [ 2954031.604077958501875, 2378536.928494109306484 ], [ 2954032.889170934446156, 2378548.516926674172282 ], [ 2954033.46653448510915, 2378559.556000779382885 ], [ 2954035.056271905079484, 2378572.988826972432435 ], [ 2954035.843982170335948, 2378579.150191144086421 ], [ 2954032.257935020606965, 2378584.490265817847103 ], [ 2954031.780459686182439, 2378584.605793682858348 ], [ 2954027.154042286798358, 2378590.466858187690377 ], [ 2954023.458873800933361, 2378594.016182862222195 ], [ 2954019.828965235967189, 2378597.503424483351409 ], [ 2954010.753508945927024, 2378606.220434582792222 ], [ 2954001.678334556985646, 2378614.938514218665659 ], [ 2953998.048298532143235, 2378618.425577936228365 ], [ 2953994.797659934964031, 2378621.547942877747118 ], [ 2953989.456866214983165, 2378627.612219057045877 ], [ 2953981.134285910986364, 2378637.061028452124447 ], [ 2953977.805064989253879, 2378640.840749816503376 ], [ 2953969.483373472467065, 2378650.289400808978826 ], [ 2953965.399577313102782, 2378654.925760994665325 ], [ 2953961.197167440317571, 2378659.770241882186383 ], [ 2953957.896770780906081, 2378663.575534778181463 ], [ 2953949.645626045763493, 2378673.086610408034176 ], [ 2953941.394665042869747, 2378682.598773245699704 ], [ 2953938.093993584159762, 2378686.402999772224575 ], [ 2953935.985411654226482, 2378688.834411126561463 ], [ 2953929.659147434402257, 2378695.748689370695502 ], [ 2953921.160231458954513, 2378705.037393726874143 ], [ 2953917.760040923021734, 2378708.752643813379109 ], [ 2953909.262111918069422, 2378718.041171963326633 ], [ 2953900.763122842647135, 2378727.329996645450592 ], [ 2953897.363786748610437, 2378731.04489029571414 ], [ 2953888.864900944754481, 2378740.333699341863394 ], [ 2953880.914331484586, 2378745.845700789242983 ], [ 2953875.192023642361164, 2378748.802057138644159 ], [ 2953875.163643566891551, 2378748.549881164450198 ], [ 2953865.87431991705671, 2378737.329012922942638 ], [ 2953842.825615373905748, 2378718.163310253061354 ], [ 2953837.601345468312502, 2378711.125890494324267 ], [ 2953830.509048078209162, 2378706.921809040009975 ], [ 2953825.516740374267101, 2378705.036273289937526 ], [ 2953822.524894409812987, 2378709.782003758475184 ], [ 2953818.412732033059001, 2378716.631346691399813 ], [ 2953813.976453112903982, 2378722.30426375195384 ], [ 2953808.591465464327484, 2378727.580603051930666 ], [ 2953803.163262047339231, 2378733.105555481277406 ], [ 2953798.26758438674733, 2378737.03774283407256 ], [ 2953793.608277483843267, 2378741.311913686804473 ], [ 2953785.988335490692407, 2378746.274303554557264 ], [ 2953779.256354940123856, 2378749.284191119484603 ], [ 2953772.395756434649229, 2378751.160215279087424 ], [ 2953763.682378686498851, 2378752.386567695066333 ], [ 2953755.792734327726066, 2378753.618299199268222 ], [ 2953739.574226371943951, 2378753.953554533887655 ], [ 2953706.874512186273932, 2378753.318452754989266 ], [ 2953673.799166060984135, 2378756.125417711213231 ], [ 2953661.721897348761559, 2378757.689413275569677 ], [ 2953650.223121397197247, 2378759.734642546158284 ], [ 2953641.596106804907322, 2378761.620529576670378 ], [ 2953632.132175103295594, 2378763.318496016785502 ], [ 2953624.339210897218436, 2378764.267112801782787 ], [ 2953615.301542041357607, 2378764.957327158655971 ], [ 2953607.593930608592927, 2378765.791205423418432 ], [ 2953599.352738157380372, 2378766.586509162560105 ], [ 2953590.800914592109621, 2378766.645822692662477 ], [ 2953581.899279170203954, 2378766.960352207534015 ], [ 2953573.662271186709404, 2378766.618711116723716 ], [ 2953564.382755799684674, 2378766.730847444850951 ], [ 2953556.955072732642293, 2378766.119331043679267 ], [ 2953548.841037291567773, 2378765.81838608905673 ], [ 2953540.415494065731764, 2378766.103554506786168 ], [ 2953533.477240274194628, 2378767.142419042531401 ], [ 2953526.405307862441987, 2378768.866241658106446 ], [ 2953520.385919733904302, 2378770.391898936126381 ], [ 2953514.554068993311375, 2378772.055408415384591 ], [ 2953508.727498583961278, 2378774.254382598213851 ], [ 2953500.705806621816009, 2378777.502621307037771 ], [ 2953493.300083624199033, 2378779.835521204397082 ], [ 2953492.889825575053692, 2378779.964767147786915 ], [ 2953492.831263771280646, 2378781.08729734364897 ], [ 2953441.020626080222428, 2378893.36615402251482 ], [ 2953431.450652193278074, 2378906.827007631305605 ], [ 2953415.195850344374776, 2378929.025804477743804 ], [ 2953403.374698391184211, 2378952.344862350262702 ], [ 2953415.461414908058941, 2378956.985376870259643 ], [ 2953426.120410158764571, 2378962.772007832303643 ], [ 2953437.289630154147744, 2378971.66658047074452 ], [ 2953442.774460639804602, 2378978.409463024232537 ], [ 2953448.565509390085936, 2378982.594238312914968 ], [ 2953453.403346671722829, 2378982.415286176837981 ], [ 2953457.873215185012668, 2378979.255461300723255 ], [ 2953461.906565439887345, 2378975.291624395176768 ], [ 2953466.462751503102481, 2378968.118250939529389 ], [ 2953470.394867431372404, 2378961.180893062613904 ], [ 2953474.629215236753225, 2378956.44584970921278 ], [ 2953479.279016298241913, 2378954.225525119807571 ], [ 2953484.973647949285805, 2378952.164797085337341 ], [ 2953491.391829373314977, 2378948.230641348753124 ], [ 2953503.881269429344684, 2378945.996820032596588 ], [ 2953510.439103569835424, 2378948.074298927094787 ], [ 2953515.373179807793349, 2378951.136875910218805 ], [ 2953515.50375363510102, 2378951.509977657347918 ], [ 2953515.875950021669269, 2378953.986498364247382 ], [ 2953516.248179249931127, 2378956.463216480333358 ], [ 2953516.574407304637134, 2378958.945548167452216 ], [ 2953517.172991330735385, 2378963.920813898555934 ], [ 2953517.509529517032206, 2378966.402492363471538 ], [ 2953517.848702502436936, 2378968.883590441197157 ], [ 2953518.138570487964898, 2378971.00040777400136 ], [ 2953518.19414329295978, 2378971.364058026112616 ], [ 2953518.569155169650912, 2378973.839864114765078 ], [ 2953519.104434943757951, 2378977.371394384652376 ], [ 2953519.3312400104478, 2378978.789793223142624 ], [ 2953519.726904340088367, 2378981.261440086178482 ], [ 2953520.122830684296787, 2378983.734056098852307 ], [ 2953520.374425210058689, 2378985.306153061799705 ], [ 2953520.511900296900421, 2378986.20740970550105 ], [ 2953520.887927385047078, 2378988.683234921190888 ], [ 2953521.641078244894743, 2378993.634177837520838 ], [ 2953522.052551411557943, 2378996.102952391840518 ], [ 2953522.525866631418467, 2378998.55977821489796 ], [ 2953522.998478361405432, 2379001.017850311938673 ], [ 2953523.401049410924315, 2379003.487835859879851 ], [ 2953524.156934323254973, 2379008.438180804252625 ], [ 2953524.532078596297652, 2379010.914166797883809 ], [ 2953524.905259208753705, 2379013.39050964359194 ], [ 2953525.112129249144346, 2379014.768608600366861 ], [ 2953525.224796426482499, 2379015.874566388316453 ], [ 2953525.478498479351401, 2379018.367230608593673 ], [ 2953525.519657700322568, 2379018.773864004760981 ], [ 2953525.989405602216721, 2379023.165760219097137 ], [ 2953526.01012275647372, 2379023.350395016837865 ], [ 2953526.290597764775157, 2379025.839211289770901 ], [ 2953526.415588261093944, 2379026.949335308745503 ], [ 2953526.352929764427245, 2379028.339807147625834 ], [ 2953526.253568830434233, 2379030.553480280563235 ], [ 2953526.201143906917423, 2379030.844740818720311 ], [ 2953525.75982794445008, 2379033.320742432959378 ], [ 2953525.294630784541368, 2379035.93203769531101 ], [ 2953524.686443702317774, 2379038.231965570710599 ], [ 2953524.043476209975779, 2379040.664897296112031 ], [ 2953523.721828857436776, 2379041.881291235797107 ], [ 2953523.575779614038765, 2379043.13003505114466 ], [ 2953523.392298551741987, 2379044.702493819408119 ], [ 2953523.47744141286239, 2379045.62546059070155 ], [ 2953523.708135921508074, 2379048.120882486924529 ], [ 2953523.719012567773461, 2379048.243150002323091 ], [ 2953524.556983339600265, 2379051.600622703321278 ], [ 2953524.86138971708715, 2379052.986823908519 ], [ 2953525.534483378287405, 2379055.367494100704789 ], [ 2953526.952298597898334, 2379057.4114307500422 ], [ 2953528.020680580288172, 2379058.951325220521539 ], [ 2953528.479930255562067, 2379059.355803560465574 ], [ 2953530.341298448853195, 2379060.998672272078693 ], [ 2953531.701372283510864, 2379062.198238071519881 ], [ 2953533.999612390529364, 2379064.354577571153641 ], [ 2953535.788359683938324, 2379066.071849016472697 ], [ 2953537.291758330538869, 2379068.052448932081461 ], [ 2953538.794175167568028, 2379070.033227316569537 ], [ 2953540.301026691682637, 2379072.010861481539905 ], [ 2953543.76980375405401, 2379075.56622208468616 ], [ 2953545.503194159828126, 2379077.34428720921278 ], [ 2953547.237615576013923, 2379079.121860036626458 ], [ 2953548.217205699533224, 2379080.125908585265279 ], [ 2953548.827136171981692, 2379081.020419368520379 ], [ 2953550.228261110372841, 2379083.075930080842227 ], [ 2953553.02974212076515, 2379087.187803091481328 ], [ 2953554.430850895587355, 2379089.243215236347169 ], [ 2953555.831959741190076, 2379091.298627427779138 ], [ 2953557.233068656176329, 2379093.354039658792317 ], [ 2953558.626372095197439, 2379095.415445512160659 ], [ 2953561.360696349758655, 2379099.573683922644705 ], [ 2953562.728292189538479, 2379101.652063536457717 ], [ 2953564.095200888346881, 2379103.731788124423474 ], [ 2953565.462698681745678, 2379105.810185662936419 ], [ 2953566.829345601610839, 2379107.888941208366305 ], [ 2953567.819469001609832, 2379109.394253970123827 ], [ 2953569.240742182359099, 2379112.239455694332719 ], [ 2953570.355595438741148, 2379114.468584689311683 ], [ 2953571.469483269378543, 2379116.69799084123224 ], [ 2953571.921461152844131, 2379117.603105114772916 ], [ 2953572.227305939421058, 2379117.998652895912528 ], [ 2953575.004653825890273, 2379119.659112808294594 ], [ 2953575.576036581769586, 2379124.269136600662023 ], [ 2953571.932514566462487, 2379140.949702922254801 ], [ 2953571.02460362855345, 2379147.191850814037025 ], [ 2953572.562537118792534, 2379147.870969829149544 ], [ 2953572.813225652556866, 2379149.708293716423213 ], [ 2953577.727633196860552, 2379150.22623174963519 ], [ 2953581.973494807258248, 2379150.468820111360401 ], [ 2953585.877685354091227, 2379151.414436338003725 ], [ 2953587.952162138186395, 2379152.701772917062044 ], [ 2953592.194282586686313, 2379155.861216057557613 ], [ 2953596.722373810596764, 2379160.846895736642182 ], [ 2953601.046798841096461, 2379164.251869806088507 ], [ 2953604.312749299220741, 2379169.636172091122717 ], [ 2953609.822857982944697, 2379174.326594227459282 ], [ 2953613.438415353186429, 2379177.65702865505591 ], [ 2953616.763585682958364, 2379182.215461973100901 ], [ 2953615.971263753250241, 2379185.636949536856264 ], [ 2953611.032945558428764, 2379193.060834326315671 ], [ 2953610.603632666636258, 2379201.782441001851112 ], [ 2953603.740954360924661, 2379212.610137618146837 ], [ 2953594.181339428760111, 2379218.690418697427958 ], [ 2953580.772975586354733, 2379225.814608280081302 ], [ 2953568.933473262004554, 2379227.937745733186603 ], [ 2953542.679549903143197, 2379229.08116252347827 ], [ 2953541.396842185407877, 2379231.183693821541965 ], [ 2953551.140857718419284, 2379237.379305058158934 ], [ 2953571.175659324973822, 2379251.990844472311437 ], [ 2953591.042413903400302, 2379269.359178863465786 ], [ 2953613.510688162408769, 2379291.372204071842134 ], [ 2953630.251735209487379, 2379304.357660297304392 ], [ 2953639.888451215811074, 2379312.853711800649762 ], [ 2953659.193105198442936, 2379324.782031023409218 ], [ 2953678.577797116711736, 2379339.747419854160398 ], [ 2953698.160158927086741, 2379356.274991356767714 ], [ 2953718.374241517391056, 2379376.970140103250742 ], [ 2953735.531404898501933, 2379398.094267619308084 ], [ 2953747.970670962706208, 2379417.422403374221176 ], [ 2953762.673640413209796, 2379449.499343077186495 ], [ 2953774.988878924399614, 2379482.764865394681692 ], [ 2953780.154698397032917, 2379494.517941394355148 ], [ 2953794.879070452414453, 2379538.676662251353264 ], [ 2953801.988828707486391, 2379574.513498107437044 ], [ 2953805.459220607299358, 2379599.300430149771273 ], [ 2953808.587116475682706, 2379615.408372213598341 ], [ 2953812.024177869781852, 2379627.951814653817564 ], [ 2953814.726280687376857, 2379640.709733200259507 ], [ 2953815.069799914956093, 2379649.688071179203689 ], [ 2953813.508875835221261, 2379659.599611840210855 ], [ 2953811.44804508658126, 2379676.906374644953758 ], [ 2953810.876069754362106, 2379681.725996546447277 ], [ 2953810.649170397780836, 2379685.033976416569203 ], [ 2953810.775951090734452, 2379689.227012299001217 ], [ 2953811.100318145938218, 2379692.163155959919095 ], [ 2953811.463843512814492, 2379694.719553143251687 ], [ 2953811.868179239332676, 2379697.235389668494463 ], [ 2953812.490805472247303, 2379699.739725807216018 ], [ 2953812.923180716112256, 2379701.627720700576901 ], [ 2953813.905516376718879, 2379704.04992093378678 ], [ 2953815.366443417966366, 2379706.294467919506133 ], [ 2953816.930713661015034, 2379708.352273568976671 ], [ 2953819.772446928080171, 2379711.643272506073117 ], [ 2953833.069427818991244, 2379722.223737075459212 ], [ 2953852.508816576562822, 2379739.699748180806637 ], [ 2953872.856750836595893, 2379766.208327495492995 ], [ 2953887.649346761405468, 2379793.048473181203008 ], [ 2953889.039940807968378, 2379796.835269754752517 ], [ 2953890.128669169731438, 2379801.321115896105766 ], [ 2953891.258274835534394, 2379805.266869812272489 ], [ 2953891.640401723328978, 2379808.409084325656295 ], [ 2953890.882669459097087, 2379813.495394161902368 ], [ 2953888.370652328245342, 2379819.784099617041647 ], [ 2953883.420368880033493, 2379827.162888148799539 ], [ 2953872.588588373735547, 2379841.003192646428943 ], [ 2953865.760542607866228, 2379849.811281196307391 ], [ 2953860.589081830345094, 2379857.391413972247392 ], [ 2953858.471022600308061, 2379862.474072435405105 ], [ 2953857.299823597073555, 2379868.76642205985263 ], [ 2953858.256918131373823, 2379873.251989712938666 ], [ 2953862.345500221475959, 2379877.884237869642675 ], [ 2953874.129880588501692, 2379883.079727256670594 ], [ 2953890.051998387090862, 2379890.79736240953207 ], [ 2953905.075434635858983, 2379898.789422281552106 ], [ 2953918.768428438343108, 2379907.342075453139842 ], [ 2953929.288751013576984, 2379919.679705482441932 ], [ 2953943.904125653207302, 2379940.469699743203819 ], [ 2953951.819943951442838, 2379951.949165696278214 ], [ 2953962.643880147486925, 2379977.149919375777245 ], [ 2953968.983210046775639, 2379996.639742282684892 ], [ 2953971.23572944290936, 2380008.121336663607508 ], [ 2953973.153777503874153, 2380024.988226570188999 ], [ 2953974.046319703571498, 2380039.680601784028113 ], [ 2953973.277796033769846, 2380052.254260750487447 ], [ 2953972.835070563480258, 2380057.461980398744345 ], [ 2953973.03189014736563, 2380061.064999593421817 ], [ 2953973.469386247452348, 2380064.150694284588099 ], [ 2953974.457451798953116, 2380067.610249298159033 ], [ 2953976.27231551008299, 2380070.676677988376468 ], [ 2953978.619477707892656, 2380074.20315056713298 ], [ 2953985.09524802537635, 2380077.750138725154102 ], [ 2953986.151078520342708, 2380074.952105803880841 ], [ 2953994.21751742484048, 2380076.675720960833132 ], [ 2954010.077226564288139, 2380077.414399403147399 ], [ 2954024.505637775175273, 2380079.868294610641897 ], [ 2954031.486952395644039, 2380080.573680255562067 ], [ 2954051.082969825714827, 2380085.479435287881643 ], [ 2954068.272801955230534, 2380091.647881565149873 ], [ 2954087.515522642992437, 2380101.277932141907513 ], [ 2954105.434220456518233, 2380112.488207437098026 ], [ 2954123.394577420316637, 2380120.800655865576118 ], [ 2954138.826380201615393, 2380125.892479629255831 ], [ 2954155.988902674987912, 2380128.60221594478935 ], [ 2954177.220434064045548, 2380128.402826798148453 ], [ 2954204.168664120603353, 2380127.870663748122752 ], [ 2954233.790525234304368, 2380129.233203265815973 ], [ 2954246.427286744117737, 2380131.266716649755836 ], [ 2954252.917768634855747, 2380132.758079511579126 ], [ 2954264.77373383147642, 2380137.66044014506042 ], [ 2954272.47893694229424, 2380142.74109637318179 ], [ 2954286.266591999679804, 2380145.62707806751132 ], [ 2954302.595709126442671, 2380147.449288567528129 ], [ 2954319.349945147987455, 2380148.790416941046715 ], [ 2954335.373806933872402, 2380151.036970770917833 ], [ 2954352.822496194392443, 2380157.135701777879149 ], [ 2954374.909910354763269, 2380167.801850530318916 ], [ 2954402.509531714953482, 2380184.966000820510089 ], [ 2954417.103357055224478, 2380194.498531028628349 ], [ 2954456.828001488931477, 2380218.377350802067667 ], [ 2954480.230575307738036, 2380229.372741830069572 ], [ 2954493.011152304708958, 2380240.349082383792847 ], [ 2954501.3490842981264, 2380253.296972878742963 ], [ 2954501.416374765336514, 2380253.435528244823217 ], [ 2954501.718189120292664, 2380254.032315198797733 ], [ 2954502.010774864349514, 2380254.64175961073488 ], [ 2954502.303818623535335, 2380255.249087340198457 ], [ 2954502.586700162384659, 2380255.861006633378565 ], [ 2954502.871399013791233, 2380256.480831269640476 ], [ 2954503.143643159419298, 2380257.091429729945958 ], [ 2954503.416820499114692, 2380257.705823903903365 ], [ 2954503.682110933586955, 2380258.330598295666277 ], [ 2954503.940640616696328, 2380258.935351345222443 ], [ 2954504.210808951407671, 2380259.571236913558096 ], [ 2954504.45654359459877, 2380260.200072774663568 ], [ 2954504.705369079019874, 2380260.807300706394017 ], [ 2954504.955163490027189, 2380261.448413132689893 ], [ 2954505.190735924988985, 2380262.081840552389622 ], [ 2954505.422575987875462, 2380262.703745319508016 ], [ 2954505.657886497676373, 2380263.336203604005277 ], [ 2954505.888125126250088, 2380263.981377502903342 ], [ 2954506.104289150796831, 2380264.619754678104073 ], [ 2954506.32261424139142, 2380265.266889799851924 ], [ 2954506.528910314664245, 2380265.906754873692989 ], [ 2954506.731654138304293, 2380266.536182976327837 ], [ 2954506.938228534534574, 2380267.177115886006504 ], [ 2954507.139731964096427, 2380267.839914835523814 ], [ 2954507.325670494232327, 2380268.485105460509658 ], [ 2954507.511428906116635, 2380269.129210399463773 ], [ 2954507.698316583409905, 2380269.774025229271501 ], [ 2954507.87836510874331, 2380270.433096843771636 ], [ 2954508.047318228986114, 2380271.092964304611087 ], [ 2954508.211261608637869, 2380271.732390603981912 ], [ 2954508.380460305139422, 2380272.393128519877791 ], [ 2954508.534961421042681, 2380273.035998836159706 ], [ 2954508.69421035097912, 2380273.698341182433069 ], [ 2954508.844278946053237, 2380274.365096679888666 ], [ 2954508.980829137377441, 2380275.022920939605683 ], [ 2954509.118082907050848, 2380275.679498963057995 ], [ 2954509.255696809850633, 2380276.337028287351131 ], [ 2954509.38512955326587, 2380277.008041496388614 ], [ 2954509.512941064313054, 2380277.668063534423709 ], [ 2954509.632669606246054, 2380278.341551614925265 ], [ 2954509.742546563968062, 2380279.016626291442662 ], [ 2954509.848739418201149, 2380279.671934017911553 ], [ 2954509.956438953056931, 2380280.338152045384049 ], [ 2954510.054024968296289, 2380281.004987525288016 ], [ 2954510.154181364923716, 2380281.682438383810222 ], [ 2954510.243226409424096, 2380282.364856591448188 ], [ 2954510.320061088073999, 2380283.026718493551016 ], [ 2954510.40820485400036, 2380283.696997996419668 ], [ 2954510.477464071009308, 2380284.374165527522564 ], [ 2954510.552695129998028, 2380285.03733553737402 ], [ 2954510.612021874636412, 2380285.725356618873775 ], [ 2954510.669529973063618, 2380286.392051745206118 ], [ 2954510.728135869838297, 2380287.072069942951202 ], [ 2954510.773910560179502, 2380287.741811975371093 ], [ 2954510.822370195761323, 2380288.422250238247216 ], [ 2954510.859226499218494, 2380289.097374561242759 ], [ 2954510.895149622112513, 2380289.768703182693571 ], [ 2954510.924200851004571, 2380290.454091199673712 ], [ 2954510.951467525213957, 2380291.131771261803806 ], [ 2954510.967540608718991, 2380291.810265014879405 ], [ 2954510.984349164180458, 2380292.479169533122331 ], [ 2954510.998964770231396, 2380293.147659100592136 ], [ 2954511.005285393912345, 2380293.836872030515224 ], [ 2954511.002457580063492, 2380294.522155118174851 ], [ 2954510.997239522170275, 2380295.197908514179289 ], [ 2954510.981285759247839, 2380295.871138861402869 ], [ 2954510.968572407029569, 2380296.545610589440912 ], [ 2954510.953993909992278, 2380297.224691462237388 ], [ 2954510.928337306249887, 2380297.913817313499749 ], [ 2954510.893221138976514, 2380298.597138052806258 ], [ 2954510.856580699793994, 2380299.257249222137034 ], [ 2954510.821546057239175, 2380299.937403286341578 ], [ 2954510.774581011850387, 2380300.614539657253772 ], [ 2954510.726633662823588, 2380301.287584229838103 ], [ 2954510.669408654794097, 2380301.973600193392485 ], [ 2954510.60363923991099, 2380302.641037289518863 ], [ 2954510.546118641272187, 2380303.316736300010234 ], [ 2954510.469075487460941, 2380304.001574388705194 ], [ 2954510.400965339038521, 2380304.663438063580543 ], [ 2954510.321025248616934, 2380305.344837250187993 ], [ 2954510.231805290561169, 2380306.017246812582016 ], [ 2954510.142863653600216, 2380306.690724213141948 ], [ 2954510.044103250838816, 2380307.366595635656267 ], [ 2954509.946896879933774, 2380308.035982635337859 ], [ 2954509.84483022429049, 2380308.706557718105614 ], [ 2954509.733893443830311, 2380309.374270803295076 ], [ 2954509.623218610417098, 2380310.042953031137586 ], [ 2954509.50002621114254, 2380310.728245507925749 ], [ 2954509.369073561392725, 2380311.381395780015737 ], [ 2954509.250248138792813, 2380312.04179826984182 ], [ 2954509.114093981217593, 2380312.720295194070786 ], [ 2954508.971817989833653, 2380313.385670139454305 ], [ 2954508.827480481937528, 2380314.055689917877316 ], [ 2954508.518820995464921, 2380315.36794344522059 ], [ 2954508.364434200339019, 2380316.026164880953729 ], [ 2954508.037118610460311, 2380317.338147819042206 ], [ 2954507.974382009357214, 2380317.569059019442648 ], [ 2954498.425129166338593, 2380340.254656880628318 ], [ 2954488.763675898313522, 2380366.331522942520678 ], [ 2954483.769568053074181, 2380383.387067387346178 ], [ 2954479.078339134342968, 2380394.738919488154352 ], [ 2954456.418794061988592, 2380428.844307800754905 ], [ 2954426.118790947832167, 2380476.40594813413918 ], [ 2954412.019819871056825, 2380506.865279835648835 ], [ 2954405.256828051991761, 2380523.722896885126829 ], [ 2954403.201670235488564, 2380532.647242641076446 ], [ 2954403.528018064331263, 2380540.239991462789476 ], [ 2954405.484624115750194, 2380545.918808239512146 ], [ 2954413.140106055419892, 2380551.604943130631 ], [ 2954420.973012869246304, 2380556.155990636441857 ], [ 2954428.737779513001442, 2380559.957377451471984 ], [ 2954439.54670500382781, 2380564.619637683965266 ], [ 2954450.911459648516029, 2380567.953610239550471 ], [ 2954460.234834732953459, 2380571.013776053208858 ], [ 2954470.660499204881489, 2380574.457882247399539 ], [ 2954481.061466657556593, 2380577.556212720926851 ], [ 2954486.24630565661937, 2380580.032534512225538 ], [ 2954487.82666311878711, 2380580.091188509948552 ], [ 2954487.85497816093266, 2380580.125289860647172 ], [ 2954490.872998543083668, 2380580.00925707956776 ], [ 2954490.557044240180403, 2380581.759729432407767 ], [ 2954490.573810625821352, 2380599.339174618013203 ], [ 2954491.671489861793816, 2380638.309846639167517 ], [ 2954493.325761612504721, 2380681.797004748135805 ], [ 2954492.87605320289731, 2380696.43978413194418 ], [ 2954493.502854134887457, 2380704.097925584297627 ], [ 2954492.450811669230461, 2380712.424887188710272 ], [ 2954486.83649090025574, 2380717.40921415342018 ], [ 2954478.895681933499873, 2380721.532211034558713 ], [ 2954466.751994784921408, 2380727.375079240649939 ], [ 2954449.809752320870757, 2380738.142520463559777 ], [ 2954438.034337447024882, 2380747.163294479250908 ], [ 2954427.342296778224409, 2380755.813876999542117 ], [ 2954419.330880550667644, 2380766.178745754994452 ], [ 2954406.985188418533653, 2380777.843968162313104 ], [ 2954398.922256643883884, 2380789.18338980153203 ], [ 2954384.31813115440309, 2380804.411150685977191 ], [ 2954362.058195288758725, 2380825.053873820230365 ], [ 2954354.381642878055573, 2380832.986582231707871 ], [ 2954350.362422659061849, 2380839.84960437938571 ], [ 2954349.128149767406285, 2380845.040724749211222 ], [ 2954350.355920814909041, 2380849.685067700687796 ], [ 2954350.379807350225747, 2380849.775995850563049 ], [ 2954357.610104991588742, 2380849.258799735922366 ], [ 2954363.678454370237887, 2380848.835697994567454 ], [ 2954369.971751536242664, 2380848.365014744456857 ], [ 2954375.6339595252648, 2380847.963651167694479 ], [ 2954380.80256135109812, 2380847.348274448886514 ], [ 2954386.737931964918971, 2380846.928392151370645 ], [ 2954392.245815378148109, 2380846.483898737933487 ], [ 2954398.34749286994338, 2380845.814795795828104 ], [ 2954403.656408928800374, 2380845.782952263019979 ], [ 2954408.92395905405283, 2380845.493257002905011 ], [ 2954414.220004780218005, 2380845.237529166042805 ], [ 2954418.973573202267289, 2380845.462049312423915 ], [ 2954424.62811737600714, 2380845.713099903427064 ], [ 2954430.301261249464005, 2380846.042110571172088 ], [ 2954435.419849497266114, 2380846.843802992254496 ], [ 2954441.150996048469096, 2380848.397204105742276 ], [ 2954446.023030464537442, 2380848.901054530404508 ], [ 2954451.414152314886451, 2380849.467676671221852 ], [ 2954456.649641654454172, 2380850.755685822106898 ], [ 2954463.022278712131083, 2380851.555651454720646 ], [ 2954468.363830831833184, 2380851.959453340619802 ], [ 2954473.568917124066502, 2380852.522259773686528 ], [ 2954479.299934285692871, 2380852.578239250462502 ], [ 2954484.833952232263982, 2380852.798426393419504 ], [ 2954489.917408985085785, 2380853.154872942715883 ], [ 2954495.738637748640031, 2380853.714320758823305 ], [ 2954500.936379953753203, 2380854.588873852044344 ], [ 2954505.870095852762461, 2380854.921895181760192 ], [ 2954511.072843560017645, 2380855.175534028094262 ], [ 2954516.735791976097971, 2380854.990717809647322 ], [ 2954522.130742664448917, 2380854.162401084322482 ], [ 2954527.927833454683423, 2380853.509509873576462 ], [ 2954532.893633883446455, 2380853.162913179956377 ], [ 2954537.590358661487699, 2380852.937495596706867 ], [ 2954543.407603385858238, 2380852.795616220682859 ], [ 2954548.505724960938096, 2380852.828318704850972 ], [ 2954553.711348602548242, 2380853.308374800719321 ], [ 2954559.667807061225176, 2380852.676554945763201 ], [ 2954565.120276236906648, 2380852.814265612512827 ], [ 2954570.131969737820327, 2380853.38558080419898 ], [ 2954575.987258028239012, 2380853.915565984789282 ], [ 2954581.397684331517667, 2380854.477168921381235 ], [ 2954586.354627219960093, 2380854.948930826503783 ], [ 2954592.287194691598415, 2380855.200932239182293 ], [ 2954597.553465376608074, 2380855.6343879471533 ], [ 2954602.649994145613164, 2380856.772475619800389 ], [ 2954608.096542738843709, 2380857.954742753878236 ], [ 2954612.874894872307777, 2380859.308845011517406 ], [ 2954618.324075544252992, 2380860.459421175532043 ], [ 2954623.754865512251854, 2380860.891965019516647 ], [ 2954628.721094723790884, 2380861.402611440047622 ], [ 2954634.428406908642501, 2380862.001480004750192 ], [ 2954639.723683388903737, 2380862.468915878795087 ], [ 2954645.089116302318871, 2380863.228118089959025 ], [ 2954650.927666855975986, 2380864.030892737675458 ], [ 2954656.609697170555592, 2380864.780970481690019 ], [ 2954661.807047188282013, 2380865.996318917255849 ], [ 2954667.379864807240665, 2380867.105017008725554 ], [ 2954672.48741025198251, 2380867.775444645434618 ], [ 2954677.913423852063715, 2380867.589669600129128 ], [ 2954683.649431747850031, 2380866.725228606723249 ], [ 2954689.32665141671896, 2380866.258134116884321 ], [ 2954695.351840381510556, 2380865.185186334419996 ], [ 2954700.868372518569231, 2380864.263525168411434 ], [ 2954706.238345847465098, 2380863.544896276667714 ], [ 2954711.653077431023121, 2380862.37056874204427 ], [ 2954716.214717306662351, 2380861.198626040481031 ], [ 2954721.37425685627386, 2380860.203552233055234 ], [ 2954726.407160492613912, 2380859.323705083690584 ], [ 2954731.229469766840339, 2380859.107108362950385 ], [ 2954736.847291913814843, 2380860.018219125457108 ], [ 2954742.387419885024428, 2380861.29015347128734 ], [ 2954747.701483748853207, 2380863.332669368945062 ], [ 2954752.795342851430178, 2380865.400756500661373 ], [ 2954757.210637621581554, 2380867.725729515776038 ], [ 2954761.752552918158472, 2380869.636050937697291 ], [ 2954766.180829369463027, 2380871.844181648921221 ], [ 2954771.230982473585755, 2380873.345247187186033 ], [ 2954776.411000514868647, 2380874.017768630292267 ], [ 2954781.159136697649956, 2380873.407144905999303 ], [ 2954786.212793553248048, 2380872.356686505489051 ], [ 2954791.528925612568855, 2380870.81544696027413 ], [ 2954795.967923446558416, 2380868.662885386496782 ], [ 2954799.185177535749972, 2380864.294470599386841 ], [ 2954803.004965651780367, 2380860.122316610068083 ], [ 2954807.220242637675256, 2380857.252935076132417 ], [ 2954812.634546965360641, 2380855.820546786766499 ], [ 2954817.916791284456849, 2380856.704383284784853 ], [ 2954822.790483381599188, 2380857.899652835913002 ], [ 2954828.200688282493502, 2380859.401090296916664 ], [ 2954833.398472401313484, 2380860.575097207911313 ], [ 2954838.654028730932623, 2380861.476087084971368 ], [ 2954844.147355548106134, 2380863.152350381016731 ], [ 2954849.823861403390765, 2380864.265308980830014 ], [ 2954855.361383192241192, 2380865.86837110389024 ], [ 2954860.726186694577336, 2380867.908186655957252 ], [ 2954865.713876160793006, 2380869.363164264243096 ], [ 2954871.146446918137372, 2380870.786625870503485 ], [ 2954876.651723525486887, 2380872.47027875110507 ], [ 2954882.148105614818633, 2380874.073497617617249 ], [ 2954888.32872171048075, 2380875.314994583372027 ], [ 2954893.50881377980113, 2380876.586574818007648 ], [ 2954898.830121376551688, 2380878.017951530404389 ], [ 2954905.10230570519343, 2380879.298022693023086 ], [ 2954910.372221038676798, 2380880.515360870864242 ], [ 2954915.835150070488453, 2380881.765753381419927 ], [ 2954920.73127730563283, 2380882.583508766721934 ], [ 2954925.875025981105864, 2380884.77299543004483 ], [ 2954930.323463993147016, 2380887.192821233533323 ], [ 2954935.509564955253154, 2380888.916981349699199 ], [ 2954940.056528705172241, 2380891.404516639187932 ], [ 2954945.435982956085354, 2380893.120492129586637 ], [ 2954950.852509784512222, 2380894.733752841129899 ], [ 2954956.945781243499368, 2380896.638177495915443 ], [ 2954962.053784342017025, 2380898.764617333188653 ], [ 2954967.51959212590009, 2380901.780155525542796 ], [ 2954972.952235069125891, 2380904.10200220067054 ], [ 2954978.338359674904495, 2380906.187979394104332 ], [ 2954983.965439453721046, 2380908.077771056443453 ], [ 2954990.110332161188126, 2380909.555654132738709 ], [ 2954995.207956010941416, 2380910.869069140404463 ], [ 2955000.624923976138234, 2380912.441076981835067 ], [ 2955006.361735531128943, 2380913.290741965174675 ], [ 2955011.354746596422046, 2380914.981970880646259 ], [ 2955016.320149017497897, 2380916.814662204124033 ], [ 2955022.125794144812971, 2380917.821922975126654 ], [ 2955027.351977614685893, 2380919.071314664557576 ], [ 2955033.127542141824961, 2380920.509952369146049 ], [ 2955039.154636302031577, 2380921.925260580144823 ], [ 2955044.594954405445606, 2380923.894031222444028 ], [ 2955049.521880988497287, 2380925.994712089188397 ], [ 2955055.27881431998685, 2380928.253786064684391 ], [ 2955060.339353838469833, 2380929.969150071963668 ], [ 2955065.361190569587052, 2380932.293148726224899 ], [ 2955070.633184875827283, 2380933.861305635422468 ], [ 2955076.189323565922678, 2380934.943083197809756 ], [ 2955081.113654749467969, 2380936.177064539864659 ], [ 2955086.62732835765928, 2380937.424762384966016 ], [ 2955092.362549452111125, 2380938.18189760716632 ], [ 2955097.627440495882183, 2380939.42131526209414 ], [ 2955102.691890421323478, 2380940.040948352776468 ], [ 2955107.738289011176676, 2380940.499963681679219 ], [ 2955112.571378202177584, 2380941.654036578722298 ], [ 2955117.957370779942721, 2380943.481902688741684 ], [ 2955124.317974073812366, 2380945.172863110899925 ], [ 2955129.751630771439523, 2380946.771642464678735 ], [ 2955135.326535816304386, 2380948.82974339928478 ], [ 2955140.104293775744736, 2380950.565988630056381 ], [ 2955145.765000327955931, 2380953.366173828020692 ], [ 2955150.76176746468991, 2380955.500640327576548 ], [ 2955156.76085742842406, 2380957.39820379531011 ], [ 2955162.448403030633926, 2380959.582253084983677 ], [ 2955167.430187570396811, 2380962.081807855982333 ], [ 2955172.703818366397172, 2380964.640690041705966 ], [ 2955177.801164349541068, 2380966.594309959560633 ], [ 2955182.637002279981971, 2380969.214022999163717 ], [ 2955187.323195172008127, 2380971.810290379915386 ], [ 2955192.238845825195312, 2380974.120345594827086 ], [ 2955197.25839958479628, 2380976.434807539917529 ], [ 2955202.146327294409275, 2380978.886244642548263 ], [ 2955206.762042479589581, 2380981.232085140421987 ], [ 2955212.109481706283987, 2380983.62739000748843 ], [ 2955216.98341160081327, 2380986.319999533239752 ], [ 2955221.436468633823097, 2380988.459713398478925 ], [ 2955226.491095066070557, 2380990.321052424609661 ], [ 2955231.336171548813581, 2380992.081373086664826 ], [ 2955236.894536081701517, 2380994.412229864858091 ], [ 2955242.117069127969444, 2380996.416215592529625 ], [ 2955246.854999554343522, 2380998.286696590483189 ], [ 2955252.502072010654956, 2381000.68765796488151 ], [ 2955257.882178548723459, 2381002.620213091373444 ], [ 2955263.00252260453999, 2381004.413085667416453 ], [ 2955268.109999949112535, 2381006.622209562920034 ], [ 2955272.691600934136659, 2381009.297067333012819 ], [ 2955277.301330184563994, 2381012.088416879996657 ], [ 2955281.807917092461139, 2381014.792764900252223 ], [ 2955286.442432804964483, 2381017.515862793661654 ], [ 2955291.184692836366594, 2381019.746502495370805 ], [ 2955295.678169071208686, 2381021.968860582448542 ], [ 2955300.823963047005236, 2381024.209560724906623 ], [ 2955305.871488529723138, 2381026.940083357971162 ], [ 2955310.742487993091345, 2381028.807237660046667 ], [ 2955315.274216352030635, 2381028.964875745587051 ], [ 2955320.575115399435163, 2381027.830303707160056 ], [ 2955325.449391632340848, 2381026.54711739718914 ], [ 2955330.498714565299451, 2381023.639006077777594 ], [ 2955334.944303961470723, 2381019.760500688571483 ], [ 2955338.954652715474367, 2381016.55138551723212 ], [ 2955342.652210077736527, 2381013.453594488557428 ], [ 2955347.273605935275555, 2381009.664142335299402 ], [ 2955351.431793127208948, 2381005.787219525780529 ], [ 2955356.1366499341093, 2381002.730008148122579 ], [ 2955361.211889915168285, 2381000.486509329639375 ], [ 2955366.251013030298054, 2380999.161076248623431 ], [ 2955371.505398906301707, 2380998.089965697843581 ], [ 2955376.571180689148605, 2380996.447857604362071 ], [ 2955381.789771403651685, 2380994.714747509919107 ], [ 2955386.539759884122759, 2380992.658043554052711 ], [ 2955390.805552168749273, 2380989.228460579179227 ], [ 2955394.423708429560065, 2380986.099549679085612 ], [ 2955398.16163854720071, 2380982.784778113476932 ], [ 2955403.072950132191181, 2380980.201278924010694 ], [ 2955408.108269672840834, 2380977.23492010962218 ], [ 2955412.694635146297514, 2380974.497450363822281 ], [ 2955417.355904437601566, 2380972.370546939782798 ], [ 2955422.35129206487909, 2380969.83776159118861 ], [ 2955427.19253027997911, 2380967.860972509719431 ], [ 2955432.484694192651659, 2380965.40685402136296 ], [ 2955436.931734180543572, 2380962.56059125252068 ], [ 2955441.462044965475798, 2380959.290168195031583 ], [ 2955446.542594449594617, 2380956.084899543318897 ], [ 2955451.491746634244919, 2380953.016767255961895 ], [ 2955455.461177743971348, 2380949.467068769503385 ], [ 2955460.015145021490753, 2380946.25264246435836 ], [ 2955464.481892849784344, 2380941.862651779316366 ], [ 2955468.457608925178647, 2380937.52658830396831 ], [ 2955472.104080705903471, 2380933.873903853818774 ], [ 2955476.001082558184862, 2380930.322318417020142 ], [ 2955480.109138391911983, 2380926.065717400982976 ], [ 2955484.469643460586667, 2380922.260742161888629 ], [ 2955488.605711673386395, 2380918.719816530589014 ], [ 2955492.529503049328923, 2380915.450390260200948 ], [ 2955496.629938843660057, 2380911.846495966892689 ], [ 2955501.645391846541315, 2380909.525419263634831 ], [ 2955506.722865564282984, 2380907.63240681681782 ], [ 2955511.128857530653477, 2380904.486860685050488 ], [ 2955515.891220832243562, 2380901.198181998450309 ], [ 2955521.650854363106191, 2380898.89248905563727 ], [ 2955527.082018068060279, 2380897.487005271017551 ], [ 2955532.891293354332447, 2380898.039182311855257 ], [ 2955538.174637868069112, 2380900.29619462788105 ], [ 2955543.078491060994565, 2380902.258260920643806 ], [ 2955547.979241661727428, 2380905.532479248940945 ], [ 2955552.806026608683169, 2380908.071920343674719 ], [ 2955558.559355334378779, 2380909.289142958819866 ], [ 2955563.874194003641605, 2380909.410783484112471 ], [ 2955569.177476938813925, 2380908.884830327704549 ], [ 2955574.698539793491364, 2380909.521500652190298 ], [ 2955579.893034461420029, 2380911.408807706553489 ], [ 2955585.425849278457463, 2380912.992364435456693 ], [ 2955590.864078409969807, 2380914.311266298405826 ], [ 2955595.835901047103107, 2380915.65694723976776 ], [ 2955600.834836436901242, 2380915.704721383284777 ], [ 2955606.616318859159946, 2380914.901157767977566 ], [ 2955611.82766995113343, 2380913.479695793241262 ], [ 2955613.278050014283508, 2380913.096840029582381 ], [ 2955617.472087081521749, 2380911.978034051600844 ], [ 2955622.72949334140867, 2380909.636195340659469 ], [ 2955628.005856561940163, 2380907.031239283736795 ], [ 2955632.800097175873816, 2380905.500205365009606 ], [ 2955638.108558897860348, 2380903.413647543638945 ], [ 2955643.448105028830469, 2380901.071224843151867 ], [ 2955649.387495418079197, 2380898.956978483125567 ], [ 2955654.539742924273014, 2380896.776285411324352 ], [ 2955659.920268186368048, 2380894.733270470052958 ], [ 2955665.686388444621116, 2380893.437761620618403 ], [ 2955670.99457695428282, 2380891.99149492289871 ], [ 2955673.64507915917784, 2380891.346387856639922 ], [ 2955675.071246683597565, 2380894.178576924372464 ], [ 2955675.389646909199655, 2380894.942356620915234 ], [ 2955676.735610854346305, 2380896.537007689476013 ], [ 2955677.099885706789792, 2380896.696341941598803 ], [ 2955679.372782425023615, 2380897.693536094389856 ], [ 2955681.64528633095324, 2380898.689581633079797 ], [ 2955682.333984929136932, 2380898.991799992043525 ], [ 2955686.461904611438513, 2380899.852087726816535 ], [ 2955688.901900468859822, 2380900.308524831198156 ], [ 2955691.382177097722888, 2380900.50478239916265 ], [ 2955693.863042833283544, 2380900.69971298892051 ], [ 2955696.316729252226651, 2380901.084423662163317 ], [ 2955700.54939631652087, 2380901.871287869289517 ], [ 2955701.211117019411176, 2380901.937746444251388 ], [ 2955703.686866500414908, 2380902.187798905652016 ], [ 2955706.161388604901731, 2380902.437159396708012 ], [ 2955708.285084582865238, 2380902.651529132388532 ], [ 2955708.637399771250784, 2380902.683911002706736 ], [ 2955711.114112899173051, 2380902.91294569009915 ], [ 2955715.499756692908704, 2380903.317789736669511 ], [ 2955716.070589830167592, 2380903.275396528188139 ], [ 2955718.556473843753338, 2380903.08905622549355 ], [ 2955721.043536240234971, 2380902.902501972392201 ], [ 2955723.529698786325753, 2380902.717229724861681 ], [ 2955726.013420599512756, 2380902.508711083326489 ], [ 2955730.958106078207493, 2380901.830135873518884 ], [ 2955733.431013622321188, 2380901.491203372832388 ], [ 2955735.90377389639616, 2380901.151382684707642 ], [ 2955738.37561794789508, 2380900.812745302915573 ], [ 2955740.84860763605684, 2380900.473696567118168 ], [ 2955741.092463382519782, 2380900.440071537159383 ], [ 2955745.760721043217927, 2380899.574410000815988 ], [ 2955748.216073644347489, 2380899.119302768725902 ], [ 2955750.671295419335365, 2380898.66401607869193 ], [ 2955753.127515581436455, 2380898.208649806678295 ], [ 2955755.58273758366704, 2380897.753363321069628 ], [ 2955760.493050923570991, 2380896.842001052573323 ], [ 2955762.948306018486619, 2380896.386912262998521 ], [ 2955765.404624940827489, 2380895.931528659537435 ], [ 2955767.859765696804971, 2380895.476359208114445 ], [ 2955770.315086570568383, 2380895.021055481396616 ], [ 2955771.443190644495189, 2380894.811845652759075 ], [ 2955775.221651166677475, 2380894.085872395895422 ], [ 2955777.674450621940196, 2380893.615979431662709 ], [ 2955780.12793739605695, 2380893.144741636700928 ], [ 2955782.580344194546342, 2380892.67370016220957 ], [ 2955785.032865671440959, 2380892.202739645726979 ], [ 2955789.93875992950052, 2380891.260460979305208 ], [ 2955792.391265374608338, 2380890.789402068592608 ], [ 2955794.843967440072447, 2380890.319527639076114 ], [ 2955797.296473113819957, 2380889.848468928597867 ], [ 2955799.777428609319031, 2380889.602532268501818 ], [ 2955804.745269406586885, 2380889.161638860590756 ], [ 2955807.229353688657284, 2380888.94187428150326 ], [ 2955809.713405326474458, 2380888.721912409178913 ], [ 2955812.197276939637959, 2380888.50086495000869 ], [ 2955814.671077224425972, 2380888.691594486590475 ], [ 2955819.613754310645163, 2380889.253706949763 ], [ 2955822.000866943039, 2380889.913851875811815 ], [ 2955824.370689917355776, 2380890.655731413513422 ], [ 2955824.837803790345788, 2380890.802077990025282 ], [ 2955826.699889565818012, 2380891.511239663697779 ], [ 2955828.806000185199082, 2380892.713312743231654 ], [ 2955829.132622287608683, 2380893.06209371285513 ], [ 2955829.328355791047215, 2380893.263332980684936 ], [ 2955831.432824542280287, 2380904.27515696361661 ], [ 2955830.786726069636643, 2380906.699399695731699 ], [ 2955829.743033941835165, 2380910.091309746261686 ], [ 2955829.313918401487172, 2380911.51399839669466 ], [ 2955828.586286868900061, 2380913.924177824985236 ], [ 2955827.859817374497652, 2380916.334044539835304 ], [ 2955827.132186106406152, 2380918.744224036112428 ], [ 2955826.303757383488119, 2380921.119336518459022 ], [ 2955824.538161914795637, 2380925.482418551575392 ], [ 2955824.441393761895597, 2380925.798409631475806 ], [ 2955823.705972817726433, 2380928.20553084416315 ], [ 2955822.969815676100552, 2380930.613700915593654 ], [ 2955822.233314905315638, 2380933.02101840917021 ], [ 2955821.497763414867222, 2380935.427960157394409 ], [ 2955820.307508772239089, 2380939.322226742748171 ], [ 2955820.170271217823029, 2380940.76174104353413 ], [ 2955820.022143759764731, 2380941.817992941942066 ], [ 2955819.672642582561821, 2380944.307617715094239 ], [ 2955819.393869874998927, 2380946.299919488374144 ], [ 2955818.458596085198224, 2380949.172308062203228 ], [ 2955817.678874106146395, 2380951.566024700179696 ], [ 2955817.518528884276748, 2380952.058480050880462 ], [ 2955816.921344404108822, 2380953.967300585471094 ], [ 2955816.169444664847106, 2380956.370197250507772 ], [ 2955815.646239774301648, 2380958.043320034630597 ], [ 2955815.589500439818949, 2380960.552659982815385 ], [ 2955815.533808681182563, 2380963.062826398294419 ], [ 2955815.51100181043148, 2380964.067233310081065 ], [ 2955815.495267358608544, 2380968.082025516778231 ], [ 2955815.473337419331074, 2380970.590837324038148 ], [ 2955815.418693443294615, 2380973.10061021335423 ], [ 2955815.363885954022408, 2380975.610616208985448 ], [ 2955815.229297348763794, 2380978.117119591217488 ], [ 2955814.856593285687268, 2380983.1273790942505 ], [ 2955814.669881325680763, 2380985.631862594746053 ], [ 2955814.538815984968096, 2380987.3963229842484 ], [ 2955814.569856553804129, 2380988.136967387981713 ], [ 2955814.676918586716056, 2380990.643494081217796 ], [ 2955814.783718779683113, 2380993.149051649495959 ], [ 2955814.945610110647976, 2380996.957205913029611 ], [ 2955814.943265057168901, 2380998.161751186475158 ], [ 2955814.937767301686108, 2381000.671441916376352 ], [ 2955814.934633983299136, 2381002.00535745266825 ], [ 2955814.931484136730433, 2381003.181275373790413 ], [ 2955814.927075400482863, 2381005.305527434218675 ], [ 2955814.939389751292765, 2381005.690666382201016 ], [ 2955815.019678857177496, 2381008.196770094335079 ], [ 2955815.128207749687135, 2381011.573559228330851 ], [ 2955815.147969025187194, 2381013.212504820898175 ], [ 2955815.177329926285893, 2381015.721353510394692 ], [ 2955815.201619647443295, 2381017.78142156265676 ], [ 2955815.184106805827469, 2381018.230034723877907 ], [ 2955815.088077019434422, 2381020.739091302268207 ], [ 2955814.992178287357092, 2381023.248327454086393 ], [ 2955814.920613614842296, 2381025.123275519348681 ], [ 2955814.700241316575557, 2381028.26130199059844 ], [ 2955814.524299905635417, 2381030.767286508344114 ], [ 2955814.386007771827281, 2381032.736915728077292 ], [ 2955814.334611573722214, 2381033.271498141344637 ], [ 2955814.092848666477948, 2381035.772765866946429 ], [ 2955813.850873121991754, 2381038.273970596026629 ], [ 2955813.722119700629264, 2381039.598781981505454 ], [ 2955812.89765630569309, 2381043.204849625471979 ], [ 2955812.336405364796519, 2381045.65699401916936 ], [ 2955811.77453279029578, 2381048.110268136486411 ], [ 2955811.681424623355269, 2381048.518422565888613 ], [ 2955810.936732697300613, 2381050.480680208653212 ], [ 2955810.044827467761934, 2381052.835909768007696 ], [ 2955809.069874824024737, 2381055.405709845013916 ], [ 2955808.271246117539704, 2381057.550102819688618 ], [ 2955807.391566609498113, 2381059.909516976680607 ], [ 2955806.51224737521261, 2381062.2698824852705 ], [ 2955806.04487291071564, 2381063.524746515788138 ], [ 2955805.775605327449739, 2381064.672042884398252 ], [ 2955805.199315478093922, 2381067.120717755053192 ], [ 2955804.173592112958431, 2381071.481672246009111 ], [ 2955804.005052720196545, 2381072.008253898471594 ], [ 2955803.235434610396624, 2381074.405526116956025 ], [ 2955802.465800256002694, 2381076.80269966321066 ], [ 2955801.916010139044374, 2381078.515527783427387 ], [ 2955801.689308732748032, 2381079.197560419794172 ], [ 2955800.896206037607044, 2381081.587406719103456 ], [ 2955799.309984672814608, 2381086.367000727914274 ], [ 2955798.465395295992494, 2381088.739155475515872 ], [ 2955797.585799334570765, 2381091.098453535232693 ], [ 2955796.705237983725965, 2381093.458028702065349 ], [ 2955795.942118232138455, 2381095.856662733480334 ], [ 2955794.55758604593575, 2381100.34604318626225 ], [ 2955794.466760492883623, 2381100.669800769072026 ], [ 2955793.784602835774422, 2381103.093074463307858 ], [ 2955793.103329015430063, 2381105.516187645029277 ], [ 2955792.694744660519063, 2381106.968701136764139 ], [ 2955792.385477703530341, 2381107.927949605509639 ], [ 2955791.61232654703781, 2381110.324034375138581 ], [ 2955790.52658772515133, 2381113.690443368628621 ], [ 2955790.067530298605561, 2381115.116743885912001 ], [ 2955789.295508821029216, 2381117.513538661878556 ], [ 2955788.524649379774928, 2381119.910020732320845 ], [ 2955788.442686423659325, 2381120.163436975795776 ], [ 2955787.778404324315488, 2381122.314638733863831 ], [ 2955787.03638175688684, 2381124.720319827552885 ], [ 2955786.217501886188984, 2381127.374829468782991 ], [ 2955785.542566644959152, 2381129.528881766833365 ], [ 2955784.790413963608444, 2381131.930811300873756 ], [ 2955784.216385641135275, 2381133.764561577700078 ], [ 2955784.090173666365445, 2381134.347508401144296 ], [ 2955783.559335011988878, 2381136.806127371266484 ], [ 2955783.027760093100369, 2381139.265185168944299 ], [ 2955782.434780552051961, 2381142.008290214464068 ], [ 2955782.323325796984136, 2381144.22621292155236 ], [ 2955782.197369997389615, 2381146.734709692187607 ], [ 2955782.072150636464357, 2381149.242157657630742 ], [ 2955782.026556093245745, 2381150.146998604293913 ], [ 2955782.174669849686325, 2381151.742598590906709 ], [ 2955782.405508762225509, 2381154.237927586305887 ], [ 2955782.773844861425459, 2381158.216097523458302 ], [ 2955782.947620934806764, 2381159.216515209991485 ], [ 2955783.376051391474903, 2381161.682862116023898 ], [ 2955783.803614613134414, 2381164.149468288756907 ], [ 2955784.232045261189342, 2381166.615815237164497 ], [ 2955784.652555324602872, 2381169.083194455131888 ], [ 2955785.492855791933835, 2381174.019100485369563 ], [ 2955785.913366144057363, 2381176.486479771323502 ], [ 2955785.941515783779323, 2381176.650652479380369 ], [ 2955786.291556816548109, 2381178.961547217797488 ], [ 2955786.666752834804356, 2381181.43746376177296 ], [ 2955787.042047140188515, 2381183.913362492807209 ], [ 2955787.114335387479514, 2381184.393550507724285 ], [ 2955788.053476491011679, 2381188.812588355503976 ], [ 2955788.573224348016083, 2381191.260516196954995 ], [ 2955788.753743413835764, 2381192.109537160489708 ], [ 2955788.982656178064644, 2381193.728789974469692 ], [ 2955789.333010642323643, 2381196.207999580539763 ], [ 2955789.683398024179041, 2381198.688016647472978 ], [ 2955790.336137048900127, 2381203.309765285346657 ], [ 2955790.375483194366097, 2381203.648714447859675 ], [ 2955790.665271176956594, 2381206.13719874760136 ], [ 2955790.95420830603689, 2381208.626041011884809 ], [ 2955791.244094679132104, 2381211.114507514517754 ], [ 2955791.533032006584108, 2381213.603349818848073 ], [ 2955791.848636254668236, 2381216.314486585557461 ], [ 2955792.079855216201395, 2381218.217091861180961 ], [ 2955792.114286192692816, 2381218.805017703678459 ], [ 2955792.258556387387216, 2381221.308347354643047 ], [ 2955792.383427986875176, 2381223.457004839088768 ], [ 2955792.610757430549711, 2381226.309745439793915 ], [ 2955791.740303868427873, 2381227.202471015509218 ], [ 2955909.786736355163157, 2381281.948457926977426 ], [ 2955906.740542175248265, 2381286.686023842543364 ], [ 2955904.185608129482716, 2381291.328346222173423 ], [ 2955901.344619610346854, 2381295.765197468921542 ], [ 2955898.952429484110326, 2381300.61353339953348 ], [ 2955895.67322354670614, 2381304.853238698095083 ], [ 2955892.070233308710158, 2381309.114247397053987 ], [ 2955888.608285717666149, 2381313.87599860643968 ], [ 2955885.213460481725633, 2381319.301991558168083 ], [ 2955881.989480664953589, 2381324.198848626110703 ], [ 2955879.302618295885623, 2381329.019583072513342 ], [ 2955876.72166247619316, 2381333.895808367058635 ], [ 2955874.053143715020269, 2381338.83562623616308 ], [ 2955871.845223017502576, 2381343.595382469240576 ], [ 2955869.701858657412231, 2381348.751529615372419 ], [ 2955867.036328719928861, 2381353.618515459820628 ], [ 2955863.268617363646626, 2381357.921856602653861 ], [ 2955859.886374608147889, 2381362.37387153878808 ], [ 2955857.057217160705477, 2381366.859415558166802 ], [ 2955852.763175741769373, 2381369.315287779550999 ], [ 2955847.764915435574949, 2381371.280917447991669 ], [ 2955843.244775732513517, 2381374.207843527663499 ], [ 2955838.617679799906909, 2381376.60475557949394 ], [ 2955834.435712807811797, 2381379.527591679245234 ], [ 2955830.539786221459508, 2381383.254455355927348 ], [ 2955826.521565925329924, 2381387.157470357138664 ], [ 2955823.182133829221129, 2381391.402329433243722 ], [ 2955820.020023271907121, 2381395.529569326899946 ], [ 2955816.735196680761874, 2381399.275051539298147 ], [ 2955813.312290258705616, 2381403.985491172410548 ], [ 2955810.466494491323829, 2381408.743802732788026 ], [ 2955807.772878243587911, 2381413.19456056272611 ], [ 2955805.339257582090795, 2381418.084493208676577 ], [ 2955802.217077844776213, 2381421.736679915804416 ], [ 2955799.537898578681052, 2381425.905009657610208 ], [ 2955796.97728568688035, 2381430.65198037866503 ], [ 2955794.067989053204656, 2381435.488426383119076 ], [ 2955791.211135602556169, 2381439.816127104219049 ], [ 2955787.912993124686182, 2381443.121038976125419 ], [ 2955783.968990779481828, 2381446.519695291295648 ], [ 2955780.97720321174711, 2381451.098541245795786 ], [ 2955777.847070978954434, 2381455.444675656966865 ], [ 2955774.935808754526079, 2381460.230237301439047 ], [ 2955772.034864051267505, 2381464.930450730957091 ], [ 2955768.578880893997848, 2381468.947084167040884 ], [ 2955765.15596811613068, 2381473.358101680409163 ], [ 2955762.587693097535521, 2381478.15883009089157 ], [ 2955760.400478198193014, 2381483.346847496461123 ], [ 2955758.896583911031485, 2381488.297462232410908 ], [ 2955759.331790497526526, 2381493.100980068556964 ], [ 2955759.422755429521203, 2381498.054882370866835 ], [ 2955759.078069854993373, 2381503.079490201547742 ], [ 2955758.460317892488092, 2381508.421921622939408 ], [ 2955757.138951160479337, 2381511.394661722239107 ], [ 2955756.43771666334942, 2381512.968873569276184 ], [ 2955754.507009315304458, 2381518.111716497223824 ], [ 2955752.73563544312492, 2381522.976106010377407 ], [ 2955750.490313126705587, 2381527.879726085811853 ], [ 2955747.739956807345152, 2381532.179849783424288 ], [ 2955744.202132968232036, 2381535.856208318378776 ], [ 2955740.673593263141811, 2381539.571448459289968 ], [ 2955736.689510261174291, 2381542.846131942234933 ], [ 2955732.60210746480152, 2381546.632602631580085 ], [ 2955728.232011585496366, 2381549.84127259766683 ], [ 2955723.716528626158834, 2381552.488273713737726 ], [ 2955719.645484544336796, 2381556.342843981459737 ], [ 2955714.984432104974985, 2381559.966942672152072 ], [ 2955710.581884365528822, 2381563.297621735371649 ], [ 2955706.961763702798635, 2381566.674864186905324 ], [ 2955703.020409592892975, 2381570.041835770942271 ], [ 2955698.492935658432543, 2381572.981093787588179 ], [ 2955693.865139622241259, 2381575.460812163539231 ], [ 2955689.357651323080063, 2381577.713394977152348 ], [ 2955684.612682978622615, 2381580.347085585352033 ], [ 2955680.065416916273534, 2381583.632175669074059 ], [ 2955676.458125798031688, 2381587.532947798725218 ], [ 2955672.013437570072711, 2381590.388945754151791 ], [ 2955668.058991373516619, 2381593.573354450054467 ], [ 2955664.598618960008025, 2381597.529284413903952 ], [ 2955661.322627705987543, 2381601.995368514209986 ], [ 2955657.433913253247738, 2381606.650039562024176 ], [ 2955654.088750594295561, 2381610.999768414534628 ], [ 2955650.629693594761193, 2381615.688428501132876 ], [ 2955647.582504067569971, 2381620.550145425833762 ], [ 2955644.695004490204155, 2381625.391595536842942 ], [ 2955641.382981108967215, 2381630.135494189336896 ], [ 2955637.889514886774123, 2381634.296110439579934 ], [ 2955634.661116055678576, 2381638.874035174958408 ], [ 2955630.966296642553061, 2381644.03642351552844 ], [ 2955628.868656580336392, 2381649.211841029115021 ], [ 2955628.906464964617044, 2381653.859302042517811 ], [ 2955629.05050421692431, 2381658.820242950227112 ], [ 2955629.637007033452392, 2381664.03927337191999 ], [ 2955631.075479881372303, 2381669.380179597996175 ], [ 2955632.630631070584059, 2381674.949396796524525 ], [ 2955634.037134201265872, 2381680.071411919780076 ], [ 2955634.958004788029939, 2381685.78280431125313 ], [ 2955636.278046946041286, 2381691.143905163742602 ], [ 2955637.281760456040502, 2381696.173164561856538 ], [ 2955638.33189750649035, 2381701.438312912359834 ], [ 2955639.157921092119068, 2381706.626844824291766 ], [ 2955639.550740766339004, 2381712.49456476746127 ], [ 2955639.244977632071823, 2381717.509162114933133 ], [ 2955638.908020474947989, 2381722.779544830322266 ], [ 2955638.550155106000602, 2381727.962321232073009 ], [ 2955638.663541157729924, 2381733.137773512862623 ], [ 2955638.754691739566624, 2381738.349902899935842 ], [ 2955638.254257868044078, 2381743.837777524720877 ], [ 2955638.303658212069422, 2381749.432262676302344 ], [ 2955651.230036601424217, 2381741.674331891350448 ], [ 2955651.309222602285445, 2381741.493200586177409 ], [ 2955651.777512169908732, 2381741.215656510088593 ], [ 2955651.922663843259215, 2381741.152277161832899 ], [ 2955651.920764339156449, 2381741.142658191733062 ], [ 2955654.090261740610003, 2381739.879919950850308 ], [ 2955656.259873843751848, 2381738.617262646555901 ], [ 2955657.414472590200603, 2381737.94478593673557 ], [ 2955660.704432528931648, 2381736.295173170976341 ], [ 2955662.946362836286426, 2381735.170872333925217 ], [ 2955665.188195088412613, 2381734.04658942297101 ], [ 2955667.430027471389621, 2381732.922306594438851 ], [ 2955669.672056367620826, 2381731.797988184262067 ], [ 2955671.26234756456688, 2381731.000198862049729 ], [ 2955674.228729731403291, 2381729.711445534601808 ], [ 2955676.527544762939215, 2381728.71295256074518 ], [ 2955678.825590790249407, 2381727.714701084885746 ], [ 2955681.124504270032048, 2381726.716190456412733 ], [ 2955683.424433103762567, 2381725.722579188644886 ], [ 2955688.072042125277221, 2381723.851232619956136 ], [ 2955690.395249504595995, 2381722.91561715118587 ], [ 2955692.719537093304098, 2381721.979805562645197 ], [ 2955694.580597109161317, 2381721.230128210969269 ], [ 2955695.040256457403302, 2381721.03772849868983 ], [ 2955697.352103225886822, 2381720.072048295289278 ], [ 2955701.975829759612679, 2381718.139665491878986 ], [ 2955704.287660539150238, 2381717.17388686677441 ], [ 2955706.513545596972108, 2381716.243650298565626 ], [ 2955706.600293696857989, 2381716.211114480160177 ], [ 2955708.943752199411392, 2381715.329266728833318 ], [ 2955711.288078150246292, 2381714.447159822098911 ], [ 2955715.974881221074611, 2381712.68338393419981 ], [ 2955718.332599848974496, 2381711.848461246117949 ], [ 2955720.76052088290453, 2381711.25374988745898 ], [ 2955723.188163700513542, 2381710.657970774918795 ], [ 2955725.615692069754004, 2381710.062110900413245 ], [ 2955730.470274738036096, 2381708.871799401007593 ], [ 2955732.911609118804336, 2381708.359142931178212 ], [ 2955735.387284717988223, 2381708.044307515025139 ], [ 2955737.862616659142077, 2381707.728619591332972 ], [ 2955740.337310585193336, 2381707.413962761405855 ], [ 2955745.28768065944314, 2381706.784471019171178 ], [ 2955747.764078317210078, 2381706.481909260619432 ], [ 2955750.242261156439781, 2381706.190105778165162 ], [ 2955752.720362291205674, 2381705.898418929893523 ], [ 2955755.197219685651362, 2381705.605941412970424 ], [ 2955756.088195161893964, 2381705.50081206811592 ], [ 2955760.17405415745452, 2381705.399284159764647 ], [ 2955762.66532397409901, 2381705.337530517019331 ], [ 2955765.155628376640379, 2381705.276054051704705 ], [ 2955766.453910139389336, 2381705.243950265925378 ], [ 2955767.633419171907008, 2381705.40250775963068 ], [ 2955770.098698213230819, 2381705.73275244794786 ], [ 2955775.02724378881976, 2381706.394522833172232 ], [ 2955777.491786785423756, 2381706.725816647522151 ], [ 2955779.955871535465121, 2381707.056177082005888 ], [ 2955781.001576608978212, 2381707.196543237194419 ], [ 2955782.384415451437235, 2381707.56309490185231 ], [ 2955784.785186415538192, 2381708.198897244408727 ], [ 2955787.887998326215893, 2381709.02102802041918 ], [ 2955788.840529844164848, 2381710.501811447553337 ], [ 2955790.116774762514979, 2381712.619236244820058 ], [ 2955790.311617841944098, 2381715.118775258772075 ], [ 2955790.40545039344579, 2381716.325578646734357 ], [ 2955789.858892519958317, 2381717.507902820594609 ], [ 2955788.802573163527995, 2381719.794999666512012 ], [ 2955788.342434477061033, 2381720.78979511000216 ], [ 2955785.087208904325962, 2381722.994431173894554 ], [ 2955783.006176474504173, 2381724.402652082033455 ], [ 2955780.9260278865695, 2381725.810712528415024 ], [ 2955779.100862060673535, 2381727.046781414188445 ], [ 2955778.867550447583199, 2381727.248185164295137 ], [ 2955776.960475305095315, 2381728.888546018395573 ], [ 2955773.147863937541842, 2381732.170615237206221 ], [ 2955771.240805600769818, 2381733.811075002886355 ], [ 2955770.035335044842213, 2381734.848751612938941 ], [ 2955769.34274957049638, 2381735.462507005780935 ], [ 2955767.459636975079775, 2381737.129627333953977 ], [ 2955765.575722775887698, 2381738.798011794686317 ], [ 2955761.809154892340302, 2381742.134450343437493 ], [ 2955759.971151367761195, 2381743.852143678814173 ], [ 2955758.157273588702083, 2381745.597583176568151 ], [ 2955756.344361467286944, 2381747.342745664529502 ], [ 2955754.531449491623789, 2381749.087908221408725 ], [ 2955750.904758647084236, 2381752.578492777422071 ], [ 2955749.200833165086806, 2381754.409291996154934 ], [ 2955747.949840808287263, 2381756.596631953958422 ], [ 2955746.697621119208634, 2381758.783279886469245 ], [ 2955745.446629047393799, 2381760.970619940664619 ], [ 2955742.944399745203555, 2381765.344429727643728 ], [ 2955741.693146138451993, 2381767.530800765380263 ], [ 2955741.297124790027738, 2381768.223161093425006 ], [ 2955740.306034897454083, 2381769.631130152381957 ], [ 2955738.855798424221575, 2381771.691175524145365 ], [ 2955737.405545717105269, 2381773.751122242771089 ], [ 2955734.5049261697568, 2381777.870934980921447 ], [ 2955733.054575706832111, 2381779.930899701081216 ], [ 2955732.24437312874943, 2381781.081815876998007 ], [ 2955731.415383541025221, 2381781.821416681166738 ], [ 2955729.538412225432694, 2381783.496269107796252 ], [ 2955727.661523010581732, 2381785.17222512839362 ], [ 2955723.907302908133715, 2381788.522082550451159 ], [ 2955722.030250355601311, 2381790.197051797993481 ], [ 2955721.79662926401943, 2381790.405731012113392 ], [ 2955720.565922601148486, 2381792.236781387589872 ], [ 2955719.159795617219061, 2381794.326738751493394 ], [ 2955717.753996171057224, 2381796.417450085282326 ], [ 2955714.941284950822592, 2381800.599481762386858 ], [ 2955713.535404125694185, 2381802.690309792757034 ], [ 2955712.411331123672426, 2381804.36177977360785 ], [ 2955712.153663827106357, 2381804.795561964157969 ], [ 2955710.866521721705794, 2381806.961307449266315 ], [ 2955709.5785778677091, 2381809.127096983138472 ], [ 2955707.004638137295842, 2381813.459440796170384 ], [ 2955705.71661289781332, 2381815.62534700660035 ], [ 2955704.429569693282247, 2381817.791074890643358 ], [ 2955703.552506625652313, 2381819.266888020560145 ], [ 2955703.288283119909465, 2381820.024473244324327 ], [ 2955702.45935995131731, 2381822.401828851085156 ], [ 2955700.801808727905154, 2381827.157706711441278 ], [ 2955699.971904069185257, 2381829.535240794997662 ], [ 2955699.143243395723403, 2381831.913565687835217 ], [ 2955698.562053736299276, 2381833.580865250900388 ], [ 2955698.237875386141241, 2381834.25997114693746 ], [ 2955697.152497985865921, 2381836.532829803414643 ], [ 2955694.982071140781045, 2381841.08052121149376 ], [ 2955693.832326044328511, 2381843.321455652825534 ], [ 2955692.611027996055782, 2381845.524958948604763 ], [ 2955691.389517335686833, 2381847.728399266954511 ], [ 2955689.976895123720169, 2381849.803575603291392 ], [ 2955686.837496048770845, 2381853.74309023655951 ], [ 2955685.268066878430545, 2381855.713866146281362 ], [ 2955684.891233668662608, 2381856.18658234551549 ], [ 2955683.625003333203495, 2381857.621865509543568 ], [ 2955681.959517234936357, 2381859.509943418204784 ], [ 2955680.294375052675605, 2381861.398874006234109 ], [ 2955677.194170037284493, 2381864.9125751927495 ], [ 2955677.203143578022718, 2381864.957511696964502 ], [ 2955677.140441411640495, 2381865.033771007321775 ], [ 2955675.632354443427175, 2381866.771957029588521 ], [ 2955675.407051885966212, 2381867.152683083899319 ], [ 2955673.954072444699705, 2381869.210180173628032 ], [ 2955672.501355107408017, 2381871.26864646980539 ], [ 2955671.04873610381037, 2381873.327094983309507 ], [ 2955668.194352556020021, 2381877.370088652241975 ], [ 2955668.162990607786924, 2381877.453566947951913 ], [ 2955667.272453607991338, 2381879.809480376541615 ], [ 2955666.381851306185126, 2381882.165609071031213 ], [ 2955665.49106899369508, 2381884.520652120932937 ], [ 2955664.600466961506754, 2381886.876780881546438 ], [ 2955663.844998117536306, 2381888.875681993551552 ], [ 2955663.717328407801688, 2381889.644859165884554 ], [ 2955663.601400267332792, 2381890.342764818109572 ], [ 2955662.620263517834246, 2381891.864938885904849 ], [ 2955661.66311520896852, 2381893.497545057907701 ], [ 2955639.504889018833637, 2381924.442639884538949 ], [ 2955639.966850255150348, 2381926.90239833528176 ], [ 2955640.728079588152468, 2381930.957247966434807 ], [ 2955641.091401621233672, 2381931.753947556018829 ], [ 2955642.124565957579762, 2381934.02361269062385 ], [ 2955643.157861316110939, 2381936.293457422871143 ], [ 2955644.191925737075508, 2381938.561840715818107 ], [ 2955645.225106686353683, 2381940.831604655366391 ], [ 2955646.588903477415442, 2381943.825924361590296 ], [ 2955647.050372071564198, 2381945.462821865919977 ], [ 2955647.727594830561429, 2381947.868425751104951 ], [ 2955648.405783190391958, 2381950.273752594832331 ], [ 2955649.083873448427767, 2381952.679097292479128 ], [ 2955649.971360649913549, 2381954.988242695108056 ], [ 2955652.590599764604121, 2381959.22235340019688 ], [ 2955653.900628451257944, 2381961.338521123398095 ], [ 2955655.209806338418275, 2381963.455656849313527 ], [ 2955656.045691671315581, 2381964.806442202068865 ], [ 2955656.452219202183187, 2381965.611763988155872 ], [ 2955657.574487564153969, 2381967.836874969303608 ], [ 2955659.819744443520904, 2381972.285949510522187 ], [ 2955660.942994923330843, 2381974.510882219299674 ], [ 2955661.899673187173903, 2381976.406759961508214 ], [ 2955662.094113296363503, 2381976.719059613533318 ], [ 2955663.408626344520599, 2381978.832989615388215 ], [ 2955664.723221275955439, 2381980.946803124621511 ], [ 2955667.352034826762974, 2381985.173380252439529 ], [ 2955668.666515407152474, 2381987.287113020196557 ], [ 2955669.981110624969006, 2381989.400926691479981 ], [ 2955670.349857921712101, 2381989.99380106665194 ], [ 2955671.566588795743883, 2381991.302646389231086 ], [ 2955673.25769408326596, 2381993.122240294702351 ], [ 2955676.640706666745245, 2381996.760774221736938 ], [ 2955678.331943093799055, 2381998.580547846388072 ], [ 2955680.022819437086582, 2382000.399370213039219 ], [ 2955681.713941430673003, 2382002.219063085503876 ], [ 2955683.267544909380376, 2382004.154839409980923 ], [ 2955686.221639199182391, 2382008.15639112982899 ], [ 2955687.698252785019577, 2382010.157296678051353 ], [ 2955689.174768252298236, 2382012.158220116049051 ], [ 2955690.651463787071407, 2382014.159009219147265 ], [ 2955692.128797506913543, 2382016.158767378423363 ], [ 2955692.861244801431894, 2382017.151947484351695 ], [ 2955695.545436048880219, 2382019.74818575847894 ], [ 2955697.330090415664017, 2382021.473817996680737 ], [ 2955699.114974057301879, 2382023.200222050771117 ], [ 2955700.899890517815948, 2382024.926823560148478 ], [ 2955702.764085225760937, 2382026.563681912142783 ], [ 2955706.526444708462805, 2382029.803165354765952 ], [ 2955708.407804470974952, 2382031.422162760049105 ], [ 2955710.108588315546513, 2382032.88678353978321 ], [ 2955710.288329734001309, 2382033.04161687521264 ], [ 2955710.442669688723981, 2382033.174426293000579 ], [ 2955711.200759820640087, 2382035.214564663358033 ], [ 2955711.202429557684809, 2382035.218531635124236 ], [ 2955711.210402091965079, 2382035.240366653073579 ], [ 2955711.240949659608305, 2382035.322663554921746 ], [ 2955711.352135212160647, 2382037.713566922582686 ], [ 2955710.904408269561827, 2382039.499373038765043 ], [ 2955708.813385047484189, 2382041.914059336297214 ], [ 2955707.165074853226542, 2382043.817218518815935 ], [ 2955705.515979446936399, 2382045.721740542910993 ], [ 2955704.900066002272069, 2382046.432394273579121 ], [ 2955703.862579500768334, 2382047.621045888401568 ], [ 2955702.206217204220593, 2382049.517127543222159 ], [ 2955698.894082407467067, 2382053.311014112085104 ], [ 2955697.23711518663913, 2382055.208324344828725 ], [ 2955695.581097245682031, 2382057.105258866213262 ], [ 2955693.924981259740889, 2382059.002211281098425 ], [ 2955692.268963607959449, 2382060.899145918898284 ], [ 2955690.846460053231567, 2382062.527635772712529 ], [ 2955688.851017665117979, 2382064.59543277323246 ], [ 2955687.102395728230476, 2382066.406703666783869 ], [ 2955685.354641258716583, 2382068.217715375125408 ], [ 2955683.606117800809443, 2382070.028968559578061 ], [ 2955683.358332068659365, 2382070.285771858878434 ], [ 2955988.283998214639723, 2381989.315115781035274 ], [ 2956266.830650674644858, 2381907.923023045994341 ], [ 2956620.311034090816975, 2381956.253770981915295 ], [ 2956908.204015291761607, 2381995.618258012924343 ], [ 2956990.130597700364888, 2382091.671282536815852 ], [ 2957066.717624357901514, 2382179.062689601443708 ], [ 2957236.518366551026702, 2382356.416053164750338 ], [ 2957002.783442802727222, 2382858.545837266836315 ], [ 2957016.150868431199342, 2383010.491343508008868 ], [ 2957006.375424263067544, 2383038.917401943355799 ], [ 2957052.527832362800837, 2383062.446600199211389 ], [ 2957108.051786187570542, 2383079.82047320343554 ], [ 2957129.224713672883809, 2383086.445639018435031 ], [ 2957164.08532958664, 2383103.159109189640731 ], [ 2957225.9875741857104, 2383127.142865376546979 ], [ 2957379.464920796453953, 2383207.259447562508285 ], [ 2957431.033469294197857, 2383230.392755262553692 ], [ 2957545.044591499958187, 2383253.550152839161456 ], [ 2957614.34450305160135, 2383286.225747778080404 ], [ 2957655.956373177003115, 2383313.933342722710222 ], [ 2957760.188198740594089, 2383413.44400973431766 ], [ 2957794.059257010929286, 2383443.484091547317803 ], [ 2957820.247298068366945, 2383490.122225621715188 ], [ 2957932.218083957210183, 2383628.517226712778211 ], [ 2958103.359029347077012, 2383866.848749559372663 ], [ 2958118.488404438830912, 2383929.416357276029885 ], [ 2958124.091293169185519, 2383983.078665274195373 ], [ 2958134.611596493516117, 2384133.359747868962586 ], [ 2958142.052237631753087, 2384204.321878562215716 ], [ 2958195.587113793473691, 2384398.680657207034528 ], [ 2958198.624912698753178, 2384401.870962765533477 ], [ 2958217.795171407982707, 2384422.00338572403416 ], [ 2958228.169459387660027, 2384423.267281911801547 ], [ 2958266.716984621714801, 2384427.963372451718897 ], [ 2958366.485194527544081, 2384486.229276078753173 ], [ 2958364.726939116604626, 2384522.162888989783823 ], [ 2958352.310550029855222, 2384775.925837849266827 ], [ 2958379.236661662813276, 2384829.396715595386922 ], [ 2958476.971508239395916, 2385023.481587549205869 ], [ 2958501.199345448985696, 2385071.593771582003683 ], [ 2958822.008174728602171, 2385203.909476742148399 ], [ 2958884.498693845234811, 2385149.103209814056754 ], [ 2958891.294432777911425, 2385135.661067450419068 ], [ 2958897.56975734885782, 2385137.402333661913872 ], [ 2958916.1601397767663, 2385142.560843074228615 ], [ 2958918.988524307496846, 2385160.649454127065837 ], [ 2958921.848581166006625, 2385178.941055506933481 ], [ 2958936.539899884257466, 2385174.259357425384223 ], [ 2958940.76092500705272, 2385172.914207587949932 ], [ 2958965.678451647050679, 2385184.49652654491365 ], [ 2958978.035568537190557, 2385195.999233948998153 ], [ 2959001.772986373864114, 2385224.843171638436615 ], [ 2959017.834410385228693, 2385244.359799695201218 ], [ 2959031.270168129354715, 2385247.716283735819161 ], [ 2959076.995284811593592, 2385259.139114780817181 ], [ 2959143.14629556518048, 2385275.664690540637821 ], [ 2959159.37091938406229, 2385222.477810874581337 ], [ 2959133.551953993272036, 2385127.664551950991154 ], [ 2959078.037694565951824, 2385027.60755573073402 ] ] ] } }
]
}
