{
"type": "FeatureCollection",
"name": "Abanto_y_Ciérvana-Abanto_Zierbena",
"crs": { "type": "name", "properties": { "name": "urn:ogc:def:crs:EPSG::3035" } },
"features": [
{ "type": "Feature", "properties": { "SITE_NAME": "Meatzaldea - Zona Minera de Bizkaia", "ODESIGNATE": "Paisaje Protegido", "NUT2": 21, "SITE_CODE_": "ES213009", "DESIG_ABBR": "ES94", "SITE_CDDA": "555588758_CDDA", "Sup_ha": 957.530880594 }, "geometry": { "type": "Polygon", "coordinates": [ [ [ 3261681.500738515052944, 2334424.196279401890934 ], [ 3261698.149708136916161, 2334423.840053710155189 ], [ 3261708.581679505296052, 2334422.007815054617822 ], [ 3261722.287293365225196, 2334415.5812065936625 ], [ 3261728.831341862212867, 2334406.372732860967517 ], [ 3261735.375392897985876, 2334397.164260982535779 ], [ 3261741.695982747711241, 2334386.655239470303059 ], [ 3261755.409849456511438, 2334380.217046085745096 ], [ 3261761.92737164767459, 2334379.072337954305112 ], [ 3261775.705297316424549, 2334386.568993270862848 ], [ 3261776.969501335173845, 2334385.494354916270822 ], [ 3261843.365758466534317, 2334328.736484027002007 ], [ 3261851.703343122731894, 2334321.618584091775119 ], [ 3261865.608153732959181, 2334309.726804436184466 ], [ 3261889.07032577181235, 2334289.680761751718819 ], [ 3261924.773125598207116, 2334259.161918522790074 ], [ 3261926.999376242980361, 2334257.644271944183856 ], [ 3261955.340040251147002, 2334238.335012110881507 ], [ 3261977.184601165354252, 2334223.455277085769922 ], [ 3262000.964175661094487, 2334207.26131443399936 ], [ 3262027.368264722172171, 2334189.256483470555395 ], [ 3262030.991467328742146, 2334186.793151526711881 ], [ 3262046.411978712305427, 2334175.112303960602731 ], [ 3262068.971655767410994, 2334158.036444936413318 ], [ 3262114.091048705391586, 2334123.884769808035344 ], [ 3262137.226797024719417, 2334106.362689151894301 ], [ 3262181.975586903747171, 2334073.971241369843483 ], [ 3262196.012557062786072, 2334063.812345567159355 ], [ 3262212.106170198880136, 2334055.616594381164759 ], [ 3262238.025906976312399, 2334033.606577858328819 ], [ 3262239.288727865554392, 2334025.163352281786501 ], [ 3262243.180854784790426, 2333999.104979417286813 ], [ 3262244.418652737513185, 2333990.818400564603508 ], [ 3262247.072995973750949, 2333973.046611504629254 ], [ 3262250.175089415162802, 2333952.252712816465646 ], [ 3262256.808653328567743, 2333911.736462399363518 ], [ 3262259.587619763799012, 2333894.724345963448286 ], [ 3262265.142031606286764, 2333860.802240398246795 ], [ 3262265.142353186383843, 2333860.791831005364656 ], [ 3262262.788432453759015, 2333860.677638290449977 ], [ 3262304.091714987996966, 2333690.254035429563373 ], [ 3262328.360914575867355, 2333577.956459414679557 ], [ 3262351.678908608853817, 2333521.092166397720575 ], [ 3262368.766653932631016, 2333518.091265597846359 ], [ 3262411.503193057142198, 2333503.054816152434796 ], [ 3262455.071775994263589, 2333477.813769582659006 ], [ 3262507.610966368578374, 2333445.973230937961489 ], [ 3262501.667201444506645, 2333379.175380690023303 ], [ 3262496.535899024456739, 2333317.2692103930749 ], [ 3262502.291413751896471, 2333291.127440492622554 ], [ 3262503.319372296333313, 2333265.648624999448657 ], [ 3260520.586174079217017, 2333265.648624999448657 ], [ 3260514.255305971950293, 2333271.520434803795069 ], [ 3260448.08958141412586, 2333294.185587308369577 ], [ 3260379.459517856128514, 2333346.728871043771505 ], [ 3260327.474521070253104, 2333411.076223399490118 ], [ 3260268.818707602098584, 2333524.432547921780497 ], [ 3260235.246167629491538, 2333611.296592731494457 ], [ 3260211.767514748964459, 2333714.799882946535945 ], [ 3260235.990641035139561, 2333795.196343305986375 ], [ 3260245.319582223426551, 2333874.524658162146807 ], [ 3260243.052253762260079, 2333873.457670989912003 ], [ 3260243.047158063389361, 2333873.472370176576078 ], [ 3260240.751244337297976, 2333878.585296387318522 ], [ 3260240.808635339140892, 2333878.625965467654169 ], [ 3260236.278633086010814, 2333895.722702783532441 ], [ 3260218.591819467023015, 2333929.827859290409833 ], [ 3260215.245247205719352, 2333943.31645543128252 ], [ 3260218.103784763254225, 2333949.797573876567185 ], [ 3260224.375698915682733, 2333954.948294673580676 ], [ 3260230.772695949301124, 2333955.357261182274669 ], [ 3260290.713911418803036, 2333955.231865300796926 ], [ 3260326.183600728400052, 2333956.999575606081635 ], [ 3260354.666219408623874, 2333955.193657198920846 ], [ 3260395.59749994520098, 2333946.410235641524196 ], [ 3260426.817696992307901, 2333936.927093181293458 ], [ 3260459.084447196684778, 2333924.05272354837507 ], [ 3260472.042842919938266, 2333920.182958389632404 ], [ 3260478.646415935363621, 2333921.418420572765172 ], [ 3260491.576102931052446, 2333927.145499198231846 ], [ 3260530.347939905244857, 2333953.93171823117882 ], [ 3260552.71952061727643, 2333963.603125917259604 ], [ 3260567.094426301307976, 2333963.483682246413082 ], [ 3260581.967581443022937, 2333966.463837272021919 ], [ 3260602.932522082235664, 2333972.383222789503634 ], [ 3260638.233809200581163, 2333987.781750183552504 ], [ 3260672.752476789988577, 2334008.118731690105051 ], [ 3260693.948079660534859, 2334020.3921516998671 ], [ 3260698.338983686175197, 2334027.619115342386067 ], [ 3260699.232222330756485, 2334033.065040056128055 ], [ 3260697.660794195719063, 2334038.142034641932696 ], [ 3260692.983452934771776, 2334043.764589159283787 ], [ 3260682.476178988814354, 2334052.806595566216856 ], [ 3260677.808409686200321, 2334063.187843745574355 ], [ 3260678.108914600685239, 2334063.226409766357392 ], [ 3260687.859283937141299, 2334069.298820916097611 ], [ 3260705.021248411852866, 2334079.986848281696439 ], [ 3260722.775035128928721, 2334106.404997501522303 ], [ 3260737.275113860145211, 2334129.375251892022789 ], [ 3260742.748906396329403, 2334135.78270540619269 ], [ 3260747.470894982572645, 2334141.31736014643684 ], [ 3260757.204764495138079, 2334152.731602236162871 ], [ 3260780.853357169777155, 2334174.084762949496508 ], [ 3260835.048279440496117, 2334211.346938731148839 ], [ 3260835.299182801507413, 2334211.516018373891711 ], [ 3260838.965070499107242, 2334225.640423416625708 ], [ 3260831.093020063824952, 2334243.141437054611742 ], [ 3260821.714089164510369, 2334259.557184909470379 ], [ 3260807.349677653051913, 2334276.686246550641954 ], [ 3260799.263831863179803, 2334286.328087379224598 ], [ 3260797.962442847900093, 2334294.473724314942956 ], [ 3260796.617625459097326, 2334302.91119194123894 ], [ 3260797.660227711312473, 2334303.763362510595471 ], [ 3260807.460102438461035, 2334311.745449296198785 ], [ 3260835.690664418973029, 2334320.215223538689315 ], [ 3260848.757874197792262, 2334320.163109829183668 ], [ 3260882.627491421997547, 2334320.029853532556444 ], [ 3260914.343667245469987, 2334325.197644644416869 ], [ 3260966.710084860213101, 2334325.398437411524355 ], [ 3261025.362132027279586, 2334331.204395326320082 ], [ 3261084.683149722404778, 2334332.863337621092796 ], [ 3261135.384117876179516, 2334341.649388988036662 ], [ 3261138.557960012927651, 2334342.198269044980407 ], [ 3261173.70577185600996, 2334364.576745149679482 ], [ 3261186.504696738440543, 2334372.722304562106729 ], [ 3261193.691433614119887, 2334387.903044827282429 ], [ 3261194.717626733705401, 2334390.077607065904886 ], [ 3261205.09799455339089, 2334412.421580417081714 ], [ 3261223.324102493003011, 2334413.950161703396589 ], [ 3261230.947574946563691, 2334414.600540993735194 ], [ 3261248.765550455078483, 2334414.444859905168414 ], [ 3261271.151780356187373, 2334414.248047276865691 ], [ 3261274.051652199588716, 2334413.992451303638518 ], [ 3261301.584763383492827, 2334411.592424854636192 ], [ 3261343.732953626662493, 2334414.92809378914535 ], [ 3261373.495382435619831, 2334416.409698580391705 ], [ 3261419.986867231782526, 2334421.672307120636106 ], [ 3261427.66167994774878, 2334422.821194153744727 ], [ 3261444.748558311723173, 2334425.38223826745525 ], [ 3261453.693813793361187, 2334426.916987086180598 ], [ 3261464.080670509487391, 2334428.706033505499363 ], [ 3261486.462775363586843, 2334434.173736170865595 ], [ 3261514.032726154197007, 2334446.779215309303254 ], [ 3261528.133503820747137, 2334454.5743686594069 ], [ 3261534.937843453604728, 2334458.332461992278695 ], [ 3261536.16485555190593, 2334459.010151008144021 ], [ 3261555.265097961295396, 2334469.083857882302254 ], [ 3261563.950039559975266, 2334472.927795492112637 ], [ 3261573.509297853335738, 2334473.938564637675881 ], [ 3261585.456391223706305, 2334473.179984898772091 ], [ 3261587.97793633537367, 2334472.473201791755855 ], [ 3261598.28766273194924, 2334469.586507258936763 ], [ 3261602.156016151420772, 2334466.948120141867548 ], [ 3261611.398269485682249, 2334460.645663754083216 ], [ 3261611.562805037945509, 2334460.535564810968935 ], [ 3261621.807679137215018, 2334449.337256488390267 ], [ 3261631.838952106423676, 2334436.836667814292014 ], [ 3261637.59020303376019, 2334435.349477902986109 ], [ 3261680.763151935301721, 2334424.214177038054913 ], [ 3261681.500738515052944, 2334424.196279401890934 ] ] ] } }
]
}
