{
"type": "FeatureCollection",
"name": "Bakio",
"crs": { "type": "name", "properties": { "name": "urn:ogc:def:crs:EPSG::3035" } },
"features": [
{ "type": "Feature", "properties": { "SITE_NAME": "Gaztelugatxe", "ODESIGNATE": "Monumento Natural", "NUT2": 21, "SITE_CODE_": "ES213006", "DESIG_ABBR": "ES19", "SITE_CDDA": "349640_CDDA", "Sup_ha": 157.953349049 }, "geometry": { "type": "Polygon", "coordinates": [ [ [ 3290197.33624328719452, 2347905.011944980360568 ], [ 3290197.326264259871095, 2347905.008010292891413 ], [ 3290197.313936236780137, 2347905.003979806788266 ], [ 3290197.301129922736436, 2347905.000743563752621 ], [ 3290197.288354565855116, 2347904.998313827440143 ], [ 3290197.275495358277112, 2347904.996609216090292 ], [ 3290197.262486080173403, 2347904.995844311546534 ], [ 3290197.249228125438094, 2347904.996036403346807 ], [ 3290197.236099734436721, 2347904.997017711866647 ], [ 3290197.223199517466128, 2347904.998770960140973 ], [ 3290197.210461256094277, 2347905.001510729081929 ], [ 3290197.206861289218068, 2347905.00244607636705 ], [ 3290151.221658976748586, 2347917.111526855267584 ], [ 3290144.401978854089975, 2347909.920899527147412 ], [ 3290161.769086444750428, 2347886.697235287167132 ], [ 3290161.771789911203086, 2347886.693310841917992 ], [ 3290161.779043780174106, 2347886.682499536313117 ], [ 3290161.785757451783866, 2347886.670869485475123 ], [ 3290161.791551245376468, 2347886.659197657834738 ], [ 3290161.796640013344586, 2347886.646938946563751 ], [ 3290161.800776514224708, 2347886.634441156871617 ], [ 3290161.804206552915275, 2347886.621965680271387 ], [ 3290161.806750542018563, 2347886.609036538284272 ], [ 3290161.808457067236304, 2347886.595949685201049 ], [ 3290161.809145109262317, 2347886.582838342990726 ], [ 3290161.809340100735426, 2347886.569813396781683 ], [ 3290161.808516607154161, 2347886.556763959117234 ], [ 3290161.806690822355449, 2347886.543788673356175 ], [ 3290161.804240989498794, 2347886.530719776637852 ], [ 3290161.800886039156467, 2347886.518316941335797 ], [ 3290161.798750061541796, 2347886.511485443450511 ], [ 3290158.19890030939132, 2347875.978500261902809 ], [ 3290158.196926288306713, 2347875.972655280027539 ], [ 3290158.19202597765252, 2347875.960726247169077 ], [ 3290158.186254377476871, 2347875.949051393195987 ], [ 3290158.179726292844862, 2347875.937712091952562 ], [ 3290158.172457918524742, 2347875.926806998439133 ], [ 3290158.164580253418535, 2347875.916516123339534 ], [ 3290158.155994691420346, 2347875.906856762245297 ], [ 3290158.146652643103153, 2347875.897532956674695 ], [ 3290158.136749892495573, 2347875.889119325671345 ], [ 3290158.126304072327912, 2347875.881105343811214 ], [ 3290158.115478569641709, 2347875.873868321068585 ], [ 3290158.104289585724473, 2347875.867506927344948 ], [ 3290158.09844785137102, 2347875.86467403313145 ], [ 3290103.50664986949414, 2347849.403071969747543 ], [ 3290103.500512308441103, 2347849.400290921330452 ], [ 3290103.488547773566097, 2347849.395384822972119 ], [ 3290103.476219755597413, 2347849.391354346647859 ], [ 3290103.463397252373397, 2347849.388019464444369 ], [ 3290103.450819118879735, 2347849.385555177927017 ], [ 3290103.437877502292395, 2347849.383966512046754 ], [ 3290103.424703400582075, 2347849.383433490525931 ], [ 3290103.41151166614145, 2347849.383411005605012 ], [ 3290103.406105776317418, 2347849.383850924205035 ], [ 3290084.017959567718208, 2347850.756311825010926 ], [ 3290047.483175193890929, 2347837.896538241300732 ], [ 3290047.47332573775202, 2347837.893392784986645 ], [ 3290047.460618044249713, 2347837.890139289665967 ], [ 3290047.447941303253174, 2347837.887692289892584 ], [ 3290047.434999690391123, 2347837.886103638447821 ], [ 3290047.421875614672899, 2347837.885257382877171 ], [ 3290047.408633862156421, 2347837.885548155754805 ], [ 3290047.395899915602058, 2347837.886460364796221 ], [ 3290047.382901094853878, 2347837.888230917043984 ], [ 3290047.369867010973394, 2347837.891022559255362 ], [ 3290025.610525243915617, 2347843.227051366586238 ], [ 3290025.598113772459328, 2347843.230545817874372 ], [ 3290025.585815670434386, 2347843.234730843454599 ], [ 3290025.573647132143378, 2347843.239705082960427 ], [ 3290025.561952572315931, 2347843.24571265373379 ], [ 3290025.550469989422709, 2347843.252393503207713 ], [ 3290025.539807238616049, 2347843.259742611087859 ], [ 3290025.529503661673516, 2347843.268043681047857 ], [ 3290025.519429694395512, 2347843.276507487986237 ], [ 3290025.510338948108256, 2347843.286016876809299 ], [ 3290025.501641204580665, 2347843.296066336333752 ], [ 3290025.49371470278129, 2347843.306488085072488 ], [ 3290025.486378422938287, 2347843.317415344528854 ], [ 3290025.479714776854962, 2347843.32873217901215 ], [ 3290025.474150594789535, 2347843.340566774364561 ], [ 3290025.46902943495661, 2347843.352628191001713 ], [ 3290025.464629498310387, 2347843.365375147201121 ], [ 3290025.461314263753593, 2347843.377932004630566 ], [ 3290025.46035194164142, 2347843.381957292556763 ], [ 3290015.702392681501806, 2347889.5965138329193 ], [ 3290002.8071298468858, 2347889.860371683258563 ], [ 3289973.741288580466062, 2347872.683339499868453 ], [ 3289961.497371716424823, 2347859.182274849619716 ], [ 3289959.274313626345247, 2347828.68636877136305 ], [ 3289959.273717266507447, 2347828.681500253267586 ], [ 3289959.27210489846766, 2347828.668589045293629 ], [ 3289959.269948025234044, 2347828.656686684116721 ], [ 3289952.989811724051833, 2347800.831869722343981 ], [ 3289952.986343416385353, 2347800.818776322994381 ], [ 3289952.981969990767539, 2347800.806348993442953 ], [ 3289952.977135909721255, 2347800.794205379672348 ], [ 3289952.971348123624921, 2347800.78243187488988 ], [ 3289952.964868634939194, 2347800.771388540510088 ], [ 3289952.957600270863622, 2347800.760483449324965 ], [ 3289952.949706422165036, 2347800.750093937851489 ], [ 3289952.940989870578051, 2347800.74025456327945 ], [ 3289952.931795030366629, 2347800.731209443416446 ], [ 3289952.921745095402002, 2347800.722517159767449 ], [ 3289952.911742309574038, 2347800.714730022475123 ], [ 3289952.900620992295444, 2347800.707544868811965 ], [ 3289952.88943202001974, 2347800.701183501631021 ], [ 3289952.885773022193462, 2347800.699287476018071 ], [ 3289907.813023619353771, 2347778.151688750367612 ], [ 3289907.804753357544541, 2347778.147657612804323 ], [ 3289907.792887443676591, 2347778.142734257504344 ], [ 3289907.787109062075615, 2347778.140905180480331 ], [ 3289850.828570302110165, 2347759.220488522201777 ], [ 3289814.440206583589315, 2347723.524447185918689 ], [ 3289813.69872289756313, 2347722.647504786495119 ], [ 3289813.691660773474723, 2347722.639709770679474 ], [ 3289813.682908967137337, 2347722.630891487933695 ], [ 3289791.737961236853153, 2347702.118921347893775 ], [ 3289791.72800992615521, 2347702.110211798921227 ], [ 3289791.717612715438008, 2347702.102493801154196 ], [ 3289791.706787240225822, 2347702.095256821252406 ], [ 3289791.69535247515887, 2347702.088634075131267 ], [ 3289791.683504201937467, 2347702.08320018928498 ], [ 3289791.67900774627924, 2347702.081146460026503 ], [ 3289705.680237282533199, 2347666.408054718282074 ], [ 3289705.67258820310235, 2347666.405335608869791 ], [ 3289705.660244012717158, 2347666.401206532027572 ], [ 3289705.64773355750367, 2347666.39791851863265 ], [ 3289705.634859615936875, 2347666.395506128668785 ], [ 3289705.62191801937297, 2347666.39391752704978 ], [ 3289705.608695352450013, 2347666.393088610842824 ], [ 3289705.595848050899804, 2347666.393310304731131 ], [ 3289705.582719680387527, 2347666.394291698001325 ], [ 3289705.56972087174654, 2347666.396062307525426 ], [ 3289628.436643769498914, 2347679.914829088374972 ], [ 3289591.675091135781258, 2347675.721297358162701 ], [ 3289551.636915447656065, 2347653.331529967486858 ], [ 3289551.632386605720967, 2347653.329278943594545 ], [ 3289551.620769390836358, 2347653.323398635722697 ], [ 3289551.608509061858058, 2347653.318544459529221 ], [ 3289551.596181074623019, 2347653.314514056313783 ], [ 3289551.582635947968811, 2347653.3111029304564 ], [ 3289514.924192905891687, 2347645.526862815953791 ], [ 3289514.9135517263785, 2347645.525074069388211 ], [ 3289514.900511532090604, 2347645.523502781055868 ], [ 3289514.887683314271271, 2347645.522604774683714 ], [ 3289514.879042398650199, 2347645.522495281416923 ], [ 3289482.329689552076161, 2347646.152906696312129 ], [ 3289482.325023962650448, 2347646.152912440244108 ], [ 3289482.311024319380522, 2347646.154148062225431 ], [ 3289464.546293548308313, 2347648.254231992177665 ], [ 3289434.362305358517915, 2347644.417701897211373 ], [ 3289434.354668171610683, 2347644.416909053456038 ], [ 3289434.341757546178997, 2347644.416127000935376 ], [ 3289434.328598241787404, 2347644.416301942896098 ], [ 3289434.315486086532474, 2347644.417382042389363 ], [ 3289434.302569711115211, 2347644.419036768376827 ], [ 3289434.296307306271046, 2347644.420438768342137 ], [ 3289403.643121729139239, 2347650.807820942718536 ], [ 3289403.636563498526812, 2347650.809274791739881 ], [ 3289403.62385623017326, 2347650.81282120430842 ], [ 3289403.611409525386989, 2347650.817336862906814 ], [ 3289403.599536843132228, 2347650.822259372100234 ], [ 3289403.590819656848907, 2347650.826628860086203 ], [ 3289402.130928941071033, 2347651.589938577264547 ], [ 3289402.127852986101061, 2347651.59159405855462 ], [ 3289402.117209327872843, 2347651.597823535557836 ], [ 3289370.703245445620269, 2347671.312871490605175 ], [ 3289370.692204485181719, 2347671.320388504769653 ], [ 3289370.681852350011468, 2347671.328393728006631 ], [ 3289370.677473973017186, 2347671.332002822309732 ], [ 3289351.254932230804116, 2347688.421081461943686 ], [ 3289311.583385749254376, 2347706.011116060428321 ], [ 3289266.216245884075761, 2347702.818427519872785 ], [ 3289222.185751834884286, 2347685.686069147661328 ], [ 3289222.182206216268241, 2347685.684863718226552 ], [ 3289222.169862050563097, 2347685.680734721012414 ], [ 3289222.157055794727057, 2347685.677498638629913 ], [ 3289222.144477711990476, 2347685.675034492276609 ], [ 3289222.131536148488522, 2347685.673445981461555 ], [ 3289222.118412126787007, 2347685.672599885147065 ], [ 3289222.105170427355915, 2347685.672890804242343 ], [ 3289222.092042096890509, 2347685.673872298095375 ], [ 3289222.079141940921545, 2347685.675625731237233 ], [ 3289222.06640373962, 2347685.678365690167993 ], [ 3289222.053696492686868, 2347685.681912146508694 ], [ 3289222.041398441884667, 2347685.686097322031856 ], [ 3289222.029278540518135, 2347685.691367676947266 ], [ 3289222.017469227779657, 2347685.697294039651752 ], [ 3289222.009243668988347, 2347685.70218635071069 ], [ 3289183.450698332861066, 2347709.206607221160084 ], [ 3289183.447835799306631, 2347709.208326801657677 ], [ 3289183.437173105310649, 2347709.215676073916256 ], [ 3289183.426722388248891, 2347709.223698628135026 ], [ 3289183.41796422097832, 2347709.231526041403413 ], [ 3289136.577060790732503, 2347752.964131813962013 ], [ 3289136.567312243394554, 2347752.973959661088884 ], [ 3289136.558582175057381, 2347752.983811983838677 ], [ 3289136.550770543515682, 2347752.994315264280885 ], [ 3289136.543418131303042, 2347753.00514402333647 ], [ 3289136.537000351585448, 2347753.016722402535379 ], [ 3289136.531108008697629, 2347753.028411675710231 ], [ 3289136.526117905043066, 2347753.040653248783201 ], [ 3289136.521981458179653, 2347753.053151179105043 ], [ 3289136.518551468849182, 2347753.06562678469345 ], [ 3289136.517739227041602, 2347753.068712375126779 ], [ 3289126.232615455985069, 2347800.44588966621086 ], [ 3289109.53648841381073, 2347807.83629615791142 ], [ 3289110.624019465409219, 2347781.065672206226736 ], [ 3289110.624167262110859, 2347781.051742016337812 ], [ 3289110.623327536974102, 2347781.038593856617808 ], [ 3289110.622776880860329, 2347781.035239660181105 ], [ 3289099.635168599430472, 2347685.529216149356216 ], [ 3289099.63455316843465, 2347685.525467352941632 ], [ 3289092.853740940336138, 2347634.953262342140079 ], [ 3289092.85278540616855, 2347634.947441836353391 ], [ 3289092.850186948664486, 2347634.934703420381993 ], [ 3289092.846783422864974, 2347634.922004604712129 ], [ 3289092.842738222330809, 2347634.90972273144871 ], [ 3289092.837608320172876, 2347634.897630958817899 ], [ 3289092.831820546649396, 2347634.885857469402254 ], [ 3289092.825308682862669, 2347634.874616846442223 ], [ 3289092.818072728812695, 2347634.863909101113677 ], [ 3289092.810096489265561, 2347634.853635565377772 ], [ 3289092.801462377421558, 2347634.843680320307612 ], [ 3289092.792464783415198, 2347634.834600701462477 ], [ 3289092.782529686577618, 2347634.825989866163582 ], [ 3289092.77211630390957, 2347634.818173293024302 ], [ 3289092.761307047214359, 2347634.811035041697323 ], [ 3289092.758698934689164, 2347634.809360834304243 ], [ 3289047.839396172203124, 2347608.175692541059107 ], [ 3289047.830569551326334, 2347608.170744095928967 ], [ 3289047.81898474926129, 2347608.165061162319034 ], [ 3289047.806724444031715, 2347608.160207054112107 ], [ 3289047.794380290433764, 2347608.156078087165952 ], [ 3289047.781869870144874, 2347608.152790176216513 ], [ 3289047.769094579387456, 2347608.150360623374581 ], [ 3289047.756054416298866, 2347608.148789420258254 ], [ 3289047.742978988680989, 2347608.148239302448928 ], [ 3289047.729984538629651, 2347608.148182456381619 ], [ 3289047.716954826377332, 2347608.149146699346602 ], [ 3289047.703988458029926, 2347608.151114744134247 ], [ 3289047.691217871382833, 2347608.153657422401011 ], [ 3289047.678510630968958, 2347608.157203912734985 ], [ 3289047.665965343825519, 2347608.161736925598234 ], [ 3289047.661838524509221, 2347608.163170643616468 ], [ 3289045.530969766899943, 2347609.042565285228193 ], [ 3289038.995998863130808, 2347611.1997683448717 ], [ 3289019.930177546106279, 2347614.541506108827889 ], [ 3289007.974773594178259, 2347613.598716030828655 ], [ 3288999.798249360173941, 2347613.003260951954871 ], [ 3288993.2260583168827, 2347612.127640368416905 ], [ 3288986.894165673293173, 2347611.207976464182138 ], [ 3288986.883277279790491, 2347611.206535603385419 ], [ 3288986.870201857760549, 2347611.205985502805561 ], [ 3288986.863187295384705, 2347611.205895511433482 ], [ 3288977.534684782847762, 2347611.319494230207056 ], [ 3288967.971178158186376, 2347610.966826789546758 ], [ 3288967.968336129561067, 2347610.966817436739802 ], [ 3288967.955390272662044, 2347610.967056558001786 ], [ 3288967.942755001597106, 2347610.967951685190201 ], [ 3288960.63697566324845, 2347611.7420544764027 ], [ 3288954.278881167061627, 2347611.338196600787342 ], [ 3288954.270700931549072, 2347611.337803467176855 ], [ 3288954.26168180257082, 2347611.33786183455959 ], [ 3288947.604927705600858, 2347611.49075976992026 ], [ 3288940.897862340323627, 2347611.145629663020372 ], [ 3288934.046872439794242, 2347610.827856482006609 ], [ 3288927.809051029384136, 2347609.405365479178727 ], [ 3288923.635872233659029, 2347606.609859585762024 ], [ 3288918.162881347816437, 2347603.003099383786321 ], [ 3288912.332116542384028, 2347598.952198129147291 ], [ 3288912.327458146959543, 2347598.949157919734716 ], [ 3288905.581587533466518, 2347594.549360719509423 ], [ 3288905.576961528509855, 2347594.546517812646925 ], [ 3288905.573483569547534, 2347594.54448860976845 ], [ 3288901.574971672147512, 2347592.200554923620075 ], [ 3288901.566964882425964, 2347592.196274737361819 ], [ 3288901.555068065412343, 2347592.19054501876235 ], [ 3288901.549800385721028, 2347592.188119050115347 ], [ 3288895.466922073625028, 2347589.702351397834718 ], [ 3288895.460291500668973, 2347589.699656846933067 ], [ 3288895.44784874515608, 2347589.695545180235058 ], [ 3288895.437587272375822, 2347589.692979536484927 ], [ 3288889.26910831220448, 2347588.236212938092649 ], [ 3288889.25526596326381, 2347588.233462976757437 ], [ 3288889.242258201353252, 2347588.232089108787477 ], [ 3288889.229150393977761, 2347588.231341718230397 ], [ 3288889.215991128236055, 2347588.231516771949828 ], [ 3288889.203158642631024, 2347588.232446468435228 ], [ 3288889.190159895922989, 2347588.234217247460037 ], [ 3288887.495269590523094, 2347588.531272827647626 ], [ 3288887.485062847845256, 2347588.533366188406944 ], [ 3288850.182471927255392, 2347597.101664831861854 ], [ 3288850.168482786975801, 2347597.105436033103615 ], [ 3288850.15600373595953, 2347597.109754506964236 ], [ 3288850.144064879510552, 2347597.114891715347767 ], [ 3288850.132370391860604, 2347597.120899516623467 ], [ 3288850.120986491441727, 2347597.12756332475692 ], [ 3288850.109929371625185, 2347597.134981786366552 ], [ 3288850.099577273707837, 2347597.142987115308642 ], [ 3288850.089847785886377, 2347597.151695261709392 ], [ 3288850.081565038301051, 2347597.159946848638356 ], [ 3288825.581927983090281, 2347623.167442144826055 ], [ 3288790.252832174766809, 2347597.531013385392725 ], [ 3288765.486801823601127, 2347571.461879122070968 ], [ 3288747.242919421754777, 2347537.665084739681333 ], [ 3288739.905402329750359, 2347508.021980193443596 ], [ 3288739.902748114429414, 2347508.011991795152426 ], [ 3288739.898702927865088, 2347507.999709918629378 ], [ 3288739.893573042470962, 2347507.987618146464229 ], [ 3288739.8878014809452, 2347507.975943318102509 ], [ 3288739.881273439154029, 2347507.964604061096907 ], [ 3288739.874005111865699, 2347507.95369901927188 ], [ 3288739.866012695245445, 2347507.943326851353049 ], [ 3288739.857443384360522, 2347507.933766230009496 ], [ 3288739.848101398441941, 2347507.924442533403635 ], [ 3288739.838395929895341, 2347507.915994467679411 ], [ 3288739.828081175684929, 2347507.908160645980388 ], [ 3288739.818715810310096, 2347507.901784285437316 ], [ 3288718.298109017312527, 2347494.419841995462775 ], [ 3288718.286034063901752, 2347494.413027120754123 ], [ 3288718.27423586929217, 2347494.407280141487718 ], [ 3288718.262172800954431, 2347494.402391518000513 ], [ 3288718.249828665517271, 2347494.398262593895197 ], [ 3288718.237137243151665, 2347494.395107952412218 ], [ 3288718.224263361655176, 2347494.392695731949061 ], [ 3288718.211502848193049, 2347494.390974077861756 ], [ 3288718.198395049199462, 2347494.390226721763611 ], [ 3288718.18513718014583, 2347494.390419077128172 ], [ 3288718.172107484657317, 2347494.391383375972509 ], [ 3288718.159108742140234, 2347494.393154176417738 ], [ 3288718.146370562259108, 2347494.395894222892821 ], [ 3288718.133663336746395, 2347494.39944077283144 ], [ 3288718.12138150120154, 2347494.403724693693221 ], [ 3288718.109245424158871, 2347494.408896492328495 ], [ 3288718.09755093138665, 2347494.414904310368001 ], [ 3288718.086167023517191, 2347494.421568134333938 ], [ 3288718.075192310381681, 2347494.428870677482337 ], [ 3288692.59925216762349, 2347513.074434518814087 ], [ 3288677.108034240547568, 2347513.279676252044737 ], [ 3288666.780419376678765, 2347498.945167564786971 ], [ 3288666.772525569424033, 2347498.934778115712106 ], [ 3288666.763940065167844, 2347498.925118851009756 ], [ 3288666.754614274948835, 2347498.915893806144595 ], [ 3288666.744908809661865, 2347498.907445750199258 ], [ 3288666.734561665914953, 2347498.89941462688148 ], [ 3288666.723539022263139, 2347498.892212342936546 ], [ 3288666.712251503486186, 2347498.885868405457586 ], [ 3288666.70045331120491, 2347498.880121437832713 ], [ 3288666.688488854561001, 2347498.875215535983443 ], [ 3288666.676160916220397, 2347498.871185267809778 ], [ 3288666.663354693446308, 2347498.867949273437262 ], [ 3288666.650579423643649, 2347498.865519776940346 ], [ 3288666.637720305006951, 2347498.863815420307219 ], [ 3288666.624711118172854, 2347498.863050781190395 ], [ 3288666.613079582806677, 2347498.863262585829943 ], [ 3288630.295313778799027, 2347500.161887990776449 ], [ 3288594.121731792576611, 2347481.162283211946487 ], [ 3288594.11027801502496, 2347481.156780355609953 ], [ 3288594.09819875843823, 2347481.151793094351888 ], [ 3288594.08562502078712, 2347481.147501449566334 ], [ 3288594.073130822740495, 2347481.144312262535095 ], [ 3288594.060240754391998, 2347481.141801411751658 ], [ 3288594.047299226280302, 2347481.140213005244732 ], [ 3288594.038396350108087, 2347481.139743578620255 ], [ 3288563.86518031777814, 2347479.831571807153523 ], [ 3288563.862042468041182, 2347479.831614326685667 ], [ 3288543.800453960895538, 2347479.288366966880858 ], [ 3288543.786769278347492, 2347479.288431186694652 ], [ 3288543.773640987463295, 2347479.289412811398506 ], [ 3288543.760740866418928, 2347479.291166356764734 ], [ 3288543.748002701904625, 2347479.293906442355365 ], [ 3288543.735295489430428, 2347479.297453025821596 ], [ 3288543.72301366738975, 2347479.301736986264586 ], [ 3288543.710893799550831, 2347479.307007470168173 ], [ 3288543.699084517545998, 2347479.312933961395174 ], [ 3288543.687799233011901, 2347479.319580530747771 ], [ 3288543.677037947811186, 2347479.326947200112045 ], [ 3288509.635330622084439, 2347504.068651326466352 ], [ 3288485.242890862282366, 2347521.019310710020363 ], [ 3288465.46886280272156, 2347528.524503621272743 ], [ 3288408.389400226064026, 2347502.6411078767851 ], [ 3288413.670714510604739, 2347480.554681452922523 ], [ 3288413.67327609937638, 2347480.541241573169827 ], [ 3288413.674998797476292, 2347480.528253207914531 ], [ 3288413.675982648041099, 2347480.515089866705239 ], [ 3288413.675980411469936, 2347480.50209935894236 ], [ 3288413.675042110029608, 2347480.488968447316438 ], [ 3288413.673429742455482, 2347480.476057165767998 ], [ 3288413.67081509437412, 2347480.463220078032464 ], [ 3288413.667526379227638, 2347480.450602616649121 ], [ 3288413.663366382010281, 2347480.438239364884794 ], [ 3288413.658252687193453, 2347480.426246243994683 ], [ 3288413.652464928571135, 2347480.414472770411521 ], [ 3288413.645936886779964, 2347480.403133517596871 ], [ 3288413.638700951356441, 2347480.392425793688744 ], [ 3288413.630790951196104, 2347480.381937710568309 ], [ 3288413.628137131687254, 2347480.378749162424356 ], [ 3288401.483965001534671, 2347466.268771814182401 ], [ 3288401.478033320512623, 2347466.262301115319133 ], [ 3288401.469035754911602, 2347466.253221551887691 ], [ 3288401.459002079442143, 2347466.244628057815135 ], [ 3288401.448687336873263, 2347466.236794270575047 ], [ 3288401.437878115102649, 2347466.2296561030671 ], [ 3288401.426443413831294, 2347466.223033525981009 ], [ 3288401.414891037158668, 2347466.217547981999815 ], [ 3288401.40263076685369, 2347466.212693968322128 ], [ 3288401.390254256315529, 2347466.208367785904557 ], [ 3288401.377743875607848, 2347466.205079979263246 ], [ 3288401.364870013669133, 2347466.202667817939073 ], [ 3288401.351928498595953, 2347466.201079446822405 ], [ 3288401.338738307356834, 2347466.200448077172041 ], [ 3288401.329719200264663, 2347466.20050650741905 ], [ 3288385.020174629520625, 2347466.568429793231189 ], [ 3288385.357335346750915, 2347465.756166859529912 ], [ 3288385.359929729253054, 2347465.749724145513028 ], [ 3288385.36418099142611, 2347465.73730749823153 ], [ 3288385.36744760395959, 2347465.724454493727535 ], [ 3288385.370007758960128, 2347465.711623813025653 ], [ 3288385.371812871657312, 2347465.698519510217011 ], [ 3288385.372500899247825, 2347465.685408019460738 ], [ 3288385.372695881873369, 2347465.672382946126163 ], [ 3288385.371872385498136, 2347465.659333396237344 ], [ 3288385.369947999250144, 2347465.646375315263867 ], [ 3288385.369170616846532, 2347465.641639980953187 ], [ 3288382.569859302137047, 2347450.908473130781204 ], [ 3288382.568334060721099, 2347450.900418173987418 ], [ 3288382.56494674179703, 2347450.887817998416722 ], [ 3288382.560786750167608, 2347450.875454743392766 ], [ 3288382.555755474139005, 2347450.863345691002905 ], [ 3288382.552208035252988, 2347450.855949638411403 ], [ 3288371.504726041574031, 2347428.942206350620836 ], [ 3288371.502354727126658, 2347428.937648894265294 ], [ 3288371.495875279419124, 2347428.926605604123324 ], [ 3288371.488689376506954, 2347428.915584645234048 ], [ 3288371.48041734052822, 2347428.905363005585968 ], [ 3288371.471831844653934, 2347428.895703752525151 ], [ 3288371.462785698939115, 2347428.88632823433727 ], [ 3288371.452850637026131, 2347428.877717460505664 ], [ 3288371.442453485447913, 2347428.869999610353261 ], [ 3288371.431628072634339, 2347428.862762790173292 ], [ 3288371.428790360689163, 2347428.860925866290927 ], [ 3288343.560340711846948, 2347412.432735500857234 ], [ 3288343.552088140510023, 2347412.428193970583379 ], [ 3288343.540191356558353, 2347412.422464321833104 ], [ 3288343.52822691667825, 2347412.417558460496366 ], [ 3288343.515898997429758, 2347412.413528245408088 ], [ 3288343.503191402181983, 2347412.410275018308312 ], [ 3288343.490317542571574, 2347412.407862857915461 ], [ 3288343.477376029361039, 2347412.406274490989745 ], [ 3288343.464153448585421, 2347412.405445820651948 ], [ 3288343.451306234113872, 2347412.405667769722641 ], [ 3288343.43816175730899, 2347412.406550767831504 ], [ 3288343.42516303807497, 2347412.408321636728942 ], [ 3288343.412441077642143, 2347412.411160409450531 ], [ 3288343.408923555631191, 2347412.411979924887419 ], [ 3288320.130970967933536, 2347418.514005502220243 ], [ 3288247.891741172410548, 2347362.742664264515042 ], [ 3288247.885295951738954, 2347362.73800893779844 ], [ 3288247.874470547772944, 2347362.730772125069052 ], [ 3288247.863249271642417, 2347362.724213651381433 ], [ 3288247.851451102644205, 2347362.718466735910624 ], [ 3288247.839388061314821, 2347362.713578172959387 ], [ 3288247.826862930320203, 2347362.709582533687353 ], [ 3288247.814352557528764, 2347362.706294752657413 ], [ 3288247.801478704903275, 2347362.703882610425353 ], [ 3288247.788537194952369, 2347362.702294249087572 ], [ 3288247.783823047764599, 2347362.70200411695987 ], [ 3288197.209672319237143, 2347359.409243219532073 ], [ 3288186.730402102693915, 2347346.101043094415218 ], [ 3288186.727502486202866, 2347346.097593162208796 ], [ 3288186.718884614296257, 2347346.087736623361707 ], [ 3288186.709689847193658, 2347346.078691633883864 ], [ 3288186.699837212450802, 2347346.069964943919331 ], [ 3288186.693901232909411, 2347346.065321852453053 ], [ 3288165.354894255287945, 2347330.015003610868007 ], [ 3288165.350219683256, 2347330.011864781845361 ], [ 3288165.339509088546038, 2347330.0047093546018 ], [ 3288165.328074406366795, 2347329.998086811508983 ], [ 3288165.316423436161131, 2347329.992618571966887 ], [ 3288165.304459008853883, 2347329.987712741829455 ], [ 3288165.291917687747627, 2347329.983618461992592 ], [ 3288165.279374928213656, 2347329.980133381206542 ], [ 3288165.266501079313457, 2347329.977721247356385 ], [ 3288165.25349335744977, 2347329.976347495801747 ], [ 3288165.240385588724166, 2347329.97560022585094 ], [ 3288165.227522187866271, 2347329.975723553448915 ], [ 3288165.214393913280219, 2347329.976705229841173 ], [ 3288165.201395201962441, 2347329.978476135060191 ], [ 3288165.18865705281496, 2347329.981216282583773 ], [ 3288165.18515572603792, 2347329.982134453952312 ], [ 3288118.46873212326318, 2347342.225509854499251 ], [ 3288086.353871324565262, 2347330.637082355096936 ], [ 3288048.206130484584719, 2347312.594810541719198 ], [ 3288072.22485220246017, 2347274.047150336671621 ], [ 3288072.231632048264146, 2347274.035305383149534 ], [ 3288072.237327198497951, 2347274.023650547023863 ], [ 3288072.242301136255264, 2347274.011310196015984 ], [ 3288072.246453813742846, 2347273.998910808935761 ], [ 3288072.250131078995764, 2347273.986087284982204 ], [ 3288072.252707455307245, 2347273.9733552406542 ], [ 3288072.254134356044233, 2347273.960418701637536 ], [ 3288072.25511823548004, 2347273.947255340404809 ], [ 3288072.254985029809177, 2347273.934084795415401 ], [ 3288072.254193955101073, 2347273.921232545748353 ], [ 3288072.252565423958004, 2347273.908222605939955 ], [ 3288072.249918418005109, 2347273.895188202615827 ], [ 3288072.246563516091555, 2347273.88278532680124 ], [ 3288072.242469768971205, 2347273.870207482017577 ], [ 3288072.23733991291374, 2347273.85811571823433 ], [ 3288072.231864207424223, 2347273.846389051526785 ], [ 3288072.225384783931077, 2347273.835345766507089 ], [ 3288072.217804469633847, 2347273.824393955525011 ], [ 3288072.209926892071962, 2347273.814103195443749 ], [ 3288072.201194226276129, 2347273.804165291134268 ], [ 3288072.192212882451713, 2347273.795184399932623 ], [ 3288072.182261649519205, 2347273.786475004628301 ], [ 3288072.171848325524479, 2347273.778658530674875 ], [ 3288072.161039127968252, 2347273.771520389709622 ], [ 3288072.149653038941324, 2347273.765193813014776 ], [ 3288072.141137044876814, 2347273.760901451576501 ], [ 3288033.383012130856514, 2347255.689617014024407 ], [ 3288033.379729968030006, 2347255.688162473030388 ], [ 3288033.367765548173338, 2347255.683256649877876 ], [ 3288033.355421452783048, 2347255.679127824027091 ], [ 3288033.342582876328379, 2347255.675694614648819 ], [ 3288033.329807643312961, 2347255.673265215009451 ], [ 3288033.316799927502871, 2347255.671891484409571 ], [ 3288033.303873187862337, 2347255.671011013910174 ], [ 3288033.290730159729719, 2347255.671284859068692 ], [ 3288033.277601890265942, 2347255.672266559675336 ], [ 3288033.264701791107655, 2347255.674020203296095 ], [ 3288033.25196364428848, 2347255.676760366652161 ], [ 3288033.239256450906396, 2347255.680307048838586 ], [ 3288033.226958448532969, 2347255.684492440894246 ], [ 3288033.214838594198227, 2347255.6897630142048 ], [ 3288033.202996932901442, 2347255.695492282044142 ], [ 3288033.191711657680571, 2347255.702138947322965 ], [ 3288033.180982770398259, 2347255.709703008644283 ], [ 3288033.17054826952517, 2347255.717824406921864 ], [ 3288033.160621571354568, 2347255.726567247882485 ], [ 3288033.151466109789908, 2347255.73568236688152 ], [ 3288033.142686012201011, 2347255.745848095975816 ], [ 3288033.134858172852546, 2347255.756252883467823 ], [ 3288033.131891288794577, 2347255.760426606982946 ], [ 3288011.659052180591971, 2347287.659515565261245 ], [ 3288006.550177047029138, 2347274.221138205379248 ], [ 3288006.545440185349435, 2347274.209586503915489 ], [ 3288006.539898260962218, 2347274.198074430692941 ], [ 3288006.533370249904692, 2347274.1867351885885 ], [ 3288006.525904738344252, 2347274.175864747259766 ], [ 3288006.517912356182933, 2347274.165492616593838 ], [ 3288006.509326885454357, 2347274.155833397060633 ], [ 3288006.50029695732519, 2347274.146556556690484 ], [ 3288006.490394309163094, 2347274.138143115676939 ], [ 3288006.479948597028852, 2347274.130129347555339 ], [ 3288006.469123207032681, 2347274.122892566025257 ], [ 3288006.457737118937075, 2347274.116565990727395 ], [ 3288006.446136181242764, 2347274.110784532502294 ], [ 3288006.433875936549157, 2347274.105930573306978 ], [ 3288006.421548037324101, 2347274.101900404784828 ], [ 3288006.4090376785025, 2347274.098612649831921 ], [ 3288006.396163838449866, 2347274.09620054718107 ], [ 3288006.383206147700548, 2347274.094513575080782 ], [ 3288006.370098388753831, 2347274.093766332603991 ], [ 3288006.357136387843639, 2347274.093906969763339 ], [ 3288006.344008122105151, 2347274.094888677820563 ], [ 3288006.331108026206493, 2347274.096642323769629 ], [ 3288006.318271275609732, 2347274.099399785045534 ], [ 3288006.30556408688426, 2347274.102946471422911 ], [ 3288006.298724826890975, 2347274.105160152539611 ], [ 3288003.452225002925843, 2347275.111648676916957 ], [ 3288003.446798656135798, 2347275.113817697856575 ], [ 3288003.434728830121458, 2347275.118775033857673 ], [ 3288003.422935760580003, 2347275.124800274148583 ], [ 3288003.41155188344419, 2347275.131464227102697 ], [ 3288003.400889221113175, 2347275.138813708443195 ], [ 3288003.390142707619816, 2347275.146888323593885 ], [ 3288003.380511840805411, 2347275.155579315498471 ], [ 3288003.371125341858715, 2347275.165140901692212 ], [ 3288003.362576296087354, 2347275.174860178492963 ], [ 3288003.354666051454842, 2347275.185380908194929 ], [ 3288003.347460825927556, 2347275.196488509885967 ], [ 3288003.34069861844182, 2347275.207822928205132 ], [ 3288003.334838647861034, 2347275.219709648285061 ], [ 3288003.329816131852567, 2347275.231754049658775 ], [ 3288003.325679655652493, 2347275.24425210757181 ], [ 3288003.32284416211769, 2347275.255405723117292 ], [ 3288000.737799229100347, 2347285.954687446821481 ], [ 3288000.377979995217174, 2347287.444016613997519 ], [ 3288000.375154950190336, 2347287.457705683540553 ], [ 3288000.373597058933228, 2347287.470462201628834 ], [ 3288000.372711796313524, 2347287.483608291950077 ], [ 3288000.372762597631663, 2347287.496894781012088 ], [ 3288000.373586070723832, 2347287.509944343008101 ], [ 3288000.375214608386159, 2347287.52295428654179 ], [ 3288000.377813037484884, 2347287.535692740697414 ], [ 3288000.381216530688107, 2347287.548391576390713 ], [ 3288000.385360305197537, 2347287.560656180605292 ], [ 3288000.387549152597785, 2347287.565956046804786 ], [ 3288000.951917605474591, 2347288.944142359308898 ], [ 3288000.8589450372383, 2347290.437444878742099 ], [ 3288000.858570059761405, 2347290.443194127175957 ], [ 3288000.858687079977244, 2347290.456266027875245 ], [ 3288000.859510553069413, 2347290.469315586611629 ], [ 3288000.861139091663063, 2347290.482325532007962 ], [ 3288000.863786106463522, 2347290.495359939523041 ], [ 3288000.867141014430672, 2347290.507762816268951 ], [ 3288000.871234768070281, 2347290.520340667571872 ], [ 3288000.872590470593423, 2347290.523655238561332 ], [ 3288002.383226870093495, 2347294.318535088561475 ], [ 3288002.38668900821358, 2347294.327265473082662 ], [ 3288002.392575350124389, 2347294.339021663181484 ], [ 3288002.399054777808487, 2347294.350064938887954 ], [ 3288002.406323076225817, 2347294.360969952307642 ], [ 3288002.414496484212577, 2347294.371208859141916 ], [ 3288002.42308195726946, 2347294.380868079606444 ], [ 3288002.432128083892167, 2347294.390243578702211 ], [ 3288002.442129341885448, 2347294.398639727849513 ], [ 3288002.452476447913796, 2347294.406670780386776 ], [ 3288002.457479232456535, 2347294.409955052658916 ], [ 3288003.593042616266757, 2347295.163717934861779 ], [ 3288003.877672608476132, 2347297.218864614609629 ], [ 3288003.923902831971645, 2347297.55238200770691 ], [ 3288004.479350716806948, 2347301.51488893199712 ], [ 3288004.480095700360835, 2347301.519426963292062 ], [ 3288004.482808935455978, 2347301.532246784307063 ], [ 3288004.486113823018968, 2347301.544962903019041 ], [ 3288004.49028999125585, 2347301.55742481071502 ], [ 3288004.492983766831458, 2347301.564564517699182 ], [ 3288006.874360383953899, 2347307.215949369594455 ], [ 3288007.782251256052405, 2347311.994887294247746 ], [ 3288002.299434239044785, 2347316.947367747314274 ], [ 3288000.628152100369334, 2347318.117397958412766 ], [ 3288000.026299620512873, 2347314.981452182400972 ], [ 3288000.024756756145507, 2347314.973907764535397 ], [ 3288000.02141947299242, 2347314.960994333960116 ], [ 3288000.017275692895055, 2347314.948729734867811 ], [ 3288000.012145825661719, 2347314.936637968290597 ], [ 3288000.006374285090715, 2347314.924963151104748 ], [ 3287999.999846266116947, 2347314.913623910862952 ], [ 3287999.992610355839133, 2347314.902916208375245 ], [ 3287999.984732770826668, 2347314.892625452019274 ], [ 3287999.97611490264535, 2347314.882768920622766 ], [ 3287999.966805339325219, 2347314.873642587568611 ], [ 3287999.95706751383841, 2347314.864997279364616 ], [ 3287999.946654187049717, 2347314.85718081286177 ], [ 3287999.935828792862594, 2347314.849944030400366 ], [ 3287999.924458899069577, 2347314.843716118019074 ], [ 3287999.912857958581299, 2347314.837934663519263 ], [ 3287999.900597714353353, 2347314.833080707583576 ], [ 3287999.888269813265651, 2347314.829050537664443 ], [ 3287999.8755460428074, 2347314.825698707252741 ], [ 3287999.86296802945435, 2347314.823234751820564 ], [ 3287999.849927927367389, 2347314.821663724258542 ], [ 3287999.836803975515068, 2347314.820817831903696 ], [ 3287999.823660955764353, 2347314.821091694757342 ], [ 3287999.81082851998508, 2347314.822021558415145 ], [ 3287999.79753399360925, 2347314.823844337835908 ], [ 3287999.784795857034624, 2347314.82658452168107 ], [ 3287999.772384500131011, 2347314.830079364590347 ], [ 3287999.759790683165193, 2347314.834316617343575 ], [ 3287999.747769450303167, 2347314.839569923002273 ], [ 3287999.737358345184475, 2347314.844743988942355 ], [ 3287995.511511427816004, 2347317.108224492985755 ], [ 3287995.499371081590652, 2347317.115224032662809 ], [ 3287995.488692231476307, 2347317.122474862262607 ], [ 3287995.478257748764008, 2347317.130596280097961 ], [ 3287995.468331066891551, 2347317.139339132700115 ], [ 3287995.459208013024181, 2347317.148651569150388 ], [ 3287995.450395544059575, 2347317.158620012458414 ], [ 3287995.442567723803222, 2347317.169024815782905 ], [ 3287995.4352638986893, 2347317.180149697232991 ], [ 3287995.428616507910192, 2347317.191565494518727 ], [ 3287995.422953765839338, 2347317.203417653217912 ], [ 3287995.417931261472404, 2347317.215462061110884 ], [ 3287995.413482775911689, 2347317.227913315873593 ], [ 3287994.144045536872, 2347321.43528240872547 ], [ 3287991.512696554418653, 2347322.884116787929088 ], [ 3287991.502069164998829, 2347322.890445170458406 ], [ 3287991.491291707381606, 2347322.897713283542544 ], [ 3287991.48533418495208, 2347322.902208227198571 ], [ 3287991.105704633984715, 2347323.199947088956833 ], [ 3287988.985795617103577, 2347324.862901334185153 ], [ 3287988.981515876017511, 2347324.866493247915059 ], [ 3287988.97149058803916, 2347324.875253387261182 ], [ 3287988.962383732199669, 2347324.884664482437074 ], [ 3287988.953653676901013, 2347324.894516980741173 ], [ 3287988.945743446238339, 2347324.905037722084671 ], [ 3287988.938391040079296, 2347324.915866656694561 ], [ 3287988.931759845465422, 2347324.927381102927029 ], [ 3287988.925916084554046, 2347324.9393664826639 ], [ 3287988.182859392371029, 2347326.591982450801879 ], [ 3287988.177820697426796, 2347326.603928215801716 ], [ 3287988.173569431528449, 2347326.6163449017331 ], [ 3287988.170204206835479, 2347326.629215235356241 ], [ 3287988.167660241480917, 2347326.642144608311355 ], [ 3287988.165937534999102, 2347326.655133010819554 ], [ 3287988.165217109024525, 2347326.668047220446169 ], [ 3287988.164923114702106, 2347326.674289739690721 ], [ 3287988.157757134642452, 2347329.720394877251238 ], [ 3287988.157888528425246, 2347329.727374765090644 ], [ 3287988.158679622691125, 2347329.740227025467902 ], [ 3287988.160053355619311, 2347329.749830928631127 ], [ 3287988.958237124606967, 2347335.192166489548981 ], [ 3287988.958771571516991, 2347335.195422034710646 ], [ 3287988.961386207956821, 2347335.208259146194905 ], [ 3287988.964773516170681, 2347335.220859331078827 ], [ 3287988.968818693887442, 2347335.233141216915101 ], [ 3287988.97394856531173, 2347335.245232979301363 ], [ 3287988.97981871990487, 2347335.256890517659485 ], [ 3287988.986362936906517, 2347335.268328404519707 ], [ 3287988.993484048638493, 2347335.278954744804651 ], [ 3287988.995842034462839, 2347335.28219513501972 ], [ 3287991.267913190182298, 2347338.312537685036659 ], [ 3287987.774896702729166, 2347343.895544335711747 ], [ 3287987.768133079633117, 2347343.907487966585904 ], [ 3287987.76224073767662, 2347343.919177391566336 ], [ 3287987.757218239828944, 2347343.931221804581583 ], [ 3287987.753114175051451, 2347343.943917171563953 ], [ 3287987.749700369313359, 2347343.956491553224623 ], [ 3287987.747156409081072, 2347343.969420922920108 ], [ 3287987.746538507286459, 2347343.973690381273627 ], [ 3287986.180663254112005, 2347354.904875856358558 ], [ 3287984.614955333061516, 2347365.835830330848694 ], [ 3287984.613850534893572, 2347365.844549276866019 ], [ 3287984.612882880493999, 2347365.857811300083995 ], [ 3287984.612983724102378, 2347365.870784554164857 ], [ 3287985.004258872009814, 2347378.488655457273126 ], [ 3287985.004529886879027, 2347378.4921601600945 ], [ 3287985.71970129897818, 2347393.082991311326623 ], [ 3287985.720582, 2347393.092681633774191 ], [ 3287985.7221943680197, 2347393.10559292929247 ], [ 3287985.724857604596764, 2347393.118725999258459 ], [ 3287989.394648819230497, 2347408.71435321867466 ], [ 3287989.395430509001017, 2347408.717260947916657 ], [ 3287989.761525020003319, 2347410.175466851796955 ], [ 3287989.76403348101303, 2347410.18456738255918 ], [ 3287989.768423088360578, 2347410.197093384806067 ], [ 3287989.773226194083691, 2347410.208430494181812 ], [ 3287996.320610641967505, 2347424.792318626772612 ], [ 3287996.326315987855196, 2347424.804208037443459 ], [ 3287996.332844026852399, 2347424.815547277219594 ], [ 3287996.337247989606112, 2347424.821981262415648 ], [ 3288008.962542847730219, 2347443.4130898877047 ], [ 3288021.187575086951256, 2347462.074256919324398 ], [ 3288021.189965471159667, 2347462.077694616280496 ], [ 3288034.860463107004762, 2347482.009705202654004 ], [ 3288034.862902078777552, 2347482.01343885762617 ], [ 3288034.870878299698234, 2347482.023712333291769 ], [ 3288034.879463799763471, 2347482.033371556084603 ], [ 3288034.888707168400288, 2347482.042712481226772 ], [ 3288034.895477739162743, 2347482.048731651622802 ], [ 3288054.26239105546847, 2347498.444379040505737 ], [ 3288054.26545693911612, 2347498.446987897157669 ], [ 3288054.275771677494049, 2347498.454821645282209 ], [ 3288054.28689291421324, 2347498.462006576359272 ], [ 3288054.298114192672074, 2347498.468565018847585 ], [ 3288054.306285782717168, 2347498.472613260615617 ], [ 3288078.726161586120725, 2347509.923121516592801 ], [ 3288094.512390773743391, 2347517.299611994996667 ], [ 3288111.079953344073147, 2347527.033514877781272 ], [ 3288121.724335611332208, 2347551.461635353043675 ], [ 3288123.858903842978179, 2347572.3691809871234 ], [ 3288123.859791741706431, 2347572.375825306866318 ], [ 3288125.807941500563174, 2347586.750753736589104 ], [ 3288125.808651245664805, 2347586.75631286483258 ], [ 3288125.811265933793038, 2347586.769149976316839 ], [ 3288125.814554686658084, 2347586.781767452135682 ], [ 3288125.818698521703482, 2347586.794032062403858 ], [ 3288125.823828442022204, 2347586.806123832706362 ], [ 3288125.828128076624125, 2347586.815011913888156 ], [ 3288133.739087590947747, 2347602.174418140668422 ], [ 3288133.740559550002217, 2347602.177204889245331 ], [ 3288133.747202424798161, 2347602.1886255024001 ], [ 3288133.754323578439653, 2347602.199251846410334 ], [ 3288133.762348405085504, 2347602.209821284748614 ], [ 3288133.770933923777193, 2347602.219480516389012 ], [ 3288133.780161113478243, 2347602.228722795378417 ], [ 3288133.789965192321688, 2347602.237153517082334 ], [ 3288133.80027994280681, 2347602.244987269863486 ], [ 3288133.811105365399271, 2347602.252224061638117 ], [ 3288133.822523870971054, 2347602.258747944142669 ], [ 3288133.834124831948429, 2347602.264529401436448 ], [ 3288133.844103769864887, 2347602.268463836051524 ], [ 3288152.104988553095609, 2347609.217194107361138 ], [ 3288152.113507429603487, 2347609.220268051605672 ], [ 3288168.416142952628434, 2347614.481798155233264 ], [ 3288168.421051443554461, 2347614.48327210964635 ], [ 3288168.435121919028461, 2347614.486793870572001 ], [ 3288190.876593983732164, 2347619.175113648176193 ], [ 3288207.698027992155403, 2347625.336987154558301 ], [ 3288219.648291382007301, 2347634.864488469902426 ], [ 3288227.478870539925992, 2347647.148175617679954 ], [ 3288233.457868063822389, 2347660.802479201927781 ], [ 3288233.464047431480139, 2347660.815401950385422 ], [ 3288233.468023157678545, 2347660.8223169692792 ], [ 3288246.179745444096625, 2347682.444580789655447 ], [ 3288246.182511212304235, 2347682.449069104623049 ], [ 3288246.189747182186693, 2347682.459776818286628 ], [ 3288246.197624827269465, 2347682.47006759699434 ], [ 3288246.206357552204281, 2347682.480005501303822 ], [ 3288246.215536167379469, 2347682.488951834850013 ], [ 3288246.220453691668808, 2347682.49357045488432 ], [ 3288263.229651086963713, 2347697.272982586640865 ], [ 3288263.234783458523452, 2347697.277056091930717 ], [ 3288263.244884808082134, 2347697.284825771581382 ], [ 3288263.255907458253205, 2347697.292028003372252 ], [ 3288263.267144954297692, 2347697.298685120418668 ], [ 3288263.278993163723499, 2347697.304118785541505 ], [ 3288263.290957608725876, 2347697.309024614281952 ], [ 3288263.295028646476567, 2347697.310340878088027 ], [ 3288281.87424677470699, 2347703.695434752386063 ], [ 3288281.882717069238424, 2347703.698212752584368 ], [ 3288281.895408466458321, 2347703.701367305591702 ], [ 3288281.908282316289842, 2347703.70377942873165 ], [ 3288281.921240011230111, 2347703.705466415733099 ], [ 3288281.934150551445782, 2347703.706248241476715 ], [ 3288281.944270530249923, 2347703.706098306924105 ], [ 3288295.641745149623603, 2347703.334977604448795 ], [ 3288295.644850599113852, 2347703.334737763740122 ], [ 3288295.657880242913961, 2347703.333773354999721 ], [ 3288295.665356855839491, 2347703.332970338407904 ], [ 3288313.218423418235034, 2347700.763479730580002 ], [ 3288313.223945491015911, 2347700.762511834036559 ], [ 3288313.230059216264635, 2347700.761440243106335 ], [ 3288329.388480893801898, 2347697.421588622033596 ], [ 3288329.396091374568641, 2347697.419747224543244 ], [ 3288342.59735461929813, 2347694.091573405079544 ], [ 3288354.405533689074218, 2347692.527414093725383 ], [ 3288385.416642063762993, 2347698.738798462320119 ], [ 3288398.258496480993927, 2347706.102137660142034 ], [ 3288412.447116259019822, 2347716.294166087638587 ], [ 3288428.970955216325819, 2347728.114639702718705 ], [ 3288428.982108874246478, 2347728.122021969407797 ], [ 3288428.993593617342412, 2347728.128331301733851 ], [ 3288429.005194595549256, 2347728.134112794883549 ], [ 3288429.015222137328237, 2347728.138343220576644 ], [ 3288446.363111818674952, 2347734.739804967306554 ], [ 3288446.376523008570075, 2347734.744254261255264 ], [ 3288446.389033393468708, 2347734.747542053461075 ], [ 3288446.40220307931304, 2347734.749902357812971 ], [ 3288461.818682094104588, 2347737.122367315459996 ], [ 3288474.237978146411479, 2347739.005045391619205 ], [ 3288474.241935817524791, 2347739.005671106744558 ], [ 3288489.153536399826407, 2347740.951868982519954 ], [ 3288505.581751783378422, 2347747.186477963812649 ], [ 3288515.663493864238262, 2347753.002052224241197 ], [ 3288524.720777223818004, 2347762.544621992856264 ], [ 3288533.772560983430594, 2347774.649600343778729 ], [ 3288542.261674523353577, 2347785.83848809543997 ], [ 3288552.074019624851644, 2347802.376572091598064 ], [ 3288552.076114200986922, 2347802.380061644129455 ], [ 3288552.081663378048688, 2347802.388527737930417 ], [ 3288570.040709778666496, 2347828.165681905113161 ], [ 3288570.042445179540664, 2347828.168219507206231 ], [ 3288570.050421452149749, 2347828.178493006154895 ], [ 3288570.052321678027511, 2347828.180798734538257 ], [ 3288578.305121216922998, 2347837.898073228541762 ], [ 3288578.311756525188684, 2347837.905740002635866 ], [ 3288578.322049382608384, 2347837.915911939926445 ], [ 3288600.852197602856904, 2347858.324760055169463 ], [ 3288622.499768367502838, 2347878.380136515945196 ], [ 3288622.509129463229328, 2347878.388340457342565 ], [ 3288622.515983916819096, 2347878.393634517211467 ], [ 3288642.953730325680226, 2347893.587297637015581 ], [ 3288642.957190660294145, 2347893.589837372303009 ], [ 3288642.963619722053409, 2347893.594394064042717 ], [ 3288656.485870852135122, 2347902.388085164595395 ], [ 3288656.490299645811319, 2347902.39096261607483 ], [ 3288656.499355881474912, 2347902.396073756273836 ], [ 3288681.244395643938333, 2347915.820590442046523 ], [ 3288681.249826719518751, 2347915.82339371368289 ], [ 3288697.125252165365964, 2347923.697187243029475 ], [ 3288697.134146441705525, 2347923.701311855576932 ], [ 3288710.589407413266599, 2347929.454596528783441 ], [ 3288731.010523781646043, 2347942.104262160137296 ], [ 3288731.018710171803832, 2347942.109018306713551 ], [ 3288745.69243037328124, 2347950.193647701758891 ], [ 3288745.695761141367257, 2347950.195398219395429 ], [ 3288745.70765797002241, 2347950.201127893291414 ], [ 3288745.711481781676412, 2347950.202792 ], [ 3288773.929516486823559, 2347962.002687509171665 ], [ 3288773.937574740964919, 2347962.006045233458281 ], [ 3288773.94990269234404, 2347962.010075485799462 ], [ 3288773.962708922568709, 2347962.013311475515366 ], [ 3288773.975582798942924, 2347962.015723672695458 ], [ 3288773.979343256447464, 2347962.016383955720812 ], [ 3288791.907887880690396, 2347964.454649826046079 ], [ 3288808.196857527829707, 2347967.178360648453236 ], [ 3288825.284330060705543, 2347971.208477037027478 ], [ 3288818.531582813244313, 2348004.17501433333382 ], [ 3288818.267222705297172, 2348005.217488243244588 ], [ 3288816.167188527062535, 2348010.139182982500643 ], [ 3288816.163899647071958, 2348010.147574272938073 ], [ 3288816.159648490138352, 2348010.159990901127458 ], [ 3288816.158174111507833, 2348010.165222402662039 ], [ 3288811.47721857111901, 2348027.22440580278635 ], [ 3288811.475426448974758, 2348027.23202730063349 ], [ 3288811.47288260422647, 2348027.244956626556814 ], [ 3288811.471195272170007, 2348027.256923891138285 ], [ 3288809.706319651566446, 2348044.313074195757508 ], [ 3288809.705302096903324, 2348044.326649432536215 ], [ 3288809.705304450821131, 2348044.339639942161739 ], [ 3288809.705727447755635, 2348044.348395570646971 ], [ 3288811.030394213274121, 2348061.877247009426355 ], [ 3288811.03079483192414, 2348061.881540928501636 ], [ 3288811.032423514872789, 2348061.894550867378712 ], [ 3288811.035070675425231, 2348061.907585280016065 ], [ 3288811.036079140380025, 2348061.911874152254313 ], [ 3288815.380324258469045, 2348078.911381502170116 ], [ 3288815.382719431072474, 2348078.91979147028178 ], [ 3288815.386863348539919, 2348078.932056084275246 ], [ 3288815.39215674623847, 2348078.944525199010968 ], [ 3288822.502192767336965, 2348094.44476073468104 ], [ 3288822.507653851993382, 2348094.455779578071088 ], [ 3288822.514165806118399, 2348094.467020195908844 ], [ 3288822.51829020306468, 2348094.473604706581682 ], [ 3288832.382292568683624, 2348108.983388206921518 ], [ 3288832.385305599309504, 2348108.98752872319892 ], [ 3288832.393281916622072, 2348108.997802242636681 ], [ 3288832.399343232624233, 2348109.005062183830887 ], [ 3288839.557859463617206, 2348116.884525491856039 ], [ 3288839.560317526571453, 2348116.887139413040131 ], [ 3288839.568511547055095, 2348116.895649413578212 ], [ 3288843.634156757500023, 2348120.7254185131751 ], [ 3288844.652667549438775, 2348122.548825273755938 ], [ 3288845.185101418290287, 2348123.471639144700021 ], [ 3288845.188701812177896, 2348123.477503559552133 ], [ 3288845.195970246568322, 2348123.488408609293401 ], [ 3288845.202848535962403, 2348123.497555192559958 ], [ 3288852.414374763146043, 2348132.359199943486601 ], [ 3288854.068757155444473, 2348136.103729701600969 ], [ 3288854.075395829975605, 2348136.116977945901453 ], [ 3288857.612943882588297, 2348142.602072660811245 ], [ 3288857.618719854857773, 2348142.611919909715652 ], [ 3288857.623843679670244, 2348142.619648640044034 ], [ 3288858.247692161239684, 2348143.524613434448838 ], [ 3288868.111082829535007, 2348158.033696486148983 ], [ 3288868.114128257147968, 2348158.038034307770431 ], [ 3288868.122022170573473, 2348158.048423770349473 ], [ 3288868.13060777168721, 2348158.058083040639758 ], [ 3288868.132787636481225, 2348158.060238263569772 ], [ 3288880.342031757347286, 2348170.636600377038121 ], [ 3288880.349177773110569, 2348170.643670202232897 ], [ 3288880.359179145656526, 2348170.652066419832408 ], [ 3288880.369526363443583, 2348170.660097543150187 ], [ 3288881.511606439016759, 2348171.469563032034785 ], [ 3288885.062652139924467, 2348174.394301121123135 ], [ 3288885.071162476669997, 2348174.401030330918729 ], [ 3288890.091511794831604, 2348178.067630784120411 ], [ 3288893.861880269832909, 2348182.963462607935071 ], [ 3288893.86576172709465, 2348182.968567324336618 ], [ 3288893.874379724729806, 2348182.978423901833594 ], [ 3288893.876527197659016, 2348182.980381822679192 ], [ 3288906.085776130668819, 2348195.556746172718704 ], [ 3288906.093020756728947, 2348195.563798715826124 ], [ 3288906.102955916896462, 2348195.572409519460052 ], [ 3288906.113385549280792, 2348195.580324709881097 ], [ 3288906.116026065312326, 2348195.582196217030287 ], [ 3288920.235329004470259, 2348205.236662911251187 ], [ 3288921.071189217269421, 2348208.064475107938051 ], [ 3288921.072868897113949, 2348208.06976274587214 ], [ 3288922.336937174666673, 2348211.907874329481274 ], [ 3288922.339744423981756, 2348211.915704619139433 ], [ 3288922.345104061067104, 2348211.927959142718464 ], [ 3288929.455105453263968, 2348227.42841408867389 ], [ 3288929.460517969913781, 2348227.439136972650886 ], [ 3288929.467046143487096, 2348227.450476250145584 ], [ 3288929.471252966206521, 2348227.456944827456027 ], [ 3288939.335186179261655, 2348241.966752548702061 ], [ 3288939.338050592690706, 2348241.971223595086485 ], [ 3288939.346224146895111, 2348241.981462555937469 ], [ 3288939.354809760116041, 2348241.991121830418706 ], [ 3288939.356792411301285, 2348241.993311618454754 ], [ 3288951.565921598114073, 2348254.569499640259892 ], [ 3288951.573395841754973, 2348254.576714927330613 ], [ 3288951.583101400174201, 2348254.585163 ], [ 3288951.594548088032752, 2348254.593711864203215 ], [ 3288965.680328930262476, 2348264.304704086389393 ], [ 3288965.68907174281776, 2348264.310377635993063 ], [ 3288965.700605128426105, 2348264.316982964985073 ], [ 3288965.708235142752528, 2348264.320821733679622 ], [ 3288981.410322190262377, 2348271.717576836235821 ], [ 3288981.414277010597289, 2348271.719420967623591 ], [ 3288981.426537335850298, 2348271.724275028333068 ], [ 3288981.430854196194559, 2348271.725852717645466 ], [ 3288984.386406270321459, 2348272.730715544428676 ], [ 3288990.388790984172374, 2348274.723630864638835 ], [ 3288990.395406804513186, 2348274.72561755310744 ], [ 3288990.400544926524162, 2348274.727254285477102 ], [ 3289004.252926399931312, 2348278.388545658439398 ], [ 3289004.260528304614127, 2348278.39035951718688 ], [ 3289004.27310636639595, 2348278.392823583912104 ], [ 3289004.286146503407508, 2348278.394394721835852 ], [ 3289021.59370721783489, 2348279.927828972693533 ], [ 3289021.606585390400141, 2348279.928413595072925 ], [ 3289021.619777013082057, 2348279.928435816895217 ], [ 3289021.628485520370305, 2348279.927721412386745 ], [ 3289039.00454016495496, 2348278.404508722014725 ], [ 3289039.008631702978164, 2348278.40409608092159 ], [ 3289039.021926219109446, 2348278.402273418847471 ], [ 3289039.034664336591959, 2348278.399533368647099 ], [ 3289039.039151736069471, 2348278.398442395497113 ], [ 3289055.328578843735158, 2348274.030783854890615 ], [ 3289056.150446221232414, 2348274.812136594206095 ], [ 3289056.161118813790381, 2348274.821531585417688 ], [ 3289056.171516063157469, 2348274.829249480739236 ], [ 3289056.177683148533106, 2348274.833446152042598 ], [ 3289058.627927326131612, 2348276.433928540442139 ], [ 3289058.632553352974355, 2348276.436771438457072 ], [ 3289058.643676112405956, 2348276.443347260355949 ], [ 3289058.649862251244485, 2348276.446424181107432 ], [ 3289081.028261588420719, 2348287.240070933941752 ], [ 3289081.033972308970988, 2348287.242723719216883 ], [ 3289081.04593681357801, 2348287.247629641089588 ], [ 3289081.050877721980214, 2348287.249300948809832 ], [ 3289085.011228800751269, 2348288.585211710073054 ], [ 3289085.018303844612092, 2348288.587523884139955 ], [ 3289085.026151561178267, 2348288.58959914650768 ], [ 3289099.309983534738421, 2348292.175491899251938 ], [ 3289099.314811065793037, 2348292.176472635474056 ], [ 3289099.327684957999736, 2348292.17888486944139 ], [ 3289099.340725101530552, 2348292.18045603018254 ], [ 3289116.647998091764748, 2348293.713964958209544 ], [ 3289116.661220686044544, 2348293.714793701656163 ], [ 3289116.666411686223, 2348293.714898806065321 ], [ 3289122.590944556053728, 2348293.691333945840597 ], [ 3289122.598452142439783, 2348293.691337499301881 ], [ 3289122.601541399024427, 2348293.690999036189169 ], [ 3289126.935099015478045, 2348293.438823263160884 ], [ 3289126.945138030685484, 2348293.438180163502693 ], [ 3289126.957989529240876, 2348293.436130697838962 ], [ 3289126.961835260502994, 2348293.43545665871352 ], [ 3289152.580549752339721, 2348288.437572602182627 ], [ 3289152.589573147241026, 2348288.435686623677611 ], [ 3289152.602296504192054, 2348288.43223873898387 ], [ 3289152.604960363358259, 2348288.431162905879319 ], [ 3289155.882978060282767, 2348287.349177043884993 ], [ 3289155.892448765225708, 2348287.345690289512277 ], [ 3289155.904584756586701, 2348287.340518502518535 ], [ 3289155.916854608338326, 2348287.334308343473822 ], [ 3289157.224467183463275, 2348286.608732086606324 ], [ 3289164.956428727135062, 2348285.253372656181455 ], [ 3289164.969166853930801, 2348285.250632626004517 ], [ 3289164.981578190810978, 2348285.247137944679707 ], [ 3289179.911105614155531, 2348280.600660212337971 ], [ 3289179.92289433721453, 2348280.596462722402066 ], [ 3289187.291819049976766, 2348277.782464101910591 ], [ 3289187.304317087866366, 2348277.777025891467929 ], [ 3289187.316060079261661, 2348277.771314050536603 ], [ 3289187.320501750335097, 2348277.768708722665906 ], [ 3289193.533865361008793, 2348274.170034498441964 ], [ 3289194.709706014953554, 2348274.440553424414247 ], [ 3289194.72290813177824, 2348274.443111130967736 ], [ 3289194.735948283690959, 2348274.444682316388935 ], [ 3289194.749023686163127, 2348274.445232398808002 ], [ 3289194.753196209203452, 2348274.445313027594239 ], [ 3289228.974376452621073, 2348274.536692829802632 ], [ 3289228.983264565002173, 2348274.536454441957176 ], [ 3289228.996278041042387, 2348274.535391526762396 ], [ 3289229.009292946197093, 2348274.533719408325851 ], [ 3289233.94138271920383, 2348273.669192818459123 ], [ 3289697.299115562811494, 2348480.593734889291227 ], [ 3289697.970605344511569, 2348485.439379463437945 ], [ 3289697.971398988738656, 2348485.444213449023664 ], [ 3289697.973997616674751, 2348485.456951881293207 ], [ 3289697.97500610165298, 2348485.461240751668811 ], [ 3289702.319329792633653, 2348502.460731021594256 ], [ 3289702.321725004352629, 2348502.469140981324017 ], [ 3289702.325917572248727, 2348502.481701550073922 ], [ 3289702.329837650060654, 2348502.491366638336331 ], [ 3289708.11103473091498, 2348515.688258696347475 ], [ 3289708.116593055427074, 2348515.699869471602142 ], [ 3289711.296081481035799, 2348521.740177976898849 ], [ 3289711.302887897007167, 2348521.751975971739739 ], [ 3289711.310254999436438, 2348521.762863773386925 ], [ 3289711.312236233148724, 2348521.765662776771933 ], [ 3289729.398216520436108, 2348545.998580052051693 ], [ 3289729.404113061260432, 2348546.006071906071156 ], [ 3289729.412698720116168, 2348546.015731228981167 ], [ 3289729.417369074188173, 2348546.020697715692222 ], [ 3289734.642126482911408, 2348551.194794180803001 ], [ 3289737.703526852652431, 2348554.208624851424247 ], [ 3289739.381531649269164, 2348555.942335614934564 ], [ 3289739.388268504291773, 2348555.948766766116023 ], [ 3289742.574880230240524, 2348558.94298745971173 ], [ 3289742.581175488885492, 2348558.948582590091974 ], [ 3289749.958988282829523, 2348565.267402621917427 ], [ 3289749.962972659152001, 2348565.270662487018853 ], [ 3289749.967039446812123, 2348565.273806411772966 ], [ 3289752.65220636408776, 2348567.340591080952436 ], [ 3289752.65853687049821, 2348567.345165114849806 ], [ 3289752.665507620666176, 2348567.349931417498738 ], [ 3289766.884992114268243, 2348576.529239764902741 ], [ 3289766.889044132549316, 2348576.53167584631592 ], [ 3289766.900216954294592, 2348576.537938505876809 ], [ 3289771.966033213306218, 2348579.202305665705353 ], [ 3289771.9779301173985, 2348579.208035457879305 ], [ 3289771.988728983793408, 2348579.212638310156763 ], [ 3289774.692794671747833, 2348580.224864512681961 ], [ 3289784.055528656113893, 2348596.278059840202332 ], [ 3289784.058671292848885, 2348596.282989596948028 ], [ 3289784.061765339691192, 2348596.287623398937285 ], [ 3289789.791216725017875, 2348604.924958997406065 ], [ 3289789.796390617266297, 2348604.932374517433345 ], [ 3289792.120374382473528, 2348608.078388650435954 ], [ 3289792.126893549691886, 2348608.086583313532174 ], [ 3289792.12982562603429, 2348608.090230584610254 ], [ 3289800.537111685611308, 2348617.78082606755197 ], [ 3289800.543452685698867, 2348617.787935549393296 ], [ 3289803.483889968600124, 2348620.825606774538755 ], [ 3289803.491380453109741, 2348620.832920768298209 ], [ 3289803.499265370890498, 2348620.840165626257658 ], [ 3289820.582883304450661, 2348635.10035150591284 ], [ 3289820.594165232032537, 2348635.109132332261652 ], [ 3289820.6051718108356, 2348635.116236067377031 ], [ 3289829.640839023515582, 2348640.623249669093639 ], [ 3289830.974243147298694, 2348641.89051463175565 ], [ 3289834.268677046522498, 2348645.368426404893398 ], [ 3289834.277527578640729, 2348645.377227391116321 ], [ 3289834.287414215505123, 2348645.385542315430939 ], [ 3289834.298810950480402, 2348645.394404512830079 ], [ 3289848.384750653523952, 2348655.105397179257125 ], [ 3289848.393509710673243, 2348655.111169460695237 ], [ 3289848.404698737896979, 2348655.117530776187778 ], [ 3289848.412624613381922, 2348655.121317764278501 ], [ 3289864.11483441805467, 2348662.518511948175728 ], [ 3289864.118658253923059, 2348662.520176087971777 ], [ 3289864.130721415393054, 2348662.525064825080335 ], [ 3289864.143049436155707, 2348662.52909521618858 ], [ 3289864.146069631911814, 2348662.530189761891961 ], [ 3289880.953415258787572, 2348667.196217959746718 ], [ 3289880.963102747686207, 2348667.198376829270273 ], [ 3289880.975729446858168, 2348667.201136973686516 ], [ 3289880.988737236708403, 2348667.202510944101959 ], [ 3289898.296160680241883, 2348668.736162042245269 ], [ 3289898.309268507640809, 2348668.736909540835768 ], [ 3289898.322230561170727, 2348668.736769170965999 ], [ 3289898.331168706063181, 2348668.736217609141022 ], [ 3289915.707372288685292, 2348667.21318251080811 ], [ 3289915.711463837884367, 2348667.212769913952798 ], [ 3289915.724315365310758, 2348667.210720578674227 ], [ 3289915.737397931516171, 2348667.208224787842482 ], [ 3289915.741392297670245, 2348667.207220272161067 ], [ 3289932.631555770523846, 2348662.724431794136763 ], [ 3289932.639956562314183, 2348662.721843093633652 ], [ 3289932.652550366707146, 2348662.71760612539947 ], [ 3289932.664571566972882, 2348662.712353099137545 ], [ 3289932.668732184916735, 2348662.710507525596768 ], [ 3289937.474458759184927, 2348660.347223279066384 ], [ 3289939.484205673914403, 2348659.488966830074787 ], [ 3289939.48976443707943, 2348659.486368759535253 ], [ 3289939.501475042663515, 2348659.480459731072187 ], [ 3289939.504074118100107, 2348659.478989320807159 ], [ 3289940.794213083572686, 2348658.751415973063558 ], [ 3289949.409241996239871, 2348655.72205103514716 ], [ 3289949.415177572518587, 2348655.719894386362284 ], [ 3289949.427017755340785, 2348655.714774584863335 ], [ 3289949.43287234660238, 2348655.712124672718346 ], [ 3289963.371995080262423, 2348648.701697952114046 ], [ 3289963.377965902909636, 2348648.698520209640265 ], [ 3289963.383755707647651, 2348648.695475692860782 ], [ 3289968.298374272882938, 2348645.804132842924446 ], [ 3289968.304477525874972, 2348645.800525926053524 ], [ 3289977.024745418690145, 2348640.212093827314675 ], [ 3289977.035275579895824, 2348640.205173801630735 ], [ 3289977.940724368207157, 2348639.538728396873921 ], [ 3289977.950155063066632, 2348639.531290621496737 ], [ 3289977.959884437732399, 2348639.522582602221519 ], [ 3289977.96599340159446, 2348639.516538905911148 ], [ 3290000.526697580702603, 2348616.278927434235811 ], [ 3290000.529695373959839, 2348616.275560297071934 ], [ 3290000.538523935247213, 2348616.265690777916461 ], [ 3290000.546335440594703, 2348616.25518756872043 ], [ 3290001.370470588561147, 2348615.095943739637733 ], [ 3290001.378334966953844, 2348615.083908893633634 ], [ 3290009.923801875673234, 2348600.898663729429245 ], [ 3290009.929245347157121, 2348600.889184480533004 ], [ 3290009.932266477495432, 2348600.882870024070144 ], [ 3290011.28387966286391, 2348598.108816673979163 ], [ 3290011.286603540647775, 2348598.103163258172572 ], [ 3290011.290684112347662, 2348598.093415406532586 ], [ 3290016.9932114565745, 2348583.391502196900547 ], [ 3290016.997430173214525, 2348583.378888390026987 ], [ 3290018.487271099817008, 2348578.550687205046415 ], [ 3290019.149555226322263, 2348576.40439092181623 ], [ 3290019.150648490060121, 2348576.400545640382916 ], [ 3290020.517560186330229, 2348571.592873914167285 ], [ 3290022.257793114054948, 2348565.19720697728917 ], [ 3290022.259468975476921, 2348565.190113372169435 ], [ 3290022.262012774124742, 2348565.177184157073498 ], [ 3290022.263614790514112, 2348565.166551302187145 ], [ 3290022.376924003008753, 2348564.148223999422044 ], [ 3290023.726394794415683, 2348559.401764067821205 ], [ 3290025.80645840940997, 2348557.036530762910843 ], [ 3290025.811746123246849, 2348557.030428024940193 ], [ 3290025.818189034238458, 2348557.022093016188592 ], [ 3290036.016306060831994, 2348543.054788449313492 ], [ 3290036.024482485838234, 2348543.042800428345799 ], [ 3290036.03091634484008, 2348543.031320782843977 ], [ 3290036.033457780722529, 2348543.02640978153795 ], [ 3290041.562729898374528, 2348531.908279147930443 ], [ 3290041.566032097674906, 2348531.901204994414002 ], [ 3290041.567980453372002, 2348531.897006884682924 ], [ 3290042.952081257477403, 2348528.63061408046633 ], [ 3290044.678185803815722, 2348526.315337970387191 ], [ 3290044.680889208801091, 2348526.311413491144776 ], [ 3290044.685719133820385, 2348526.304376075975597 ], [ 3290045.797617939300835, 2348524.588770284317434 ], [ 3290048.145272895228118, 2348521.134025676641613 ], [ 3290048.150054230820388, 2348521.126692302525043 ], [ 3290048.156783924903721, 2348521.115160821005702 ], [ 3290048.161175109446049, 2348521.106068985536695 ], [ 3290055.673545105848461, 2348505.073303586803377 ], [ 3290055.674603127408773, 2348505.07047940697521 ], [ 3290055.679625507909805, 2348505.058435204904526 ], [ 3290055.683876640629023, 2348505.046018709428608 ], [ 3290055.685351008549333, 2348505.040787264704704 ], [ 3290059.626137896440923, 2348490.666018509771675 ], [ 3290066.344585631042719, 2348476.817442015279084 ], [ 3290066.34709468157962, 2348476.812333710957319 ], [ 3290066.352068480104208, 2348476.799993559718132 ], [ 3290066.356650701723993, 2348476.786504139192402 ], [ 3290069.617451949045062, 2348465.557472900953144 ], [ 3290069.620368300937116, 2348465.546812706626952 ], [ 3290069.622912130318582, 2348465.533883508294821 ], [ 3290069.62336373096332, 2348465.530455156229436 ], [ 3290070.925349711440504, 2348456.689044964499772 ], [ 3290076.241535583510995, 2348438.51649445714429 ], [ 3290076.244419547263533, 2348438.505636957474053 ], [ 3290076.247178228572011, 2348438.492162654176354 ], [ 3290076.747372856363654, 2348435.359165276866406 ], [ 3290076.74881008034572, 2348435.348764307331294 ], [ 3290077.95629373844713, 2348423.972335471771657 ], [ 3290077.956978774629533, 2348423.960442467592657 ], [ 3290078.087522926740348, 2348420.891821543686092 ], [ 3290078.087598683778197, 2348420.880542777478695 ], [ 3290077.86952958162874, 2348408.738326533697546 ], [ 3290077.868848861195147, 2348408.727383320219815 ], [ 3290077.509968036785722, 2348404.224302927032113 ], [ 3290077.440658817999065, 2348403.223164192400873 ], [ 3290075.924461974296719, 2348379.794711942784488 ], [ 3290115.055738538037986, 2348366.365075037814677 ], [ 3290152.961865714285523, 2348356.170851073227823 ], [ 3290175.307338691782206, 2348352.25450939964503 ], [ 3290189.561582560651004, 2348352.290484501048923 ], [ 3290189.570372108835727, 2348352.290263515897095 ], [ 3290189.583401853218675, 2348352.289299447089434 ], [ 3290189.596400634385645, 2348352.28752887295559 ], [ 3290189.609434670768678, 2348352.284737215843052 ], [ 3290189.617884096689522, 2348352.282444531098008 ], [ 3290202.779655193444341, 2348348.453393014613539 ], [ 3290202.783617187291384, 2348348.452191220596433 ], [ 3290202.796063863672316, 2348348.447675667703152 ], [ 3290202.808035121299326, 2348348.442735977936536 ], [ 3290202.816949495114386, 2348348.438332003075629 ], [ 3290215.893366560339928, 2348341.579418218694627 ], [ 3290215.896261481568217, 2348341.57789597986266 ], [ 3290215.907645379658788, 2348341.571232390590012 ], [ 3290230.279929381795228, 2348332.461194852367043 ], [ 3290230.515569998882711, 2348332.358502067159861 ], [ 3290230.515569998882711, 2347919.290334196295589 ], [ 3290197.33624328719452, 2347905.011944980360568 ] ] ] } },
{ "type": "Feature", "properties": { "SITE_NAME": "Urdaibai", "ODESIGNATE": "Reserva de la Biosfera", "NUT2": 21, "SITE_CODE_": "ES213001", "DESIG_ABBR": "ES33", "SITE_CDDA": "63232_CDDA", "Sup_ha": 22038.610939900002 }, "geometry": { "type": "Polygon", "coordinates": [ [ [ 3290185.727209949400276, 2343231.807695348281413 ], [ 3290103.464731883257627, 2343330.92261866107583 ], [ 3290045.244600035250187, 2343410.511030510999262 ], [ 3289999.049403548706323, 2343469.685560660902411 ], [ 3289949.050247306935489, 2343540.268254638183862 ], [ 3289875.094027259387076, 2343645.835011863615364 ], [ 3289784.547896277159452, 2343766.655283595435321 ], [ 3289704.769838224630803, 2343884.11745725851506 ], [ 3289644.234567173756659, 2343986.102859478443861 ], [ 3289587.768830557353795, 2344118.885195953771472 ], [ 3289561.603066883515567, 2344234.597982809413224 ], [ 3289541.136937454808503, 2344328.677012103609741 ], [ 3289544.440311698708683, 2344408.609903695061803 ], [ 3289583.950303403660655, 2344501.033267578110099 ], [ 3289762.580331215634942, 2344557.483521366957575 ], [ 3289875.364531987346709, 2344602.002654084470123 ], [ 3289965.441486510913819, 2344682.937702573370188 ], [ 3290036.096384529024363, 2344727.89330790983513 ], [ 3290139.485615656711161, 2344780.868157057091594 ], [ 3290229.091441490221769, 2344838.702636569738388 ], [ 3290230.515569998882711, 2344841.395991893019527 ], [ 3290230.515569998882711, 2343179.211647353600711 ], [ 3290185.727209949400276, 2343231.807695348281413 ] ] ] } }
]
}
