{
"type": "FeatureCollection",
"name": "Elorrio",
"crs": { "type": "name", "properties": { "name": "urn:ogc:def:crs:EPSG::3035" } },
"features": [
{ "type": "Feature", "properties": { "SITE_NAME": "Urkiola", "ODESIGNATE": "Parque Natural", "NUT2": 21, "SITE_CODE_": "ES210002", "DESIG_ABBR": "ES10", "SITE_CDDA": "349528_CDDA", "Sup_ha": 5958.41839119 }, "geometry": { "type": "Polygon", "coordinates": [ [ [ 3298691.428886639885604, 2306986.525349045637995 ], [ 3298701.834222961217165, 2306989.27224144898355 ], [ 3298709.896659538149834, 2306992.42857213690877 ], [ 3298717.57501121237874, 2306993.623053761664778 ], [ 3298724.494583898223937, 2306994.442967598326504 ], [ 3298730.735829351004213, 2306995.381293162703514 ], [ 3298737.323404749389738, 2306997.273588181007653 ], [ 3298743.555114571936429, 2307001.257113622501493 ], [ 3298752.039393294602633, 2307007.383178694639355 ], [ 3298764.336675880011171, 2307015.886496621184051 ], [ 3298769.639132614247501, 2307014.959889118559659 ], [ 3298774.571572802960873, 2307014.098030027002096 ], [ 3298775.866326497402042, 2307013.871719346847385 ], [ 3298779.01562598766759, 2307011.799681705422699 ], [ 3298783.601917911786586, 2307009.983721545431763 ], [ 3298787.448357657063752, 2307008.297124317847192 ], [ 3298793.11147401528433, 2307003.756839348003268 ], [ 3298795.416521378792822, 2307002.339542402885854 ], [ 3298799.562063935678452, 2306997.050021505914629 ], [ 3298805.452763644978404, 2306991.962637966033071 ], [ 3298807.634500258136541, 2306990.566885790787637 ], [ 3298814.080217662267387, 2306985.382637624163181 ], [ 3298817.556709059979767, 2306983.760576554574072 ], [ 3298822.124093438033015, 2306981.44078807067126 ], [ 3298829.669864338357002, 2306979.107780322898179 ], [ 3298832.055495714768767, 2306978.183645172975957 ], [ 3298836.04903660947457, 2306975.456775472033769 ], [ 3298837.448192320298404, 2306974.705089973285794 ], [ 3298843.39579129870981, 2306971.129588388837874 ], [ 3298845.577529432252049, 2306969.7338383840397 ], [ 3298849.44775991467759, 2306967.028513971250504 ], [ 3298853.009728036820889, 2306964.377148087136447 ], [ 3298853.915621967986226, 2306963.711539729498327 ], [ 3298859.516992755234241, 2306959.182054899632931 ], [ 3298864.520831577014178, 2306955.264203835278749 ], [ 3298865.346159853972495, 2306954.105535050854087 ], [ 3298867.32402162393555, 2306952.238269440829754 ], [ 3298872.019483988638967, 2306948.374296174384654 ], [ 3298876.406766695901752, 2306944.564165668096393 ], [ 3298877.189349608495831, 2306943.920101671945304 ], [ 3298881.884928015526384, 2306940.056211264804006 ], [ 3298886.129974353592843, 2306935.763694694265723 ], [ 3298888.25483802286908, 2306932.856171283870935 ], [ 3298888.918987508397549, 2306930.711086103692651 ], [ 3298890.764254604466259, 2306925.31622303230688 ], [ 3298892.718786432407796, 2306917.873320552986115 ], [ 3298893.819307042751461, 2306914.13028516760096 ], [ 3298893.681948112789541, 2306912.125332796014845 ], [ 3298894.407671893015504, 2306909.96959212096408 ], [ 3298892.676920786499977, 2306905.199594585224986 ], [ 3298894.470178213436157, 2306896.77029357617721 ], [ 3298800.96484228875488, 2306865.935707484837621 ], [ 3298771.560612696688622, 2306856.363751204684377 ], [ 3298774.2360774371773, 2306848.287549506407231 ], [ 3298790.079861124977469, 2306800.881554201245308 ], [ 3298793.708762734662741, 2306790.1025978946127 ], [ 3298797.171706832945347, 2306779.859773714095354 ], [ 3298803.70371160004288, 2306760.457724299281836 ], [ 3298805.382935932371765, 2306755.599010476376861 ], [ 3298811.762638222426176, 2306745.353845249861479 ], [ 3298835.028205814305693, 2306708.824866863433272 ], [ 3298840.350018662866205, 2306701.808057917281985 ], [ 3298841.426746790297329, 2306699.08365937974304 ], [ 3298856.553714065346867, 2306663.97680043708533 ], [ 3298871.552529694512486, 2306630.414164192974567 ], [ 3298899.715103399008512, 2306307.959769477602094 ], [ 3298901.594964029733092, 2306285.312718060798943 ], [ 3298901.784813681617379, 2306283.757745204959065 ], [ 3298914.27043096954003, 2306188.243815299123526 ], [ 3298932.185295198578387, 2306052.216662868857384 ], [ 3298932.41790764266625, 2306050.147091287188232 ], [ 3298985.666845723986626, 2306022.075064939446747 ], [ 3299039.409179274924099, 2305993.916922379285097 ], [ 3299074.729806070216, 2305977.600734231527895 ], [ 3299107.418027079664171, 2305962.251580783165991 ], [ 3299113.095406275708228, 2305959.737966266460717 ], [ 3299113.489070617593825, 2305958.654729888774455 ], [ 3299115.538425994105637, 2305953.73142150696367 ], [ 3299139.133603600319475, 2305897.87044969573617 ], [ 3299164.074764640536159, 2305800.180904309730977 ], [ 3299167.869980352465063, 2305788.865841619670391 ], [ 3299168.472447009757161, 2305786.731669059488922 ], [ 3299179.039572616573423, 2305783.870795137248933 ], [ 3299181.116980032064021, 2305783.000655042007565 ], [ 3299188.21246027154848, 2305780.239227461628616 ], [ 3299196.208861566148698, 2305778.33487923303619 ], [ 3299210.129255309700966, 2305773.873657233081758 ], [ 3299213.511166198179126, 2305769.732143494300544 ], [ 3299216.537219353020191, 2305767.68161893915385 ], [ 3299220.241510721854866, 2305765.512713200412691 ], [ 3299237.578036293387413, 2305746.252160457428545 ], [ 3299244.379775543697178, 2305738.976878454908729 ], [ 3299246.997982607688755, 2305735.98324422724545 ], [ 3299251.224259855691344, 2305731.186900476925075 ], [ 3299254.625089833512902, 2305727.549318945966661 ], [ 3299257.822119866032153, 2305723.440007752273232 ], [ 3299262.627039925195277, 2305717.528121033683419 ], [ 3299268.978293109219521, 2305709.824413319118321 ], [ 3299274.110411638859659, 2305704.36260135890916 ], [ 3299280.086893145926297, 2305698.24595639295876 ], [ 3299286.513802456203848, 2305692.557959526311606 ], [ 3299292.836296437308192, 2305687.395333568565547 ], [ 3299297.840401002205908, 2305683.477682183030993 ], [ 3299304.594509304035455, 2305678.239761585369706 ], [ 3299312.031744386069477, 2305671.360715018119663 ], [ 3299314.318040946498513, 2305669.439530473202467 ], [ 3299320.303620489314198, 2305666.872018931433558 ], [ 3299328.817122414708138, 2305663.862907399889082 ], [ 3299335.684792263898998, 2305661.648435186594725 ], [ 3299337.207295780070126, 2305660.875240292865783 ], [ 3299340.209542545489967, 2305659.84344914695248 ], [ 3299341.362106319516897, 2305659.134878821671009 ], [ 3299343.254533693660051, 2305658.296961112413555 ], [ 3299346.626720536500216, 2305657.200546002481133 ], [ 3299348.168120501562953, 2305656.931179197505116 ], [ 3299351.417010336183012, 2305655.856404501013458 ], [ 3299357.193889268673956, 2305654.339816169347614 ], [ 3299361.552566888742149, 2305653.070972037501633 ], [ 3299363.05123876966536, 2305653.316401291638613 ], [ 3299370.141820271499455, 2305652.077555805444717 ], [ 3299371.640492213424295, 2305652.322985258884728 ], [ 3299375.975338119082153, 2305652.072765485849231 ], [ 3299381.747314254753292, 2305652.078827800229192 ], [ 3299388.832976527512074, 2305652.362533907406032 ], [ 3299392.242989018559456, 2305652.273974133189768 ], [ 3299395.83808633312583, 2305652.153183938935399 ], [ 3299399.124769513029605, 2305652.086067266762257 ], [ 3299401.282752831000835, 2305651.709093886893243 ], [ 3299403.07078006491065, 2305651.396645949222147 ], [ 3299405.598802111577243, 2305650.955031525809318 ], [ 3299412.504316973499954, 2305649.74852058570832 ], [ 3299416.981504149269313, 2305649.980770007707179 ], [ 3299418.152866190299392, 2305649.776046284940094 ], [ 3299420.434261808171868, 2305649.377515133470297 ], [ 3299422.653886025305837, 2305648.989673320669681 ], [ 3299426.846523975022137, 2305648.257171155884862 ], [ 3299433.647737223654985, 2305647.576112960465252 ], [ 3299440.159563246648759, 2305647.452736067585647 ], [ 3299441.516010300256312, 2305647.215782375074923 ], [ 3299448.274479476734996, 2305647.049422497395426 ], [ 3299452.912804850377142, 2305648.267985218670219 ], [ 3299458.940480755642056, 2305651.77999528311193 ], [ 3299466.955244900193065, 2305656.973705015610904 ], [ 3299474.576252922415733, 2305663.250759996473789 ], [ 3299479.518056561239064, 2305665.938100845552981 ], [ 3299481.893898442387581, 2305668.059120029211044 ], [ 3299484.189270234666765, 2305669.686966694891453 ], [ 3299486.811853754334152, 2305671.764985018409789 ], [ 3299488.471664072014391, 2305672.9967275634408 ], [ 3299490.00814492162317, 2305674.249912668950856 ], [ 3299493.038591698743403, 2305677.271142225712538 ], [ 3299494.575072627048939, 2305678.524327382910997 ], [ 3299499.099272239487618, 2305683.313537377398461 ], [ 3299500.327485957182944, 2305684.620674127712846 ], [ 3299506.814942742232233, 2305692.110206650104374 ], [ 3299510.964283492416143, 2305698.48658877145499 ], [ 3299511.884214081335813, 2305699.847578478045762 ], [ 3299516.057371370028704, 2305705.205239723902196 ], [ 3299518.08220289926976, 2305707.894907513167709 ], [ 3299520.61928295250982, 2305711.002220824826509 ], [ 3299522.971507871989161, 2305714.141927285119891 ], [ 3299523.564144265372306, 2305715.052861236035824 ], [ 3299527.021270405035466, 2305719.521245850715786 ], [ 3299529.82389023527503, 2305723.089402974117547 ], [ 3299532.811595051549375, 2305726.625329859554768 ], [ 3299539.223192674573511, 2305732.099096066318452 ], [ 3299544.648398682940751, 2305737.74527288088575 ], [ 3299545.549532189965248, 2305738.602418303955346 ], [ 3299549.352653850801289, 2305744.024721085559577 ], [ 3299551.605299574322999, 2305746.167363995686173 ], [ 3299554.080740825738758, 2305749.285547093488276 ], [ 3299554.697954555507749, 2305742.583641403820366 ], [ 3299556.230731417424977, 2305732.171091651543975 ], [ 3299556.572586010210216, 2305728.053537815343589 ], [ 3299557.564646117854863, 2305719.764363317284733 ], [ 3299557.636043081525713, 2305716.7085140934214 ], [ 3299558.532793127000332, 2305712.493927293457091 ], [ 3299558.665847243741155, 2305709.427307691425085 ], [ 3299558.875301820226014, 2305701.782175497617573 ], [ 3299558.7288254708983, 2305696.228238901123405 ], [ 3299558.539490387309343, 2305691.18891730858013 ], [ 3299557.985234637744725, 2305684.691654024180025 ], [ 3299558.032899778336287, 2305682.65441011916846 ], [ 3299558.275179116521031, 2305677.539793910458684 ], [ 3299558.280083710327744, 2305676.017147662118077 ], [ 3299558.621942996513098, 2305671.899595286697149 ], [ 3299558.58894136082381, 2305669.369213599711657 ], [ 3299559.07301041809842, 2305665.733947420492768 ], [ 3299559.201228814199567, 2305664.189760270062834 ], [ 3299559.609667065553367, 2305658.538890265859663 ], [ 3299561.521684538573027, 2305651.610808152705431 ], [ 3299563.77979401871562, 2305645.636626666411757 ], [ 3299566.051910256501287, 2305641.6890170853585 ], [ 3299566.706962109543383, 2305635.994967586360872 ], [ 3299566.81618739431724, 2305633.946971113327891 ], [ 3299567.177060527261347, 2305630.333328384440392 ], [ 3299567.642221170477569, 2305626.194137855898589 ], [ 3299567.415070322342217, 2305620.146967324893922 ], [ 3299567.54330631904304, 2305618.602879339363426 ], [ 3299567.534141433425248, 2305615.053877029102296 ], [ 3299567.662377588450909, 2305613.509789092000574 ], [ 3299567.947492219042033, 2305607.88036347553134 ], [ 3299568.075728601776063, 2305606.336275617592037 ], [ 3299568.502970145083964, 2305601.189252022653818 ], [ 3299568.77343147713691, 2305600.127548768185079 ], [ 3299570.372250805143267, 2305594.775869444478303 ], [ 3299571.065146551467478, 2305590.089771319180727 ], [ 3299571.54439689218998, 2305587.977036877535284 ], [ 3299573.949564617592841, 2305580.962714325170964 ], [ 3299574.404996752273291, 2305579.868699952960014 ], [ 3299577.194208259694278, 2305574.816308781504631 ], [ 3299577.649640566669405, 2305573.722294512670487 ], [ 3299579.186806428711861, 2305568.381387243047357 ], [ 3299581.416282777674496, 2305564.94846006622538 ], [ 3299582.184808808378875, 2305562.277965989895165 ], [ 3299584.826972456648946, 2305558.265720915514976 ], [ 3299586.876305361278355, 2305553.342576632276177 ], [ 3299590.305809051729739, 2305547.163781221024692 ], [ 3299594.252502472139895, 2305539.88018515938893 ], [ 3299598.550243777688593, 2305532.028141085989773 ], [ 3299602.079425965435803, 2305526.846393538173288 ], [ 3299603.032924949191511, 2305524.143589684739709 ], [ 3299603.654418733902276, 2305522.513339953497052 ], [ 3299604.897291731555015, 2305519.252759190276265 ], [ 3299606.970465806312859, 2305513.310997246298939 ], [ 3299608.047295424621552, 2305510.586751731112599 ], [ 3299608.83483387157321, 2305508.420167425181717 ], [ 3299609.603478345554322, 2305505.749756718985736 ], [ 3299610.267604739405215, 2305503.604730516672134 ], [ 3299611.387280333321542, 2305500.365772665478289 ], [ 3299613.294298020191491, 2305494.960265466012061 ], [ 3299613.626402744092047, 2305493.887694555334747 ], [ 3299614.518361792434007, 2305491.195743567310274 ], [ 3299615.67091548955068, 2305490.487083071377128 ], [ 3299617.04203157313168, 2305485.68241755431518 ], [ 3299618.834908165037632, 2305483.8475491553545 ], [ 3299620.831747870892286, 2305482.484178954269737 ], [ 3299624.559906377922744, 2305479.296693921089172 ], [ 3299626.84612070210278, 2305477.375547382980585 ], [ 3299627.500607565045357, 2305478.275676670949906 ], [ 3299649.457050253171474, 2305504.366442308761179 ], [ 3299691.23573013022542, 2305555.9064402570948 ], [ 3299701.14294338459149, 2305560.262369825970381 ], [ 3299707.611953127197921, 2305560.653836300130934 ], [ 3299709.603882273193449, 2305560.813111803494394 ], [ 3299712.563394194003195, 2305560.296039182692766 ], [ 3299715.214622003026307, 2305559.832818164490163 ], [ 3299716.447758729569614, 2305559.617412444669753 ], [ 3299719.098986617755145, 2305559.15419161785394 ], [ 3299721.81187139917165, 2305558.680200639180839 ], [ 3299725.530192225705832, 2305558.537908879574388 ], [ 3299729.993304757401347, 2305556.743730698246509 ], [ 3299734.826342504005879, 2305554.884832756593823 ], [ 3299737.273689907975495, 2305553.94999885186553 ], [ 3299741.779549625236541, 2305551.641126807779074 ], [ 3299745.9581164624542, 2305548.88219898333773 ], [ 3299750.341244362760335, 2305540.000701775308698 ], [ 3299755.15903855022043, 2305549.303687424398959 ], [ 3299759.065965859219432, 2305560.794696088880301 ], [ 3299759.838743103668094, 2305563.195847201161087 ], [ 3299763.337927156593651, 2305573.743726814631373 ], [ 3299776.827179131563753, 2305613.994580419268459 ], [ 3299778.922922632656991, 2305620.222461374476552 ], [ 3299781.074828792363405, 2305634.556285341735929 ], [ 3299781.980101310648024, 2305640.484992459416389 ], [ 3299785.92363537568599, 2305666.172209169249982 ], [ 3299814.131251879502088, 2305638.925831580068916 ], [ 3299818.746320475824177, 2305634.568871567491442 ], [ 3299840.835409794002771, 2305612.956666668877006 ], [ 3299843.263747988734394, 2305611.517928970977664 ], [ 3299845.806323319673538, 2305606.508539950475097 ], [ 3299860.827390343416482, 2305598.304763029329479 ], [ 3299862.928649480920285, 2305596.416034293361008 ], [ 3299871.034314874559641, 2305592.463704357855022 ], [ 3299879.083266380243003, 2305586.999701352789998 ], [ 3299882.161863700952381, 2305581.389559311326593 ], [ 3299884.993818184360862, 2305575.822399664204568 ], [ 3299887.939931592904031, 2305566.684706870000809 ], [ 3299889.329958707094193, 2305562.383978146594018 ], [ 3299894.059214416891336, 2305554.456595681607723 ], [ 3299857.515931009314954, 2305510.117564354091883 ], [ 3299852.441759767942131, 2305503.902727321721613 ], [ 3299848.578301622532308, 2305485.302949164062738 ], [ 3299847.668119305744767, 2305480.896790706552565 ], [ 3299844.947366549633443, 2305464.633444661274552 ], [ 3299844.544437239412218, 2305462.167691304348409 ], [ 3299844.383305006660521, 2305461.181383070070297 ], [ 3299909.84088962059468, 2305430.978115279693156 ], [ 3299890.043178259860724, 2305397.916181232314557 ], [ 3299852.876560910604894, 2305374.989775798283517 ], [ 3299827.729769315104932, 2305382.933643421158195 ], [ 3299826.322029006201774, 2305373.542130755260587 ], [ 3299821.869388717692345, 2305365.697150283493102 ], [ 3299820.973191799595952, 2305363.317459703423083 ], [ 3299819.09544773818925, 2305359.587745452299714 ], [ 3299813.471310353372246, 2305351.947298124432564 ], [ 3299809.990485349670053, 2305348.497606086544693 ], [ 3299808.107892072759569, 2305346.290318290702999 ], [ 3299805.329020208213478, 2305341.703455922193825 ], [ 3299806.643433345481753, 2305335.387034253682941 ], [ 3299806.558545839507133, 2305329.822265900205821 ], [ 3299806.563478916883469, 2305328.299723839852959 ], [ 3299807.152000656351447, 2305324.139108297880739 ], [ 3299806.668512575794011, 2305321.180202105082572 ], [ 3299805.943313965108246, 2305316.741735627409071 ], [ 3299807.072146460413933, 2305317.051781099289656 ], [ 3299811.634748405311257, 2305316.254697537515312 ], [ 3300164.105391851626337, 2305235.910546473693103 ], [ 3300144.413639384321868, 2305233.771137226838619 ], [ 3300134.866687138564885, 2305232.395558458287269 ], [ 3300127.335416957736015, 2305230.160675863735378 ], [ 3300125.713424379471689, 2305229.936764985322952 ], [ 3300119.410359250381589, 2305229.009027259424329 ], [ 3300114.895434601698071, 2305227.768852998968214 ], [ 3300110.707603412214667, 2305226.978770466055721 ], [ 3300109.332239599898458, 2305226.71178115485236 ], [ 3300106.643185270950198, 2305226.167131527792662 ], [ 3300104.921624593436718, 2305224.946162533946335 ], [ 3300103.446791242342442, 2305223.682097510900348 ], [ 3300101.668512061238289, 2305220.949360289610922 ], [ 3300100.810250420123339, 2305219.57759821228683 ], [ 3300099.729106365703046, 2305217.230316989589483 ], [ 3300098.709635677281767, 2305214.872364699840546 ], [ 3300097.960721257608384, 2305211.452602534089237 ], [ 3300097.083438978996128, 2305209.576836341992021 ], [ 3300097.107284004800022, 2305208.558221146930009 ], [ 3300096.599960944149643, 2305206.617935369256884 ], [ 3300093.840843028388917, 2305195.940819967072457 ], [ 3300092.689015676267445, 2305190.055310187395662 ], [ 3300092.148821092676371, 2305185.58464131038636 ], [ 3300091.731842588633299, 2305181.092450340278447 ], [ 3300090.413934910669923, 2305175.74307400546968 ], [ 3300089.641078490763903, 2305173.341944528277963 ], [ 3300088.190107896924019, 2305171.059363130480051 ], [ 3300085.856916325166821, 2305168.423553456552327 ], [ 3300084.3063625972718, 2305165.143815057352185 ], [ 3300083.509759360458702, 2305163.761283440515399 ], [ 3300080.517343310639262, 2305161.747845978476107 ], [ 3300079.554575568065047, 2305160.90156338782981 ], [ 3300076.604828630574048, 2305158.373549515381455 ], [ 3300073.939604300074279, 2305156.810186399146914 ], [ 3300071.378706240095198, 2305154.721477104350924 ], [ 3300065.142321716994047, 2305152.260318191722035 ], [ 3300059.954010855406523, 2305149.61609175754711 ], [ 3300053.470899261534214, 2305147.19802975980565 ], [ 3300046.660513829439878, 2305144.330010019242764 ], [ 3300039.276390957180411, 2305141.054879792965949 ], [ 3300033.594823292456567, 2305138.496812702156603 ], [ 3300029.862538076005876, 2305136.612712226808071 ], [ 3300025.641837481874973, 2305133.292249013669789 ], [ 3300021.838657852262259, 2305127.86985545232892 ], [ 3300018.490925313904881, 2305121.353458473458886 ], [ 3300015.717112128157169, 2305115.24403940141201 ], [ 3300013.659339223522693, 2305110.023998711258173 ], [ 3300012.768013337627053, 2305106.121888118330389 ], [ 3300012.289564024657011, 2305101.64033353375271 ], [ 3300012.564882455393672, 2305099.056118636392057 ], [ 3300012.475199541077018, 2305095.013984328135848 ], [ 3300012.399578930344433, 2305092.998293459881097 ], [ 3300013.334205775521696, 2305089.791590245440602 ], [ 3300014.041125246323645, 2305087.131987411528826 ], [ 3300015.042351812124252, 2305082.391976893879473 ], [ 3300015.014327470213175, 2305078.339073281735182 ], [ 3300015.171258960850537, 2305074.253761935513467 ], [ 3300016.229300210252404, 2305071.025502596050501 ], [ 3300016.850716148968786, 2305069.39528493816033 ], [ 3300016.713439374230802, 2305067.390364112332463 ], [ 3300016.946007304824889, 2305065.320842210203409 ], [ 3300017.368572229519486, 2305061.696357735432684 ], [ 3300016.477249887771904, 2305057.794247912243009 ], [ 3300016.235563894733787, 2305056.31478924350813 ], [ 3300015.813849245663732, 2305053.345102206803858 ], [ 3300015.325435840059072, 2305051.908739659935236 ], [ 3300015.045825812034309, 2305049.421354428865016 ], [ 3300013.248665425460786, 2305046.184794481378049 ], [ 3300011.038793187588453, 2305043.527446531690657 ], [ 3300008.131885612383485, 2305040.484625700861216 ], [ 3300004.731637845747173, 2305037.528078554198146 ], [ 3300001.776951972395182, 2305036.522603565361351 ], [ 3299997.347518738359213, 2305034.252948699984699 ], [ 3299995.071161050815135, 2305033.128989707678556 ], [ 3299991.547599175479263, 2305030.193982402328402 ], [ 3299988.436717321630567, 2305026.679565825499594 ], [ 3299983.566469374578446, 2305020.936336284503341 ], [ 3299981.034367414191365, 2305016.306475912220776 ], [ 3299978.094398810062557, 2305010.733307383023202 ], [ 3299976.159933276474476, 2305005.491629895288497 ], [ 3299974.998235546052456, 2305002.651197020895779 ], [ 3299973.959852408152074, 2304999.789224684238434 ], [ 3299969.915098140947521, 2304992.887356873601675 ], [ 3299966.192507885396481, 2304987.958216465078294 ], [ 3299962.617163874674588, 2304981.988805893808603 ], [ 3299960.96222541294992, 2304979.23462970321998 ], [ 3299954.996887478977442, 2304969.117661169730127 ], [ 3299949.804399434477091, 2304961.401821382343769 ], [ 3299947.130083316005766, 2304956.289578628726304 ], [ 3299945.759550590068102, 2304954.499971547164023 ], [ 3299940.401012524962425, 2304947.320462542586029 ], [ 3299939.395592692308128, 2304946.988855906762183 ], [ 3299941.952318850439042, 2304944.006045464426279 ], [ 3299941.421170614659786, 2304943.084474151022732 ], [ 3299948.63085579033941, 2304936.752601740881801 ], [ 3299954.830192572902888, 2304931.611759880091995 ], [ 3299955.451711359899491, 2304929.981525512877852 ], [ 3299957.002920681610703, 2304926.667126890271902 ], [ 3299958.117681675590575, 2304924.950636273249984 ], [ 3299959.564496606588364, 2304922.161798420362175 ], [ 3299961.073051552288234, 2304919.362075130455196 ], [ 3299962.415455893613398, 2304917.098699377849698 ], [ 3299963.473506802227348, 2304913.870441859588027 ], [ 3299964.279899485874921, 2304912.207916029263288 ], [ 3299965.565676428377628, 2304908.432657532393932 ], [ 3299966.082686384674162, 2304907.327902703545988 ], [ 3299969.241934039629996, 2304902.210956427268684 ], [ 3299970.798093024641275, 2304897.374022559262812 ], [ 3299971.253528548404574, 2304896.279921745881438 ], [ 3299973.658934539649636, 2304889.265753719955683 ], [ 3299978.398098126985133, 2304878.293279277160764 ], [ 3299981.111777569167316, 2304871.2251659152098 ], [ 3299983.061636656988412, 2304865.305019067600369 ], [ 3299983.57874646410346, 2304864.200247707776725 ], [ 3299984.537255779840052, 2304859.975033467635512 ], [ 3299985.15866267727688, 2304858.344719286076725 ], [ 3299986.430391751229763, 2304852.54302222840488 ], [ 3299987.559904151596129, 2304846.258942623622715 ], [ 3299988.552050595637411, 2304837.969961692579091 ], [ 3299989.27383185364306, 2304830.742755061481148 ], [ 3299990.13770053582266, 2304823.997751584742218 ], [ 3299990.835532892961055, 2304817.789176670368761 ], [ 3299990.978532554581761, 2304811.677412783261389 ], [ 3299990.912708359304816, 2304806.616571673192084 ], [ 3299990.581270416732877, 2304801.095003005582839 ], [ 3299990.397099199239165, 2304794.533264382742345 ], [ 3299989.86177216283977, 2304788.5399842527695 ], [ 3299989.018273804336786, 2304782.600633738096803 ], [ 3299988.501948853954673, 2304777.111258647404611 ], [ 3299988.189399942290038, 2304772.093514045700431 ], [ 3299988.038101126439869, 2304768.062254279386252 ], [ 3299987.839162272866815, 2304766.068007073365152 ], [ 3299986.962715462781489, 2304757.598295078147203 ], [ 3299986.583657949231565, 2304754.113838636316359 ], [ 3299986.394524613395333, 2304749.074538126587868 ], [ 3299985.87328334338963, 2304745.107896368950605 ], [ 3299985.029675002209842, 2304739.168465489987284 ], [ 3299983.949342540930957, 2304730.227042713668197 ], [ 3299982.769567161332816, 2304720.288644792512059 ], [ 3299981.81255259970203, 2304711.325683522503823 ], [ 3299982.282753213308752, 2304705.66399675887078 ], [ 3299982.368166519328952, 2304704.634631219319999 ], [ 3299981.804156392347068, 2304701.18258292041719 ], [ 3299981.373351991176605, 2304694.663827021606266 ], [ 3299981.212152045220137, 2304693.677638476714492 ], [ 3299980.169728273991495, 2304685.744043683633208 ], [ 3299980.070169778075069, 2304684.746986967511475 ], [ 3299979.553854905068874, 2304679.257614165078849 ], [ 3299979.397593087051064, 2304676.748792253434658 ], [ 3299979.146809757687151, 2304671.720263091847301 ], [ 3299978.94779196055606, 2304669.726132553070784 ], [ 3299978.450494427699596, 2304664.740763220004737 ], [ 3299978.057397794444114, 2304659.229868991766125 ], [ 3299978.166766189038754, 2304657.181873518973589 ], [ 3299977.541101668961346, 2304653.740595423150808 ], [ 3299976.308674124069512, 2304647.361961016897112 ], [ 3299975.043384677730501, 2304638.45285027474165 ], [ 3299973.796997379511595, 2304630.047661466058344 ], [ 3299972.043423030059785, 2304619.702271931339055 ], [ 3299970.057050722651184, 2304611.426335502415895 ], [ 3299967.84316372172907, 2304603.697463217657059 ], [ 3299965.363550293724984, 2304595.507782164495438 ], [ 3299963.415195491164923, 2304588.239753593225032 ], [ 3299961.770073498599231, 2304582.44042888795957 ], [ 3299959.793620444368571, 2304571.119425070472062 ], [ 3299958.362369566224515, 2304562.74652951490134 ], [ 3299957.614128339104354, 2304552.732768437359482 ], [ 3299957.090279837138951, 2304530.506166845094413 ], [ 3299956.891267232596874, 2304528.512037403415889 ], [ 3299955.915400929749012, 2304519.045260157436132 ], [ 3299955.673713447526097, 2304517.565705869346857 ], [ 3299954.849045605398715, 2304512.130300133489072 ], [ 3299954.285146236419678, 2304508.678237031213939 ], [ 3299952.82498879916966, 2304502.846506602596492 ], [ 3299952.668751332908869, 2304500.337785127572715 ], [ 3299949.440266067162156, 2304488.728253616020083 ], [ 3299948.549906981643289, 2304478.23199746478349 ], [ 3299947.540270510129631, 2304472.828900998458266 ], [ 3299946.146849062293768, 2304465.463949712458998 ], [ 3299932.486909820698202, 2304471.9079694817774 ], [ 3299926.634325100108981, 2304471.408656401094049 ], [ 3299922.792693550698459, 2304471.572643019258976 ], [ 3299918.827730996534228, 2304471.75807032501325 ], [ 3299915.503186225891113, 2304470.817091514822096 ], [ 3299911.642540849279612, 2304470.47707599401474 ], [ 3299908.953486437443644, 2304469.932422110810876 ], [ 3299903.665739014744759, 2304466.291117390152067 ], [ 3299897.358518580440432, 2304460.291667586192489 ], [ 3299890.743043456692249, 2304454.346263125538826 ], [ 3299883.335909510031343, 2304445.49559819418937 ], [ 3299875.317079643718898, 2304435.230211229994893 ], [ 3299867.905003725551069, 2304427.902179657015949 ], [ 3299860.820114992093295, 2304421.024222088512033 ], [ 3299856.059312929399312, 2304413.23309962823987 ], [ 3299850.037371804472059, 2304401.604376699309796 ], [ 3299845.115344926714897, 2304392.826869523152709 ], [ 3299843.019838551990688, 2304386.598995370324701 ], [ 3299842.185356716625392, 2304384.208640361670405 ], [ 3299839.733842948451638, 2304380.071839021518826 ], [ 3299838.287748134694993, 2304376.266645958181471 ], [ 3299836.63282054848969, 2304373.512374054640532 ], [ 3299834.143510508351028, 2304368.367730011232197 ], [ 3299828.709428359754384, 2304359.172441514208913 ], [ 3299825.480146745219827, 2304354.157148426398635 ], [ 3299818.1486353315413, 2304347.322271063923836 ], [ 3299810.039437876548618, 2304339.608786308672279 ], [ 3299796.267592939082533, 2304329.841152770910412 ], [ 3299786.080956123303622, 2304322.997855961788446 ], [ 3299777.023037372156978, 2304316.464529945980757 ], [ 3299767.576292229816318, 2304309.491999508347362 ], [ 3299758.158258080948144, 2304299.978241806849837 ], [ 3299750.793920018710196, 2304290.612991351634264 ], [ 3299744.937231667805463, 2304285.042181275784969 ], [ 3299738.018432077020407, 2304277.627999635413289 ], [ 3299733.888139354996383, 2304271.755541719030589 ], [ 3299729.103476435411721, 2304264.98293731501326 ], [ 3299723.664459704887122, 2304257.310285126324743 ], [ 3299719.297468119300902, 2304248.435838078148663 ], [ 3299715.584848152007908, 2304240.461537755094469 ], [ 3299714.372209220193326, 2304227.992690335959196 ], [ 3299718.370101226028055, 2304230.337616247590631 ], [ 3299716.701165150851011, 2304225.55700625339523 ], [ 3299722.37782530952245, 2304229.63749181246385 ], [ 3299755.024268802255392, 2304252.846453486010432 ], [ 3299789.373984809033573, 2304270.178171926178038 ], [ 3299821.215605260804296, 2304281.861321086995304 ], [ 3299871.17296794988215, 2304306.611168569885194 ], [ 3299949.201073880773038, 2304346.746418704278767 ], [ 3299995.963802175596356, 2304355.823132845107466 ], [ 3300035.341578692663461, 2304368.218750145286322 ], [ 3300072.490634692367166, 2304377.453214623965323 ], [ 3300182.91498770006001, 2304353.091197992675006 ], [ 3300382.420549673959613, 2304311.139381673187017 ], [ 3300384.701870419085026, 2304310.740831569768488 ], [ 3300443.409761161543429, 2304297.442283587530255 ], [ 3300457.387019336223602, 2304294.493451324291527 ], [ 3300458.558615999296308, 2304294.288825538940728 ], [ 3300473.584157146979123, 2304291.15690962318331 ], [ 3300572.108854500576854, 2304268.87433270085603 ], [ 3300581.646991984918714, 2304266.701046177186072 ], [ 3300595.069345769938082, 2304263.849169795867056 ], [ 3300839.885082198306918, 2304210.434088536072522 ], [ 3300841.535911942832172, 2304208.116803212091327 ], [ 3300843.390610167756677, 2304206.271130490116775 ], [ 3300997.430747669190168, 2304034.299339887686074 ], [ 3301007.246606216300279, 2304023.392399999778718 ], [ 3298760.678077127318829, 2304023.392399999778718 ], [ 3298758.468944851309061, 2304035.36637829663232 ], [ 3298754.91173701081425, 2304036.495093581732363 ], [ 3298754.721900331787765, 2304038.049930712673813 ], [ 3298719.490867135114968, 2304051.813753181137145 ], [ 3298695.124755932018161, 2304072.302188233472407 ], [ 3298689.020400000270456, 2304078.349569427780807 ], [ 3298689.020400000270456, 2306986.572151871398091 ], [ 3298691.428886639885604, 2306986.525349045637995 ] ] ] } }
]
}
