{
"type": "FeatureCollection",
"name": "Gernika-Lumo",
"crs": { "type": "name", "properties": { "name": "urn:ogc:def:crs:EPSG::3035" } },
"features": [
{ "type": "Feature", "properties": { "SITE_NAME": "Urdaibai", "ODESIGNATE": "Reserva de la Biosfera", "NUT2": 21, "SITE_CODE_": "ES213001", "DESIG_ABBR": "ES33", "SITE_CDDA": "63232_CDDA", "Sup_ha": 22038.610939900002 }, "geometry": { "type": "Polygon", "coordinates": [ [ [ 3291339.016746120527387, 2331527.983697837218642 ], [ 3291411.295918485149741, 2331595.744918912183493 ], [ 3291516.765670088585466, 2331711.477592807263136 ], [ 3291599.301440362818539, 2331818.28699793247506 ], [ 3291630.485886404290795, 2331933.197098040021956 ], [ 3291596.644646216183901, 2332007.234496434219182 ], [ 3291593.520840587560087, 2332079.572698053903878 ], [ 3291608.491230236366391, 2332196.436323454137892 ], [ 3291578.269989911932498, 2332315.625759933609515 ], [ 3291519.065569079015404, 2332391.26951649505645 ], [ 3291536.992481105960906, 2332464.789429548196495 ], [ 3291637.247398539911956, 2332509.760398411192 ], [ 3291710.775917385704815, 2332533.421089912764728 ], [ 3291805.86600115057081, 2332579.180010251235217 ], [ 3291892.094304082915187, 2332673.751460533123463 ], [ 3291965.160030799917877, 2332741.209374282509089 ], [ 3292082.481420180294663, 2332750.686565962154418 ], [ 3292193.677310368977487, 2332787.794997015036643 ], [ 3292265.752580900210887, 2332863.963473484385759 ], [ 3292253.360462745651603, 2332991.955958344042301 ], [ 3292279.643904002383351, 2333104.308144688606262 ], [ 3292322.439140140544623, 2333173.67840162711218 ], [ 3292402.46646915236488, 2333216.322455595247447 ], [ 3292499.019921430852264, 2333247.025344847235829 ], [ 3292583.79752204939723, 2333295.858132239431143 ], [ 3292636.477686431258917, 2333392.928494590334594 ], [ 3292651.185677809640765, 2333504.501832097768784 ], [ 3292619.656509304884821, 2333593.745892052538693 ], [ 3292577.232505082618445, 2333672.195695050992072 ], [ 3292539.315196832641959, 2333750.633832205086946 ], [ 3292519.519533235579729, 2333840.854009554721415 ], [ 3292488.593670755624771, 2333952.303870282135904 ], [ 3292447.545619484037161, 2334026.97633655089885 ], [ 3292380.982995647005737, 2334078.708987310528755 ], [ 3292301.793911793734878, 2334137.727409078739583 ], [ 3292261.896000105887651, 2334236.039498088881373 ], [ 3292177.876497455872595, 2334297.936323830857873 ], [ 3292100.625984173733741, 2334352.048036098945886 ], [ 3292039.066073017194867, 2334409.501719672232866 ], [ 3291974.370944410562515, 2334484.508145270403475 ], [ 3291965.688582132104784, 2334492.58180500054732 ], [ 3296994.541205000597984, 2334492.58180500054732 ], [ 3296994.541205000597984, 2329418.390195000451058 ], [ 3291336.56849499931559, 2329418.390195000451058 ], [ 3291336.56849499931559, 2331526.273170193657279 ], [ 3291339.016746120527387, 2331527.983697837218642 ] ] ] } }
]
}
