{
"type": "FeatureCollection",
"name": "Idiazabal",
"crs": { "type": "name", "properties": { "name": "urn:ogc:def:crs:EPSG::3035" } },
"features": [
{ "type": "Feature", "properties": { "SITE_NAME": "Aizkorri-Aratz", "ODESIGNATE": "Parque Natural", "NUT2": 21, "SITE_CODE_": "ES210003", "DESIG_ABBR": "ES10", "SITE_CDDA": "389017_CDDA", "Sup_ha": 15909.205510899999 }, "geometry": { "type": "Polygon", "coordinates": [ [ [ 3321162.373380159027874, 2284574.364553031511605 ], [ 3321232.08774630445987, 2284625.166128768585622 ], [ 3321431.827261105645448, 2284770.718656273093075 ], [ 3321444.697153977584094, 2284775.928803317714483 ], [ 3321493.645971279125661, 2284796.344229221343994 ], [ 3321530.783288596197963, 2284813.533804730977863 ], [ 3321591.748246147762984, 2284841.556195389013737 ], [ 3321646.866759143769741, 2284865.435047794133425 ], [ 3321678.128732891753316, 2284876.804983652662486 ], [ 3321710.683498072903603, 2284888.396291884593666 ], [ 3321740.503916747868061, 2284905.871000456623733 ], [ 3321774.290549708995968, 2284926.097523675300181 ], [ 3321805.655988706275821, 2284944.315872095525265 ], [ 3321806.60828868765384, 2284944.869090316351503 ], [ 3321813.894184588454664, 2284950.261844127438962 ], [ 3321816.920153331942856, 2284952.31768081523478 ], [ 3321820.357574644498527, 2284954.310312202200294 ], [ 3321823.472039587330073, 2284955.512196678668261 ], [ 3321825.910657352767885, 2284956.397698390297592 ], [ 3321828.555108110420406, 2284957.251629633828998 ], [ 3321831.170039352029562, 2284957.900073815137148 ], [ 3321834.196572305168957, 2284958.484982594847679 ], [ 3321836.987966201733798, 2284958.896039132028818 ], [ 3321841.542277651373297, 2284959.876493644434959 ], [ 3321868.251744778361171, 2284962.911884377710521 ], [ 3321904.48072346765548, 2284970.786552629899234 ], [ 3321917.761498445644975, 2284973.996458508539945 ], [ 3321926.635149937588722, 2284975.78329363791272 ], [ 3321934.039517930708826, 2284977.585955430287868 ], [ 3321943.441745981574059, 2284980.131905058398843 ], [ 3321954.254746952094138, 2284982.250559041276574 ], [ 3321961.571117013692856, 2284983.436462147627026 ], [ 3321968.476050592958927, 2284984.685669051948935 ], [ 3321981.610366749111563, 2284986.867649166844785 ], [ 3321991.776327629107982, 2284990.346668736077845 ], [ 3321997.476553903426975, 2284991.99115820787847 ], [ 3322003.029557076282799, 2284994.078672382980585 ], [ 3322008.523966521490365, 2284995.754831212107092 ], [ 3322013.136940916068852, 2284997.146437465213239 ], [ 3322017.338577335700393, 2284998.601329545024782 ], [ 3322020.423591236118227, 2284999.59752016980201 ], [ 3322023.743776511400938, 2285000.767760938964784 ], [ 3322026.417369807139039, 2285001.827353092841804 ], [ 3322029.326201029121876, 2285003.060780968051404 ], [ 3322032.058553468436003, 2285004.531497373245656 ], [ 3322035.6135981278494, 2285005.875741554424167 ], [ 3322039.110246330499649, 2285006.808595878537744 ], [ 3322067.932198590599, 2285021.70559747191146 ], [ 3322093.786859448067844, 2285034.958001958671957 ], [ 3322123.931625117082149, 2285048.811162512749434 ], [ 3322141.73625638242811, 2285057.208433736581355 ], [ 3322147.758960712235421, 2285060.239944102242589 ], [ 3322225.428312261588871, 2285099.495797178708017 ], [ 3322241.991537468042225, 2285112.559075967408717 ], [ 3322242.47610344318673, 2285112.809478798881173 ], [ 3322272.562345300801098, 2285128.359500092919916 ], [ 3322296.625904442742467, 2285141.699110565707088 ], [ 3322317.323801887687296, 2285152.45880343625322 ], [ 3322335.502288707531989, 2285161.967273080721498 ], [ 3322354.93686675420031, 2285172.73381428187713 ], [ 3322370.603161001112312, 2285179.726055299397558 ], [ 3322388.147871470544487, 2285186.605712388642132 ], [ 3322403.755386780016124, 2285191.923494192771614 ], [ 3322424.877925436943769, 2285200.082911865320057 ], [ 3322436.827220959123224, 2285206.240480387583375 ], [ 3322452.56653543934226, 2285212.377830266952515 ], [ 3322468.617161402478814, 2285217.829830253496766 ], [ 3322475.036889081820846, 2285223.675090455915779 ], [ 3322488.762707193382084, 2285235.634303723461926 ], [ 3322506.36719647468999, 2285255.981958187650889 ], [ 3322532.969571557827294, 2285285.100886932574213 ], [ 3322555.004912202246487, 2285306.792278875596821 ], [ 3322582.790189690422267, 2285338.02422597585246 ], [ 3322610.509631257504225, 2285368.846389959566295 ], [ 3322637.669569449499249, 2285399.698715470265597 ], [ 3322642.22822042927146, 2285404.877167547121644 ], [ 3322675.726516934111714, 2285440.18067960627377 ], [ 3322682.582256584428251, 2285447.425145149230957 ], [ 3322697.495909617748111, 2285478.554936153814197 ], [ 3322706.678324664011598, 2285502.878740351181477 ], [ 3322716.233659034129232, 2285521.66259932005778 ], [ 3322726.36408632947132, 2285541.400701719801873 ], [ 3322742.221887301653624, 2285562.680754857603461 ], [ 3322757.563331290148199, 2285584.68124555516988 ], [ 3322757.79889468010515, 2285585.000952846836299 ], [ 3322790.005468722898513, 2285553.121379869058728 ], [ 3322804.822501370683312, 2285536.811546167358756 ], [ 3322861.180911543313414, 2285474.826934903860092 ], [ 3322920.641198753844947, 2285417.180300548672676 ], [ 3322920.429393543396145, 2285406.102941595949233 ], [ 3322921.185093728359789, 2285404.886341060977429 ], [ 3322943.106001150794327, 2285388.080207468941808 ], [ 3322971.729495350271463, 2285346.205813078675419 ], [ 3323011.867512293159962, 2285293.474316889420152 ], [ 3323072.378014835529029, 2285229.81435535941273 ], [ 3323098.859050266910344, 2285213.279446891043335 ], [ 3323097.47077406803146, 2285195.541686951648444 ], [ 3323111.952957021538168, 2285186.642309427261353 ], [ 3323146.686667816247791, 2285123.910035164561123 ], [ 3323229.83534416789189, 2285017.947917767800391 ], [ 3323343.984344880562276, 2284875.600410608574748 ], [ 3323489.046487460844219, 2284714.578739344142377 ], [ 3323534.003776954486966, 2284655.107733075506985 ], [ 3323574.84360813209787, 2284606.676633266732097 ], [ 3323601.65218679793179, 2284564.307760660070926 ], [ 3323614.574546314310282, 2284551.644251801073551 ], [ 3323616.134763346984982, 2284550.115277250763029 ], [ 3323621.080917840823531, 2284548.321230647619814 ], [ 3323629.894220185466111, 2284545.124547775834799 ], [ 3323639.946861335076392, 2284542.421620914246887 ], [ 3323649.54641740815714, 2284536.937982006929815 ], [ 3323658.034872037358582, 2284530.177318295929581 ], [ 3323745.564095041714609, 2284557.787040780764073 ], [ 3323783.557261814828962, 2284566.368061256129295 ], [ 3323963.283864601515234, 2284606.96079005068168 ], [ 3324097.630131999030709, 2284624.891095385886729 ], [ 3324102.255945591256022, 2284614.16844076430425 ], [ 3324107.284646211192012, 2284602.554385812021792 ], [ 3324166.822763012722135, 2284542.016836198046803 ], [ 3324244.40584041364491, 2284456.201965551357716 ], [ 3324329.698895417619497, 2284354.301271883770823 ], [ 3324369.534479067195207, 2284297.15265485458076 ], [ 3324380.983840652275831, 2284281.845579539425671 ], [ 3324389.844753461424261, 2284270.022535000927746 ], [ 3321020.113835000433028, 2284270.022535000927746 ], [ 3321020.113835000433028, 2284604.240282486192882 ], [ 3321162.373380159027874, 2284574.364553031511605 ] ] ] } },
{ "type": "Feature", "properties": { "SITE_NAME": "Aralar", "ODESIGNATE": "Parque Natural", "NUT2": 21, "SITE_CODE_": "ES212001", "DESIG_ABBR": "ES10", "SITE_CDDA": "71222_CDDA", "Sup_ha": 10923.041612000001 }, "geometry": { "type": "MultiPolygon", "coordinates": [ [ [ [ 3328603.543067917693406, 2284418.881123844534159 ], [ 3328573.253623510710895, 2284477.606576859485358 ], [ 3328409.334900127258152, 2284879.06067362986505 ], [ 3328342.451738479547203, 2284908.441790466662496 ], [ 3328337.098734866827726, 2284911.401107641402632 ], [ 3328324.129494236316532, 2284918.220551645383239 ], [ 3328298.616780911572278, 2284933.306335332337767 ], [ 3328273.118562434799969, 2284955.487832594662905 ], [ 3328242.102396332658827, 2284986.234552970156074 ], [ 3328199.519871139433235, 2285033.19008007645607 ], [ 3328164.203635699581355, 2285081.923578724265099 ], [ 3328109.793192732613534, 2285173.660094541497529 ], [ 3328107.376444259192795, 2285189.622609073761851 ], [ 3328191.008846655488014, 2285252.688056918792427 ], [ 3328161.369841669220477, 2285288.772628140635788 ], [ 3328131.756821255199611, 2285328.908764526247978 ], [ 3328085.218814700841904, 2285389.73535481793806 ], [ 3328057.286819033324718, 2285419.945935828145593 ], [ 3328016.196542384568602, 2285463.600306368432939 ], [ 3327979.107900987844914, 2285503.009280011989176 ], [ 3327968.60728418501094, 2285514.469567772001028 ], [ 3327951.241959448438138, 2285526.61725329561159 ], [ 3327917.412181326188147, 2285551.769872869830579 ], [ 3327880.990384097211063, 2285572.3032545321621 ], [ 3327825.82799456641078, 2285604.716762666590512 ], [ 3327780.1621252913028, 2285630.407761150039732 ], [ 3327730.808663221076131, 2285658.768533399328589 ], [ 3327678.963876198045909, 2285688.57693899795413 ], [ 3327622.15493729757145, 2285721.784256608225405 ], [ 3327576.014549316372722, 2285748.065106574445963 ], [ 3327564.278978180140257, 2285754.670180718414485 ], [ 3327554.650296881329268, 2285752.796361091546714 ], [ 3327541.197742249350995, 2285751.587896781042218 ], [ 3327534.6599847888574, 2285750.146578806452453 ], [ 3327512.211937726009637, 2285761.701398994773626 ], [ 3327478.545353322289884, 2285754.376244940795004 ], [ 3327430.007248138077557, 2285724.287862424273044 ], [ 3327406.55884805880487, 2285712.459677851293236 ], [ 3327357.086754410061985, 2285692.865221870131791 ], [ 3327248.11755498778075, 2285648.447642311453819 ], [ 3327230.34142097318545, 2285641.853320524096489 ], [ 3327165.090801925398409, 2285640.1377317244187 ], [ 3327133.31999490223825, 2285646.113315016031265 ], [ 3327035.70027889451012, 2285665.127316712401807 ], [ 3327017.548923757858574, 2285667.778711477760226 ], [ 3326899.638801462482661, 2285681.882522591855377 ], [ 3326824.424115594942123, 2285700.876035073772073 ], [ 3326708.23320584371686, 2285741.375466625206172 ], [ 3326594.222201725002378, 2285770.340647898614407 ], [ 3326593.135129018221051, 2285766.256773628294468 ], [ 3326579.878386345226318, 2285798.695410995744169 ], [ 3326564.117333054542542, 2285832.366744073107839 ], [ 3326554.859256397467107, 2285852.230852710548788 ], [ 3326548.227324206847697, 2285867.581619169097394 ], [ 3326538.055554936174303, 2285884.562454383820295 ], [ 3326532.569472265895456, 2285895.657744148746133 ], [ 3326523.124916316010058, 2285910.483950954861939 ], [ 3326509.044733858667314, 2285934.229277839884162 ], [ 3326491.238129219040275, 2285954.566877928562462 ], [ 3326480.818123591132462, 2285966.520666335709393 ], [ 3326471.878380853682756, 2285978.21700207516551 ], [ 3326456.237675594165921, 2286001.726871270686388 ], [ 3326446.152022685855627, 2286017.678727733902633 ], [ 3326437.501915579661727, 2286028.817556196358055 ], [ 3326431.182501171249896, 2286037.522741765715182 ], [ 3326427.169584278948605, 2286044.812447404488921 ], [ 3326424.599393896292895, 2286050.83696558419615 ], [ 3326421.122819924727082, 2286057.526322699151933 ], [ 3326419.008742406964302, 2286062.457422954495996 ], [ 3326416.975009640678763, 2286067.881673824973404 ], [ 3326416.27949728211388, 2286072.56594805419445 ], [ 3326416.447459033224732, 2286077.099980041850358 ], [ 3326416.263929975219071, 2286082.202300800476223 ], [ 3326416.487831255421042, 2286088.247584237251431 ], [ 3326416.384829021990299, 2286093.842922673560679 ], [ 3326415.960300528910011, 2286097.465990252792835 ], [ 3326415.56183020863682, 2286105.140753375831991 ], [ 3326411.897296664305031, 2286162.058779151178896 ], [ 3326410.658714435528964, 2286185.597727623768151 ], [ 3326410.77232361305505, 2286193.690425410401076 ], [ 3326410.861464245244861, 2286202.801439609378576 ], [ 3326410.894746744539589, 2286210.401086205150932 ], [ 3326410.582160266116261, 2286217.046957196202129 ], [ 3326410.991107606329024, 2286223.060050202533603 ], [ 3326411.233809635043144, 2286229.609302161727101 ], [ 3326412.074395970907062, 2286235.547290874179453 ], [ 3326412.668391308281571, 2286241.528287928551435 ], [ 3326413.182073618285358, 2286247.016331721562892 ], [ 3326413.942430747207254, 2286252.461251640226692 ], [ 3326414.45611418876797, 2286257.949295688420534 ], [ 3326415.154811904300004, 2286263.405046156607568 ], [ 3326418.688008490949869, 2286280.029171379748732 ], [ 3326421.486822876613587, 2286295.260093453805894 ], [ 3326423.771968753542751, 2286305.003069774247706 ], [ 3326426.087200463749468, 2286312.205663692206144 ], [ 3326427.729705886915326, 2286318.004223322030157 ], [ 3326429.661924748215824, 2286323.245241974946111 ], [ 3326431.489362267311662, 2286329.011623783037066 ], [ 3326434.470099650323391, 2286334.070301989559084 ], [ 3326437.16109260590747, 2286339.686324116773903 ], [ 3326439.037268518470228, 2286343.416107137687504 ], [ 3326441.406841012183577, 2286347.059937839861959 ], [ 3326443.795067831408232, 2286351.207552480511367 ], [ 3326446.288009924814105, 2286354.830018440727144 ], [ 3326449.108087833970785, 2286358.902592593804002 ], [ 3326451.335653864778578, 2286362.06410298962146 ], [ 3326453.193176822271198, 2286365.290102292783558 ], [ 3326454.884324574843049, 2286369.052080665715039 ], [ 3326455.878474935889244, 2286372.428306833840907 ], [ 3326456.470872460864484, 2286373.33928922843188 ], [ 3326457.410557917319238, 2286380.274099392816424 ], [ 3326458.170960002578795, 2286385.719218593090773 ], [ 3326458.067875070497394, 2286391.31448338739574 ], [ 3326457.194592115934938, 2286399.578912374097854 ], [ 3326456.043007790111005, 2286405.356617067940533 ], [ 3326455.459569952450693, 2286413.063685705885291 ], [ 3326452.601316774263978, 2286424.715682444628328 ], [ 3326450.390024828258902, 2286433.72006050683558 ], [ 3326447.315164970234036, 2286442.874701219145209 ], [ 3326444.615978569723666, 2286450.442885297350585 ], [ 3326442.157871247734874, 2286459.490111595485359 ], [ 3326440.309312772005796, 2286464.882166507188231 ], [ 3326438.251244951039553, 2286471.324635956902057 ], [ 3326435.391498589888215, 2286477.906700633466244 ], [ 3326431.083134933840483, 2286487.27608107123524 ], [ 3326427.477547813206911, 2286495.508915286045521 ], [ 3326423.995331401005387, 2286503.720385516993701 ], [ 3326420.167422827798873, 2286510.977947072591633 ], [ 3326416.827218411955982, 2286519.671740076504648 ], [ 3326413.326351040042937, 2286527.379428860265762 ], [ 3326408.993618797976524, 2286537.767018909566104 ], [ 3326404.277882391121238, 2286546.193131624720991 ], [ 3326401.442397742066532, 2286551.756821508519351 ], [ 3326397.294799900613725, 2286562.112202756106853 ], [ 3326388.276434288360178, 2286578.385627531912178 ], [ 3326383.646746600978076, 2286585.782713256310672 ], [ 3326380.441225402057171, 2286591.410897124558687 ], [ 3326378.432002236135304, 2286595.816757932770997 ], [ 3326374.443346183281392, 2286602.088242667261511 ], [ 3326372.224732370115817, 2286607.54460168024525 ], [ 3326369.759347192011774, 2286613.0441032522358 ], [ 3326366.548108590766788, 2286620.194277963135391 ], [ 3326364.176093108952045, 2286628.212589428760111 ], [ 3326360.508875281084329, 2286636.456272708717734 ], [ 3326356.761325552128255, 2286644.206904018763453 ], [ 3326353.796896697022021, 2286651.31413707183674 ], [ 3326349.834255288820714, 2286661.637355442158878 ], [ 3326345.372600723057985, 2286673.568501365371048 ], [ 3326341.989429066423327, 2286682.776931210421026 ], [ 3326324.129889800213277, 2286767.010205936152488 ], [ 3326326.732520480174571, 2286785.317522175610065 ], [ 3326331.780254595912993, 2286831.086155442520976 ], [ 3326338.289000172633678, 2286892.825621825642884 ], [ 3326341.590441903099418, 2286916.588716569822282 ], [ 3326344.552688121329993, 2286959.67808810994029 ], [ 3326345.691492084879428, 2286990.409042245708406 ], [ 3326345.793205962516367, 2287018.278267566114664 ], [ 3326345.834827536717057, 2287051.228188587352633 ], [ 3326343.839586540590972, 2287079.462318426929414 ], [ 3326342.007449821569026, 2287097.020368988160044 ], [ 3326341.034071139991283, 2287137.752542341127992 ], [ 3326338.874210074543953, 2287171.59271601587534 ], [ 3326338.624532982707024, 2287200.030168506316841 ], [ 3326329.680579279083759, 2287235.05107181891799 ], [ 3326316.964768528938293, 2287278.84099303279072 ], [ 3326287.087660671211779, 2287351.983445646706969 ], [ 3326258.208158447407186, 2287383.375400231219828 ], [ 3326240.07515933085233, 2287403.263266862370074 ], [ 3326227.874420914333314, 2287419.07663455279544 ], [ 3326204.139961249660701, 2287453.629639208316803 ], [ 3326171.879264049232006, 2287499.300069522112608 ], [ 3326146.825334127061069, 2287535.096736654639244 ], [ 3326136.313709418755025, 2287566.334469133988023 ], [ 3326119.436070546042174, 2287613.384091399144381 ], [ 3326133.900521740317345, 2287651.936799669638276 ], [ 3326151.40908689238131, 2287700.607562996912748 ], [ 3326163.563739595469087, 2287730.435566233471036 ], [ 3326186.077563849743456, 2287770.122639264911413 ], [ 3326203.386877121403813, 2287794.997141828760505 ], [ 3326241.040477201342583, 2287846.246367896907032 ], [ 3326269.209717350080609, 2287884.441975059453398 ], [ 3326278.854988450184464, 2287898.481581614352763 ], [ 3326286.880705567076802, 2287955.901326596736908 ], [ 3326316.767380873672664, 2288001.910692671779543 ], [ 3326345.487945506349206, 2288046.60208408953622 ], [ 3326353.066259309183806, 2288058.46609963895753 ], [ 3326358.614474745467305, 2288085.894735302776098 ], [ 3326372.865895585622638, 2288132.090177232865244 ], [ 3326378.182992146350443, 2288133.192952481564134 ], [ 3326386.213699889369309, 2288133.823407030198723 ], [ 3326399.092349177226424, 2288134.624306375160813 ], [ 3326411.502008735202253, 2288134.49264366645366 ], [ 3326430.548088621813804, 2288134.220100725069642 ], [ 3326443.320254846010357, 2288130.476096605882049 ], [ 3326451.152926521841437, 2288129.112870117183775 ], [ 3326451.792225788813084, 2288122.917166376486421 ], [ 3326453.732259893324226, 2288114.973897617775947 ], [ 3326454.956635266542435, 2288106.141192668583244 ], [ 3326455.522939485497773, 2288103.000419407617301 ], [ 3326457.124703438952565, 2288097.651206145528704 ], [ 3326461.212066113948822, 2288092.376494302880019 ], [ 3326464.837918893434107, 2288089.717383508104831 ], [ 3326470.807216804008931, 2288086.650271352380514 ], [ 3326477.017670658417046, 2288085.062409137375653 ], [ 3326484.067135935649276, 2288084.342519537545741 ], [ 3326489.223541028331965, 2288084.45919343130663 ], [ 3326495.589125986211002, 2288085.379525643307716 ], [ 3326503.386145482305437, 2288088.078814030624926 ], [ 3326507.796682395040989, 2288089.846394943073392 ], [ 3326509.030195426661521, 2288089.631743706297129 ], [ 3326515.156425449997187, 2288094.142991363070905 ], [ 3326521.559353367425501, 2288096.070902325678617 ], [ 3326528.425576896872371, 2288100.453278684522957 ], [ 3326533.637996402569115, 2288102.081320561468601 ], [ 3326536.605759395286441, 2288105.114043257199228 ], [ 3326537.760611704085022, 2288109.476417400874197 ], [ 3326536.786909742280841, 2288111.674006699584424 ], [ 3326533.32186524104327, 2288115.319305764976889 ], [ 3326528.425271240994334, 2288117.185568008106202 ], [ 3326524.040770184248686, 2288119.469857325777411 ], [ 3326517.800323139876127, 2288123.598123366013169 ], [ 3326514.995139445643872, 2288126.621560648083687 ], [ 3326508.995735442731529, 2288132.228996069170535 ], [ 3326504.570004817098379, 2288140.097775916103274 ], [ 3326501.321772823110223, 2288146.240539334714413 ], [ 3326497.667836396023631, 2288156.510205488651991 ], [ 3326496.176318116951734, 2288159.812083484139293 ], [ 3326495.172710554674268, 2288164.549967613071203 ], [ 3326493.836327420081943, 2288170.360039323568344 ], [ 3326492.505604322068393, 2288174.648012797348201 ], [ 3326490.724365570582449, 2288178.507244781590998 ], [ 3326488.616191786248237, 2288181.916432924568653 ], [ 3326485.435186035465449, 2288186.526287562213838 ], [ 3326483.123313979711384, 2288189.463885503355414 ], [ 3326480.503064248710871, 2288192.455146916676313 ], [ 3326482.915751153603196, 2288195.584461581893265 ], [ 3326488.585927285719663, 2288201.189143906347454 ], [ 3326495.872765773441643, 2288208.540549616795033 ], [ 3326497.532348265871406, 2288209.772867224179208 ], [ 3326498.618178077973425, 2288210.597989856731147 ], [ 3326506.231985337566584, 2288218.399637410417199 ], [ 3326510.964014986995608, 2288222.139422594103962 ], [ 3326517.854690213687718, 2288225.503566103056073 ], [ 3326525.176979972049594, 2288228.792500335723162 ], [ 3326531.753603769931942, 2288233.732307919301093 ], [ 3326541.142891771160066, 2288239.196841663680971 ], [ 3326547.398139471188188, 2288242.164524579886347 ], [ 3326556.966879988554865, 2288249.118844620417804 ], [ 3326563.913558720145375, 2288253.994258445687592 ], [ 3326569.996795707382262, 2288259.020027455408126 ], [ 3326575.358598854392767, 2288264.678376310970634 ], [ 3326582.359513185918331, 2288265.995189109817147 ], [ 3326588.052208838053048, 2288265.511401095893234 ], [ 3326590.369751708582044, 2288261.051807267591357 ], [ 3326590.466973845846951, 2288256.978585936129093 ], [ 3326590.526949744671583, 2288251.897770505398512 ], [ 3326590.723193396814167, 2288248.821393846534193 ], [ 3326589.396570382639766, 2288229.784710032865405 ], [ 3326588.16512609180063, 2288218.337133270222694 ], [ 3326596.076351555995643, 2288212.396912375465035 ], [ 3326600.793573982547969, 2288209.040751903317869 ], [ 3326601.799056056886911, 2288209.372819880023599 ], [ 3326610.91946490155533, 2288204.236261101439595 ], [ 3326619.473475436214358, 2288202.240491652861238 ], [ 3326622.235866243951023, 2288199.731643659528345 ], [ 3326624.54028989141807, 2288193.246088202111423 ], [ 3326626.454198519699275, 2288181.251077690161765 ], [ 3326628.751372728031129, 2288171.217524311505258 ], [ 3326632.726621418725699, 2288162.920213290955871 ], [ 3326637.148564813192934, 2288161.643490646965802 ], [ 3326639.75751530751586, 2288161.696532663423568 ], [ 3326644.366191056557, 2288165.457790091168135 ], [ 3326656.839325883891433, 2288170.385502497199923 ], [ 3326664.716713294386864, 2288173.57795855216682 ], [ 3326671.323228326626122, 2288175.977389228064567 ], [ 3326681.718079627491534, 2288181.773894319310784 ], [ 3326692.032485391013324, 2288187.077362042386085 ], [ 3326703.12444174895063, 2288193.259600717574358 ], [ 3326710.015118646901101, 2288196.623761839233339 ], [ 3326721.026613735128194, 2288202.312865477520972 ], [ 3326725.986673808190972, 2288205.505943907424808 ], [ 3326727.670489828567952, 2288205.719974570441991 ], [ 3326732.862435380928218, 2288201.77408239711076 ], [ 3326740.084034243132919, 2288198.996217421721667 ], [ 3326748.193310723640025, 2288195.049711211118847 ], [ 3326754.693474397063255, 2288192.904424776788801 ], [ 3326761.359879202209413, 2288190.223073065280914 ], [ 3326750.539056022185832, 2288182.979572010692209 ], [ 3326743.932440856005996, 2288180.58015167247504 ], [ 3326737.682853485457599, 2288176.09035553317517 ], [ 3326731.945343329105526, 2288172.018488618545234 ], [ 3326726.299519347026944, 2288165.395584462210536 ], [ 3326720.943370913155377, 2288158.215033645741642 ], [ 3326716.844888793304563, 2288149.801660635042936 ], [ 3326713.290362399537116, 2288144.33585358876735 ], [ 3326712.492456684354693, 2288137.883220864925534 ], [ 3326713.169090079143643, 2288132.695008643902838 ], [ 3326714.980236270464957, 2288126.295404963195324 ], [ 3326716.297879096120596, 2288119.981677741277963 ], [ 3326718.189357723575085, 2288114.075031673070043 ], [ 3326721.591051428113133, 2288105.370406871661544 ], [ 3326725.185019364114851, 2288100.181581352837384 ], [ 3326731.769404659047723, 2288091.937103759031743 ], [ 3326740.54970118869096, 2288084.324688150081784 ], [ 3326743.848398902453482, 2288081.215392353013158 ], [ 3326740.710712244268507, 2288068.57844053581357 ], [ 3326737.698253357317299, 2288060.990061872638762 ], [ 3326736.541535356082022, 2288051.557654128875583 ], [ 3326737.031394155230373, 2288041.331687501631677 ], [ 3326736.325178753584623, 2288032.327924840152264 ], [ 3326735.624532034620643, 2288021.802085286006331 ], [ 3326733.159724885132164, 2288010.569158071652055 ], [ 3326731.485372150316834, 2288002.240900296717882 ], [ 3326729.797935015987605, 2287991.886876961681992 ], [ 3326730.491486601531506, 2287982.132405309472233 ], [ 3326732.91374473227188, 2287977.147581965196878 ], [ 3326735.164060940500349, 2287974.220721276011318 ], [ 3326742.026747646275908, 2287968.463014009408653 ], [ 3326747.706473556347191, 2287965.953472595196217 ], [ 3326757.481025086715817, 2287961.717217030003667 ], [ 3326764.474597238004208, 2287959.485989693552256 ], [ 3326773.423027839511633, 2287956.407562948763371 ], [ 3326780.582876735832542, 2287953.640470202080905 ], [ 3326788.359567001927644, 2287950.765941004734486 ], [ 3326795.063447413500398, 2287949.092264886945486 ], [ 3326804.215577360242605, 2287946.485434640198946 ], [ 3326813.935790755786002, 2287945.807896525133401 ], [ 3326819.628505283035338, 2287945.324145465157926 ], [ 3326835.76121385069564, 2287938.4602235481143 ], [ 3326844.320942827966064, 2287934.94251517392695 ], [ 3326840.342036524787545, 2287933.099803315475583 ], [ 3326834.789664631243795, 2287928.995711466763169 ], [ 3326826.215077933389693, 2287925.417511339299381 ], [ 3326818.978806025348604, 2287921.099499627947807 ], [ 3326811.05833185929805, 2287918.42165177827701 ], [ 3326801.373695529066026, 2287915.036714003421366 ], [ 3326798.775980707723647, 2287911.939492046367377 ], [ 3326797.245440118946135, 2287909.163709000684321 ], [ 3326796.318528443109244, 2287904.254544811323285 ], [ 3326796.894435439258814, 2287892.999554391019046 ], [ 3326797.111631094478071, 2287878.764772635884583 ], [ 3326797.231473594903946, 2287868.603214568458498 ], [ 3326796.777551069390029, 2287858.034360912628472 ], [ 3326795.78724807780236, 2287848.066080823075026 ], [ 3326795.180064958520234, 2287840.059072904288769 ], [ 3326795.905329881235957, 2287832.834379979409277 ], [ 3326799.456523503642529, 2287828.160061517730355 ], [ 3326804.351394606288522, 2287821.223793246783316 ], [ 3326808.278120513539761, 2287814.963026167359203 ], [ 3326812.062828053254634, 2287808.219937565736473 ], [ 3326816.710999506060034, 2287801.326600780244917 ], [ 3326820.903100062627345, 2287795.526694573927671 ], [ 3326826.396168127190322, 2287787.979307436849922 ], [ 3326831.162005559541285, 2287782.586502525489777 ], [ 3326833.954345159698278, 2287777.537303949706256 ], [ 3326838.708950757980347, 2287775.188764236401767 ], [ 3326849.434642682317644, 2287774.843220301903784 ], [ 3326856.237547704018652, 2287774.166402773931623 ], [ 3326863.855216951109469, 2287775.375848403200507 ], [ 3326874.272546481806785, 2287775.084067516494542 ], [ 3326880.453117155004293, 2287776.036646213848144 ], [ 3326890.685403537005186, 2287775.776965451426804 ], [ 3326899.252570658922195, 2287775.807229702826589 ], [ 3326907.012260088231415, 2287777.49900238448754 ], [ 3326915.96813449729234, 2287777.968564553651959 ], [ 3326923.838199907913804, 2287777.613097534514964 ], [ 3326952.116858628112823, 2287775.227029602974653 ], [ 3326954.33717729896307, 2287774.840582122094929 ], [ 3326960.065512157510966, 2287770.294485123362392 ], [ 3326965.812597313895822, 2287766.252059268765152 ], [ 3326974.359361991286278, 2287760.708511797711253 ], [ 3326982.351028155069798, 2287755.261454635299742 ], [ 3326991.538783518597484, 2287748.592207834590226 ], [ 3326995.349589901976287, 2287745.900876599363983 ], [ 3327006.862353419885039, 2287738.319939319044352 ], [ 3327014.407113058958203, 2287742.584394874516875 ], [ 3327021.150068884715438, 2287746.98826607875526 ], [ 3327028.083646731451154, 2287749.837969312444329 ], [ 3327038.798111500218511, 2287752.536719623487443 ], [ 3327044.69453432969749, 2287752.524589248467237 ], [ 3327044.967787438072264, 2287739.801203181501478 ], [ 3327044.781024977564812, 2287734.76336506055668 ], [ 3327045.885977163910866, 2287719.359994696453214 ], [ 3327045.265752722509205, 2287709.327246874105185 ], [ 3327044.942669168114662, 2287702.285098223481327 ], [ 3327044.378528464585543, 2287693.763591669034213 ], [ 3327042.950956704095006, 2287685.392527434043586 ], [ 3327042.837118160910904, 2287677.299701704178005 ], [ 3327042.113959222566336, 2287672.862335034646094 ], [ 3327041.396562222857028, 2287666.902764832600951 ], [ 3327042.011480862274766, 2287661.725334273185581 ], [ 3327044.058133040554821, 2287658.326912275049835 ], [ 3327046.53643534053117, 2287654.853484062477946 ], [ 3327050.291155048646033, 2287650.650822823401541 ], [ 3327054.249667669180781, 2287646.919735031668097 ], [ 3327057.961476508527994, 2287643.231574707198888 ], [ 3327063.992631242610514, 2287640.153911558911204 ], [ 3327071.152506467420608, 2287637.386782236862928 ], [ 3327073.292503858916461, 2287636.507387181743979 ], [ 3327081.5138582251966, 2287635.583692684303969 ], [ 3327087.490643158555031, 2287636.064723667688668 ], [ 3327095.317694702651352, 2287636.223705977201462 ], [ 3327105.636135698761791, 2287634.935120477341115 ], [ 3327116.991611155215651, 2287636.508289179764688 ], [ 3327127.982793651055545, 2287636.623647284694016 ], [ 3327140.812914444133639, 2287639.461329651530832 ], [ 3327149.047255902551115, 2287640.563515692483634 ], [ 3327161.550331883132458, 2287642.951074908487499 ], [ 3327171.025598566047847, 2287647.386571106966585 ], [ 3327176.787413354497403, 2287650.440076351165771 ], [ 3327180.880545648746192, 2287643.643382252193987 ], [ 3327182.007659547962248, 2287638.883972820825875 ], [ 3327184.657995781861246, 2287633.352390543557703 ], [ 3327187.863335273228586, 2287627.724340324755758 ], [ 3327186.800221024081111, 2287620.810766118578613 ], [ 3327194.423599344212562, 2287620.498270485084504 ], [ 3327198.802489621099085, 2287619.736247780267149 ], [ 3327210.515043139457703, 2287619.21917437016964 ], [ 3327214.333166849799454, 2287620.075822265353054 ], [ 3327227.839995025657117, 2287617.725353524554521 ], [ 3327235.087636112235487, 2287618.999337551183999 ], [ 3327244.555586365051568, 2287619.886790496297181 ], [ 3327246.112190445885062, 2287626.714394726790488 ], [ 3327246.392277407925576, 2287634.271244175266474 ], [ 3327247.72650898899883, 2287640.123375591821969 ], [ 3327248.857063896022737, 2287645.504015729762614 ], [ 3327249.796909855678678, 2287652.438935802318156 ], [ 3327251.168489577714354, 2287659.298735352233052 ], [ 3327249.549688695929945, 2287669.214017637539655 ], [ 3327254.552643696777523, 2287671.892637385986745 ], [ 3327263.323621337302029, 2287672.394531883765012 ], [ 3327269.584428650327027, 2287673.840122785884887 ], [ 3327279.601799097843468, 2287676.153177329804748 ], [ 3327289.217364690732211, 2287676.000985301565379 ], [ 3327299.617875756695867, 2287680.275505880825222 ], [ 3327308.469081280287355, 2287681.270377640612423 ], [ 3327316.660514765419066, 2287682.887081132736057 ], [ 3327326.042460187338293, 2287684.803672168869525 ], [ 3327333.888100540265441, 2287685.46658189734444 ], [ 3327340.025655647274107, 2287686.933624427765608 ], [ 3327348.383469319436699, 2287688.014451414346695 ], [ 3327356.223610810004175, 2287690.199315103702247 ], [ 3327360.288440737873316, 2287691.013043691404164 ], [ 3327367.672519706189632, 2287694.291427086107433 ], [ 3327371.034566335380077, 2287696.241501802578568 ], [ 3327378.521595053374767, 2287693.924520816188306 ], [ 3327380.06908092694357, 2287692.134168688207865 ], [ 3327381.911963575519621, 2287688.264291377738118 ], [ 3327382.132684205658734, 2287684.169530703220516 ], [ 3327386.898578513413668, 2287678.776897122617811 ], [ 3327392.200894359499216, 2287672.783897869288921 ], [ 3327394.649276062846184, 2287671.850858496967703 ], [ 3327397.553622751962394, 2287669.824318596161902 ], [ 3327402.213114549405873, 2287659.886916955932975 ], [ 3327404.727122268173844, 2287652.350947536062449 ], [ 3327405.349467678926885, 2287650.721567680127919 ], [ 3327406.242864870000631, 2287648.030963038560003 ], [ 3327406.099116137251258, 2287642.478526118211448 ], [ 3327404.475270347669721, 2287637.183821802027524 ], [ 3327403.703411242924631, 2287634.782963857986033 ], [ 3327400.574974203016609, 2287630.764012766070664 ], [ 3327398.822094038594514, 2287627.012854590080678 ], [ 3327396.717821321450174, 2287623.82986853690818 ], [ 3327395.020918538793921, 2287621.589963763952255 ], [ 3327392.466133657842875, 2287617.978231811430305 ], [ 3327391.238391720224172, 2287616.670758403837681 ], [ 3327383.581565255299211, 2287609.383676366414875 ], [ 3327381.069792974740267, 2287605.257429233752191 ], [ 3327378.786176304332912, 2287600.58455415815115 ], [ 3327376.891265254467726, 2287596.350976350717247 ], [ 3327375.347648909315467, 2287591.549243621528149 ], [ 3327373.94048019265756, 2287588.751996913924813 ], [ 3327373.069602556992322, 2287585.354203979950398 ], [ 3327372.402548577170819, 2287582.428181021474302 ], [ 3327371.655138484202325, 2287579.009006884414703 ], [ 3327371.462617109064013, 2287575.493284935131669 ], [ 3327371.948731647804379, 2287571.859483832493424 ], [ 3327373.643907519523054, 2287569.029273617547005 ], [ 3327376.752066648565233, 2287567.474407148547471 ], [ 3327380.889943013433367, 2287565.233242836780846 ], [ 3327383.708270446397364, 2287564.235736045986414 ], [ 3327388.333872133865952, 2287563.430804719217122 ], [ 3327391.806404282338917, 2287563.333634241018444 ], [ 3327396.882387464866042, 2287562.957269576378167 ], [ 3327401.249914759770036, 2287565.239430112764239 ], [ 3327416.82542834430933, 2287570.134543721564114 ], [ 3327423.909062993247062, 2287560.282301738858223 ], [ 3327427.583483061753213, 2287555.586726715322584 ], [ 3327434.624010549858212, 2287546.249020447488874 ], [ 3327442.978504032827914, 2287537.189726511482149 ], [ 3327448.077151560690254, 2287530.725155314430594 ], [ 3327455.758798692841083, 2287520.261844905093312 ], [ 3327462.571294246707112, 2287511.470855941530317 ], [ 3327467.12793486751616, 2287507.128717908635736 ], [ 3327471.690164830069989, 2287501.264516396448016 ], [ 3327482.535876225680113, 2287490.757724067661911 ], [ 3327491.039688045158982, 2287485.728712503798306 ], [ 3327496.435450010001659, 2287482.254640348255634 ], [ 3327502.158240650314838, 2287479.230597834102809 ], [ 3327511.273129957262427, 2287475.616360005456954 ], [ 3327521.787814185023308, 2287471.251542001031339 ], [ 3327525.839772292878479, 2287470.039405484683812 ], [ 3327531.889526681508869, 2287467.465610371902585 ], [ 3327550.655737150460482, 2287459.636786316055804 ], [ 3327557.716765100602061, 2287455.872983132954687 ], [ 3327564.629974568728358, 2287453.148858909960836 ], [ 3327572.27032821578905, 2287448.270100287161767 ], [ 3327581.67494493117556, 2287444.098439428955317 ], [ 3327585.861441216431558, 2287439.820721596945077 ], [ 3327589.072595809120685, 2287432.670525063760579 ], [ 3327592.197640205267817, 2287426.549472725950181 ], [ 3327594.786342786625028, 2287421.028667275328189 ], [ 3327600.365358293987811, 2287412.452432028017938 ], [ 3327605.118427340406924, 2287405.03396353404969 ], [ 3327608.639458745718002, 2287402.900152855552733 ], [ 3327615.793902640230954, 2287401.655258133076131 ], [ 3327625.297511649783701, 2287398.480345292482525 ], [ 3327632.69846463855356, 2287397.192563372664154 ], [ 3327644.713830168358982, 2287398.143902694806457 ], [ 3327651.645726225804538, 2287395.923675059340894 ], [ 3327655.970335392281413, 2287398.720348929986358 ], [ 3327663.118974592536688, 2287398.997457252815366 ], [ 3327681.172723386436701, 2287400.419185012578964 ], [ 3327705.283714585006237, 2287402.815050738863647 ], [ 3327727.722167980857193, 2287401.952721401117742 ], [ 3327728.076833030208945, 2287411.524566712789237 ], [ 3327727.852272304706275, 2287422.21135016810149 ], [ 3327726.807160339318216, 2287432.533870767802 ], [ 3327724.930197464302182, 2287445.536168769933283 ], [ 3327720.661043988540769, 2287460.982898519840091 ], [ 3327714.836915953084826, 2287474.672060484532267 ], [ 3327708.661412740126252, 2287488.929492052644491 ], [ 3327708.637060889508575, 2287489.947788049466908 ], [ 3327708.946625323500484, 2287511.696199751459062 ], [ 3327708.935247573070228, 2287514.740357203874737 ], [ 3327709.011592801660299, 2287521.825489357113838 ], [ 3327708.00391090195626, 2287533.155467859469354 ], [ 3327708.470677126199007, 2287545.750000113155693 ], [ 3327711.002704667393118, 2287555.450052645523101 ], [ 3327717.401663391850889, 2287563.970172721892595 ], [ 3327731.02959837205708, 2287573.260451688431203 ], [ 3327739.037633377127349, 2287579.979522993322462 ], [ 3327740.512276816181839, 2287581.244041817262769 ], [ 3327748.002634542062879, 2287589.067141789011657 ], [ 3327757.479611986316741, 2287598.572713369503617 ], [ 3327767.41836121538654, 2287605.462793890852481 ], [ 3327775.751824184320867, 2287607.56187772937119 ], [ 3327786.385974679142237, 2287609.76770089706406 ], [ 3327792.056777691934258, 2287598.640355822630227 ], [ 3327793.385889831930399, 2287589.282471827697009 ], [ 3327792.69836350902915, 2287580.782589269801974 ], [ 3327787.172550101298839, 2287563.99807686638087 ], [ 3327784.34342003474012, 2287551.307541758287698 ], [ 3327784.549408494494855, 2287540.117054122500122 ], [ 3327789.975118931848556, 2287534.102655777242035 ], [ 3327796.938744913320988, 2287534.412063499446958 ], [ 3327806.716811176389456, 2287540.31604777649045 ], [ 3327816.569528204854578, 2287548.235162138938904 ], [ 3327826.231528538279235, 2287557.708547544665635 ], [ 3327832.359429402276874, 2287567.28989102691412 ], [ 3327837.463184291496873, 2287576.035363695118576 ], [ 3327842.443587644025683, 2287584.802298239897937 ], [ 3327844.940565710887313, 2287581.832609760109335 ], [ 3327846.690058343112469, 2287575.443869777955115 ], [ 3327847.507202961482108, 2287565.668039543088526 ], [ 3327846.664693512488157, 2287554.659980596974492 ], [ 3327845.259732051752508, 2287540.200678426772356 ], [ 3327844.232297471258789, 2287529.224796026479453 ], [ 3327844.787884590681642, 2287512.396070250310004 ], [ 3327844.175742106512189, 2287489.179240046534687 ], [ 3327845.285818789154291, 2287488.986102915368974 ], [ 3327847.055756703950465, 2287488.171029281336814 ], [ 3327849.035092614591122, 2287486.305567121133208 ], [ 3327851.156344647984952, 2287484.92244271421805 ], [ 3327852.76560622965917, 2287483.121266914531589 ], [ 3327855.021494638174772, 2287478.672544881235808 ], [ 3327857.752215821761638, 2287473.634079278446734 ], [ 3327860.458584608975798, 2287469.613908788189292 ], [ 3327867.542196317575872, 2287459.761877883225679 ], [ 3327874.459426961839199, 2287450.445724853314459 ], [ 3327882.455206053797156, 2287438.406781319528818 ], [ 3327892.781627850141376, 2287423.934233759529889 ], [ 3327904.416229156311601, 2287411.262204113416374 ], [ 3327910.582066801376641, 2287405.118964752182364 ], [ 3327914.608004553709179, 2287399.855163243599236 ], [ 3327919.355301482602954, 2287393.958830148447305 ], [ 3327923.855893534142524, 2287388.105420665815473 ], [ 3327927.906090534757823, 2287381.823345171287656 ], [ 3327930.296718017198145, 2287374.308922893367708 ], [ 3327932.521092558279634, 2287367.330556060187519 ], [ 3327934.079975789878517, 2287362.495984300971031 ], [ 3327934.885693873744458, 2287355.764440008904785 ], [ 3327935.371836562640965, 2287352.130664221011102 ], [ 3327935.882236794568598, 2287347.47861238475889 ], [ 3327936.041238619480282, 2287343.39472575020045 ], [ 3327936.953421985730529, 2287341.207910561934114 ], [ 3327938.431872718036175, 2287335.880306581966579 ], [ 3327939.424393141642213, 2287334.18654230190441 ], [ 3327941.594365116674453, 2287330.76683926442638 ], [ 3327943.67828842997551, 2287328.376061603892595 ], [ 3327947.223788588307798, 2287325.223968528676778 ], [ 3327949.44974147900939, 2287323.315609982702881 ], [ 3327953.501700478140265, 2287322.103412562981248 ], [ 3327957.57225304376334, 2287321.395211079157889 ], [ 3327961.248472492676228, 2287321.769570546690375 ], [ 3327963.629402105230838, 2287322.36938810069114 ], [ 3327966.072090887464583, 2287322.958359378390014 ], [ 3327967.898030383512378, 2287323.654735073447227 ], [ 3327970.686421817168593, 2287325.197615941986442 ], [ 3327972.587001274805516, 2287327.90911635896191 ], [ 3327973.951135976240039, 2287331.220874485559762 ], [ 3327975.883438115939498, 2287336.461994194425642 ], [ 3327978.370730811264366, 2287341.606555993203074 ], [ 3327979.364921827800572, 2287344.982779085170478 ], [ 3327981.074859140440822, 2287349.248429680243134 ], [ 3327982.470635673962533, 2287355.089923129417002 ], [ 3327983.459131780546159, 2287359.988220544997603 ], [ 3327985.978232950903475, 2287367.662286311388016 ], [ 3327989.437039255164564, 2287382.271351845934987 ], [ 3327990.339391040150076, 2287388.198591903783381 ], [ 3327990.359742584638298, 2287393.772459063213319 ], [ 3327995.978233533911407, 2287429.807882646098733 ], [ 3327987.219748117495328, 2287448.063832544721663 ], [ 3328003.469616094138473, 2287459.433127582073212 ], [ 3328014.67929011862725, 2287467.11607515765354 ], [ 3328021.093430370558053, 2287466.000029054936022 ], [ 3328026.369776824489236, 2287455.955434545874596 ], [ 3328030.63178698066622, 2287436.960815374273807 ], [ 3328034.466904054395854, 2287433.251307690981776 ], [ 3328048.217164991423488, 2287420.718161252792925 ], [ 3328055.446152552962303, 2287421.488363840151578 ], [ 3328075.0799305960536, 2287406.917454223614186 ], [ 3328078.50197683647275, 2287403.786846530623734 ], [ 3328080.789703634567559, 2287401.867744804825634 ], [ 3328083.518094302155077, 2287408.491343120113015 ], [ 3328086.025727360509336, 2287419.209671144373715 ], [ 3328088.853216520044953, 2287426.830084091052413 ], [ 3328092.594383367337286, 2287437.333802685141563 ], [ 3328095.386033556889743, 2287449.016673030331731 ], [ 3328099.121609515976161, 2287461.042448737192899 ], [ 3328108.199214212130755, 2287456.420755434315652 ], [ 3328117.030114055611193, 2287451.841986148618162 ], [ 3328126.73006582679227, 2287445.590837606694549 ], [ 3328144.077909445390105, 2287438.009116323664784 ], [ 3328149.3201854377985, 2287437.096866090781987 ], [ 3328156.52325977711007, 2287433.815470464527607 ], [ 3328164.954072076827288, 2287431.841557647101581 ], [ 3328175.369892575312406, 2287426.479930958710611 ], [ 3328174.25244461465627, 2287423.125152409076691 ], [ 3328171.247296831104904, 2287419.08484031399712 ], [ 3328168.550614674109966, 2287414.9907604791224 ], [ 3328166.680001285858452, 2287409.73900940688327 ], [ 3328164.865353132132441, 2287405.998501867055893 ], [ 3328174.249780232086778, 2287396.253176270518452 ], [ 3328181.933095241896808, 2287390.860027111601084 ], [ 3328194.636554845608771, 2287383.579330340027809 ], [ 3328199.002514039166272, 2287380.791541211307049 ], [ 3328205.859795138239861, 2287376.556264707352966 ], [ 3328214.253278733231127, 2287373.57470422424376 ], [ 3328224.749464607797563, 2287368.70624295109883 ], [ 3328237.602309003472328, 2287365.45578587660566 ], [ 3328251.212170029990375, 2287357.510389829054475 ], [ 3328260.938185965642333, 2287355.311062831431627 ], [ 3328271.082977657206357, 2287351.010774943977594 ], [ 3328281.128775184508413, 2287345.713659496046603 ], [ 3328284.526474821846932, 2287343.601361304521561 ], [ 3328295.87484436435625, 2287341.626818319782615 ], [ 3328302.739479459356517, 2287340.939363587647676 ], [ 3328306.624992915429175, 2287340.263278506230563 ], [ 3328318.262989418581128, 2287337.731326449662447 ], [ 3328328.49538412457332, 2287337.472021311987191 ], [ 3328334.829288980923593, 2287335.862852264195681 ], [ 3328342.716410469263792, 2287330.941307322587818 ], [ 3328347.45813818834722, 2287326.567083769943565 ], [ 3328354.01835098490119, 2287319.341361566446722 ], [ 3328354.844490347895771, 2287318.18348125461489 ], [ 3328360.621665920130908, 2287311.601015409454703 ], [ 3328367.273618480190635, 2287301.824207786470652 ], [ 3328373.075140711385757, 2287294.223357008770108 ], [ 3328378.198138474486768, 2287286.740654727444053 ], [ 3328382.99989586789161, 2287277.285738682374358 ], [ 3328386.476399370469153, 2287270.596612589433789 ], [ 3328394.2872484466061, 2287258.589995887130499 ], [ 3328397.238612753339112, 2287249.457003955729306 ], [ 3328399.135985663626343, 2287242.028556682169437 ], [ 3328401.390350232832134, 2287232.509800574742258 ], [ 3328402.992297239135951, 2287227.160852395463735 ], [ 3328406.399766524322331, 2287216.934464809019119 ], [ 3328410.893157016485929, 2287207.53320942260325 ], [ 3328412.814783928915858, 2287199.086395708378404 ], [ 3328418.461280772462487, 2287188.977510498836637 ], [ 3328421.659465959761292, 2287179.801589370705187 ], [ 3328425.067061719018966, 2287169.575289675034583 ], [ 3328426.706315165385604, 2287165.233805377501994 ], [ 3328428.603604030795395, 2287157.8053825981915 ], [ 3328430.076485481113195, 2287153.999867969192564 ], [ 3328431.321333314757794, 2287150.741151130292565 ], [ 3328434.926901595667005, 2287142.508412724826485 ], [ 3328437.878389870747924, 2287133.375416990369558 ], [ 3328446.236249780748039, 2287134.456416093744338 ], [ 3328448.777933023869991, 2287136.042235240805894 ], [ 3328455.649827966000885, 2287138.902722430415452 ], [ 3328460.325836168136448, 2287141.131281633395702 ], [ 3328461.397083652205765, 2287134.86072153178975 ], [ 3328463.301705472171307, 2287130.98009985126555 ], [ 3328465.933400438632816, 2287124.94489101646468 ], [ 3328468.460514133796096, 2287119.435002869460732 ], [ 3328472.80050502717495, 2287112.59557868540287 ], [ 3328478.706765444017947, 2287104.469521853607148 ], [ 3328483.231691055931151, 2287097.597927485127002 ], [ 3328488.268886373378336, 2287091.144239474087954 ], [ 3328494.82915022270754, 2287083.918561389204115 ], [ 3328497.197119609452784, 2287082.492457604967058 ], [ 3328507.358991072047502, 2287073.62606435129419 ], [ 3328514.382781962864101, 2287068.854771686252207 ], [ 3328521.21575185470283, 2287065.637851132079959 ], [ 3328524.157486217096448, 2287064.619057754054666 ], [ 3328528.646835007704794, 2287061.809854990802705 ], [ 3328531.237247040029615, 2287061.359103756956756 ], [ 3328533.438843332231045, 2287060.468970276415348 ], [ 3328534.44434511475265, 2287060.801170240156353 ], [ 3328536.806705727707595, 2287060.897117011714727 ], [ 3328542.499502244405448, 2287060.413572586141527 ], [ 3328545.16863645426929, 2287055.386012843344361 ], [ 3328547.819000791292638, 2287049.854593744967133 ], [ 3328551.351497906725854, 2287044.676736414432526 ], [ 3328553.588896085973829, 2287039.724286669399589 ], [ 3328552.589120220392942, 2287037.870120136998594 ], [ 3328551.404329834971577, 2287036.048241583164781 ], [ 3328544.358611600939184, 2287030.175737499259412 ], [ 3328539.286652756854892, 2287023.959863170981407 ], [ 3328533.412894979119301, 2287017.883476353716105 ], [ 3328534.693541817367077, 2287010.562351952772588 ], [ 3328538.102689358405769, 2287005.405955132097006 ], [ 3328540.629721869248897, 2286999.896096163894981 ], [ 3328543.181204175110906, 2286993.367835638578981 ], [ 3328546.897217794787139, 2286983.087820300832391 ], [ 3328551.336221556644887, 2286977.245242096949369 ], [ 3328554.88900089263916, 2286977.641120982822031 ], [ 3328558.337196252308786, 2286978.562319147866219 ], [ 3328562.192747186869383, 2286980.426596661098301 ], [ 3328565.844513684976846, 2286981.819302595220506 ], [ 3328570.131803127937019, 2286983.608472234103829 ], [ 3328575.011495044454932, 2286986.30863068299368 ], [ 3328579.403483369387686, 2286987.572563176043332 ], [ 3328581.549034651368856, 2286985.171214857138693 ], [ 3328583.182697035837919, 2286982.351793504320085 ], [ 3328584.156485899351537, 2286980.154293088708073 ], [ 3328585.283707712311298, 2286975.394983603153378 ], [ 3328586.048197813332081, 2286974.24794117314741 ], [ 3328584.560622265096754, 2286970.957565818913281 ], [ 3328582.018941667396575, 2286969.371740978211164 ], [ 3328580.624838181305677, 2286968.600221545435488 ], [ 3328577.855088769458234, 2286967.560995125677437 ], [ 3328576.152501999866217, 2286966.843141535297036 ], [ 3328572.154958528466523, 2286964.496643085964024 ], [ 3328568.219075998291373, 2286962.139316440559924 ], [ 3328560.859365364536643, 2286957.842505173292011 ], [ 3328556.4918432822451, 2286955.560269942507148 ], [ 3328561.817080615088344, 2286943.479240064509213 ], [ 3328568.504812866449356, 2286929.6400136211887 ], [ 3328574.828218222595751, 2286914.343203723430634 ], [ 3328574.817655343562365, 2286900.655315679963678 ], [ 3328570.334891871083528, 2286885.210527126677334 ], [ 3328569.602997719310224, 2286872.155354908667505 ], [ 3328574.907982762902975, 2286854.50051056034863 ], [ 3328581.251671911217272, 2286844.777438704390079 ], [ 3328585.492728237528354, 2286836.941222324967384 ], [ 3328589.387995528057218, 2286828.151117170695215 ], [ 3328592.406948815099895, 2286817.485370807349682 ], [ 3328596.388382565695792, 2286807.666335181333125 ], [ 3328602.866758488118649, 2286794.877607081085443 ], [ 3328608.668403747491539, 2286787.276934913825244 ], [ 3328614.223243925720453, 2286779.719199782703072 ], [ 3328617.879229333251715, 2286774.519887736532837 ], [ 3328627.362718474119902, 2286765.771488381549716 ], [ 3328631.278364251367748, 2286762.555197605863214 ], [ 3328636.698516685049981, 2286758.063032601028681 ], [ 3328642.840125936083496, 2286752.938238233793527 ], [ 3328648.95738029293716, 2286748.831827676855028 ], [ 3328652.497230241075158, 2286747.201879259664565 ], [ 3328665.473557325080037, 2286743.930233999155462 ], [ 3328668.230357079766691, 2286742.943530428223312 ], [ 3328676.192190140485764, 2286740.037201188970357 ], [ 3328683.542973128147423, 2286735.716107571963221 ], [ 3328691.078804375138134, 2286731.362925605848432 ], [ 3328697.887443285435438, 2286729.164336141198874 ], [ 3328708.131331699900329, 2286725.861022651195526 ], [ 3328718.769640558864921, 2286721.474952967837453 ], [ 3328728.292057951446623, 2286718.804174199700356 ], [ 3328738.819863228593022, 2286716.465520659461617 ], [ 3328753.02400569897145, 2286714.501272481866181 ], [ 3328764.120034810621291, 2286714.091861452441663 ], [ 3328776.172688967548311, 2286716.051043188199401 ], [ 3328786.19011321105063, 2286718.364377385471016 ], [ 3328796.312240117695183, 2286720.152477562427521 ], [ 3328807.303453914821148, 2286720.268227816559374 ], [ 3328817.622072185855359, 2286718.980123770888895 ], [ 3328826.200686443131417, 2286715.966525844298303 ], [ 3328832.231886871159077, 2286712.889054812956601 ], [ 3328839.797726527322084, 2286705.995574329048395 ], [ 3328844.711647641845047, 2286699.563420936465263 ], [ 3328849.494812302757055, 2286689.604868549853563 ], [ 3328852.489440360106528, 2286679.957449499517679 ], [ 3328852.565028792712837, 2286665.24069597478956 ], [ 3328849.90819053677842, 2286650.492353402078152 ], [ 3328845.636481990106404, 2286639.066955079324543 ], [ 3328839.755460180342197, 2286629.442674247547984 ], [ 3328834.651867715641856, 2286620.697194951586425 ], [ 3328830.566704161930829, 2286614.309756550006568 ], [ 3328825.642404132988304, 2286607.054049031808972 ], [ 3328821.643377629108727, 2286599.637484164442867 ], [ 3328818.971050244290382, 2286594.525232283398509 ], [ 3328816.132440896704793, 2286589.948927279561758 ], [ 3328812.497639138717204, 2286583.989963490515947 ], [ 3328808.844203536398709, 2286577.527322208043188 ], [ 3328804.802153617609292, 2286570.625263266265392 ], [ 3328802.092511795926839, 2286564.505360762123019 ], [ 3328800.147373815998435, 2286557.238425571471453 ], [ 3328798.139006813056767, 2286544.912386370357126 ], [ 3328798.286639500875026, 2286543.87266349978745 ], [ 3328792.16621782630682, 2286537.839175972621888 ], [ 3328789.529726876877248, 2286528.66452798107639 ], [ 3328787.732325173448771, 2286520.357853451278061 ], [ 3328787.192649570759386, 2286510.818346965592355 ], [ 3328788.109049115795642, 2286502.039585996419191 ], [ 3328789.746812818571925, 2286492.628217234276235 ], [ 3328790.349002283066511, 2286485.425178068690002 ], [ 3328791.184981113765389, 2286476.153389221522957 ], [ 3328791.232176402583718, 2286469.046896765008569 ], [ 3328790.959528032690287, 2286465.038164799101651 ], [ 3328790.625202710274607, 2286461.040162136778235 ], [ 3328789.511991058010608, 2286451.093411521986127 ], [ 3328785.821271302644163, 2286443.623219833243638 ], [ 3328782.012829165905714, 2286434.652446973137558 ], [ 3328776.045881017111242, 2286426.057162613607943 ], [ 3328768.413548758719116, 2286417.751584668178111 ], [ 3328763.033265503123403, 2286411.589346455875784 ], [ 3328755.309262179303914, 2286405.834917804226279 ], [ 3328740.640221027191728, 2286400.274694236461073 ], [ 3328731.331356911920011, 2286395.302986466791481 ], [ 3328718.839571806136519, 2286389.871035683900118 ], [ 3328707.557118334807456, 2286385.242550876922905 ], [ 3328700.709418180398643, 2286381.363766768947244 ], [ 3328689.413981214165688, 2286374.709665009751916 ], [ 3328684.472612646408379, 2286372.02011713758111 ], [ 3328679.346327117178589, 2286369.362838832195848 ], [ 3328679.023387146182358, 2286362.320836110040545 ], [ 3328679.810705778189003, 2286355.085492068901658 ], [ 3328679.863547288812697, 2286346.456958253867924 ], [ 3328680.144451067317277, 2286337.281731775030494 ], [ 3328679.45716809341684, 2286328.781950144097209 ], [ 3328679.485731939785182, 2286321.171681603882462 ], [ 3328679.224558570887893, 2286314.118835640605539 ], [ 3328680.2455959841609, 2286304.814859733451158 ], [ 3328680.453363417647779, 2286298.694478565361351 ], [ 3328686.767169978935272, 2286291.511803311761469 ], [ 3328688.210113766603172, 2286290.24665114749223 ], [ 3328691.879076234996319, 2286287.073206895962358 ], [ 3328696.639484455808997, 2286283.202878315933049 ], [ 3328702.601878508459777, 2286276.588358045555651 ], [ 3328707.324992889538407, 2286271.710479786619544 ], [ 3328714.459258940070868, 2286264.892107197083533 ], [ 3328720.544995665084571, 2286258.256034078542143 ], [ 3328727.266072171740234, 2286252.016561980359256 ], [ 3328731.680902560707182, 2286247.192316792439669 ], [ 3328739.222517122980207, 2286241.317028033547103 ], [ 3328745.752829633653164, 2286236.631803378462791 ], [ 3328752.055179443210363, 2286232.49325487203896 ], [ 3328761.280733847990632, 2286226.83205970749259 ], [ 3328771.65951308934018, 2286220.46323833335191 ], [ 3328780.077429420780391, 2286216.463598721660674 ], [ 3328787.941900451667607, 2286217.630527045112103 ], [ 3328794.184211243409663, 2286218.572620147839189 ], [ 3328799.149845134932548, 2286220.243817009497434 ], [ 3328807.378743071109056, 2286222.868410528637469 ], [ 3328816.65605826722458, 2286225.310627835802734 ], [ 3328821.578760731033981, 2286227.496313125360757 ], [ 3328828.59849480073899, 2286229.317210635170341 ], [ 3328837.709425344597548, 2286232.295392682775855 ], [ 3328846.080227344296873, 2286235.402324236463755 ], [ 3328854.888491850346327, 2286236.912000391166657 ], [ 3328866.98432207480073, 2286238.356913036666811 ], [ 3328876.409377322532237, 2286239.759400260169059 ], [ 3328883.989847232121974, 2286239.961704843211919 ], [ 3328886.918691204860806, 2286236.917027325369418 ], [ 3328889.199220705777407, 2286231.450134867336601 ], [ 3328890.074079941026866, 2286228.255838398355991 ], [ 3328892.298670480027795, 2286221.277621830813587 ], [ 3328895.472693025134504, 2286213.120110957883298 ], [ 3328896.28013853635639, 2286211.458597789052874 ], [ 3328898.942113140132278, 2286202.883243563584983 ], [ 3328900.610064474865794, 2286190.931573350448161 ], [ 3328904.473955533001572, 2286179.612154929433018 ], [ 3328910.195293261669576, 2286171.518455087207258 ], [ 3328908.251853581052274, 2286169.32153109787032 ], [ 3328904.013243685476482, 2286165.495784459635615 ], [ 3328895.79582246998325, 2286159.82707076985389 ], [ 3328886.535624274518341, 2286152.818696651607752 ], [ 3328876.843684560153633, 2286145.885425957851112 ], [ 3328866.245245670899749, 2286139.616963997483253 ], [ 3328858.397891292348504, 2286133.883879085071385 ], [ 3328847.786531412974, 2286125.589491988532245 ], [ 3328834.233415009453893, 2286118.313953693024814 ], [ 3328822.86472327215597, 2286114.714576240628958 ], [ 3328825.978623422794044, 2286111.637810949236155 ], [ 3328829.851283123716712, 2286108.935974313411862 ], [ 3328836.325778861995786, 2286102.739431056194007 ], [ 3328845.15692482329905, 2286098.161016372032464 ], [ 3328852.593876386061311, 2286092.811091382056475 ], [ 3328860.481217006221414, 2286087.889840089716017 ], [ 3328872.525222575291991, 2286081.231392242014408 ], [ 3328884.051538291852921, 2286075.677139030769467 ], [ 3328894.52348165679723, 2286071.82725147344172 ], [ 3328904.545251938980073, 2286067.548758437391371 ], [ 3328912.789662821684033, 2286060.53733532410115 ], [ 3328917.296249153558165, 2286053.162179208826274 ], [ 3328924.6871496909298, 2286038.186947641894221 ], [ 3328931.961957157589495, 2286026.781037879176438 ], [ 3328940.870402290485799, 2286012.555771494284272 ], [ 3328948.188267248217016, 2286000.635463800281286 ], [ 3328952.029312232509255, 2285995.404158815275878 ], [ 3328952.033548223786056, 2285988.812197575345635 ], [ 3328950.422777037136257, 2285985.543270128313452 ], [ 3328944.593558373861015, 2285984.022276696749032 ], [ 3328934.361041072756052, 2285984.281272016 ], [ 3328924.849912017118186, 2285983.907766186166555 ], [ 3328912.67376490868628, 2285981.969874668866396 ], [ 3328897.309128522872925, 2285981.093642549589276 ], [ 3328889.937972039915621, 2285979.840874863322824 ], [ 3328875.627599793486297, 2285977.260205313563347 ], [ 3328868.56493023224175, 2285975.953778272494674 ], [ 3328869.217485231813043, 2285971.784125299658626 ], [ 3328872.281095223966986, 2285965.673913168720901 ], [ 3328877.096083130687475, 2285958.245114697143435 ], [ 3328881.892412503249943, 2285950.312444625422359 ], [ 3328888.526089939754456, 2285940.032200800720602 ], [ 3328891.528126266784966, 2285933.932704036589712 ], [ 3328889.82403988391161, 2285928.144923471380025 ], [ 3328884.228536375798285, 2285924.555209411308169 ], [ 3328878.756585578434169, 2285920.944003615994006 ], [ 3328875.603779384400696, 2285917.943314908538014 ], [ 3328868.317302133888006, 2285910.591710784938186 ], [ 3328864.121724141295999, 2285906.251361374743283 ], [ 3328852.979681605473161, 2285897.035248442087322 ], [ 3328841.048744265921414, 2285889.984535975381732 ], [ 3328822.676160633098334, 2285874.928146003279835 ], [ 3328837.020918541122228, 2285868.376522717997432 ], [ 3328844.760543059092015, 2285864.495023354887962 ], [ 3328850.601156855002046, 2285862.97192758275196 ], [ 3328859.155585449654609, 2285860.976763898041099 ], [ 3328867.913591924123466, 2285859.453206431120634 ], [ 3328880.519986142404377, 2285856.246088984422386 ], [ 3328890.881611988414079, 2285854.443586537148803 ], [ 3328906.743929582647979, 2285848.642042784951627 ], [ 3328921.114587445277721, 2285846.142077956348658 ], [ 3328929.459497322328389, 2285845.197406155522913 ], [ 3328941.856472853105515, 2285843.040766863152385 ], [ 3328952.09474793728441, 2285841.259734232444316 ], [ 3328964.547752244863659, 2285840.614404047373682 ], [ 3328976.2605428728275, 2285840.097936590202153 ], [ 3328987.399576527066529, 2285839.174157415982336 ], [ 3328999.389221354387701, 2285836.074455009773374 ], [ 3329012.279623762238771, 2285833.832002772949636 ], [ 3329023.48608763795346, 2285831.375453466549516 ], [ 3329025.231721029616892, 2285831.578923689201474 ], [ 3329034.268065388314426, 2285832.541959261521697 ], [ 3329046.147250932641327, 2285831.489546976983547 ], [ 3329057.495813591405749, 2285829.515303638763726 ], [ 3329065.390343954786658, 2285828.141979394480586 ], [ 3329076.819129414856434, 2285826.660802021156996 ], [ 3329084.467048680409789, 2285825.330377766862512 ], [ 3329087.111950502730906, 2285821.321197403594851 ], [ 3329087.146358511876315, 2285812.188926684204489 ], [ 3329086.268410532269627, 2285805.243521491996944 ], [ 3329085.599972892552614, 2285797.24754031887278 ], [ 3329083.611910636536777, 2285790.495133651420474 ], [ 3329091.646957661025226, 2285784.534232772886753 ], [ 3329094.304851797409356, 2285782.550858134403825 ], [ 3329103.036997550167143, 2285776.975719143636525 ], [ 3329109.653657538816333, 2285771.261544368229806 ], [ 3329115.240340161137283, 2285766.233545647002757 ], [ 3329120.224632448982447, 2285768.40864873258397 ], [ 3329124.050118012353778, 2285772.813280582427979 ], [ 3329127.942951625678688, 2285775.685252646915615 ], [ 3329137.122780693229288, 2285782.200518955010921 ], [ 3329143.680630489252508, 2285786.63688800111413 ], [ 3329148.388164598494768, 2285791.395210366696119 ], [ 3329149.37647587293759, 2285796.293352957814932 ], [ 3329149.112607175949961, 2285800.902391017880291 ], [ 3329148.657953820191324, 2285807.065661845728755 ], [ 3329149.597495160996914, 2285814.00045197410509 ], [ 3329151.696023530326784, 2285818.705580775160342 ], [ 3329156.878323481883854, 2285822.87420376110822 ], [ 3329161.227280540857464, 2285824.652704241685569 ], [ 3329168.611336671747267, 2285827.931329546961933 ], [ 3329175.390019929036498, 2285828.273163178935647 ], [ 3329182.71082974690944, 2285826.492737348657101 ], [ 3329184.68878309475258, 2285819.557483429089189 ], [ 3329186.58064984343946, 2285813.651133900508285 ], [ 3329187.491343180648983, 2285806.394508965779096 ], [ 3329188.168314718175679, 2285801.206600437406451 ], [ 3329188.826645097695291, 2285795.514919390901923 ], [ 3329189.466334494296461, 2285789.319465890526772 ], [ 3329194.373098361305892, 2285779.339692718349397 ], [ 3329197.3880584994331, 2285775.266053313389421 ], [ 3329202.481322910636663, 2285770.323892930988222 ], [ 3329207.587590733543038, 2285767.407633651979268 ], [ 3329212.830086181871593, 2285766.495638305786997 ], [ 3329219.663233634550124, 2285763.27900264179334 ], [ 3329229.802652989979833, 2285760.501094812527299 ], [ 3329234.415401736274362, 2285757.670683067291975 ], [ 3329231.219665354583412, 2285755.1844667266123 ], [ 3329227.752838646061718, 2285753.759535884018987 ], [ 3329222.953578815795481, 2285751.552240332122892 ], [ 3329217.092827228363603, 2285747.501624918542802 ], [ 3329212.237561507150531, 2285743.783128130249679 ], [ 3329208.862447968218476, 2285739.807068813592196 ], [ 3329205.541896529495716, 2285732.272515527438372 ], [ 3329204.109044227749109, 2285725.423540017567575 ], [ 3329202.835158395580947, 2285714.490794573910534 ], [ 3329197.968482704367489, 2285713.816372386645526 ], [ 3329194.273586422204971, 2285712.938128328416497 ], [ 3329184.609028003178537, 2285715.126322869677097 ], [ 3329164.840954699553549, 2285716.030067269224674 ], [ 3329154.922456706408411, 2285714.713332834653556 ], [ 3329146.299093623645604, 2285713.171319727320224 ], [ 3329139.932035983074456, 2285707.180716906674206 ], [ 3329137.407625920604914, 2285701.028624818660319 ], [ 3329133.415752871893346, 2285697.159950271714479 ], [ 3329127.543592875823379, 2285696.153415211476386 ], [ 3329119.598685889970511, 2285694.493391516152769 ], [ 3329109.508140297606587, 2285695.234650109428912 ], [ 3329101.150229007005692, 2285694.153483418747783 ], [ 3329092.730640184134245, 2285693.083046227693558 ], [ 3329090.98502173088491, 2285692.879671109374613 ], [ 3329091.671940246596932, 2285679.577789309434593 ], [ 3329092.939847246278077, 2285670.23107253247872 ], [ 3329096.864054973702878, 2285653.830910872668028 ], [ 3329096.789492803625762, 2285651.815820216201246 ], [ 3329099.470222207251936, 2285643.744298931676894 ], [ 3329100.468579991720617, 2285640.528551052790135 ], [ 3329104.018458993639797, 2285630.78480367641896 ], [ 3329107.271449686959386, 2285618.050509052351117 ], [ 3329111.320514111313969, 2285606.698891160078347 ], [ 3329115.419826078228652, 2285598.380522265098989 ], [ 3329120.178972200490534, 2285589.440468325279653 ], [ 3329125.222095252946019, 2285581.464948406443 ], [ 3329133.070699243806303, 2285570.466467317193747 ], [ 3329139.951281946152449, 2285560.143282385542989 ], [ 3329145.678529057651758, 2285550.527728002052754 ], [ 3329150.734540324658155, 2285544.578032034449279 ], [ 3329156.123357497155666, 2285537.556521445512772 ], [ 3329159.779517917893827, 2285532.357334239408374 ], [ 3329169.928957220166922, 2285521.465673747472465 ], [ 3329174.435633919667453, 2285514.090493361465633 ], [ 3329175.699254054576159, 2285511.335627850145102 ], [ 3329175.006366760935634, 2285504.357952399179339 ], [ 3329173.179075322579592, 2285498.591624381486326 ], [ 3329170.037827173247933, 2285492.546934481244534 ], [ 3329165.885332721285522, 2285487.692169658374041 ], [ 3329170.706166461110115, 2285478.741305793169886 ], [ 3329177.846362196840346, 2285470.40104090096429 ], [ 3329184.1229866463691, 2285462.211089631542563 ], [ 3329191.971693463623524, 2285451.212421194650233 ], [ 3329198.162341875955462, 2285444.051456848159432 ], [ 3329202.798054130282253, 2285435.132803393062204 ], [ 3329206.330889243632555, 2285429.955181747209281 ], [ 3329211.047035532072186, 2285421.529655534308404 ], [ 3329215.319893346168101, 2285416.223215515725315 ], [ 3329219.901256577577442, 2285410.863216748461127 ], [ 3329222.990804344881326, 2285408.804682560730726 ], [ 3329227.412881145719439, 2285407.528498343657702 ], [ 3329232.205009850673378, 2285406.187846830580384 ], [ 3329237.176407897844911, 2285406.337053934577852 ], [ 3329239.785520266275853, 2285406.390241994056851 ], [ 3329241.820893218740821, 2285406.036212248727679 ], [ 3329246.132471520453691, 2285406.807201438117772 ], [ 3329254.559278276748955, 2285411.425514344591647 ], [ 3329264.127799773588777, 2285418.380306469742209 ], [ 3329276.410136536229402, 2285424.862962267361581 ], [ 3329290.030652794986963, 2285430.605846376158297 ], [ 3329300.36947841476649, 2285434.891590973827988 ], [ 3329313.201055821031332, 2285442.799757530912757 ], [ 3329337.203441048972309, 2285452.313896184787154 ], [ 3329334.580010522156954, 2285445.165011940523982 ], [ 3329331.945051893591881, 2285441.060211507603526 ], [ 3329328.783847041428089, 2285429.441952022723854 ], [ 3329326.012660653796047, 2285423.33279487490654 ], [ 3329323.258671651594341, 2285412.657529755029827 ], [ 3329320.448788265697658, 2285400.471049990039319 ], [ 3329318.528225195594132, 2285392.185887268744409 ], [ 3329317.834019691217691, 2285380.138326150830835 ], [ 3329316.911758169531822, 2285368.637547752354294 ], [ 3329316.138579715043306, 2285361.166840064805001 ], [ 3329315.642285392154008, 2285351.112908859737217 ], [ 3329316.089800336398184, 2285341.401828325819224 ], [ 3329313.872308721765876, 2285330.126341169700027 ], [ 3329314.473356423899531, 2285317.853494584094733 ], [ 3329314.920877815689892, 2285308.14241589885205 ], [ 3329316.58046834776178, 2285287.573254157789052 ], [ 3329319.902459125034511, 2285278.376230142079294 ], [ 3329321.300991534721106, 2285272.555839512497187 ], [ 3329323.654673896729946, 2285264.034253337420523 ], [ 3329326.884898338932544, 2285257.388154119253159 ], [ 3329330.533922138623893, 2285248.641264493111521 ], [ 3329334.973221944179386, 2285242.798992406576872 ], [ 3329340.683340129908174, 2285237.749604447744787 ], [ 3329347.602614546194673, 2285233.503927509766072 ], [ 3329354.54631262877956, 2285228.240081354044378 ], [ 3329362.155590662267059, 2285220.832320529036224 ], [ 3329369.358851728029549, 2285217.551277312450111 ], [ 3329374.958581204991788, 2285214.549144255928695 ], [ 3329382.599362180568278, 2285209.670968630816787 ], [ 3329401.63033175515011, 2285197.234428839292377 ], [ 3329406.353723825421184, 2285192.356780459638685 ], [ 3329409.189387514255941, 2285186.793347117025405 ], [ 3329414.071992847137153, 2285177.831916039809585 ], [ 3329418.078145994339138, 2285166.99488490819931 ], [ 3329423.181631861254573, 2285153.938847093377262 ], [ 3329427.367150315083563, 2285144.59165701456368 ], [ 3329430.564410648308694, 2285130.346246466506273 ], [ 3329434.150280325207859, 2285116.540258244611323 ], [ 3329437.723378329072148, 2285100.708348646294326 ], [ 3329442.0063516064547, 2285087.288128993008286 ], [ 3329442.237398565746844, 2285075.079680326860398 ], [ 3329443.412271636072546, 2285063.214184417854995 ], [ 3329446.585130846127868, 2285049.986953731626272 ], [ 3329446.927988625131547, 2285040.801126725506037 ], [ 3329447.745656564366072, 2285031.025807115249336 ], [ 3329449.762477880343795, 2285008.366451333276927 ], [ 3329447.569475669413805, 2284996.072719476185739 ], [ 3329445.679072265513241, 2284985.247287466190755 ], [ 3329443.541974012274295, 2284974.464865376241505 ], [ 3329443.534900130704045, 2284970.917022787965834 ], [ 3329447.929598399903625, 2284982.320901611819863 ], [ 3329450.670626502484083, 2284990.970240372233093 ], [ 3329453.676903371699154, 2285000.080455213785172 ], [ 3329457.615546450018883, 2285012.577678747475147 ], [ 3329460.603291998617351, 2285021.184107238426805 ], [ 3329465.343641931656748, 2285033.541789456270635 ], [ 3329466.806684977374971, 2285037.850417057052255 ], [ 3329467.73892062716186, 2285041.237245734781027 ], [ 3329469.967815315816551, 2285049.468753692228347 ], [ 3329474.788597817998379, 2285062.319560138508677 ], [ 3329482.707521967589855, 2285081.729453037492931 ], [ 3329493.853675717487931, 2285106.155253612436354 ], [ 3329500.328198674600571, 2285121.760289672762156 ], [ 3329504.96972097363323, 2285133.121145589277148 ], [ 3329512.641970940865576, 2285152.574051013682038 ], [ 3329517.537297915667295, 2285167.439841175451875 ], [ 3329522.518715413752943, 2285181.276636612601578 ], [ 3329524.088964999653399, 2285184.610967867076397 ], [ 3329524.088964999653399, 2284270.022535000927746 ], [ 3328698.312917571049184, 2284270.022535000927746 ], [ 3328603.543067917693406, 2284418.881123844534159 ] ] ], [ [ [ 3329511.872112086508423, 2287284.19941721810028 ], [ 3329487.42170234862715, 2287339.662063809577376 ], [ 3329482.764433718752116, 2287376.470723665319383 ], [ 3329484.921517392154783, 2287409.558804167434573 ], [ 3329487.153267633635551, 2287444.662093003280461 ], [ 3329496.163770238868892, 2287480.107058043591678 ], [ 3329499.092655299697071, 2287515.596015616320074 ], [ 3329499.283534749876708, 2287552.575419423170388 ], [ 3329490.445469116792083, 2287592.139619525521994 ], [ 3329478.28424761351198, 2287635.831084002740681 ], [ 3329459.428017319645733, 2287689.813838511239737 ], [ 3329446.835256502497941, 2287733.580439738929272 ], [ 3329426.590635308995843, 2287785.2696882346645 ], [ 3329412.113630613312125, 2287838.490669352933764 ], [ 3329399.619940068107098, 2287883.254288787953556 ], [ 3329378.934281753376126, 2287943.13278479501605 ], [ 3329376.980985884554684, 2287949.049852333962917 ], [ 3329375.545455388724804, 2287953.862800063099712 ], [ 3329372.113732650410384, 2287965.107405500486493 ], [ 3329370.803254961036146, 2287974.968846121337265 ], [ 3329369.746757845859975, 2287988.335176227148622 ], [ 3329368.795069263316691, 2288001.176352126058191 ], [ 3329366.955577402375638, 2288015.186125279869884 ], [ 3329364.364680638536811, 2288032.368665176443756 ], [ 3329361.902730343863368, 2288048.007701731286943 ], [ 3329357.70258526224643, 2288066.99137510266155 ], [ 3329350.573714763857424, 2288089.019670905545354 ], [ 3329342.723499964922667, 2288111.680487924255431 ], [ 3329331.602642728947103, 2288129.84013507515192 ], [ 3329322.317474904470146, 2288140.581985639408231 ], [ 3329311.42305484553799, 2288153.124972315505147 ], [ 3329304.279528759419918, 2288168.057493031024933 ], [ 3329301.823308904189616, 2288182.174487722571939 ], [ 3329304.351430751383305, 2288198.466536833439022 ], [ 3329307.335737270768732, 2288213.665175318252295 ], [ 3329313.824216667562723, 2288231.296162927523255 ], [ 3329320.867608357686549, 2288248.830717820674181 ], [ 3329328.189660280942917, 2288268.851927713491023 ], [ 3329339.140890791080892, 2288296.354104835074395 ], [ 3329345.378661872819066, 2288320.620158087927848 ], [ 3329357.844111960846931, 2288338.732444919645786 ], [ 3329372.183891291730106, 2288355.504510053433478 ], [ 3329386.252839538734406, 2288373.337846683338284 ], [ 3329398.527598938904703, 2288393.004391938913614 ], [ 3329408.981890998780727, 2288410.452505725901574 ], [ 3329410.493883390445262, 2288412.724603242240846 ], [ 3329421.090283500496298, 2288430.654921941459179 ], [ 3329431.699714207090437, 2288450.611284392885864 ], [ 3329439.236760146915913, 2288468.059877412393689 ], [ 3329446.92882652208209, 2288488.016636973712593 ], [ 3329448.947129171341658, 2288492.228761347942054 ], [ 3329454.841531390324235, 2288503.878902697470039 ], [ 3329463.335319949313998, 2288523.69629492983222 ], [ 3329466.439127530902624, 2288545.465415987651795 ], [ 3329463.958665618672967, 2288560.600711998064071 ], [ 3329456.308866000268608, 2288573.593342925421894 ], [ 3329453.264240667689592, 2288580.207330385223031 ], [ 3329451.606406302191317, 2288584.044927798211575 ], [ 3329457.586743236985058, 2288594.666070292238146 ], [ 3329457.545494277495891, 2288600.250544587615877 ], [ 3329458.332037617918104, 2288609.747228160034865 ], [ 3329462.321926714386791, 2288625.277888803277165 ], [ 3329468.156358835753053, 2288642.008844549767673 ], [ 3329483.737255822867155, 2288662.114106598310173 ], [ 3329490.889570769388229, 2288672.531469109468162 ], [ 3329503.108299683779478, 2288690.686605054885149 ], [ 3329515.601530057378113, 2288717.920583387836814 ], [ 3329524.082117259502411, 2288752.443990571890026 ], [ 3329524.088964999653399, 2288752.491328396368772 ], [ 3329524.088964999653399, 2287256.683490760158747 ], [ 3329511.872112086508423, 2287284.19941721810028 ] ] ], [ [ [ 3329523.425756858661771, 2288990.861283985432237 ], [ 3329515.712326679378748, 2289015.526609730441123 ], [ 3329508.69774092361331, 2289045.64778709737584 ], [ 3329506.641705240122974, 2289057.160114441998303 ], [ 3329504.038146843668073, 2289072.316900067962706 ], [ 3329498.040285332128406, 2289099.72597240563482 ], [ 3329495.672014244366437, 2289134.615979466121644 ], [ 3329499.349733848124743, 2289156.792386377230287 ], [ 3329503.197767770849168, 2289171.840853806119412 ], [ 3329508.423055614810437, 2289192.226943931542337 ], [ 3329518.778457524254918, 2289225.410242412239313 ], [ 3329524.088964999653399, 2289243.32329928688705 ], [ 3329524.088964999653399, 2288987.707839466165751 ], [ 3329523.425756858661771, 2288990.861283985432237 ] ] ], [ [ [ 3329513.277825915720314, 2289535.655702040996403 ], [ 3329493.969871668145061, 2289562.338658355176449 ], [ 3329482.100165964569896, 2289588.741417522542179 ], [ 3329476.534434968139976, 2289616.075471767224371 ], [ 3329472.531158647499979, 2289648.715055635664612 ], [ 3329473.312317189294845, 2289676.465910453349352 ], [ 3329480.283384, 2289697.055278950370848 ], [ 3329482.296237362083048, 2289702.789473304525018 ], [ 3329494.954511675518006, 2289724.417426221538335 ], [ 3329517.162940956652164, 2289752.496386452578008 ], [ 3329524.088964999653399, 2289761.551044800318778 ], [ 3329524.088964999653399, 2289522.132994440384209 ], [ 3329513.277825915720314, 2289535.655702040996403 ] ] ] ] } }
]
}
