{
"type": "FeatureCollection",
"name": "Zaldibia",
"crs": { "type": "name", "properties": { "name": "urn:ogc:def:crs:EPSG::3035" } },
"features": [
{ "type": "Feature", "properties": { "SITE_NAME": "Aralar", "ODESIGNATE": "Parque Natural", "NUT2": 21, "SITE_CODE_": "ES212001", "DESIG_ABBR": "ES10", "SITE_CDDA": "71222_CDDA", "Sup_ha": 10923.041612000001 }, "geometry": { "type": "MultiPolygon", "coordinates": [ [ [ [ 3330305.522995144594461, 2291390.958131012506783 ], [ 3330310.381028289906681, 2291416.478725413791835 ], [ 3330312.587059068493545, 2291442.460819715168327 ], [ 3330311.309636317193508, 2291471.584254941903055 ], [ 3330306.838233549147844, 2291503.291535544209182 ], [ 3330311.101317714899778, 2291506.098999503534287 ], [ 3330319.466760952956975, 2291510.727918634656817 ], [ 3330320.429361198097467, 2291511.574417565949261 ], [ 3330324.230864494107664, 2291516.997473659925163 ], [ 3330330.4078090749681, 2291524.542333252727985 ], [ 3330326.952579332515597, 2291536.805323556531221 ], [ 3330316.72635180875659, 2291552.274790517520159 ], [ 3330302.719355327542871, 2291567.895009002182633 ], [ 3330301.692285000346601, 2291569.681392082478851 ], [ 3330301.692285000346601, 2291691.149020852986723 ], [ 3330303.985140504781157, 2291693.927217490039766 ], [ 3330315.692658771760762, 2291711.664587075822055 ], [ 3330330.853881713934243, 2291728.801075184252113 ], [ 3330340.669658774510026, 2291735.712745362892747 ], [ 3330356.86416001431644, 2291745.57073331810534 ], [ 3330388.634395559318364, 2291760.324196735862643 ], [ 3330411.787011358886957, 2291772.01383778359741 ], [ 3330432.212714285124093, 2291782.149764638394117 ], [ 3330438.980187838897109, 2291785.535489897243679 ], [ 3330451.429198060650378, 2291791.482001473661512 ], [ 3330457.286136197391897, 2291785.39243022352457 ], [ 3330461.470331146847457, 2291776.044723919127136 ], [ 3330466.924851878546178, 2291750.757850015535951 ], [ 3330467.787636905908585, 2291733.875512678176165 ], [ 3330466.688075579702854, 2291714.292261913884431 ], [ 3330464.627964266110212, 2291698.932528208009899 ], [ 3330463.111879600211978, 2291686.520470414310694 ], [ 3330462.852066315710545, 2291684.537524407729506 ], [ 3330457.25780491437763, 2291669.285727000329643 ], [ 3330451.701039608567953, 2291655.041481137275696 ], [ 3330447.761039412580431, 2291642.544100487604737 ], [ 3330447.394518486689776, 2291636.016286515630782 ], [ 3330454.634569518268108, 2291633.742494544479996 ], [ 3330467.543658424168825, 2291648.735635432880372 ], [ 3330482.114516679663211, 2291670.031043220777065 ], [ 3330491.945445056539029, 2291684.03861131099984 ], [ 3330506.886266138404608, 2291705.269657532218844 ], [ 3330521.210442214738578, 2291726.607989276759326 ], [ 3330535.057890239171684, 2291743.466032310854644 ], [ 3330558.967709189746529, 2291767.192766794934869 ], [ 3330575.383175063878298, 2291789.688378292135894 ], [ 3330592.779867604374886, 2291813.534391825087368 ], [ 3330603.760525694582611, 2291833.426388762891293 ], [ 3330611.687199564184994, 2291851.314528535120189 ], [ 3330617.313320095650852, 2291869.095980382524431 ], [ 3330622.116928779054433, 2291881.443224701099098 ], [ 3330635.16262433398515, 2291898.440668527968228 ], [ 3330651.867711978498846, 2291920.378869976848364 ], [ 3330659.308751753531396, 2291941.90076846210286 ], [ 3330665.379745424725115, 2291961.632979379035532 ], [ 3330683.028776549734175, 2291983.913999191485345 ], [ 3330711.054269487038255, 2292011.488067098893225 ], [ 3330736.945409194566309, 2292038.419295764528215 ], [ 3330761.552567144390196, 2292062.531892456114292 ], [ 3330774.080535009969026, 2292080.633502828888595 ], [ 3330777.11440996080637, 2292093.795690130908042 ], [ 3330775.714586954563856, 2292094.546265600714833 ], [ 3330801.721472140401602, 2292117.908211128320545 ], [ 3330830.559822191949934, 2292142.298563826363534 ], [ 3330865.664732682518661, 2292166.612661669030786 ], [ 3330886.170866782777011, 2292177.241718632169068 ], [ 3330896.108632352203131, 2292195.794078465551138 ], [ 3330915.305165643803775, 2292216.284693007357419 ], [ 3330936.006076125428081, 2292235.499510101508349 ], [ 3330950.711510262452066, 2292253.729351201560348 ], [ 3330964.389268115162849, 2292277.715398870408535 ], [ 3330970.802662522997707, 2292304.993628516793251 ], [ 3330974.668813196476549, 2292332.208086444996297 ], [ 3330966.59792619664222, 2292353.893949547316879 ], [ 3330959.769466330297291, 2292367.25095686968416 ], [ 3330964.478293430991471, 2292388.741404112894088 ], [ 3330976.487423823215067, 2292419.60926537681371 ], [ 3330983.62238232512027, 2292446.254946818575263 ], [ 3330992.497288260608912, 2292474.626074173487723 ], [ 3331000.654249488841742, 2292497.037549160886556 ], [ 3331008.1306989248842, 2292514.497136834543198 ], [ 3331018.068664320744574, 2292533.04949152469635 ], [ 3331023.207044865004718, 2292549.394738218281418 ], [ 3331028.547933377325535, 2292577.87368279742077 ], [ 3331021.845005366019905, 2292596.279264417011291 ], [ 3330989.578703290317208, 2292604.935851400718093 ], [ 3330955.503013860899955, 2292608.329826935194433 ], [ 3330925.8532585632056, 2292620.587546732276678 ], [ 3330892.564904957078397, 2292633.478335579391569 ], [ 3330862.939435141626745, 2292644.717797991354018 ], [ 3330839.341485104523599, 2292659.47175712371245 ], [ 3330832.229035160969943, 2292671.864279181696475 ], [ 3330838.512888853438199, 2292683.953937616664916 ], [ 3330840.783835949841887, 2292686.60107281152159 ], [ 3330842.807969852816314, 2292689.291047803126276 ], [ 3330843.370634822174907, 2292692.742434189189225 ], [ 3330842.305710682179779, 2292697.491174180991948 ], [ 3330840.711901109199971, 2292706.388150732032955 ], [ 3330839.669945053756237, 2292721.780637514777482 ], [ 3330843.281836115755141, 2292745.490161419380456 ], [ 3330851.057861508801579, 2292771.010199125856161 ], [ 3330863.543183078989387, 2292789.626417263410985 ], [ 3330880.673941724002361, 2292796.279319216497242 ], [ 3330917.613092688377947, 2292796.443267035298049 ], [ 3330954.372582412324846, 2292795.117375482805073 ], [ 3330986.031922136433423, 2292795.1860785135068 ], [ 3331014.910435691475868, 2292797.25962534500286 ], [ 3331037.586347517557442, 2292804.468833741731942 ], [ 3331057.725920302793384, 2292808.57014382025227 ], [ 3331082.767476533539593, 2292809.283215374685824 ], [ 3331120.524911790154874, 2292804.741668437141925 ], [ 3331148.217610476072878, 2292788.261131606064737 ], [ 3331169.013901611790061, 2292769.938404446933419 ], [ 3331200.607316447421908, 2292759.877820587716997 ], [ 3331226.958618561271578, 2292750.729464129544795 ], [ 3331252.577305763028562, 2292745.257749380543828 ], [ 3331272.763390051200986, 2292742.252503357362002 ], [ 3331274.908645470626652, 2292739.851027527358383 ], [ 3331290.390891159884632, 2292742.227585642598569 ], [ 3331427.188980313949287, 2292762.030568877700716 ], [ 3331451.171106063295156, 2292765.97044347319752 ], [ 3331459.221855423413217, 2292755.442958007566631 ], [ 3331466.612890330143273, 2292745.537285187747329 ], [ 3331475.435692581348121, 2292737.410679109860212 ], [ 3331489.814578019082546, 2292726.79626542609185 ], [ 3331498.502915097866207, 2292721.735284211114049 ], [ 3331509.658132094889879, 2292716.245039661880583 ], [ 3331521.054603923112154, 2292712.234040398616344 ], [ 3331528.84976897155866, 2292709.863637727685273 ], [ 3331535.843177631497383, 2292707.632819287013263 ], [ 3331543.774836561642587, 2292707.266821775119752 ], [ 3331548.54238988365978, 2292706.944347849115729 ], [ 3331551.626132547389716, 2292706.407870452385396 ], [ 3331557.97295029880479, 2292706.824626096058637 ], [ 3331566.309949812479317, 2292702.33181911893189 ], [ 3331574.697616356890649, 2292700.872522515710443 ], [ 3331582.44423633813858, 2292700.538620437029749 ], [ 3331595.945241273846477, 2292699.710774699691683 ], [ 3331600.527870048303157, 2292699.420476513914764 ], [ 3331602.007968334015459, 2292699.162985948380083 ], [ 3331616.912206860724837, 2292690.992310180328786 ], [ 3331628.443066092208028, 2292683.915739860385656 ], [ 3331657.597418901510537, 2292666.674242679029703 ], [ 3331658.99723800830543, 2292665.923683703877032 ], [ 3331662.002602115273476, 2292669.964075217489153 ], [ 3331662.780108691193163, 2292670.842887415084988 ], [ 3331665.378031982108951, 2292673.940188952721655 ], [ 3331666.871354263741523, 2292675.708444179967046 ], [ 3331669.938508608844131, 2292679.738187869545072 ], [ 3331675.603456229902804, 2292686.865053252317011 ], [ 3331678.756536972709, 2292689.86567460000515 ], [ 3331685.228838226292282, 2292695.331079729832709 ], [ 3331687.320222109556198, 2292696.488357269670814 ], [ 3331692.101018850691617, 2292698.191737441346049 ], [ 3331694.771727673243731, 2292698.234057621564716 ], [ 3331698.466544385068119, 2292699.112289924640208 ], [ 3331703.123991474509239, 2292700.83712950674817 ], [ 3331708.934459138661623, 2292701.854345911182463 ], [ 3331722.751507279463112, 2292704.520701515488327 ], [ 3331731.744787756353617, 2292705.998188647441566 ], [ 3331741.126920667011291, 2292707.915066037792712 ], [ 3331751.495753828436136, 2292709.660292443819344 ], [ 3331758.885585928801447, 2292711.416728379204869 ], [ 3331767.280822228174657, 2292713.505295392591506 ], [ 3331773.788419183343649, 2292714.908276684582233 ], [ 3331780.357675112783909, 2292716.300430610775948 ], [ 3331786.452350547071546, 2292718.282283182721585 ], [ 3331794.23093698034063, 2292720.478128887247294 ], [ 3331805.543599723372608, 2292722.566205572802573 ], [ 3331817.306691366713494, 2292725.082961251959205 ], [ 3331823.672219380736351, 2292726.003524576779455 ], [ 3331831.370427759829909, 2292727.706321134697646 ], [ 3331839.642316030338407, 2292729.816354473587126 ], [ 3331847.088278161361814, 2292733.084243601188064 ], [ 3331852.670851328410208, 2292734.648152983747423 ], [ 3331860.795123339165002, 2292737.797940203454345 ], [ 3331867.876599263399839, 2292739.608131150249392 ], [ 3331876.37648419290781, 2292741.17146934196353 ], [ 3331882.9084328324534, 2292741.55605088872835 ], [ 3331891.84004277549684, 2292743.044286463409662 ], [ 3331899.642799966502935, 2292744.221866662614048 ], [ 3331908.00064795743674, 2292745.302983677014709 ], [ 3331916.007233052514493, 2292746.952142806723714 ], [ 3331923.088611476123333, 2292748.762356078252196 ], [ 3331935.178769983816892, 2292751.729167279787362 ], [ 3331940.600586785469204, 2292752.30697767296806 ], [ 3331950.272297827526927, 2292753.666470587253571 ], [ 3331960.011132544837892, 2292753.493079965934157 ], [ 3331964.223717728164047, 2292753.267182354349643 ], [ 3331973.439453749917448, 2292755.7201735265553 ], [ 3331983.030770916957408, 2292756.586519862990826 ], [ 3331993.788464261218905, 2292758.771170085296035 ], [ 3331998.432676068507135, 2292758.470188176259398 ], [ 3332010.201321981847286, 2292759.464801765978336 ], [ 3332021.211180914193392, 2292760.084483336657286 ], [ 3332032.931293158326298, 2292763.115684975404292 ], [ 3332041.696586298756301, 2292765.139907823409885 ], [ 3332050.319924553856254, 2292766.681791143957525 ], [ 3332056.691036901436746, 2292766.08040036726743 ], [ 3332064.499361883848906, 2292765.735925504006445 ], [ 3332075.219551765825599, 2292766.91304237768054 ], [ 3332083.354956078808755, 2292767.018706141039729 ], [ 3332092.230460612103343, 2292766.99562301998958 ], [ 3332101.556394183542579, 2292767.401219521183521 ], [ 3332111.086056790780276, 2292768.278411664068699 ], [ 3332122.632275099866092, 2292768.297669544350356 ], [ 3332131.137731037568301, 2292768.338965696282685 ], [ 3332136.972474323119968, 2292768.337925177998841 ], [ 3332145.477946857921779, 2292768.379321904852986 ], [ 3332156.654018096160144, 2292768.462976914364845 ], [ 3332165.387471779249609, 2292767.957581034861505 ], [ 3332173.485472095664591, 2292767.055694535374641 ], [ 3332184.932627631351352, 2292766.07822976866737 ], [ 3332193.215653916820884, 2292765.144159430637956 ], [ 3332206.6550004016608, 2292764.327074199914932 ], [ 3332216.270610223524272, 2292764.175262653268874 ], [ 3332217.442435923963785, 2292763.971414330881089 ], [ 3332227.841019707731903, 2292763.176365870051086 ], [ 3332240.497394914738834, 2292763.002526976633817 ], [ 3332257.16243564710021, 2292762.131253349129111 ], [ 3332268.942223906517029, 2292760.081772467587143 ], [ 3332280.845264531672001, 2292758.010853811167181 ], [ 3332290.034718004520983, 2292756.412085358984768 ], [ 3332298.64474496152252, 2292755.928282976150513 ], [ 3332307.316513884346932, 2292755.43353870883584 ], [ 3332315.495013424661011, 2292755.0248057609424 ], [ 3332321.847316588275135, 2292753.919582253787667 ], [ 3332326.614984440617263, 2292753.597151282709092 ], [ 3332334.54658710770309, 2292753.231370295863599 ], [ 3332337.054443419910967, 2292747.217640958726406 ], [ 3332339.055779683403671, 2292739.263990447856486 ], [ 3332342.223262604791671, 2292732.628483319189399 ], [ 3332343.422726620454341, 2292724.814324440434575 ], [ 3332343.900875941850245, 2292717.632574901916087 ], [ 3332345.741363576613367, 2292708.692840902134776 ], [ 3332348.458537869155407, 2292701.628738372586668 ], [ 3332350.695332101080567, 2292696.67623387509957 ], [ 3332355.034649162553251, 2292689.836885810364038 ], [ 3332359.411470694467425, 2292684.005081821698695 ], [ 3332365.823375160805881, 2292677.819267493207008 ], [ 3332374.289443815127015, 2292671.783056585118175 ], [ 3332383.119897081051022, 2292667.204561781603843 ], [ 3332391.944782236590981, 2292664.148137403652072 ], [ 3332398.297207608819008, 2292663.043008822482079 ], [ 3332407.789480462670326, 2292662.912692018784583 ], [ 3332415.487604810856283, 2292664.615573961287737 ], [ 3332425.344359757378697, 2292665.942956271581352 ], [ 3332431.956701739691198, 2292666.820649010594934 ], [ 3332438.791390514932573, 2292668.673832012806088 ], [ 3332445.416865202132612, 2292671.57737360522151 ], [ 3332446.872797670308501, 2292672.338176209013909 ], [ 3332454.047795690596104, 2292676.66732777422294 ], [ 3332454.172515535727143, 2292664.983772573061287 ], [ 3332453.98541498882696, 2292659.946091210935265 ], [ 3332453.959036575164646, 2292655.894315055105835 ], [ 3332454.771855179220438, 2292652.710725909098983 ], [ 3332455.973525400739163, 2292649.966528142802417 ], [ 3332456.687266016378999, 2292645.786108431406319 ], [ 3332466.370138119906187, 2292644.101548946928233 ], [ 3332471.864668932743371, 2292641.624463081825525 ], [ 3332475.835955476853997, 2292639.919584706425667 ], [ 3332479.992449062876403, 2292638.182388244196773 ], [ 3332486.98578817024827, 2292635.951616875827312 ], [ 3332494.373566055670381, 2292632.638269591145217 ], [ 3332503.093795689288527, 2292630.107004415243864 ], [ 3332514.836127061396837, 2292627.050144614186138 ], [ 3332521.070779512170702, 2292624.444422053173184 ], [ 3332528.310920944437385, 2292622.170725984498858 ], [ 3332538.245972510892898, 2292618.921217698603868 ], [ 3332547.212922608479857, 2292616.347145588137209 ], [ 3332554.021355328150094, 2292614.148651095107198 ], [ 3332556.654672842938453, 2292613.183451483491808 ], [ 3332563.505981731694192, 2292610.4704679697752 ], [ 3332566.600871713366359, 2292606.889817488379776 ], [ 3332569.368586332071573, 2292602.859047390520573 ], [ 3332573.270646616350859, 2292597.616995872464031 ], [ 3332576.703563368413597, 2292591.44238692894578 ], [ 3332579.618904044851661, 2292586.3718750202097 ], [ 3332582.416369501501322, 2292579.80077204387635 ], [ 3332583.530018324963748, 2292573.01563788484782 ], [ 3332585.587497544940561, 2292566.573357774876058 ], [ 3332587.564487278927118, 2292559.637946102768183 ], [ 3332588.685691335238516, 2292556.400722558610141 ], [ 3332589.375168771948665, 2292553.238597557879984 ], [ 3332589.855444729328156, 2292551.126926719211042 ], [ 3332591.864361800719053, 2292546.72112197894603 ], [ 3332596.214766081422567, 2292536.837701468728483 ], [ 3332610.584860942326486, 2292534.337741385679692 ], [ 3332648.13541395124048, 2292535.917592909187078 ], [ 3332693.963457386475056, 2292538.085546125192195 ], [ 3332711.604406877420843, 2292540.086869090329856 ], [ 3332711.105428909882903, 2292541.694758363068104 ], [ 3332709.851793270558119, 2292553.067512576468289 ], [ 3332709.69178907899186, 2292568.813317043241113 ], [ 3332711.000749906990677, 2292587.345790598541498 ], [ 3332711.799693500623107, 2292610.530267101712525 ], [ 3332714.351894128601998, 2292637.465925726573914 ], [ 3332714.407368761021644, 2292667.371150177903473 ], [ 3332706.026616508606821, 2292700.772179565392435 ], [ 3332701.242408544756472, 2292705.660640821326524 ], [ 3332674.577730408869684, 2292733.115985521581024 ], [ 3332677.836171617731452, 2292752.323342334944755 ], [ 3332676.234727501869202, 2292757.672337861265987 ], [ 3332674.566024370025843, 2292764.554029449820518 ], [ 3332671.148358496837318, 2292777.824444651138037 ], [ 3332670.047968484461308, 2292786.635410584043711 ], [ 3332667.727228126954287, 2292797.686889150179923 ], [ 3332665.412140102125704, 2292807.216186651028693 ], [ 3332663.844626727513969, 2292820.164673922583461 ], [ 3332663.620849449187517, 2292830.85138987749815 ], [ 3332664.029133722186089, 2292848.526416895445436 ], [ 3332666.12683850992471, 2292864.893606307916343 ], [ 3332667.29173303861171, 2292877.873728190083057 ], [ 3332671.129473072011024, 2292895.966271360404789 ], [ 3332674.219459221698344, 2292910.639758537057787 ], [ 3332678.4626548839733, 2292924.605510488618165 ], [ 3332683.032834662124515, 2292939.021417485084385 ], [ 3332686.844212842173874, 2292953.062286737840623 ], [ 3332689.990310472436249, 2292969.24701679404825 ], [ 3332691.641066166106611, 2292978.59349935175851 ], [ 3332692.013217680156231, 2292983.59899546764791 ], [ 3332691.867735090665519, 2292989.70880460832268 ], [ 3332691.894103350117803, 2292993.76038381177932 ], [ 3332693.89064781088382, 2293004.060784470289946 ], [ 3332693.986290744971484, 2293011.649649606086314 ], [ 3332692.106327065266669, 2293014.511941381730139 ], [ 3332688.533416159451008, 2293025.27412678534165 ], [ 3332688.023531537503004, 2293029.926124639809132 ], [ 3332685.601638390216976, 2293034.910821808502078 ], [ 3332685.547547815367579, 2293038.46946659963578 ], [ 3332684.716045717708766, 2293041.149276489391923 ], [ 3332682.651043017394841, 2293044.043656549416482 ], [ 3332680.875726774334908, 2293046.380712939891964 ], [ 3332678.464840522035956, 2293048.321193193551153 ], [ 3332674.654248526785523, 2293051.012290937826037 ], [ 3332671.06609222246334, 2293054.678763542324305 ], [ 3332667.928366753738374, 2293058.773916954174638 ], [ 3332660.71462982846424, 2293065.099205804057419 ], [ 3332653.846794944256544, 2293072.378495325800031 ], [ 3332647.842297184746712, 2293079.507505358196795 ], [ 3332643.11417187936604, 2293085.907453905325383 ], [ 3332640.810160961002111, 2293092.392653418704867 ], [ 3332638.900382089894265, 2293097.795308724511415 ], [ 3332638.575431951321661, 2293102.415142353624105 ], [ 3332639.132637879811227, 2293107.388556170742959 ], [ 3332641.799926043022424, 2293114.022949160542339 ], [ 3332644.638992751948535, 2293118.599323985166848 ], [ 3332652.014419820159674, 2293129.992096223402768 ], [ 3332658.328110285103321, 2293139.541323556564748 ], [ 3332665.363211828749627, 2293148.458126503974199 ], [ 3332672.529241747222841, 2293160.90129306120798 ], [ 3332676.250566237606108, 2293165.831231439951807 ], [ 3332679.885953718796372, 2293171.79018762242049 ], [ 3332683.953066519461572, 2293177.674043850041926 ], [ 3332690.741374536417425, 2293186.63377927755937 ], [ 3332694.382319486234337, 2293191.070666335523129 ], [ 3332697.290776837151498, 2293199.184314098674804 ], [ 3332698.625487295445055, 2293205.036447618622333 ], [ 3332697.86882101604715, 2293209.73138191178441 ], [ 3332695.398507023230195, 2293216.752549475990236 ], [ 3332692.922573090530932, 2293225.296001794748008 ], [ 3332691.229758659843355, 2293233.195889775175601 ], [ 3332689.290278023574501, 2293241.138889987953007 ], [ 3332687.302261081524193, 2293251.118371332064271 ], [ 3332686.480516492389143, 2293262.416080000810325 ], [ 3332686.471670769155025, 2293270.530275621451437 ], [ 3332688.139930807054043, 2293292.042569921817631 ], [ 3332689.117757451720536, 2293299.984928575344384 ], [ 3332690.321427425835282, 2293302.310617527924478 ], [ 3332692.865502495318651, 2293308.96655213739723 ], [ 3332694.218948855996132, 2293315.322567488066852 ], [ 3332694.695692675188184, 2293319.802949920296669 ], [ 3332692.627309109549969, 2293329.28938427194953 ], [ 3332691.310144599992782, 2293335.603032850660384 ], [ 3332690.017125201411545, 2293340.89831029670313 ], [ 3332687.460799158550799, 2293348.948522204533219 ], [ 3332685.982871506828815, 2293354.27606786461547 ], [ 3332682.54111226927489, 2293368.564831031952053 ], [ 3332680.923171487171203, 2293378.479950096458197 ], [ 3332680.739056335762143, 2293395.244041301775724 ], [ 3332682.512010256294161, 2293416.231111557688564 ], [ 3332686.465571074746549, 2293430.754328170791268 ], [ 3332691.772696980275214, 2293451.633547051809728 ], [ 3332694.240622547455132, 2293467.93630889011547 ], [ 3332696.34733183728531, 2293476.189337879884988 ], [ 3332698.987043684348464, 2293490.434177681338042 ], [ 3332703.066241757012904, 2293510.005902781151235 ], [ 3332703.894440108444542, 2293513.918118490371853 ], [ 3332705.172973291948438, 2293518.259031401481479 ], [ 3332708.614550822414458, 2293532.364283772185445 ], [ 3332713.054798741824925, 2293559.985781835857779 ], [ 3332719.326675869524479, 2293586.78152291662991 ], [ 3332724.598519628867507, 2293611.723188073839992 ], [ 3332730.036687994375825, 2293636.128887500148267 ], [ 3332737.366885025985539, 2293671.360156180802733 ], [ 3332744.401901921257377, 2293708.670927494764328 ], [ 3332750.260855093132704, 2293736.045662368647754 ], [ 3332753.830125347711146, 2293760.269453813321888 ], [ 3332753.922635244671255, 2293774.450389468111098 ], [ 3332755.788229123689234, 2293781.224267498124391 ], [ 3332758.9136818125844, 2293791.835378839168698 ], [ 3332761.250623208470643, 2293804.611704997252673 ], [ 3332763.148206939920783, 2293813.91520381718874 ], [ 3332767.040211542975157, 2293828.449264520779252 ], [ 3332770.663557107560337, 2293849.114404843654484 ], [ 3332774.546770276036114, 2293871.762388807255775 ], [ 3332779.15903452038765, 2293897.3258758909069 ], [ 3332786.627056123688817, 2293922.899619448930025 ], [ 3332791.237131941132247, 2293943.393121468368918 ], [ 3332796.886914105154574, 2293971.818257504608482 ], [ 3332797.047789857722819, 2293972.804346631746739 ], [ 3332799.601708696223795, 2293988.078231374267489 ], [ 3332803.230547072831541, 2294007.221324575599283 ], [ 3332804.503685118630528, 2294013.084301489870995 ], [ 3332808.242697805631906, 2294030.18008101079613 ], [ 3332813.8121352144517, 2294058.112171728163958 ], [ 3332819.730709959752858, 2294080.406215894967318 ], [ 3332822.740608538035303, 2294094.5866116178222 ], [ 3332825.881616160273552, 2294112.293466836679727 ], [ 3332827.749495244119316, 2294124.137442703358829 ], [ 3332830.574381492100656, 2294138.350027213804424 ], [ 3332832.833244541659951, 2294155.703307770658284 ], [ 3332834.368616395629942, 2294168.619206793606281 ], [ 3332834.246442920994014, 2294185.372723134700209 ], [ 3332834.04717434104532, 2294195.041116409469396 ], [ 3332832.602415029890835, 2294219.63029231550172 ], [ 3332831.563952330499887, 2294228.430599129758775 ], [ 3332834.957144264597446, 2294244.572586714755744 ], [ 3332837.701769949868321, 2294258.292106958571821 ], [ 3332842.713927028700709, 2294281.250900075770915 ], [ 3332846.557654938194901, 2294297.821454289369285 ], [ 3332850.61055232398212, 2294313.341544979251921 ], [ 3332854.934490014333278, 2294327.800408590584993 ], [ 3332860.0656220135279, 2294340.597735448740423 ], [ 3332863.927986087277532, 2294357.67209231108427 ], [ 3332867.801480220630765, 2294371.702179145999253 ], [ 3332870.816990568768233, 2294384.360609491355717 ], [ 3332872.969046265818179, 2294397.169147964566946 ], [ 3332875.472449230030179, 2294409.409628557506949 ], [ 3332881.57617087289691, 2294431.671410518698394 ], [ 3332895.598243597894907, 2294451.541518713347614 ], [ 3332906.30068036634475, 2294440.552687818184495 ], [ 3332927.190122691448778, 2294424.749377128202468 ], [ 3332934.267092918977141, 2294416.419508222490549 ], [ 3332946.819775368552655, 2294405.108823919668794 ], [ 3332954.513396427966654, 2294396.671688334085047 ], [ 3332960.493447166401893, 2294390.560905476566404 ], [ 3332967.144128703512251, 2294380.784089026041329 ], [ 3332971.735432031098753, 2294372.379703777842224 ], [ 3332974.777203519828618, 2294360.695607308298349 ], [ 3332978.27475793659687, 2294347.918249405454844 ], [ 3332982.654640760272741, 2294335.494239919353276 ], [ 3332986.090610799379647, 2294322.72749880515039 ], [ 3332992.114669159054756, 2294304.440156246069819 ], [ 3332997.441599546000361, 2294285.767052788753062 ], [ 3333003.800428429152817, 2294271.477788691874593 ], [ 3333007.233130179345608, 2294265.303121842909604 ], [ 3333012.417059720493853, 2294257.809739377349615 ], [ 3333025.26478199660778, 2294244.419636888429523 ], [ 3333030.893611366394907, 2294238.876915093977004 ], [ 3333035.103845132514834, 2294233.581071660853922 ], [ 3333039.314178438391536, 2294228.285211853217334 ], [ 3333046.09602849977091, 2294222.034981007687747 ], [ 3333055.591444963123649, 2294215.312606282997876 ], [ 3333065.427321047522128, 2294211.066094987094402 ], [ 3333073.603446717374027, 2294205.587401626165956 ], [ 3333084.911657943855971, 2294197.535511914175004 ], [ 3333091.830035762861371, 2294193.28958989912644 ], [ 3333116.307765083853155, 2294173.819821297656745 ], [ 3333127.331874659284949, 2294164.803396569564939 ], [ 3333138.854799258988351, 2294154.178992990870029 ], [ 3333147.597053774632514, 2294145.559517112094909 ], [ 3333159.3722147597, 2294133.37013542978093 ], [ 3333167.959129467606544, 2294122.242506380658597 ], [ 3333177.884076814167202, 2294110.375088920351118 ], [ 3333185.017271484714001, 2294103.556639361195266 ], [ 3333188.06900817155838, 2294100.490596815012395 ], [ 3333192.791476583108306, 2294095.61271467525512 ], [ 3333196.098646680824459, 2294084.389557503629476 ], [ 3333199.647084255702794, 2294074.645541719160974 ], [ 3333205.439960430376232, 2294063.497028746642172 ], [ 3333210.377139932010323, 2294056.046621814835817 ], [ 3333217.94760250300169, 2294047.631012847647071 ], [ 3333224.734911323525012, 2294039.858673885464668 ], [ 3333231.326342954300344, 2294035.162727150134742 ], [ 3333237.628000726923347, 2294031.024123043753207 ], [ 3333247.007958407048136, 2294027.871151952538639 ], [ 3333256.393353012390435, 2294023.196129970252514 ], [ 3333264.033143722452223, 2294018.317724815569818 ], [ 3333269.92734639858827, 2294013.236034309025854 ], [ 3333275.432772527914494, 2294007.714836223050952 ], [ 3333281.437149181962013, 2294000.585841404274106 ], [ 3333284.660727408714592, 2293995.461676571518183 ], [ 3333290.614504250697792, 2293985.299274017103016 ], [ 3333292.869919013697654, 2293980.850660418625921 ], [ 3333299.93382925260812, 2293970.495052184909582 ], [ 3333306.104525498114526, 2293962.830099127721041 ], [ 3333311.65284006902948, 2293956.79451678879559 ], [ 3333317.447937491349876, 2293950.715906667523086 ], [ 3333323.508562352508307, 2293945.098246186040342 ], [ 3333334.613115975633264, 2293936.574856670573354 ], [ 3333343.486418570391834, 2293931.481906207278371 ], [ 3333352.088871472980827, 2293927.45014181593433 ], [ 3333359.186797151807696, 2293924.69426088174805 ], [ 3333363.034770094323903, 2293923.010740403085947 ], [ 3333366.161456410773098, 2293921.959721801336855 ], [ 3333388.847464052028954, 2293909.39333314448595 ], [ 3333394.816534583456814, 2293906.326786265708506 ], [ 3333420.548870587255806, 2293892.216447326354682 ], [ 3333437.118138722609729, 2293883.756489682476968 ], [ 3333460.809696706943214, 2293871.522371465805918 ], [ 3333480.78217480937019, 2293859.428254370577633 ], [ 3333505.793059427291155, 2293845.950506254564971 ], [ 3333526.974781270604581, 2293834.660040686372668 ], [ 3333545.308378484100103, 2293826.907203995622694 ], [ 3333553.484592094086111, 2293821.428630003705621 ], [ 3333565.731319119222462, 2293815.241814968176186 ], [ 3333566.903043799102306, 2293815.038000833243132 ], [ 3333571.922835077624768, 2293813.15057042427361 ], [ 3333580.962485259398818, 2293807.521712523885071 ], [ 3333592.783036758191884, 2293799.887937379069626 ], [ 3333614.334737729281187, 2293788.533169268164784 ], [ 3333628.708026858977973, 2293779.441311308648437 ], [ 3333640.769660475198179, 2293773.286819471046329 ], [ 3333663.209066633600742, 2293760.763505509588867 ], [ 3333684.49549653660506, 2293748.947991388384253 ], [ 3333707.38535285089165, 2293736.853387135080993 ], [ 3333728.424998885951936, 2293725.080825809389353 ], [ 3333745.340236131567508, 2293717.574899844359607 ], [ 3333750.298364059999585, 2293715.698218978941441 ], [ 3333755.07148325163871, 2293713.853820396587253 ], [ 3333758.900784355588257, 2293711.66665855050087 ], [ 3333770.187168226577342, 2293709.703211938496679 ], [ 3333787.141894720960408, 2293708.274818800855428 ], [ 3333800.458008484449238, 2293707.479426384903491 ], [ 3333811.473338834941387, 2293706.577199143823236 ], [ 3333822.161684473976493, 2293705.224817329086363 ], [ 3333830.975537574850023, 2293705.212647602893412 ], [ 3333840.701258459128439, 2293703.013744197785854 ], [ 3333845.560313922353089, 2293700.140344130806625 ], [ 3333853.385223601944745, 2293695.229977297596633 ], [ 3333861.481076683383435, 2293689.258320729713887 ], [ 3333876.415027214214206, 2293678.547847014851868 ], [ 3333893.926080221310258, 2293665.361004084348679 ], [ 3333905.567231386434287, 2293656.237547934986651 ], [ 3333916.449477876536548, 2293646.739066022448242 ], [ 3333928.355814483016729, 2293638.076322589069605 ], [ 3333934.657681877724826, 2293633.938019988127053 ], [ 3333940.80420556338504, 2293627.291380798444152 ], [ 3333945.044369854498655, 2293619.455334234051406 ], [ 3333951.35506627894938, 2293607.202804026193917 ], [ 3333958.652585186064243, 2293594.77873632311821 ], [ 3333962.171361607965082, 2293587.575200364459306 ], [ 3333967.886200521606952, 2293581.003858277574182 ], [ 3333973.088900222908705, 2293574.01436273008585 ], [ 3333977.48984018387273, 2293567.16442309319973 ], [ 3333982.427151164971292, 2293559.714161387644708 ], [ 3333988.734469974879175, 2293554.053732834290713 ], [ 3333992.539608598686755, 2293552.884760878048837 ], [ 3334005.191647781990469, 2293542.571363699156791 ], [ 3334016.647714866325259, 2293533.480152673088014 ], [ 3334030.452868406660855, 2293522.459071459714323 ], [ 3334045.201976139098406, 2293511.780944849830121 ], [ 3334048.371576672885567, 2293510.215590638108552 ], [ 3334061.950994986109436, 2293504.811217001173645 ], [ 3334075.72847552318126, 2293501.400416497141123 ], [ 3334097.647074268199503, 2293496.573527520056814 ], [ 3334123.370623404160142, 2293490.577721880283207 ], [ 3334142.001849653199315, 2293485.815698915626854 ], [ 3334145.393874764908105, 2293485.225623415783048 ], [ 3334163.729776715859771, 2293482.543092141393572 ], [ 3334169.835514625534415, 2293481.481024033389986 ], [ 3334188.541553696151823, 2293478.734022638294846 ], [ 3334209.86213902104646, 2293474.51832733862102 ], [ 3334213.112093474715948, 2293473.445836098864675 ], [ 3334229.109916869085282, 2293469.649001353885978 ], [ 3334247.384252131450921, 2293466.977208910975605 ], [ 3334272.126584084704518, 2293459.6310582049191 ], [ 3334287.692770075052977, 2293455.909215603023767 ], [ 3334303.956009129993618, 2293452.573272183537483 ], [ 3334315.969310359098017, 2293448.455424265936017 ], [ 3334331.806484809145331, 2293443.67250914266333 ], [ 3334337.727187871467322, 2293442.64254321763292 ], [ 3334375.879234288819134, 2293437.020078044384718 ], [ 3334398.366103227715939, 2293434.122603594325483 ], [ 3334417.275802762247622, 2293431.847295022103935 ], [ 3334440.719655137974769, 2293431.318535647820681 ], [ 3334465.662407958880067, 2293431.036018414888531 ], [ 3334489.937973376363516, 2293427.82748644426465 ], [ 3334510.574495216831565, 2293425.251876922789961 ], [ 3334529.886203183792531, 2293425.44182711513713 ], [ 3334549.468881495296955, 2293424.570601184852421 ], [ 3334563.994207992218435, 2293424.57916636345908 ], [ 3334574.146257081069052, 2293423.827360353432596 ], [ 3334584.378587528131902, 2293423.568620808422565 ], [ 3334592.366417703218758, 2293424.714201455470175 ], [ 3334601.255243280436844, 2293426.717338352929801 ], [ 3334616.442395451012999, 2293431.173953388351947 ], [ 3334632.345386427827179, 2293436.520126581657678 ], [ 3334645.658107867464423, 2293442.316802700515836 ], [ 3334660.568844754248857, 2293449.356736509595066 ], [ 3334668.30999086657539, 2293450.545329829212278 ], [ 3334671.881588122807443, 2293451.445138071663678 ], [ 3334679.906844595912844, 2293453.59837414836511 ], [ 3334701.872623160015792, 2293458.397049302235246 ], [ 3334713.624772895593196, 2293463.958223978988826 ], [ 3334720.269017804879695, 2293467.365803459193558 ], [ 3334728.857015610672534, 2293472.970259314402938 ], [ 3334735.334922759328038, 2293476.913694482296705 ], [ 3334742.536346439272165, 2293485.294538189191371 ], [ 3334748.79941469617188, 2293491.810574085451663 ], [ 3334753.051558830309659, 2293497.662293939851224 ], [ 3334757.810249450150877, 2293505.454023426398635 ], [ 3334760.206569333560765, 2293513.149586766492575 ], [ 3334761.085286380257457, 2293520.095137660391629 ], [ 3334762.580742692574859, 2293526.933324931189418 ], [ 3334762.485896666999906, 2293536.076305276248604 ], [ 3334762.932971264235675, 2293543.096826745197177 ], [ 3334762.232396656181663, 2293549.302994020283222 ], [ 3334761.204756848048419, 2293555.059118968434632 ], [ 3334760.158396687358618, 2293560.311371681746095 ], [ 3334760.664928616955876, 2293562.251282982993871 ], [ 3334760.334409049712121, 2293568.393091894686222 ], [ 3334761.076736208051443, 2293573.334258132614195 ], [ 3334764.446628242731094, 2293578.832393140532076 ], [ 3334767.846361622679979, 2293581.790303962305188 ], [ 3334772.584216934163123, 2293584.008259817492217 ], [ 3334775.026968619786203, 2293584.597472698893398 ], [ 3334779.955311430152506, 2293585.261218192521483 ], [ 3334782.070980877615511, 2293585.400290052872151 ], [ 3334785.500523277558386, 2293585.817780205048621 ], [ 3334797.181197738274932, 2293582.771932295523584 ], [ 3334807.618575030937791, 2293571.322963137179613 ], [ 3334812.419439035933465, 2293561.86844630073756 ], [ 3334816.775433611590415, 2293550.463195110671222 ], [ 3334819.085034444928169, 2293542.456112526357174 ], [ 3334821.802098703570664, 2293535.392219176981598 ], [ 3334824.894762809854001, 2293526.741821937728673 ], [ 3334827.421339883469045, 2293521.232139450497925 ], [ 3334829.486344398930669, 2293518.3377646044828 ], [ 3334830.497319906949997, 2293517.147885139565915 ], [ 3334833.937988220248371, 2293514.521285361610353 ], [ 3334838.920445026829839, 2293511.626542356796563 ], [ 3334848.00521507486701, 2293510.553368633147329 ], [ 3334857.355490461457521, 2293509.941047043539584 ], [ 3334866.410530322231352, 2293511.408178966492414 ], [ 3334874.57792924111709, 2293514.043638892006129 ], [ 3334879.500826662406325, 2293516.2295221532695 ], [ 3334885.879570246208459, 2293519.176262752152979 ], [ 3334889.920290687121451, 2293521.00844394043088 ], [ 3334894.473135462030768, 2293523.258686241228133 ], [ 3334900.876244968734682, 2293525.187137631699443 ], [ 3334904.860770113766193, 2293525.508115294389427 ], [ 3334911.454370229970664, 2293525.882359374314547 ], [ 3334918.418106073513627, 2293526.192130235023797 ], [ 3334920.885011081583798, 2293525.762994796503335 ], [ 3334928.039352552965283, 2293524.518640273716301 ], [ 3334935.032721537165344, 2293522.288128704763949 ], [ 3334939.966646933462471, 2293521.429940995294601 ], [ 3334943.506401776336133, 2293519.800169316586107 ], [ 3334954.439328216947615, 2293513.335329071618617 ], [ 3334964.441642932593822, 2293508.553316107951105 ], [ 3334971.378918963950127, 2293504.811589895281941 ], [ 3334979.265580357052386, 2293499.890600003302097 ], [ 3334989.1015919521451, 2293495.644643674604595 ], [ 3334996.255921677686274, 2293494.400200935080647 ], [ 3335005.075293909758329, 2293492.866184992715716 ], [ 3335014.33963335910812, 2293493.282887302339077 ], [ 3335029.1249073096551, 2293495.274350513704121 ], [ 3335040.646958530880511, 2293496.312359705101699 ], [ 3335051.466326996218413, 2293498.486729200929403 ], [ 3335068.015810752287507, 2293501.1853310870938 ], [ 3335076.800001526717097, 2293503.71374952653423 ], [ 3335078.811010531615466, 2293504.377958824392408 ], [ 3335091.641290626022965, 2293507.216560552828014 ], [ 3335100.079680835362524, 2293508.790968540590256 ], [ 3335111.089626496657729, 2293509.411025794222951 ], [ 3335122.716328273061663, 2293509.923823675140738 ], [ 3335135.656822431832552, 2293510.715164960362017 ], [ 3335154.407943754456937, 2293512.523973165079951 ], [ 3335169.297871987801045, 2293513.99024120811373 ], [ 3335180.018162094987929, 2293515.167811222374439 ], [ 3335187.432239633053541, 2293515.90631923917681 ], [ 3335194.457560357637703, 2293516.205412100534886 ], [ 3335200.989492644090205, 2293516.59041266143322 ], [ 3335206.990696063265204, 2293516.053561971057206 ], [ 3335213.793599765747786, 2293515.377389329019934 ], [ 3335221.564495083875954, 2293514.025747609324753 ], [ 3335226.147176521364599, 2293513.735696004703641 ], [ 3335231.537091620732099, 2293511.78408289141953 ], [ 3335235.422539700753987, 2293511.108263214118779 ], [ 3335242.842200593557209, 2293510.324834187980741 ], [ 3335250.699140757322311, 2293507.944183574989438 ], [ 3335260.25872944155708, 2293506.281476986594498 ], [ 3335269.855626423377544, 2293505.626333201304078 ], [ 3335278.243379475083202, 2293504.167423075996339 ], [ 3335287.945008098613471, 2293502.986942801158875 ], [ 3335294.131060102023184, 2293502.418056693393737 ], [ 3335299.164175856858492, 2293502.556701393797994 ], [ 3335304.709285054821521, 2293503.113229484297335 ], [ 3335308.299592087510973, 2293504.516840648371726 ], [ 3335322.047445589210838, 2293503.646742125507444 ], [ 3335337.103707407135516, 2293504.577100134920329 ], [ 3335348.483733433298767, 2293505.132942073512822 ], [ 3335358.340555774513632, 2293506.460605663713068 ], [ 3335369.591664637904614, 2293508.559943614993244 ], [ 3335381.26892061624676, 2293512.106144310440868 ], [ 3335393.637844148091972, 2293517.560157294385135 ], [ 3335408.449409845285118, 2293523.603326367214322 ], [ 3335418.270929872058332, 2293528.993329723365605 ], [ 3335432.090234844014049, 2293536.730237056966871 ], [ 3335443.99759559193626, 2293544.799645764753222 ], [ 3335457.095497788861394, 2293553.169037128798664 ], [ 3335470.051330368500203, 2293561.056011530105025 ], [ 3335482.414692512713373, 2293568.032075199298561 ], [ 3335497.974025703966618, 2293577.49428329616785 ], [ 3335510.664487273897976, 2293584.920591313391924 ], [ 3335521.665406226180494, 2293593.65456673130393 ], [ 3335532.073870561085641, 2293601.477729290723801 ], [ 3335542.007716735824943, 2293609.89035396464169 ], [ 3335550.03519979538396, 2293617.113535748794675 ], [ 3335556.051458320580423, 2293623.672432698775083 ], [ 3335561.939015118405223, 2293631.774885022081435 ], [ 3335567.234167175367475, 2293638.966210692189634 ], [ 3335572.49930670298636, 2293648.697977119125426 ], [ 3335577.203984566032887, 2293660.048181724268943 ], [ 3335581.050686616450548, 2293670.026622798293829 ], [ 3335585.031868027057499, 2293676.939533481374383 ], [ 3335587.785199535544962, 2293682.544901770539582 ], [ 3335590.538334183394909, 2293688.150304446462542 ], [ 3335592.784939068369567, 2293691.815800585784018 ], [ 3335595.833409791346639, 2293695.341746726538986 ], [ 3335600.442360658664256, 2293699.103240039199591 ], [ 3335604.563485526014119, 2293701.428598197642714 ], [ 3335608.850949083920568, 2293703.21810674900189 ], [ 3335613.427955641876906, 2293704.45003569079563 ], [ 3335618.005077017471194, 2293705.682046339847147 ], [ 3335620.447818739339709, 2293706.271188230719417 ], [ 3335622.82890093466267, 2293706.871154495514929 ], [ 3335629.521681799553335, 2293708.242165060713887 ], [ 3335632.028115778230131, 2293713.890470784157515 ], [ 3335635.695361013524234, 2293722.379050155635923 ], [ 3335636.94969428377226, 2293727.738179930485785 ], [ 3335638.544237200170755, 2293735.57316467911005 ], [ 3335640.039712422527373, 2293742.411431390792131 ], [ 3335642.111175312660635, 2293754.726695297751576 ], [ 3335642.989896920509636, 2293761.672219381667674 ], [ 3335645.849789350759238, 2293771.822174736764282 ], [ 3335647.474180905148387, 2293777.116951113566756 ], [ 3335648.838710115291178, 2293780.428720694966614 ], [ 3335651.350727526005358, 2293784.555086150765419 ], [ 3335652.924549390561879, 2293786.81641029426828 ], [ 3335654.744974999222904, 2293789.034848827403039 ], [ 3335657.262553278822452, 2293791.639174652285874 ], [ 3335661.303300142288208, 2293793.471488216891885 ], [ 3335666.397977634333074, 2293793.59934415621683 ], [ 3335673.903579780366272, 2293791.78695803321898 ], [ 3335679.341939681209624, 2293787.798955420032144 ], [ 3335686.340977760963142, 2293784.046467608306557 ], [ 3335695.55467867385596, 2293781.429913971107453 ], [ 3335705.631822761148214, 2293778.663104559294879 ], [ 3335715.443675243295729, 2293775.435510135255754 ], [ 3335729.320443233475089, 2293773.021984739229083 ], [ 3335735.672901262529194, 2293771.91706732288003 ], [ 3335742.130022223107517, 2293770.28702711686492 ], [ 3335749.099237082060426, 2293769.074855411890894 ], [ 3335757.671919962856919, 2293767.583836797624826 ], [ 3335760.570658545941114, 2293767.079636204056442 ], [ 3335761.291978951077908, 2293766.447274214588106 ], [ 3335771.103819955606014, 2293763.219592521898448 ], [ 3335781.261350341141224, 2293760.94584397226572 ], [ 3335788.68101716414094, 2293760.162468219175935 ], [ 3335794.706395162269473, 2293758.607415000908077 ], [ 3335799.72071226965636, 2293758.242336514871567 ], [ 3335805.024703382514417, 2293757.319860151037574 ], [ 3335810.039119449444115, 2293756.954765421804041 ], [ 3335815.176772194448858, 2293756.568138664122671 ], [ 3335819.309025013819337, 2293755.84943119995296 ], [ 3335824.342047081328928, 2293755.988125531934202 ], [ 3335831.552421620115638, 2293756.255198687780648 ], [ 3335836.826682462822646, 2293757.873012172989547 ], [ 3335843.766154097858816, 2293759.201040828600526 ], [ 3335851.070050552487373, 2293761.986968835815787 ], [ 3335855.869610702618957, 2293764.194357851520181 ], [ 3335861.138293160125613, 2293767.334111325908452 ], [ 3335866.819918455090374, 2293769.895132073201239 ], [ 3335873.587505396455526, 2293773.281147077213973 ], [ 3335879.108469578903168, 2293774.856061284895986 ], [ 3335884.012677195947617, 2293776.538230306934565 ], [ 3335886.146943800617009, 2293777.181024744641036 ], [ 3335890.785760563332587, 2293778.402424062602222 ], [ 3335900.18659870326519, 2293780.823493965901434 ], [ 3335908.890415120404214, 2293782.85885564237833 ], [ 3335911.727479883469641, 2293782.36538774613291 ], [ 3335917.894817593507469, 2293781.292683453299105 ], [ 3335923.464332617819309, 2293780.831167171709239 ], [ 3335929.390629588626325, 2293778.279312272556126 ], [ 3335934.619707654230297, 2293775.341782953124493 ], [ 3335939.095635588280857, 2293770.507135313004255 ], [ 3335941.833617092110217, 2293769.016854081302881 ], [ 3335945.242256570607424, 2293763.860785863362253 ], [ 3335948.353661705274135, 2293755.714371738024056 ], [ 3335949.386897218879312, 2293748.436373705044389 ], [ 3335949.765870443545282, 2293740.258106497116387 ], [ 3335950.206635499373078, 2293732.069195817690343 ], [ 3335951.985334456898272, 2293723.140395021997392 ], [ 3335954.676147216930985, 2293712.024990817531943 ], [ 3335959.106906426604837, 2293702.635002750437707 ], [ 3335963.693057760596275, 2293695.753106402233243 ], [ 3335967.114860516041517, 2293692.62294805701822 ], [ 3335968.662319711409509, 2293690.832780171185732 ], [ 3335972.306738052517176, 2293688.677853456698358 ], [ 3335977.720836465246975, 2293685.708059335127473 ], [ 3335983.856455862522125, 2293682.105874117463827 ], [ 3335993.027209688909352, 2293680.003874557558447 ], [ 3335997.202441574539989, 2293678.770687595941126 ], [ 3336004.812599377706647, 2293676.4330522143282 ], [ 3336013.817129168193787, 2293674.866984897758812 ], [ 3336017.949290353804827, 2293674.148311864584684 ], [ 3336026.436145011335611, 2293673.686313299462199 ], [ 3336035.496784884948283, 2293673.631558585911989 ], [ 3336043.854721780400723, 2293674.713047080673277 ], [ 3336048.536497290246189, 2293675.419866223353893 ], [ 3336052.928580890409648, 2293676.683982717804611 ], [ 3336057.671933618374169, 2293677.38009439734742 ], [ 3336062.766736793331802, 2293677.508068450260907 ], [ 3336066.035438063088804, 2293676.939551576972008 ], [ 3336069.93960007885471, 2293676.767552555538714 ], [ 3336073.825157945975661, 2293676.091767087113112 ], [ 3336076.292189071886241, 2293675.662759708240628 ], [ 3336083.076295361854136, 2293674.482827118597925 ], [ 3336086.047768791206181, 2293670.923968735150993 ], [ 3336091.36289039067924, 2293666.957357300445437 ], [ 3336096.294740257319063, 2293661.029410610441118 ], [ 3336099.223242104053497, 2293657.985048343893141 ], [ 3336102.224539963528514, 2293651.885796140413731 ], [ 3336107.593592768535018, 2293644.360759998206049 ], [ 3336120.766982938628644, 2293626.352000416256487 ], [ 3336126.13623875239864, 2293618.82693477999419 ], [ 3336130.352258898783475, 2293612.009433560539037 ], [ 3336136.552963981404901, 2293601.804781674407423 ], [ 3336142.077394508756697, 2293596.787742057815194 ], [ 3336148.483907051384449, 2293592.124437463935465 ], [ 3336156.55565237486735, 2293587.171459153294563 ], [ 3336163.147194417659193, 2293582.475982182659209 ], [ 3336168.641785473562777, 2293579.999242058955133 ], [ 3336175.536236135289073, 2293576.772156813181937 ], [ 3336183.763169075828046, 2293574.327303749509156 ], [ 3336190.405346362385899, 2293572.665152498520911 ], [ 3336195.258923737332225, 2293571.314027074724436 ], [ 3336200.026536567602307, 2293570.991791119333357 ], [ 3336207.416466692462564, 2293572.748657808639109 ], [ 3336216.281046736054122, 2293575.770156933460385 ], [ 3336224.504496831912547, 2293579.917186276987195 ], [ 3336233.929616664070636, 2293581.320049878675491 ], [ 3336245.308365005999804, 2293593.537650450598449 ], [ 3336254.509675595909357, 2293605.626972215250134 ], [ 3336261.354157765395939, 2293616.0979442326352 ], [ 3336265.922236852347851, 2293625.443905844818801 ], [ 3336270.120360850356519, 2293634.854200174100697 ], [ 3336272.301786430180073, 2293645.12220405600965 ], [ 3336275.722300236113369, 2293653.653677904978395 ], [ 3336279.72424695873633, 2293666.14011153485626 ], [ 3336281.34514170512557, 2293678.026753735728562 ], [ 3336283.93411779217422, 2293689.23783096531406 ], [ 3336286.868896586354822, 2293701.402919999323785 ], [ 3336289.988705480471253, 2293713.535834535956383 ], [ 3336292.971931105013937, 2293723.664416097104549 ], [ 3336296.529042459093034, 2293734.200224848464131 ], [ 3336300.480381675995886, 2293743.653438348788768 ], [ 3336304.005542165134102, 2293751.659596555866301 ], [ 3336307.906340994872153, 2293758.079471888951957 ], [ 3336311.764167841523886, 2293765.013841210398823 ], [ 3336315.31361642293632, 2293772.001835516653955 ], [ 3336318.072313477750868, 2293776.085208232980222 ], [ 3336321.817922269925475, 2293779.996964237652719 ], [ 3336327.038069967646152, 2293785.173271294683218 ], [ 3336330.807849614415318, 2293788.066781866829842 ], [ 3336337.371743734925985, 2293790.981438029557467 ], [ 3336342.219748173840344, 2293791.152347413823009 ], [ 3336349.132872997783124, 2293788.428940968587995 ], [ 3336354.732103099115193, 2293785.426990570966154 ], [ 3336361.144168880302459, 2293779.241670036688447 ], [ 3336367.395379415713251, 2293772.070280514191836 ], [ 3336372.142299448139966, 2293766.174518478102982 ], [ 3336377.616095747798681, 2293758.124276171438396 ], [ 3336383.146002539433539, 2293751.585341271944344 ], [ 3336386.369634420145303, 2293746.461490493267775 ], [ 3336387.818016356788576, 2293743.674525374546647 ], [ 3336389.963436844758689, 2293741.273372453637421 ], [ 3336398.84043174283579, 2293729.589124988298863 ], [ 3336412.019314325880259, 2293710.058536139316857 ], [ 3336420.040520690847188, 2293702.072256552055478 ], [ 3336424.873301865532994, 2293695.147536706645042 ], [ 3336429.194073915015906, 2293687.804831036366522 ], [ 3336434.265900302678347, 2293677.289404089562595 ], [ 3336439.319027641788125, 2293666.270210803486407 ], [ 3336442.48658241936937, 2293659.635163854807615 ], [ 3336446.968018033541739, 2293653.278566953260452 ], [ 3336453.40438232710585, 2293646.075010560452938 ], [ 3336459.551152892410755, 2293639.428731884807348 ], [ 3336465.290285092312843, 2293631.839400043711066 ], [ 3336471.997631174512208, 2293623.574688929598778 ], [ 3336476.664101477712393, 2293617.18592398846522 ], [ 3336487.772519445978105, 2293602.071584759280086 ], [ 3336494.133992494083941, 2293592.8529854407534 ], [ 3336500.224588743411005, 2293584.69552989769727 ], [ 3336507.924220812972635, 2293574.737125558778644 ], [ 3336515.409078259952366, 2293567.351168288383633 ], [ 3336523.781593419611454, 2293558.796924048569053 ], [ 3336531.236704318784177, 2293553.951241080183536 ], [ 3336537.377837409731001, 2293548.827124905306846 ], [ 3336542.582780926022679, 2293546.907916174270213 ], [ 3336547.997011800762266, 2293543.938176073599607 ], [ 3336574.234443021006882, 2293526.699872597586364 ], [ 3336581.338106367737055, 2293522.422332102432847 ], [ 3336586.401000851299614, 2293520.020810887217522 ], [ 3336591.118214169982821, 2293516.665361360181123 ], [ 3336600.337465839460492, 2293512.526974442880601 ], [ 3336610.624108428601176, 2293508.710005616769195 ], [ 3336618.746415672358125, 2293506.790439912583679 ], [ 3336623.347727427259088, 2293507.004279306158423 ], [ 3336631.255335609428585, 2293507.657040514983237 ], [ 3336639.101201435085386, 2293508.320741519331932 ], [ 3336650.432716906536371, 2293510.913235102314502 ], [ 3336659.543895079754293, 2293513.891811122186482 ], [ 3336667.711347707547247, 2293516.527569494210184 ], [ 3336674.219041131902486, 2293517.930979339405894 ], [ 3336680.782916827592999, 2293520.845574776642025 ], [ 3336685.847867629025131, 2293523.51379038952291 ], [ 3336690.395149955060333, 2293527.286158660426736 ], [ 3336695.32571111805737, 2293533.019955394323915 ], [ 3336699.824441750533879, 2293538.828840490896255 ], [ 3336704.725151995196939, 2293547.102920966222882 ], [ 3336709.459617910441011, 2293555.912826064508408 ], [ 3336716.371249165385962, 2293564.851177346426994 ], [ 3336723.918424812611192, 2293574.185935752466321 ], [ 3336732.865466190036386, 2293582.770364358555526 ], [ 3336739.66489851474762, 2293588.686115070711821 ], [ 3336743.576723512727767, 2293592.06196210347116 ], [ 3336748.209960609674454, 2293594.80534935137257 ], [ 3336750.239678806625307, 2293595.973370154388249 ], [ 3336759.375250320881605, 2293597.933777309954166 ], [ 3336765.16709188465029, 2293598.447528434917331 ], [ 3336767.467706902883947, 2293598.554509707260877 ], [ 3336780.086872401181608, 2293597.373989215120673 ], [ 3336793.459177881013602, 2293598.090587590355426 ], [ 3336808.453844176605344, 2293599.03200644440949 ], [ 3336821.850410454906523, 2293598.730254387948662 ], [ 3336835.759102295152843, 2293598.846575906034559 ], [ 3336856.680133649148047, 2293597.236366112716496 ], [ 3336876.670351779088378, 2293597.309068836271763 ], [ 3336893.571405462920666, 2293599.440078610088676 ], [ 3336911.971271272748709, 2293601.817395505029708 ], [ 3336927.620006471406668, 2293603.659149191342294 ], [ 3336939.968101854901761, 2293603.539832916110754 ], [ 3336940.292414999566972, 2293603.546705827582628 ], [ 3336940.292414999566972, 2287460.965784999541938 ], [ 3330301.692285000346601, 2287460.965784999541938 ], [ 3330301.692285000346601, 2291373.794136045966297 ], [ 3330305.522995144594461, 2291390.958131012506783 ] ] ], [ [ [ 3336940.068594053387642, 2293908.746172427199781 ], [ 3336930.720356329344213, 2293914.428027053363621 ], [ 3336919.892012980300933, 2293920.367351245135069 ], [ 3336906.282689804211259, 2293928.311303598340601 ], [ 3336898.186678918544203, 2293934.28244538186118 ], [ 3336888.567475686781108, 2293941.025467710569501 ], [ 3336877.33933371771127, 2293949.569321198388934 ], [ 3336864.421595064923167, 2293959.421114863827825 ], [ 3336852.120618993416429, 2293969.165668690111488 ], [ 3336839.572927151806653, 2293978.953026824630797 ], [ 3336833.407584142871201, 2293985.095492358319461 ], [ 3336824.541744767688215, 2293993.735617432743311 ], [ 3336813.980929016135633, 2294005.205579359550029 ], [ 3336807.198718430008739, 2294011.45521510951221 ], [ 3336799.158939378336072, 2294018.937668808270246 ], [ 3336791.735821816138923, 2294026.312895949929953 ], [ 3336785.490092230029404, 2294031.962230464443564 ], [ 3336774.151673290878534, 2294042.553384752944112 ], [ 3336765.760552624706179, 2294050.603963791392744 ], [ 3336760.292347432114184, 2294057.13214439433068 ], [ 3336751.901132090948522, 2294065.182744933757931 ], [ 3336743.324974289163947, 2294073.265406284481287 ], [ 3336734.003165763337165, 2294082.998894650023431 ], [ 3336725.877366125117987, 2294091.510372720658779 ], [ 3336717.732962070498616, 2294099.518067811150104 ], [ 3336709.526769722811878, 2294107.536408623680472 ], [ 3336701.191784302704036, 2294117.09831300098449 ], [ 3336694.465929134748876, 2294124.859346172306687 ], [ 3336685.002063879743218, 2294134.110434455797076 ], [ 3336679.324601600877941, 2294141.689167812932283 ], [ 3336671.630532466806471, 2294150.125490964855999 ], [ 3336659.836278382223099, 2294161.810110229067504 ], [ 3336649.380073130130768, 2294172.754938047844917 ], [ 3336643.190590585581958, 2294179.915594218298793 ], [ 3336639.596847087144852, 2294185.103811046574265 ], [ 3336635.552667969372123, 2294189.863333608489484 ], [ 3336631.546001603361219, 2294195.630377571098506 ], [ 3336627.705541719216853, 2294200.861397305969149 ], [ 3336623.96642678277567, 2294212.159159780945629 ], [ 3336623.962996412068605, 2294218.750940747559071 ], [ 3336625.37812318932265, 2294225.096148171462119 ], [ 3336627.589463678654283, 2294232.823865598998964 ], [ 3336630.58388158865273, 2294239.908390561584383 ], [ 3336634.881186812650412, 2294250.315509052015841 ], [ 3336639.454896453768015, 2294258.139351575169712 ], [ 3336644.162983004935086, 2294262.897795997094363 ], [ 3336647.643110535107553, 2294266.348706153221428 ], [ 3336652.498793739825487, 2294270.067339438945055 ], [ 3336659.569263013545424, 2294274.922007979359478 ], [ 3336671.112208493053913, 2294281.533859169110656 ], [ 3336679.448119746521115, 2294288.703387138433754 ], [ 3336684.260852054692805, 2294292.936614109203219 ], [ 3336686.513021154329181, 2294295.079990494064987 ], [ 3336689.968889697920531, 2294299.549164521507919 ], [ 3336694.301471007056534, 2294305.89397436240688 ], [ 3336697.676940886769444, 2294309.870005779899657 ], [ 3336701.028182892128825, 2294314.864497342146933 ], [ 3336703.867395048961043, 2294319.440903006121516 ], [ 3336705.277062116656452, 2294327.308026995044202 ], [ 3336707.099653154145926, 2294334.596325315069407 ], [ 3336708.324196820147336, 2294342.495641424320638 ], [ 3336709.315310448408127, 2294352.463739831000566 ], [ 3336709.121333633549511, 2294360.609827042557299 ], [ 3336709.35917004570365, 2294368.680724777746946 ], [ 3336709.16529455780983, 2294376.826795596629381 ], [ 3336708.791845418512821, 2294383.483026233501732 ], [ 3336708.603423989377916, 2294390.107082512695342 ], [ 3336708.600030237808824, 2294396.698964390903711 ], [ 3336708.435951663181186, 2294402.30464209523052 ], [ 3336708.512943725567311, 2294409.389568774495274 ], [ 3336708.244141479488462, 2294415.520581715740263 ], [ 3336707.538061581086367, 2294423.248701942618936 ], [ 3336706.411352098919451, 2294428.007831363938749 ], [ 3336705.716372167691588, 2294432.691886634100229 ], [ 3336704.201000018045306, 2294437.011579497717321 ], [ 3336702.409021020401269, 2294443.914486008696258 ], [ 3336695.240401853341609, 2294454.794691035524011 ], [ 3336689.731446005403996, 2294466.907161299604923 ], [ 3336685.527575997635722, 2294487.412180659826845 ], [ 3336684.288518004119396, 2294489.148713480681181 ], [ 3336680.614425319246948, 2294493.843899307772517 ], [ 3336676.058264933060855, 2294498.185448681470007 ], [ 3336669.795970165170729, 2294508.400939343031496 ], [ 3336663.786025144159794, 2294517.051480979658663 ], [ 3336662.874072155915201, 2294519.238258387893438 ], [ 3336659.510615020059049, 2294528.949562230147421 ], [ 3336657.115060853306204, 2294537.985531509853899 ], [ 3336656.274758446961641, 2294548.779145915061235 ], [ 3336657.815432995557785, 2294560.172668116632849 ], [ 3336659.997020984999835, 2294570.44069290580228 ], [ 3336663.683077176567167, 2294579.433052398264408 ], [ 3336667.498128361999989, 2294586.881910206284374 ], [ 3336672.238099212292582, 2294594.169828318059444 ], [ 3336677.608107389882207, 2294603.376382183749229 ], [ 3336684.291996491141617, 2294612.861381836701185 ], [ 3336688.62459453009069, 2294619.206093680579215 ], [ 3336690.790844433940947, 2294622.378458217717707 ], [ 3336694.691731155849993, 2294628.798344017472118 ], [ 3336696.321711836848408, 2294632.570986599195749 ], [ 3336698.643208452966064, 2294638.251574235968292 ], [ 3336700.088179395999759, 2294642.056490579154342 ], [ 3336700.05836720764637, 2294644.596691508311778 ], [ 3336699.140976064372808, 2294648.305487845558673 ], [ 3336697.657504214439541, 2294655.154763558413833 ], [ 3336695.828135150484741, 2294661.050142182502896 ], [ 3336692.735577911604196, 2294669.700403723400086 ], [ 3336688.650657913647592, 2294680.044203781057149 ], [ 3336686.44025613553822, 2294689.047988021746278 ], [ 3336684.10107932286337, 2294699.595340092666447 ], [ 3336681.375215384177864, 2294714.773051772732288 ], [ 3336678.950002682395279, 2294726.349315572530031 ], [ 3336676.173551158979535, 2294738.493684369139373 ], [ 3336671.844155934173614, 2294753.950353160966188 ], [ 3336668.721910526044667, 2294765.140810395590961 ], [ 3336666.210883591324091, 2294777.74605391966179 ], [ 3336664.432229301892221, 2294786.674771122634411 ], [ 3336663.124829444102943, 2294801.605833834502846 ], [ 3336662.570911719929427, 2294818.433968993835151 ], [ 3336662.205245655495673, 2294828.637948398478329 ], [ 3336662.79995159432292, 2294834.618826662190259 ], [ 3336662.998138086870313, 2294836.612359895370901 ], [ 3336664.464039135724306, 2294845.9909130432643 ], [ 3336665.251513036899269, 2294855.487443505320698 ], [ 3336669.566389919258654, 2294878.059934112709016 ], [ 3336672.976109219714999, 2294889.635487587191164 ], [ 3336674.225002260878682, 2294896.516656638123095 ], [ 3336674.44743924960494, 2294897.491923787631094 ], [ 3336676.049979352392256, 2294908.874819324351847 ], [ 3336675.684232436586171, 2294919.078820199239999 ], [ 3336675.903461510781199, 2294926.646072116680443 ], [ 3336674.117089053150266, 2294932.026969243772328 ], [ 3336670.140203363727778, 2294935.253768824972212 ], [ 3336669.58180478354916, 2294941.942199922166765 ], [ 3336668.789985684212297, 2294950.699323648586869 ], [ 3336668.016882371157408, 2294959.960218783468008 ], [ 3336666.232729612383991, 2294970.410985405556858 ], [ 3336664.904552645049989, 2294979.768409136217088 ], [ 3336664.507038469891995, 2294987.442916652653366 ], [ 3336664.372624302282929, 2294990.508443399332464 ], [ 3336664.32644883915782, 2294997.614828914869577 ], [ 3336667.059969877358526, 2295014.378135179169476 ], [ 3336669.389241458382457, 2295023.606460317503661 ], [ 3336673.830978494137526, 2295039.565787996631116 ], [ 3336676.052296531386673, 2295055.911144803278148 ], [ 3336679.831011126749218, 2295079.084033239167184 ], [ 3336687.022653807885945, 2295078.847361393738538 ], [ 3336696.984120802488178, 2295079.649894628208131 ], [ 3336707.747366232331842, 2295080.313001012429595 ], [ 3336719.979759043548256, 2295083.762779821641743 ], [ 3336727.345452348701656, 2295086.537897353991866 ], [ 3336733.657137453556061, 2295091.01738260500133 ], [ 3336738.464388671331108, 2295096.772639502771199 ], [ 3336742.612026866991073, 2295103.149627889040858 ], [ 3336746.834511562716216, 2295111.54160170443356 ], [ 3336751.434806114528328, 2295123.417054579593241 ], [ 3336756.836782240308821, 2295135.15309686306864 ], [ 3336761.670610369183123, 2295144.95993862953037 ], [ 3336766.429379179608077, 2295152.751730772666633 ], [ 3336772.687152619007975, 2295160.789772779680789 ], [ 3336778.432809303514659, 2295168.409845797345042 ], [ 3336785.189414675347507, 2295174.840065306983888 ], [ 3336790.680611239746213, 2295178.955209203064442 ], [ 3336794.482449097558856, 2295184.378282890189439 ], [ 3336802.608126676641405, 2295204.260017569642514 ], [ 3336805.843837521970272, 2295212.823695202358067 ], [ 3336809.344950736034662, 2295221.848144556861371 ], [ 3336811.91330440249294, 2295227.485821705311537 ], [ 3336814.586276348680258, 2295232.598178795073181 ], [ 3336819.615998367778957, 2295239.328804180026054 ], [ 3336822.91123235039413, 2295242.811772138811648 ], [ 3336825.798899496439844, 2295245.35166510893032 ], [ 3336829.118210441432893, 2295247.816597393713892 ], [ 3336834.263700449373573, 2295250.97780917910859 ], [ 3336841.358456118032336, 2295254.814099019393325 ], [ 3336848.354004732333124, 2295257.653589657507837 ], [ 3336856.089754461310804, 2295260.364361340645701 ], [ 3336866.804515490308404, 2295263.064014372881502 ], [ 3336876.741741116158664, 2295264.884829049464315 ], [ 3336886.493957529775798, 2295266.737919158302248 ], [ 3336892.897095568478107, 2295268.666380922310054 ], [ 3336902.008302589412779, 2295271.644892842974514 ], [ 3336911.162484423723072, 2295274.109008362982422 ], [ 3336918.694493248127401, 2295276.348190409597009 ], [ 3336930.396059461869299, 2295278.876249883789569 ], [ 3336940.292414999566972, 2295282.084766486659646 ], [ 3336940.292414999566972, 2293908.570692324545234 ], [ 3336940.068594053387642, 2293908.746172427199781 ] ] ] ] } }
]
}
