{
"type": "FeatureCollection",
"name": "Algimia_de_Almonacid",
"crs": { "type": "name", "properties": { "name": "urn:ogc:def:crs:EPSG::3035" } },
"features": [
{ "type": "Feature", "properties": { "SITE_NAME": "Sierra Espadà", "ODESIGNATE": "Parque Natural", "NUT2": 52, "SITE_CODE_": "ES522007", "DESIG_ABBR": "ES10", "SITE_CDDA": "349451_CDDA", "Sup_ha": 31192.030082900001 }, "geometry": { "type": "Polygon", "coordinates": [ [ [ 3425960.802638057619333, 1926943.037062113638967 ], [ 3425701.264362963847816, 1926960.292710492620245 ], [ 3425223.122468210756779, 1927016.205109733622521 ], [ 3425133.281133947428316, 1927020.161508447956294 ], [ 3425050.969459787476808, 1927000.654231879394501 ], [ 3424963.938674367964268, 1926990.011327177751809 ], [ 3424814.40709558269009, 1926956.54124838183634 ], [ 3424758.775697388220578, 1926951.736925429431722 ], [ 3424645.974752185866237, 1926919.175203205784783 ], [ 3424606.498073229566216, 1926913.681792138377205 ], [ 3424412.062309315893799, 1926970.492281660903245 ], [ 3424238.952339543960989, 1927007.588915639556944 ], [ 3424098.981106740422547, 1927029.038892884738743 ], [ 3423552.93921577418223, 1927073.163577189436182 ], [ 3423273.012424999848008, 1927113.173030167352408 ], [ 3423273.012424999848008, 1927535.739197626709938 ], [ 3423279.572347284760326, 1927553.174184837844223 ], [ 3423286.667698424775153, 1927569.722175375092775 ], [ 3423290.978189551271498, 1927576.457129460060969 ], [ 3423296.134847265668213, 1927583.450976941501722 ], [ 3423300.612627102062106, 1927588.986881514312699 ], [ 3423306.482192576862872, 1927597.657317836303264 ], [ 3423315.40564929600805, 1927611.428936333395541 ], [ 3423328.552640471607447, 1927630.554537018062547 ], [ 3423355.253686213400215, 1927667.518556070979685 ], [ 3423378.916208731941879, 1927699.026200261665508 ], [ 3423390.104512692429125, 1927717.628220700658858 ], [ 3423398.335849529132247, 1927733.036388621898368 ], [ 3423401.392787562217563, 1927743.766113056335598 ], [ 3423404.449643935076892, 1927754.495952939614654 ], [ 3423406.821994142606854, 1927761.419923413312063 ], [ 3423409.194459539372474, 1927768.343975819647312 ], [ 3423411.427267500665039, 1927778.344449168536812 ], [ 3423412.187703649047762, 1927786.566874847980216 ], [ 3423412.809108247049153, 1927796.726909168763086 ], [ 3423412.647349433973432, 1927810.390778401400894 ], [ 3423412.049701879266649, 1927817.901216306490824 ], [ 3423409.460289102979004, 1927824.840222546597943 ], [ 3423406.870991987176239, 1927831.779311477206647 ], [ 3423405.535982698202133, 1927837.670245670247823 ], [ 3423404.200974274426699, 1927843.561180349672213 ], [ 3423404.821283945813775, 1927854.406972659751773 ], [ 3423407.568144439719617, 1927868.721794185694307 ], [ 3423413.267292790580541, 1927882.091412770794705 ], [ 3423418.966444036923349, 1927895.461031978018582 ], [ 3423423.385586146265268, 1927904.763519749976695 ], [ 3423425.481054426170886, 1927910.234210922848433 ], [ 3423426.728771427646279, 1927917.366832427214831 ], [ 3423427.976405680645257, 1927924.499569165753201 ], [ 3423426.903258958365768, 1927932.430152403423563 ], [ 3423425.830029986798763, 1927940.360851336503401 ], [ 3423422.530000963248312, 1927948.645123407477513 ], [ 3423419.229973817244172, 1927956.929396883118898 ], [ 3423414.139878741465509, 1927966.668256493285298 ], [ 3423407.99373955372721, 1927976.783603058895096 ], [ 3423403.288714789785445, 1927982.122164869913831 ], [ 3423393.574423638172448, 1927993.209083743626252 ], [ 3423385.927587402053177, 1928001.45647524157539 ], [ 3423380.711206816136837, 1928007.361677358858287 ], [ 3423375.621575139928609, 1928012.725574648240581 ], [ 3423361.765041541773826, 1928029.431250245543197 ], [ 3423347.908517218194902, 1928046.136937341187149 ], [ 3423341.729855584912002, 1928053.629636297468096 ], [ 3423337.058063443284482, 1928061.734291873173788 ], [ 3423333.802500493824482, 1928070.851323625305668 ], [ 3423329.916164758149534, 1928084.002542562317103 ], [ 3423324.947248345240951, 1928109.834891014266759 ], [ 3423322.290889447089285, 1928127.422450524987653 ], [ 3423320.871770380064845, 1928142.389600244583562 ], [ 3423320.483147135935724, 1928147.953450000612065 ], [ 3423319.83119257260114, 1928156.567546093137935 ], [ 3423319.931558820884675, 1928164.245292173465714 ], [ 3423320.059371444862336, 1928173.152019538683817 ], [ 3423322.68674375815317, 1928190.032108331797644 ], [ 3423335.47667956771329, 1928237.714872932992876 ], [ 3423348.195932895410806, 1928279.513574991608039 ], [ 3423356.762460150755942, 1928301.676593536511064 ], [ 3423361.620422134175897, 1928311.754091753391549 ], [ 3423366.915287228301167, 1928319.9429288986139 ], [ 3423373.609237789176404, 1928330.075507915113121 ], [ 3423383.292151405941695, 1928342.974518595961854 ], [ 3423393.768268747720867, 1928353.925228758016601 ], [ 3423409.260377584025264, 1928366.57605584547855 ], [ 3423471.860775724053383, 1928418.028163930634037 ], [ 3423499.365074401721358, 1928440.808519809739664 ], [ 3423509.286283799447119, 1928450.820344173116609 ], [ 3423516.003357609268278, 1928459.12416345323436 ], [ 3423520.5858807079494, 1928468.235088604968041 ], [ 3423523.031452640891075, 1928475.234520989703014 ], [ 3423524.546091153286397, 1928483.512812244938686 ], [ 3423525.097809127997607, 1928495.769571960903704 ], [ 3423524.2415686910972, 1928506.241719133220613 ], [ 3423522.379443385172635, 1928516.87646801606752 ], [ 3423518.291795399971306, 1928534.177439850755036 ], [ 3423514.405591630842537, 1928552.150296886218712 ], [ 3423514.199585284106433, 1928559.862678266130388 ], [ 3423515.299226062837988, 1928570.392218734137714 ], [ 3423516.827186188660562, 1928576.742869652109221 ], [ 3423521.026592202018946, 1928586.395305006066337 ], [ 3423529.52861024113372, 1928599.433195597724989 ], [ 3423542.443370580673218, 1928618.873649027431384 ], [ 3423554.290740428026766, 1928634.921800504205748 ], [ 3423562.184170932974666, 1928645.204798734281212 ], [ 3423582.422103664372116, 1928675.196654004277661 ], [ 3423582.074606714770198, 1928698.935275927418843 ], [ 3423580.516653356142342, 1928727.51570649119094 ], [ 3423579.924664213322103, 1928746.891341735143214 ], [ 3423580.774045759346336, 1928756.266006944933906 ], [ 3423585.170316877774894, 1928765.116407853318378 ], [ 3423600.892887108027935, 1928783.067975219571963 ], [ 3423602.005868195090443, 1928783.688748746411875 ], [ 3423611.267902279738337, 1928785.405295414850116 ], [ 3423630.614177572075278, 1928787.721677598310634 ], [ 3423650.02726988773793, 1928794.97211153828539 ], [ 3423661.95103962207213, 1928799.815063498448581 ], [ 3423683.658245893195271, 1928813.373085714876652 ], [ 3423700.037296031136066, 1928835.471042054239661 ], [ 3423714.314183410722762, 1928855.575907776132226 ], [ 3423726.094641574192792, 1928872.349640413885936 ], [ 3423744.863640665076673, 1928899.893077971646562 ], [ 3423752.531794849783182, 1928911.121673356741667 ], [ 3423760.200034381821752, 1928922.350154326297343 ], [ 3423763.27457113051787, 1928928.031249773222953 ], [ 3423767.429001248907298, 1928934.838138954248279 ], [ 3423771.984462258871645, 1928941.381088286172599 ], [ 3423775.647831716574728, 1928946.110551442718133 ], [ 3423778.209596803411841, 1928949.182966985041276 ], [ 3423782.286101437639445, 1928953.815709450282156 ], [ 3423786.512361677829176, 1928957.893090934725478 ], [ 3423793.398641865234822, 1928964.751498843543231 ], [ 3423800.911385961808264, 1928972.271887396229431 ], [ 3423806.514123851433396, 1928977.787247494561598 ], [ 3423815.211754166986793, 1928987.060930036939681 ], [ 3423821.999279240146279, 1928994.329600625438616 ], [ 3423828.933617420960218, 1929001.235562239773571 ], [ 3423841.894357980228961, 1929013.458688103361055 ], [ 3423847.920775454491377, 1929018.775950610404834 ], [ 3423855.160763667430729, 1929025.817274009110406 ], [ 3423862.400767593178898, 1929032.858696265378967 ], [ 3423870.516835717018694, 1929040.499964191811159 ], [ 3423878.632805238943547, 1929048.141249368898571 ], [ 3423888.36599161894992, 1929057.030278782825917 ], [ 3423898.09907951997593, 1929065.919325748924166 ], [ 3423904.70798943284899, 1929071.159010850824416 ], [ 3423911.316914793569595, 1929076.398794777691364 ], [ 3423918.035966986790299, 1929081.660483940271661 ], [ 3423924.755103054456413, 1929086.922058632364497 ], [ 3423931.460132241714746, 1929091.212188689736649 ], [ 3423938.165161448530853, 1929095.502319303108379 ], [ 3423950.729931124486029, 1929103.941622221842408 ], [ 3423966.289068601094186, 1929112.681213745148852 ], [ 3423981.848106884397566, 1929121.42082500923425 ], [ 3424003.555562890600413, 1929133.453826288459823 ], [ 3424025.263033891096711, 1929145.486932093044743 ], [ 3424048.186534424778074, 1929158.411076418124139 ], [ 3424071.110133710317314, 1929171.335210952209309 ], [ 3424089.50371891213581, 1929180.42706180550158 ], [ 3424107.897402743343264, 1929189.518900727853179 ], [ 3424134.864364378619939, 1929199.004774541594088 ], [ 3424154.35300501761958, 1929204.814594282303005 ], [ 3424173.841545844916254, 1929210.624436955433339 ], [ 3424193.934228586964309, 1929214.47106022038497 ], [ 3424206.685753997880965, 1929217.091141783865169 ], [ 3424219.437393479980528, 1929219.711308063240722 ], [ 3424229.157330840826035, 1929222.410953748272732 ], [ 3424238.877252702135593, 1929225.110502676106989 ], [ 3424248.812255043070763, 1929228.995264753233641 ], [ 3424253.548958247061819, 1929231.21850747615099 ], [ 3424258.285775777883828, 1929233.441832259297371 ], [ 3424284.025931414216757, 1929244.625001757172868 ], [ 3424311.346323550213128, 1929257.198378995293751 ], [ 3424329.235518108122051, 1929264.961127289338037 ], [ 3424342.620298875961453, 1929271.355663313297555 ], [ 3424359.879005401860923, 1929281.056689633755013 ], [ 3424377.137628011405468, 1929290.757834788179025 ], [ 3424388.362598289269954, 1929296.106612075585872 ], [ 3424399.587469341233373, 1929301.455407733796164 ], [ 3424408.865989643149078, 1929305.334195688134059 ], [ 3424418.144410746172071, 1929309.213001533178613 ], [ 3424423.705196861643344, 1929312.322461191099137 ], [ 3424430.550410950556397, 1929316.04414653358981 ], [ 3424436.843008615076542, 1929319.545621196739376 ], [ 3424449.906526795122772, 1929326.912439388688654 ], [ 3424457.962058058008552, 1929331.389877178007737 ], [ 3424465.939411004073918, 1929334.810738830827177 ], [ 3424473.916748532094061, 1929338.231503067072481 ], [ 3424480.185036050155759, 1929341.837980196345598 ], [ 3424486.453323550987989, 1929345.444457829929888 ], [ 3424494.199018311686814, 1929348.878830023109913 ], [ 3424501.94472828740254, 1929352.313301448244601 ], [ 3424508.292484013363719, 1929352.611318567767739 ], [ 3424518.634209732525051, 1929353.248347669839859 ], [ 3424526.179069311823696, 1929351.61856882344 ], [ 3424532.5615773210302, 1929350.183666584081948 ], [ 3424552.789048223756254, 1929344.059725308557972 ], [ 3424559.257004482671618, 1929341.930583791341633 ], [ 3424565.725044769234955, 1929339.801328561967239 ], [ 3424573.102889029309154, 1929338.130226765060797 ], [ 3424580.480619160458446, 1929336.459044710034505 ], [ 3424587.85940665146336, 1929336.654862886760384 ], [ 3424595.238178817089647, 1929336.850583883468062 ], [ 3424602.485176895279437, 1929338.71354368980974 ], [ 3424609.73217486962676, 1929340.576504407217726 ], [ 3424614.626554131507874, 1929342.493175444426015 ], [ 3424618.620515546761453, 1929344.561107978457585 ], [ 3424627.508856098167598, 1929348.545712675433606 ], [ 3424634.797643253579736, 1929350.775085039436817 ], [ 3424642.086414992343634, 1929353.004359925864264 ], [ 3424650.843795390799642, 1929355.527356552658603 ], [ 3424656.138727187179029, 1929356.466652989620343 ], [ 3424667.147724892478436, 1929360.564515585778281 ], [ 3424674.694274035748094, 1929363.078677616082132 ], [ 3424682.288361830636859, 1929366.02883040998131 ], [ 3424689.882464827504009, 1929368.979082436067984 ], [ 3424696.614126341417432, 1929372.689555154880509 ], [ 3424703.34591749124229, 1929376.400208570528775 ], [ 3424709.1819260972552, 1929380.200488563394174 ], [ 3424715.017950032372028, 1929384.00086732278578 ], [ 3424722.242787616793066, 1929387.744923502672464 ], [ 3424729.467526098247617, 1929391.488996999338269 ], [ 3424741.397868312429637, 1929397.320572448661551 ], [ 3424753.32809598185122, 1929403.152068121358752 ], [ 3424773.689875094220042, 1929408.793092336272821 ], [ 3424792.225742917042226, 1929413.568726075347513 ], [ 3424809.44509160052985, 1929417.609542981721461 ], [ 3424822.750925238709897, 1929419.678737946320325 ], [ 3424832.882440706249326, 1929419.891266790451482 ], [ 3424846.202610312961042, 1929417.419365483336151 ], [ 3424857.645761164836586, 1929412.156655020546168 ], [ 3424871.825883740093559, 1929402.851939735934138 ], [ 3424888.728428319096565, 1929394.046259934082627 ], [ 3424911.003679209388793, 1929385.77327596815303 ], [ 3424927.858061225153506, 1929384.381094118114561 ], [ 3424946.843312182463706, 1929387.409262346103787 ], [ 3424958.547511498909444, 1929393.091379555873573 ], [ 3424973.799642020370811, 1929403.784549258649349 ], [ 3424978.056792976334691, 1929405.617839123122394 ], [ 3424995.666336493100971, 1929413.440675974357873 ], [ 3425004.495805442798883, 1929418.353699685074389 ], [ 3425013.325358080212027, 1929423.266609447309747 ], [ 3425021.948945007286966, 1929430.642044706037268 ], [ 3425030.57261601369828, 1929438.017365770181641 ], [ 3425036.883167980238795, 1929447.773186704143882 ], [ 3425043.193804944865406, 1929457.528893053531647 ], [ 3425045.682434127200395, 1929460.992059420095757 ], [ 3425053.803504369221628, 1929472.342307785293087 ], [ 3425065.773476826958358, 1929482.75099972076714 ], [ 3425070.240595562383533, 1929486.103604765376076 ], [ 3425075.594391155987978, 1929488.669530828483403 ], [ 3425083.204817159101367, 1929491.586311243707314 ], [ 3425094.522753537632525, 1929494.15494884760119 ], [ 3425120.015858353115618, 1929499.25487082824111 ], [ 3425140.975787134375423, 1929502.660022055497393 ], [ 3425149.960181843023747, 1929504.060519495047629 ], [ 3425159.145318059716374, 1929505.381445836741477 ], [ 3425168.33061444433406, 1929506.702750626951456 ], [ 3425176.94613799219951, 1929507.367803513072431 ], [ 3425185.561745215673, 1929508.032742969458923 ], [ 3425192.581319248769432, 1929508.30420402972959 ], [ 3425199.601007620338351, 1929508.575747905299067 ], [ 3425206.201522331219167, 1929509.452351919608191 ], [ 3425212.802036982960999, 1929510.328956787008792 ], [ 3425217.765523920767009, 1929512.008022475522012 ], [ 3425221.422331420704722, 1929512.801949698943645 ], [ 3425231.549045488238335, 1929521.527361487504095 ], [ 3425239.953182263299823, 1929524.326947415014729 ], [ 3425250.205169966444373, 1929528.159027242101729 ], [ 3425264.879189907107502, 1929528.308008737163618 ], [ 3425279.86386571964249, 1929527.970950252609327 ], [ 3425289.176403796300292, 1929527.661232951795682 ], [ 3425298.109394279308617, 1929526.839988329214975 ], [ 3425307.042468619532883, 1929526.018630684586242 ], [ 3425315.30298316013068, 1929525.219192345393822 ], [ 3425323.563612166792154, 1929524.419837413588539 ], [ 3425336.129354860633612, 1929524.836084721842781 ], [ 3425343.989606683142483, 1929528.060511843534186 ], [ 3425351.849957446567714, 1929531.284923289669678 ], [ 3425356.106555670965463, 1929533.558048415929079 ], [ 3425360.363237619400024, 1929535.831058820942417 ], [ 3425369.402690932620317, 1929542.974631979130208 ], [ 3425373.515698062255979, 1929548.209576744586229 ], [ 3425377.628789242822677, 1929553.444406697293743 ], [ 3425381.097731639631093, 1929558.554594869725406 ], [ 3425384.566788730211556, 1929563.664864902384579 ], [ 3425387.907895912881941, 1929569.064432212850079 ], [ 3425394.241497039329261, 1929579.947743440745398 ], [ 3425397.233792923390865, 1929585.431520563783124 ], [ 3425399.470159917604178, 1929590.263202807866037 ], [ 3425401.706611019559205, 1929595.094770172610879 ], [ 3425404.519414531067014, 1929599.942550165345892 ], [ 3425407.332302115857601, 1929604.790215282235295 ], [ 3425410.686583432834595, 1929608.905861751176417 ], [ 3425417.850737726781517, 1929617.125168995233253 ], [ 3425425.120706843677908, 1929624.637438651872799 ], [ 3425428.784678463824093, 1929629.289849932538345 ], [ 3425435.908731593750417, 1929637.35077215009369 ], [ 3425439.855656208470464, 1929641.780549049377441 ], [ 3425443.802581019233912, 1929646.210326090455055 ], [ 3425452.452446528710425, 1929653.267530197743326 ], [ 3425458.081847975961864, 1929657.309595541562885 ], [ 3425471.308229419402778, 1929663.229523064801469 ], [ 3425496.51507651573047, 1929677.147126576630399 ], [ 3425527.455385008826852, 1929695.407067553373054 ], [ 3425552.916287829168141, 1929710.956804828951135 ], [ 3425572.222943402361125, 1929723.072310283780098 ], [ 3425587.272529512643814, 1929733.110148248262703 ], [ 3425593.449324578978121, 1929738.494565629167482 ], [ 3425599.753148455172777, 1929744.695041035069153 ], [ 3425604.329255272634327, 1929750.626942319562659 ], [ 3425607.556013254914433, 1929755.11033817124553 ], [ 3425610.2350112949498, 1929759.685457201208919 ], [ 3425612.894309369847178, 1929765.93868412845768 ], [ 3425614.963614210486412, 1929772.011664018966258 ], [ 3425617.097801832482219, 1929780.306774300988764 ], [ 3425618.052002999000251, 1929788.241390640847385 ], [ 3425619.664017179980874, 1929802.206555083859712 ], [ 3425622.015693575143814, 1929819.118087826063856 ], [ 3425623.921286648139358, 1929831.359235465759411 ], [ 3425625.807086173910648, 1929845.278509276453406 ], [ 3425627.882064605131745, 1929858.607768999878317 ], [ 3425629.725523086264729, 1929872.25499285873957 ], [ 3425629.542099996469915, 1929880.101172145456076 ], [ 3425627.780645570717752, 1929890.444998661521822 ], [ 3425624.545425225514919, 1929902.152288683224469 ], [ 3425620.195322736166418, 1929915.721285543870181 ], [ 3425614.730027772020549, 1929931.15194238582626 ], [ 3425606.865178694017231, 1929949.217872927198187 ], [ 3425601.148667059373111, 1929966.644516238477081 ], [ 3425597.766828982159495, 1929979.213758819038048 ], [ 3425597.315257423557341, 1929994.362246414879337 ], [ 3425599.345093105919659, 1930003.791374389315024 ], [ 3425601.51881694747135, 1930008.730354891391471 ], [ 3425603.122352660633624, 1930011.8110598011408 ], [ 3425607.698485869448632, 1930017.74296157550998 ], [ 3425619.820596142672002, 1930028.829752527177334 ], [ 3425660.627482974436134, 1930056.32149799563922 ], [ 3425705.796032200567424, 1930084.75689457799308 ], [ 3425734.545802275650203, 1930103.38399124564603 ], [ 3425761.58754659537226, 1930120.0644135044422 ], [ 3425776.151561779435724, 1930128.788012197008356 ], [ 3425783.042565186973661, 1930131.540650539565831 ], [ 3425790.628034214954823, 1930133.339416868984699 ], [ 3425799.224106394220144, 1930134.410568258725107 ], [ 3425831.558858031406999, 1930130.944174482487142 ], [ 3425874.152502940967679, 1930126.595418530516326 ], [ 3425896.459873313084245, 1930123.693403458455577 ], [ 3425915.10311990743503, 1930122.52213314617984 ], [ 3425927.721970762591809, 1930122.360655592754483 ], [ 3425937.455679795704782, 1930123.52027863683179 ], [ 3425966.089555104728788, 1930128.768953201826662 ], [ 3425979.21665230114013, 1930131.871801131870598 ], [ 3426002.162156133912504, 1930136.678391003515571 ], [ 3426030.676221595611423, 1930143.590802732622251 ], [ 3426037.85236530797556, 1930145.845055060228333 ], [ 3426047.088624596130103, 1930149.745872849132866 ], [ 3426057.432285192422569, 1930154.692612184910104 ], [ 3426077.19686276698485, 1930165.049596494296566 ], [ 3426086.688708601519465, 1930170.69480711617507 ], [ 3426098.147884854115546, 1930178.39664318994619 ], [ 3426104.796854349784553, 1930183.402205844642594 ], [ 3426116.500270795077085, 1930192.411221498856321 ], [ 3426125.050004784949124, 1930197.321503096958622 ], [ 3426129.993566041346639, 1930199.469418670516461 ], [ 3426136.948220763821155, 1930202.719166151015088 ], [ 3426145.565641860011965, 1930206.62856160197407 ], [ 3426154.787598015740514, 1930210.764617926208302 ], [ 3426164.009554033633322, 1930214.900675474200398 ], [ 3426167.19954607822001, 1930216.132080822717398 ], [ 3426168.92717850767076, 1930216.88197933207266 ], [ 3426170.654810932464898, 1930217.631877888226882 ], [ 3426172.345266377553344, 1930218.46874613291584 ], [ 3426174.03562276950106, 1930219.305631018942222 ], [ 3426175.68145405407995, 1930220.215579021954909 ], [ 3426177.327384386677295, 1930221.125510453945026 ], [ 3426178.92792502604425, 1930222.10360381193459 ], [ 3426182.095151674933732, 1930224.136111124418676 ], [ 3426183.661936734803021, 1930225.190508473198861 ], [ 3426185.158569788560271, 1930226.317218595882878 ], [ 3426186.655202846974134, 1930227.443928737193346 ], [ 3426188.110831251367927, 1930228.633019625674933 ], [ 3426189.566360614728183, 1930229.822127140825614 ], [ 3426190.961741963401437, 1930231.081870464608073 ], [ 3426192.357222370803356, 1930232.341597208054736 ], [ 3426193.695111565291882, 1930233.656392835546285 ], [ 3426195.033000773750246, 1930234.971188477240503 ], [ 3426196.348877707496285, 1930236.40573450922966 ], [ 3426197.664853710215539, 1930237.840263955062255 ], [ 3426198.748277001548558, 1930239.217899648705497 ], [ 3426200.827056963462383, 1930241.897103542461991 ], [ 3426202.809495522174984, 1930244.511719238013029 ], [ 3426205.725611829198897, 1930248.488703410374001 ], [ 3426207.634836458135396, 1930251.155960783362389 ], [ 3426208.571935576852411, 1930252.507663510506973 ], [ 3426209.509019407443702, 1930253.859267890453339 ], [ 3426210.427173309959471, 1930255.219192498363554 ], [ 3426211.345228186342865, 1930256.579133713850752 ], [ 3426212.248425698373467, 1930257.94156544865109 ], [ 3426214.934526986908168, 1930262.073167376918718 ], [ 3426216.679243175778538, 1930264.858831124613062 ], [ 3426217.680553848389536, 1930266.492444665171206 ], [ 3426218.68196360534057, 1930268.126041613752022 ], [ 3426227.635939069092274, 1930290.649533700663596 ], [ 3426236.589938261080533, 1930313.17312591499649 ], [ 3426238.069195117801428, 1930318.627165665850043 ], [ 3426241.239483313634992, 1930328.480633801082149 ], [ 3426243.999079848174006, 1930335.728506751358509 ], [ 3426246.005446633324027, 1930340.488756434293464 ], [ 3426249.256759354844689, 1930347.532996880123392 ], [ 3426255.401981167029589, 1930358.901183335576206 ], [ 3426259.5182193974033, 1930365.593649051385 ], [ 3426262.351265853270888, 1930370.603875547414646 ], [ 3426263.701307369396091, 1930372.801723322831094 ], [ 3426268.235885576810688, 1930380.006789225619286 ], [ 3426271.844373372383416, 1930384.675396447302774 ], [ 3426275.452846108935773, 1930389.343905434245244 ], [ 3426283.491813059896231, 1930403.315744193270802 ], [ 3426287.571957827080041, 1930411.63376175169833 ], [ 3426290.384113449137658, 1930417.75349877262488 ], [ 3426293.196254351176322, 1930423.873137568822131 ], [ 3426297.173316230997443, 1930433.520223672967404 ], [ 3426301.150379634927958, 1930443.167310090269893 ], [ 3426302.787854481022805, 1930445.789596028160304 ], [ 3426304.425413159653544, 1930448.411767038749531 ], [ 3426306.347427061758935, 1930450.471047050785273 ], [ 3426308.269555362407118, 1930452.530408840393648 ], [ 3426310.80339528247714, 1930454.381363149499521 ], [ 3426313.33723521605134, 1930456.232317533576861 ], [ 3426319.03362591471523, 1930458.679432982346043 ], [ 3426322.382142464164644, 1930459.884571217931807 ], [ 3426328.254292150959373, 1930462.608726325677708 ], [ 3426334.126457097474486, 1930465.332980280043557 ], [ 3426345.161750482860953, 1930471.178182626608759 ], [ 3426361.50320184789598, 1930481.179337334120646 ], [ 3426372.321749014314264, 1930489.376436660764739 ], [ 3426393.69868667377159, 1930503.376067520584911 ], [ 3426403.334191353060305, 1930510.335154607659206 ], [ 3426409.375096066389233, 1930515.69719226192683 ], [ 3426415.06209885282442, 1930521.118553627515212 ], [ 3426422.757409254554659, 1930529.330447167158127 ], [ 3426427.545438941568136, 1930534.421303567709401 ], [ 3426432.544669648166746, 1930539.463233800372109 ], [ 3426439.242221998050809, 1930542.856819536071271 ], [ 3426445.939774296246469, 1930546.250405888073146 ], [ 3426451.258986900560558, 1930549.089156767819077 ], [ 3426458.917796781286597, 1930557.066573036368936 ], [ 3426462.707168125081807, 1930561.96413608500734 ], [ 3426465.680215594358742, 1930567.840328813763335 ], [ 3426466.270873592235148, 1930569.909028423484415 ], [ 3426467.757491066120565, 1930572.344364948105067 ], [ 3426470.395857015624642, 1930575.091350906295702 ], [ 3426473.03430677158758, 1930577.83822197560221 ], [ 3426477.516567648854107, 1930581.033444390166551 ], [ 3426480.024935505818576, 1930582.590851784683764 ], [ 3426482.533204316161573, 1930584.148275860818103 ], [ 3426485.258197004441172, 1930586.497236798517406 ], [ 3426487.296660801861435, 1930588.890632066177204 ], [ 3426489.335223708301783, 1930591.284010773524642 ], [ 3426490.890347763430327, 1930594.121544534340501 ], [ 3426492.445456625428051, 1930596.958979975199327 ], [ 3426493.20996510470286, 1930598.466576769249514 ], [ 3426493.385013849940151, 1930600.056531813228503 ], [ 3426494.324472196400166, 1930603.154100288171321 ], [ 3426494.620338855311275, 1930606.293144474038854 ], [ 3426494.916205717716366, 1930609.432188721606508 ], [ 3426494.729815090075135, 1930612.552259727846831 ], [ 3426494.485033732838929, 1930615.211719912011176 ], [ 3426493.832712287548929, 1930625.166337695205584 ], [ 3426492.935628440231085, 1930637.780515605118126 ], [ 3426492.950446916278452, 1930639.837553241755813 ], [ 3426493.300093638710678, 1930641.361506070010364 ], [ 3426493.982418495696038, 1930642.80274708615616 ], [ 3426494.465519767254591, 1930643.428424695972353 ], [ 3426495.555863590445369, 1930644.557341819861904 ], [ 3426496.865607482381165, 1930645.427553595975041 ], [ 3426498.331872357986867, 1930645.999441823223606 ], [ 3426499.095666516106576, 1930646.204554515890777 ], [ 3426500.69448054721579, 1930646.290183308999985 ], [ 3426502.269556048791856, 1930646.026159581262618 ], [ 3426503.763915432617068, 1930645.440805829362944 ], [ 3426504.492023600265384, 1930644.960986397229135 ], [ 3426506.101383054628968, 1930643.647376602282748 ], [ 3426506.982634357176721, 1930642.813586252741516 ], [ 3426508.356307138688862, 1930641.776146619347855 ], [ 3426509.730079011525959, 1930640.738690457539633 ], [ 3426512.666497921571136, 1930638.974143709056079 ], [ 3426514.226950980257243, 1930638.258421408012509 ], [ 3426515.78741937642917, 1930637.542797550326213 ], [ 3426517.404016560409218, 1930636.994480073219165 ], [ 3426520.69479051604867, 1930636.06924810516648 ], [ 3426522.368951972108334, 1930635.692235267255455 ], [ 3426525.767695058137178, 1930635.324767879676074 ], [ 3426529.160332201980054, 1930635.311754059744999 ], [ 3426530.854637065436691, 1930635.486538400640711 ], [ 3426534.210959273390472, 1930636.023684148211032 ], [ 3426535.872961301822215, 1930636.385947179514915 ], [ 3426537.621094485279173, 1930636.97114166454412 ], [ 3426539.369227662682533, 1930637.556336201028898 ], [ 3426541.998524629045278, 1930638.879923076368868 ], [ 3426543.761175971943885, 1930640.014728830661625 ], [ 3426548.153108959551901, 1930642.473023358266801 ], [ 3426550.415280133485794, 1930644.303721673088148 ], [ 3426552.677352277096361, 1930646.134436651598662 ], [ 3426554.724659209139645, 1930647.406215009279549 ], [ 3426556.772065190132707, 1930648.677976813632995 ], [ 3426558.96132425358519, 1930649.683848117245361 ], [ 3426561.150583308655769, 1930650.689719482790679 ], [ 3426563.505992086138576, 1930651.424517522100359 ], [ 3426566.997394803445786, 1930652.403062612749636 ], [ 3426570.433632059022784, 1930652.997863796772435 ], [ 3426574.77651438023895, 1930653.279112852877006 ], [ 3426579.1193966884166, 1930653.56036230828613 ], [ 3426582.460376497358084, 1930653.998958433279768 ], [ 3426584.082959631457925, 1930654.297992151463404 ], [ 3426585.705443710554391, 1930654.597042518667877 ], [ 3426588.922777860425413, 1930655.358425254700705 ], [ 3426590.552684904076159, 1930655.837689634412527 ], [ 3426592.18259194213897, 1930656.316954068373889 ], [ 3426595.190576104447246, 1930657.46231732214801 ], [ 3426598.198544938582927, 1930658.607582352589816 ], [ 3426599.812412285245955, 1930659.371613190509379 ], [ 3426601.426264315843582, 1930660.135545704746619 ], [ 3426606.856696362607181, 1930663.453714615199715 ], [ 3426612.287029360421002, 1930666.771900493185967 ], [ 3426617.776120842434466, 1930669.585516792722046 ], [ 3426623.45316271064803, 1930671.843741473043337 ], [ 3426626.388522805180401, 1930672.709311642916873 ], [ 3426629.323867570608854, 1930673.574783602263778 ], [ 3426636.491177706979215, 1930676.563664722954854 ], [ 3426643.055134966038167, 1930677.508076890604571 ], [ 3426651.030991405248642, 1930679.766088700853288 ], [ 3426660.373601882718503, 1930682.817243106663227 ], [ 3426663.427579721435905, 1930684.056326613062993 ], [ 3426666.46587179787457, 1930685.227293106727302 ], [ 3426669.504080119077116, 1930686.398374700685963 ], [ 3426673.243960711639374, 1930687.244949946179986 ], [ 3426676.983757539652288, 1930688.091640403261408 ], [ 3426680.4046964738518, 1930688.880663522984833 ], [ 3426683.825635384768248, 1930689.66968684992753 ], [ 3426687.851083863526583, 1930690.261505130445585 ], [ 3426691.876532316673547, 1930690.853323715273291 ], [ 3426696.291451005265117, 1930691.17296846001409 ], [ 3426700.706468726042658, 1930691.492597000673413 ], [ 3426703.679179619066417, 1930691.524146855343133 ], [ 3426706.651791461743414, 1930691.555713508976623 ], [ 3426709.522915158886462, 1930691.392355524701998 ], [ 3426712.394038863945752, 1930691.228997734608129 ], [ 3426717.338682899717242, 1930691.066254810895771 ], [ 3426719.864739346783608, 1930691.460302623454481 ], [ 3426722.390795785468072, 1930691.854350562440231 ], [ 3426733.470901415683329, 1930692.842285251943395 ], [ 3426741.823530449066311, 1930698.739481422118843 ], [ 3426748.096648870967329, 1930704.403028314234689 ], [ 3426751.732739390805364, 1930710.649281980702654 ], [ 3426765.789147699717432, 1930738.7228625533171 ], [ 3426774.535638375673443, 1930756.019803093746305 ], [ 3426779.989088456146419, 1930764.607508197193965 ], [ 3426782.859954757615924, 1930767.493961177533492 ], [ 3426785.702823635656387, 1930769.423016594490036 ], [ 3426792.214602224994451, 1930770.072110631968826 ], [ 3426795.619926322251558, 1930770.472279406851158 ], [ 3426797.851657902356237, 1930770.857230288442224 ], [ 3426801.100253507494926, 1930771.720864930655807 ], [ 3426802.162931004539132, 1930772.11779250507243 ], [ 3426803.225707547739148, 1930772.514703491702676 ], [ 3426805.241831811610609, 1930773.449084695195779 ], [ 3426807.219184867572039, 1930774.530044688377529 ], [ 3426810.829802874010056, 1930777.190367826260626 ], [ 3426814.093663757666945, 1930780.230756180826575 ], [ 3426814.831867694389075, 1930781.12673509423621 ], [ 3426818.157682652585208, 1930783.467642710078508 ], [ 3426838.319954537320882, 1930798.42871308629401 ], [ 3426861.808027163613588, 1930815.730598859023303 ], [ 3426870.615953751839697, 1930824.684313293080777 ], [ 3426872.656723919324577, 1930827.122542853467166 ], [ 3426874.49521373398602, 1930829.720528463833034 ], [ 3426876.333688320592046, 1930832.31841574376449 ], [ 3426878.578007142990828, 1930836.352721288334578 ], [ 3426880.822326198685914, 1930840.387026884127408 ], [ 3426883.509046542923898, 1930846.355022636707872 ], [ 3426886.195782763883471, 1930852.323116862680763 ], [ 3426887.621059994213283, 1930857.362943239044398 ], [ 3426889.046337685082108, 1930862.402769713429734 ], [ 3426889.708364110440016, 1930867.6052495543845 ], [ 3426890.370375771075487, 1930872.807631206931546 ], [ 3426890.259233285207301, 1930877.998721823794767 ], [ 3426890.148076087702066, 1930883.189714321633801 ], [ 3426889.413109091110528, 1930888.660874708089978 ], [ 3426887.09522179607302, 1930898.123007289366797 ], [ 3426881.897650628350675, 1930924.214376362971961 ], [ 3426876.54310841858387, 1930950.452873033704236 ], [ 3426872.58885273616761, 1930970.363178816856816 ], [ 3426869.642849681898952, 1930983.178694288246334 ], [ 3426862.306284062098712, 1931017.133028531447053 ], [ 3426858.586344285868108, 1931034.099838527152315 ], [ 3426856.372295129112899, 1931049.578739951364696 ], [ 3426855.638737494125962, 1931054.404684251872823 ], [ 3426853.622935217339545, 1931061.433027705876157 ], [ 3426851.760374743491411, 1931065.953700496582314 ], [ 3426850.717727929353714, 1931068.16750885755755 ], [ 3426849.461173502262682, 1931070.280322505859658 ], [ 3426848.204702944960445, 1931072.393021315103397 ], [ 3426845.31495940964669, 1931076.349141950486228 ], [ 3426842.055749786552042, 1931080.023049034411088 ], [ 3426838.450536920689046, 1931083.374174852855504 ], [ 3426836.492965609300882, 1931084.867763158399612 ], [ 3426832.683759243693203, 1931087.524827836779878 ], [ 3426829.154988260008395, 1931089.862192895030603 ], [ 3426825.948383920360357, 1931092.311774808447808 ], [ 3426824.418999223969877, 1931093.587353038135916 ], [ 3426822.999543977435678, 1931094.980850787367672 ], [ 3426819.001920562237501, 1931099.399312525754794 ], [ 3426815.650534644257277, 1931104.34233481134288 ], [ 3426813.764125001616776, 1931107.827813158277422 ], [ 3426812.179252402856946, 1931111.453591211233288 ], [ 3426811.460450069047511, 1931113.299451679224148 ], [ 3426810.902592754922807, 1931115.199879206717014 ], [ 3426799.93432673253119, 1931177.011167412390932 ], [ 3426790.823895626701415, 1931228.620875491760671 ], [ 3426781.452491487376392, 1931276.303670373978093 ], [ 3426769.716619111131877, 1931323.877941465238109 ], [ 3426767.337753637693822, 1931332.203590603545308 ], [ 3426765.077396555338055, 1931340.559938038699329 ], [ 3426763.797399466857314, 1931344.740972781321034 ], [ 3426762.032066665589809, 1931349.003364451229572 ], [ 3426759.850932981818914, 1931353.081535174744204 ], [ 3426757.266680824104697, 1931356.917245965218171 ], [ 3426755.791832227725536, 1931358.70364915416576 ], [ 3426754.317067472729832, 1931360.489937523147091 ], [ 3426752.670655395835638, 1931362.123539904830977 ], [ 3426749.229501887224615, 1931365.218103485647589 ], [ 3426745.504170853644609, 1931367.956814650446177 ], [ 3426743.573352610226721, 1931369.234401252586395 ], [ 3426739.471013193018734, 1931371.406148748006672 ], [ 3426737.330002504400909, 1931372.279552100459114 ], [ 3426735.189007168635726, 1931373.153053951216862 ], [ 3426730.992548801936209, 1931374.401693945517763 ], [ 3426729.084706369787455, 1931374.907709475839511 ], [ 3426723.876531804446131, 1931376.603785813786089 ], [ 3426719.11786002991721, 1931378.944698571227491 ], [ 3426716.120139044709504, 1931380.810072857653722 ], [ 3426711.922957309056073, 1931384.036623866530135 ], [ 3426709.37786824349314, 1931386.491206181235611 ], [ 3426706.008281122893095, 1931390.568981195567176 ], [ 3426704.049702315125614, 1931393.491525660967454 ], [ 3426703.130088420584798, 1931394.997948932461441 ], [ 3426701.35801848443225, 1931398.827308286447078 ], [ 3426699.586048010736704, 1931402.656651372788474 ], [ 3426697.316441433504224, 1931407.274967226665467 ], [ 3426692.079603589139879, 1931416.196190818911418 ], [ 3426686.003863947000355, 1931424.562381617957726 ], [ 3426667.951356747653335, 1931442.241893440950662 ], [ 3426624.554159024730325, 1931486.045860346639529 ], [ 3426581.15702903829515, 1931529.849925370421261 ], [ 3426562.27217067591846, 1931547.992739618755877 ], [ 3426556.501722490414977, 1931554.470798254245892 ], [ 3426554.709607793949544, 1931556.733879918931052 ], [ 3426549.509645585902035, 1931563.676834913203493 ], [ 3426546.324447919148952, 1931568.479247027775273 ], [ 3426541.943428026046604, 1931575.954748171148822 ], [ 3426540.554280657321215, 1931578.488675379659981 ], [ 3426537.990080565214157, 1931583.69200793444179 ], [ 3426535.202260761056095, 1931591.344393585575745 ], [ 3426531.622530119959265, 1931599.311500270850956 ], [ 3426526.431427289266139, 1931609.130005600629374 ], [ 3426522.242845383472741, 1931620.038059687707573 ], [ 3426514.872906538657844, 1931634.568099639145657 ], [ 3426513.744028183631599, 1931639.126827079802752 ], [ 3426512.775162806734443, 1931641.817582839634269 ], [ 3426511.806297621224076, 1931644.508338727522641 ], [ 3426510.561558653134853, 1931647.088507017120719 ], [ 3426507.810988836921751, 1931652.105905018979684 ], [ 3426506.305043617263436, 1931654.543052999535576 ], [ 3426504.555091843008995, 1931656.81905750092119 ], [ 3426502.80514023732394, 1931659.095062195556238 ], [ 3426498.862072718329728, 1931663.270135177532211 ], [ 3426496.689168347977102, 1931665.143006500788033 ], [ 3426494.516264108940959, 1931667.015878040809184 ], [ 3426492.155316097661853, 1931668.658175046322867 ], [ 3426489.794383512809873, 1931670.300570642342791 ], [ 3426487.277391720563173, 1931671.696533750277013 ], [ 3426481.833068815991282, 1931673.48746027587913 ], [ 3426473.701216131448746, 1931675.692595054395497 ], [ 3426461.948510381393135, 1931679.13621488166973 ], [ 3426453.738004310522228, 1931682.196545832557604 ], [ 3426446.146943821571767, 1931685.153034071670845 ], [ 3426442.511096550617367, 1931687.656890692189336 ], [ 3426439.113708454184234, 1931690.331298882141709 ], [ 3426435.748249573633075, 1931693.210780776105821 ], [ 3426432.542497036512941, 1931697.116022693924606 ], [ 3426429.575188638176769, 1931701.191717859823257 ], [ 3426427.101733968127519, 1931707.078960489481688 ], [ 3426426.056749098002911, 1931711.253447531256825 ], [ 3426424.869009091518819, 1931715.87271859543398 ], [ 3426424.207265905570239, 1931722.508675445336848 ], [ 3426424.194657542742789, 1931726.510093172546476 ], [ 3426424.245907756499946, 1931730.921657566912472 ], [ 3426424.439799401443452, 1931734.88835650938563 ], [ 3426425.705619860906154, 1931738.923626705305651 ], [ 3426427.023979053832591, 1931742.234943690244108 ], [ 3426428.342254693154246, 1931745.546375673962757 ], [ 3426430.414320948068053, 1931748.933388435514644 ], [ 3426432.486387358978391, 1931752.320401238277555 ], [ 3426435.276054161135107, 1931756.856734121451154 ], [ 3426441.428818947635591, 1931769.345414940966293 ], [ 3426450.371239533647895, 1931786.370331266429275 ], [ 3426454.21199129614979, 1931793.548350382130593 ], [ 3426455.448490043636411, 1931796.136749211233109 ], [ 3426457.29811598174274, 1931801.321668655378744 ], [ 3426459.147856744006276, 1931806.506669961381704 ], [ 3426460.532654980197549, 1931812.208836113568395 ], [ 3426461.272045095451176, 1931817.675757135730237 ], [ 3426462.011420499533415, 1931823.14257997344248 ], [ 3426462.188868758734316, 1931828.916858374373987 ], [ 3426462.080134044401348, 1931831.740768604911864 ], [ 3426461.971483243629336, 1931834.564563952852041 ], [ 3426461.671956748701632, 1931837.375245514092967 ], [ 3426461.372316075954586, 1931840.185845404863358 ], [ 3426460.872880630195141, 1931843.049418013542891 ], [ 3426460.373445382341743, 1931845.912990719778463 ], [ 3426459.388059572316706, 1931850.479976870585233 ], [ 3426452.610054462216794, 1931871.99672785657458 ], [ 3426444.846681199036539, 1931898.080476319184527 ], [ 3426443.161144455894828, 1931904.519506834680215 ], [ 3426441.310019676573575, 1931909.047751516569406 ], [ 3426440.252362485975027, 1931911.263422792311758 ], [ 3426437.629690508823842, 1931915.438194244168699 ], [ 3426436.087040203623474, 1931917.34641368733719 ], [ 3426432.791333474684507, 1931920.987094689626247 ], [ 3426431.038391401059926, 1931922.719638020033017 ], [ 3426427.150831440463662, 1931925.752972937189043 ], [ 3426422.947120937518775, 1931928.315211690729484 ], [ 3426420.707376021426171, 1931929.340948250610381 ], [ 3426418.467532112728804, 1931930.366701583610848 ], [ 3426416.132939119823277, 1931931.137055736035109 ], [ 3426411.901749254204333, 1931932.291068247286603 ], [ 3426410.005167672410607, 1931932.674824891146272 ], [ 3426404.682752904947847, 1931934.584117721999064 ], [ 3426392.288268529810011, 1931939.742510635172948 ], [ 3426374.571471222210675, 1931946.81018979428336 ], [ 3426368.906537550035864, 1931949.364289118442684 ], [ 3426365.413000725675374, 1931951.342722927220166 ], [ 3426360.47346819145605, 1931954.763965556630865 ], [ 3426358.95469223940745, 1931956.073543861508369 ], [ 3426356.015997074078768, 1931958.806723484536633 ], [ 3426353.29889808408916, 1931961.760109899565578 ], [ 3426352.001931785605848, 1931963.289960246533155 ], [ 3426350.826610678806901, 1931964.909828109201044 ], [ 3426347.560229049995542, 1931969.938561076531187 ], [ 3426346.659254718571901, 1931971.724477209616452 ], [ 3426344.045208222232759, 1931977.652383301407099 ], [ 3426343.210576492827386, 1931980.67248033429496 ], [ 3426338.631726329214871, 1931988.846232411917299 ], [ 3426327.79127336665988, 1932011.22752333781682 ], [ 3426322.364386029541492, 1932022.414850200060755 ], [ 3426318.759251502342522, 1932027.817488201661035 ], [ 3426315.154034143779427, 1932033.220242103096098 ], [ 3426307.897121893242002, 1932039.124792089220136 ], [ 3426300.640096622984856, 1932045.029262687079608 ], [ 3426277.836541211232543, 1932058.918982205213979 ], [ 3426255.033078042790294, 1932072.808606604812667 ], [ 3426246.623382215853781, 1932078.851741960039362 ], [ 3426238.213588828220963, 1932084.894896873040125 ], [ 3426226.104872058145702, 1932093.807490912266076 ], [ 3426219.565654466394335, 1932101.126202060142532 ], [ 3426213.026438696309924, 1932108.444915624568239 ], [ 3426201.314923289231956, 1932122.196265100501478 ], [ 3426189.603414203505963, 1932135.947622616542503 ], [ 3426184.640715012792498, 1932141.210124417906627 ], [ 3426179.881571496836841, 1932148.149373111547902 ], [ 3426176.265568726230413, 1932155.703963334904984 ], [ 3426174.307747914455831, 1932162.127639627316967 ], [ 3426173.659873786848038, 1932165.345138535136357 ], [ 3426171.575446370989084, 1932183.906339104752988 ], [ 3426169.491027035284787, 1932202.467543473932892 ], [ 3426169.395524734631181, 1932204.658278208458796 ], [ 3426168.922896534670144, 1932209.324338311096653 ], [ 3426168.545785990543664, 1932211.799762057838961 ], [ 3426167.26782515598461, 1932216.646661047358066 ], [ 3426166.374582360498607, 1932219.001722193090245 ], [ 3426165.481240666471422, 1932221.356800052104518 ], [ 3426163.192934493534267, 1932225.847878615604714 ], [ 3426160.443910961970687, 1932230.061449723318219 ], [ 3426158.857884030789137, 1932232.018652003491297 ], [ 3426155.485974083654583, 1932235.753915967186913 ], [ 3426153.699992005247623, 1932237.531994268065318 ], [ 3426149.763104579877108, 1932240.705264630028978 ], [ 3426147.638366451952606, 1932242.07073751068674 ], [ 3426145.513529357034713, 1932243.436227170750499 ], [ 3426143.577298164367676, 1932244.416455908678472 ], [ 3426140.208933229092509, 1932246.28291151765734 ], [ 3426138.776814788579941, 1932247.169236695626751 ], [ 3426134.779013664461672, 1932250.281570420833305 ], [ 3426131.108941547572613, 1932253.804221705533564 ], [ 3426126.95083124563098, 1932259.143390889046714 ], [ 3426124.436294281855226, 1932263.556140472181141 ], [ 3426121.388728871010244, 1932271.399774009129032 ], [ 3426115.657567346468568, 1932288.079274100949988 ], [ 3426110.853529115207493, 1932300.72843427117914 ], [ 3426110.019659023731947, 1932305.197711104527116 ], [ 3426109.093579705804586, 1932308.749095401493832 ], [ 3426107.934339146595448, 1932312.233802207745612 ], [ 3426105.797086952254176, 1932317.341147605562583 ], [ 3426103.108630160335451, 1932322.171422158600762 ], [ 3426102.149234907701612, 1932323.745220685843378 ], [ 3426101.082075690850616, 1932325.246355460956693 ], [ 3426097.700428777374327, 1932329.626561539480463 ], [ 3426094.049576751887798, 1932333.439693026477471 ], [ 3426089.363296431489289, 1932338.524991507641971 ], [ 3426085.823470600880682, 1932342.51984610571526 ], [ 3426084.052395495586097, 1932345.308719544438645 ], [ 3426082.199161792173982, 1932351.483570948243141 ], [ 3426082.36857782676816, 1932356.294615851249546 ], [ 3426083.152408321388066, 1932359.402383361244574 ], [ 3426084.490635372232646, 1932362.316881632665172 ], [ 3426086.325851920992136, 1932364.931167235597968 ], [ 3426088.609013417735696, 1932367.162630560807884 ], [ 3426092.683919941540807, 1932369.739105293527246 ], [ 3426095.386814292985946, 1932370.638332630041987 ], [ 3426101.847181924153119, 1932370.968441800447181 ], [ 3426111.601132681593299, 1932371.017032739706337 ], [ 3426119.868710503913462, 1932371.478832442080602 ], [ 3426123.328932370059192, 1932371.821047538192943 ], [ 3426128.89610062353313, 1932372.609036808134988 ], [ 3426136.215480228420347, 1932374.248548418283463 ], [ 3426139.118514242582023, 1932375.856121208285913 ], [ 3426141.46461589448154, 1932378.096915567293763 ], [ 3426143.976730289403349, 1932381.597071996890008 ], [ 3426145.737288858741522, 1932386.186056318692863 ], [ 3426146.215370314195752, 1932389.386262270854786 ], [ 3426146.050296105910093, 1932391.851374530699104 ], [ 3426145.478659434244037, 1932395.751576903508976 ], [ 3426144.509549183771014, 1932398.437178276479244 ], [ 3426142.57436019834131, 1932401.905641285004094 ], [ 3426139.479069818276912, 1932407.177752380026504 ], [ 3426126.813245695084333, 1932422.017933297203854 ], [ 3426113.694924769923091, 1932440.14814734319225 ], [ 3426100.576499902177602, 1932458.278291246388108 ], [ 3426094.485740976408124, 1932464.916150563163683 ], [ 3426091.730387343093753, 1932468.956411979161203 ], [ 3426089.518431114964187, 1932473.990511385956779 ], [ 3426087.2524299537763, 1932479.395488938549533 ], [ 3426086.799058183562011, 1932480.95550350821577 ], [ 3426086.156534306704998, 1932484.130846388405189 ], [ 3426085.660746462643147, 1932490.547320072073489 ], [ 3426085.573769378010184, 1932493.837021540850401 ], [ 3426085.838728211354464, 1932500.180548537755385 ], [ 3426086.604990800376981, 1932506.662768186768517 ], [ 3426087.3712542434223, 1932513.144988090964034 ], [ 3426088.847890114411712, 1932519.725498707965016 ], [ 3426090.324526804964989, 1932526.306009533116594 ], [ 3426091.010925209149718, 1932530.287879677256569 ], [ 3426091.697323923930526, 1932534.26974990661256 ], [ 3426092.075918062590063, 1932540.287616676883772 ], [ 3426093.404504724312574, 1932552.141359466826543 ], [ 3426093.455844398122281, 1932556.552969017298892 ], [ 3426092.15762352431193, 1932561.822337672580034 ], [ 3426089.241775536444038, 1932570.309835207415745 ], [ 3426081.34524045092985, 1932587.630931107560173 ], [ 3426073.320850746706128, 1932604.131553720450029 ], [ 3426066.547980795614421, 1932616.423086725873873 ], [ 3426061.803332679439336, 1932622.691262760432437 ], [ 3426054.548997678793967, 1932629.169795651221648 ], [ 3426047.658573548309505, 1932633.903479278087616 ], [ 3426042.260323744732887, 1932637.334430518327281 ], [ 3426033.4305051388219, 1932640.49881730787456 ], [ 3426024.202511891722679, 1932642.466987295541912 ], [ 3426003.253823744133115, 1932648.084254198940471 ], [ 3425987.19706007419154, 1932652.460364256286994 ], [ 3425980.304307063575834, 1932654.458065956132486 ], [ 3425971.648956420831382, 1932657.382686792174354 ], [ 3425967.420480700209737, 1932659.726147457025945 ], [ 3425964.828097552992404, 1932661.745937980478629 ], [ 3425961.32713592518121, 1932665.268953847698867 ], [ 3425958.312213988509029, 1932669.175945625407621 ], [ 3425956.809716617688537, 1932671.729469012934715 ], [ 3425950.280647736974061, 1932689.981604866683483 ], [ 3425943.751587770879269, 1932708.233746975194663 ], [ 3425941.017481406219304, 1932716.619361311895773 ], [ 3425938.283376894425601, 1932725.004976893542334 ], [ 3425936.574683310929686, 1932733.673435399308801 ], [ 3425934.865991575177759, 1932742.341894911369309 ], [ 3425933.445913344155997, 1932754.272221258841455 ], [ 3425932.025853779166937, 1932766.202647554920986 ], [ 3425928.815103845670819, 1932805.561716866446659 ], [ 3425925.604389595799148, 1932844.920802049105987 ], [ 3425924.807061637751758, 1932854.228230225387961 ], [ 3425923.078334941063076, 1932863.420539452694356 ], [ 3425921.739916373509914, 1932867.943983779288828 ], [ 3425920.401597381569445, 1932872.467411826830357 ], [ 3425917.899444543756545, 1932878.851962061133236 ], [ 3425914.042441652156413, 1932885.432395381852984 ], [ 3425910.416163602378219, 1932890.542512599145994 ], [ 3425906.380349321290851, 1932898.136249762494117 ], [ 3425897.765631136950105, 1932908.932878152700141 ], [ 3425894.795308045577258, 1932913.977825944311917 ], [ 3425893.080386949703097, 1932917.484700920758769 ], [ 3425889.934676912613213, 1932926.687225862173364 ], [ 3425888.632777505554259, 1932932.360154713038355 ], [ 3425888.106931884307414, 1932938.412838648306206 ], [ 3425887.865014648530632, 1932942.667256652610376 ], [ 3425885.278219834435731, 1932966.323523986618966 ], [ 3425882.691422804258764, 1932989.979699094546959 ], [ 3425881.10571798030287, 1933001.731653636321425 ], [ 3425879.329847516492009, 1933007.680867540184408 ], [ 3425876.926960396580398, 1933013.402665429515764 ], [ 3425875.436190465930849, 1933016.130561833968386 ], [ 3425872.168386181350797, 1933021.412317330483347 ], [ 3425870.391450861468911, 1933023.966159846633673 ], [ 3425866.338839062489569, 1933028.68271590443328 ], [ 3425861.812734730541706, 1933032.964044050313532 ], [ 3425856.850933424197137, 1933036.742847704095766 ], [ 3425854.186175892595202, 1933038.360401056474075 ], [ 3425846.468351819552481, 1933042.379688427550718 ], [ 3425835.923497191164643, 1933048.084617476910353 ], [ 3425790.653722008690238, 1933073.790787528268993 ], [ 3425734.839137566275895, 1933105.202000948600471 ], [ 3425713.93234028853476, 1933116.74599563726224 ], [ 3425705.943165755830705, 1933121.79969982104376 ], [ 3425698.134406513068825, 1933127.130878949770704 ], [ 3425690.521232070401311, 1933132.73709031753242 ], [ 3425686.765534143894911, 1933135.606904452200979 ], [ 3425679.444851141422987, 1933141.598764446331188 ], [ 3425672.358574136160314, 1933147.842797039076686 ], [ 3425655.523525202646852, 1933164.684987177839503 ], [ 3425628.597901819273829, 1933190.374177539022639 ], [ 3425590.365456695202738, 1933225.538651534356177 ], [ 3425577.227170744910836, 1933238.148264071205631 ], [ 3425568.360155106987804, 1933244.938207392813638 ], [ 3425559.493141295388341, 1933251.728154116310179 ], [ 3425550.311256302054971, 1933257.935873435577378 ], [ 3425541.129357608500868, 1933264.143497789045796 ], [ 3425529.299006532877684, 1933270.341264918679371 ], [ 3425517.468756341375411, 1933276.539020404219627 ], [ 3425475.130428494885564, 1933301.255147863412276 ], [ 3425432.792128222994506, 1933325.971342233708128 ], [ 3425415.087029126938432, 1933335.334310344187543 ], [ 3425409.877665739040822, 1933337.747100554872304 ], [ 3425404.613437566440552, 1933340.032739764312282 ], [ 3425401.97145579289645, 1933341.14189002243802 ], [ 3425396.639062480069697, 1933343.247603864874691 ], [ 3425391.243220799136907, 1933345.212164235068485 ], [ 3425388.525606379844248, 1933346.131942844251171 ], [ 3425383.073731868993491, 1933347.899202450178564 ], [ 3425380.339456452988088, 1933348.746585078537464 ], [ 3425374.461674262303859, 1933350.427921599242836 ], [ 3425369.129491795785725, 1933351.20106642646715 ], [ 3425363.797210352029651, 1933351.974228579783812 ], [ 3425354.614714500959963, 1933352.757399304071441 ], [ 3425222.267346690874547, 1933359.612479272065684 ], [ 3425099.103142985142767, 1933365.686344052897766 ], [ 3425067.706731704063714, 1933367.568769072648138 ], [ 3425036.310336678288877, 1933369.45131554803811 ], [ 3425003.807715449016541, 1933373.524927299004048 ], [ 3424971.30501270852983, 1933377.598680343013257 ], [ 3424940.841251489240676, 1933381.689324105391279 ], [ 3424907.490738852880895, 1933386.263702160445973 ], [ 3424874.140228806063533, 1933390.83810823969543 ], [ 3424855.454772574827075, 1933393.154307732824236 ], [ 3424836.76931706815958, 1933395.470515915192664 ], [ 3424823.064578464254737, 1933399.253099616384134 ], [ 3424810.156796116847545, 1933402.770425838185474 ], [ 3424801.195030774921179, 1933404.515482820570469 ], [ 3424791.690333179663867, 1933405.585048770066351 ], [ 3424785.317049116827548, 1933406.199808563804254 ], [ 3424779.011316449381411, 1933406.203528191661462 ], [ 3424760.1245704786852, 1933408.540914952289313 ], [ 3424750.752430534455925, 1933406.562446198659018 ], [ 3424732.697119447402656, 1933403.04275006079115 ], [ 3424726.797912541776896, 1933400.220751458778977 ], [ 3424715.5210114819929, 1933393.607892245752737 ], [ 3424710.248445854522288, 1933391.045454892795533 ], [ 3424703.959185586776584, 1933389.460846057394519 ], [ 3424697.669909922871739, 1933387.876139542320743 ], [ 3424689.751059917267412, 1933387.736295090056956 ], [ 3424681.832209903746843, 1933387.5964520056732 ], [ 3424674.105775212869048, 1933388.331883555045351 ], [ 3424666.575119816698134, 1933389.048612706828862 ], [ 3424664.175874044187367, 1933388.919398682191968 ], [ 3424646.588707657065243, 1933392.319252340355888 ], [ 3424621.923645924776793, 1933398.256455873604864 ], [ 3424603.700732126832008, 1933402.663026029011235 ], [ 3424589.339913642499596, 1933406.421893042279407 ], [ 3424576.330305181909353, 1933409.872099550673738 ], [ 3424564.69276766711846, 1933412.772359165595844 ], [ 3424541.037486178334802, 1933420.21738935331814 ], [ 3424519.183419323526323, 1933427.992463513277471 ], [ 3424496.794126900378615, 1933437.437951635569334 ], [ 3424465.035511568188667, 1933452.090351380640641 ], [ 3424430.78578019188717, 1933468.344168636249378 ], [ 3424415.813080060761422, 1933476.152531894622371 ], [ 3424391.648517904803157, 1933487.476378307677805 ], [ 3424386.414736705832183, 1933489.618798597715795 ], [ 3424370.722773611079901, 1933493.041168559109792 ], [ 3424351.116500393953174, 1933493.800913257990032 ], [ 3424333.274531966540962, 1933493.632446011295542 ], [ 3424314.871503650210798, 1933492.92597123561427 ], [ 3424302.289081447757781, 1933492.823719066334888 ], [ 3424286.343485962133855, 1933495.716498164925724 ], [ 3424274.067030554637313, 1933498.239862076472491 ], [ 3424271.737357371952385, 1933498.79621604620479 ], [ 3424266.11487714573741, 1933500.138889926252887 ], [ 3424247.033046969212592, 1933505.227251230040565 ], [ 3424227.951119653414935, 1933510.315639473265037 ], [ 3424196.592043249867857, 1933519.057743034092709 ], [ 3424165.232888574711978, 1933527.7999897536356 ], [ 3424159.860698607750237, 1933529.099389648996294 ], [ 3424154.488623141311109, 1933530.39887209632434 ], [ 3424150.766659046988934, 1933531.008594883838668 ], [ 3424147.044778720010072, 1933531.618203067453578 ], [ 3424135.658772534225136, 1933532.806052545085549 ], [ 3424124.272865619044751, 1933533.993888570694253 ], [ 3424099.336388870608062, 1933537.28390781651251 ], [ 3424017.335707040503621, 1933544.432777229230851 ], [ 3423917.677683765999973, 1933555.642355994554237 ], [ 3423851.094284227117896, 1933562.680929054738954 ], [ 3423816.979859341867268, 1933566.108841482549906 ], [ 3423798.720262112095952, 1933568.238051966298372 ], [ 3423785.766666333191097, 1933568.968502265168354 ], [ 3423769.111879531294107, 1933569.664230509893969 ], [ 3423740.462114011868834, 1933569.618366716196761 ], [ 3423677.243695633951575, 1933570.715094598708674 ], [ 3423577.903925693128258, 1933571.345696026692167 ], [ 3423522.242551793344319, 1933571.529816821916029 ], [ 3423491.364043640904129, 1933572.650656555313617 ], [ 3423468.547939892858267, 1933573.068413648288697 ], [ 3423456.858274077065289, 1933573.56807723431848 ], [ 3423447.15382141340524, 1933574.221830064896494 ], [ 3423438.981534463353455, 1933575.268060652306303 ], [ 3423431.863419663626701, 1933576.786947045009583 ], [ 3423423.569780017714947, 1933579.152600358473137 ], [ 3423417.160939153283834, 1933581.372164336498827 ], [ 3423411.882036210037768, 1933584.206298331962898 ], [ 3423404.680451759137213, 1933588.337118098279461 ], [ 3423398.544540153350681, 1933591.964492102619261 ], [ 3423391.993266150821, 1933597.122799452161416 ], [ 3423388.037967423908412, 1933600.059605515096337 ], [ 3423377.59394460869953, 1933609.605591585161164 ], [ 3423357.062254299409688, 1933629.936870693927631 ], [ 3423315.202691936865449, 1933670.733056129422039 ], [ 3423276.918888011015952, 1933708.777898826170713 ], [ 3423273.012424999848008, 1933712.812292552320287 ], [ 3423273.012424999848008, 1934365.795191548531875 ], [ 3423302.948070727754384, 1934438.230074999621138 ], [ 3433136.52127500064671, 1934438.230074999621138 ], [ 3433136.52127500064671, 1926583.54712500073947 ], [ 3426049.939598099794239, 1926583.54712500073947 ], [ 3425960.802638057619333, 1926943.037062113638967 ] ] ] } }
]
}
