{
"type": "FeatureCollection",
"name": "Benavites",
"crs": { "type": "name", "properties": { "name": "urn:ogc:def:crs:EPSG::3035" } },
"features": [
{ "type": "Feature", "properties": { "SITE_NAME": "Marjal y Estanys d`Almenara", "ODESIGNATE": "Zonas Húmedas", "NUT2": 52, "SITE_CODE_": "ES520007", "DESIG_ABBR": "ES50", "SITE_CDDA": "389308_CDDA", "Sup_ha": 1473.87652942 }, "geometry": { "type": "MultiPolygon", "coordinates": [ [ [ [ 3445821.473586717620492, 1907942.721262601902708 ], [ 3445807.471681263297796, 1907912.072484764503315 ], [ 3445794.567472505383193, 1907885.880743412533775 ], [ 3445789.171025398653001, 1907874.676555362297222 ], [ 3445784.209065488073975, 1907864.307717984775081 ], [ 3445775.756293739192188, 1907848.469023045618087 ], [ 3445763.187901753000915, 1907828.374396899016574 ], [ 3445739.461450397968292, 1907792.690689736045897 ], [ 3445731.222094173543155, 1907776.917266151634976 ], [ 3445722.471882839221507, 1907758.505557691911235 ], [ 3445718.782790770288557, 1907750.446137580089271 ], [ 3445714.918521431740373, 1907744.534335992531851 ], [ 3445709.758197753690183, 1907731.575955556705594 ], [ 3445701.709067672491074, 1907711.130735714454204 ], [ 3445693.849843874573708, 1907684.702448770636693 ], [ 3445685.708512022159994, 1907654.488138429587707 ], [ 3445680.135837846435606, 1907631.007116976659745 ], [ 3445675.866749811451882, 1907612.654767917003483 ], [ 3445672.299213220365345, 1907598.825435485225171 ], [ 3445666.750079818069935, 1907584.015389505540952 ], [ 3445653.814910295419395, 1907549.759096505120397 ], [ 3445649.424405112862587, 1907537.176651471992955 ], [ 3445644.065517229028046, 1907517.694814323913306 ], [ 3445639.644182537682354, 1907500.981813373276964 ], [ 3445635.992973803076893, 1907489.889962394954637 ], [ 3445630.14686688920483, 1907477.752113092923537 ], [ 3445614.552319277077913, 1907446.663037601625547 ], [ 3445606.236922251060605, 1907431.709398900391534 ], [ 3445600.154714884236455, 1907421.32574649923481 ], [ 3445596.122582678683102, 1907411.709643215872347 ], [ 3445592.189526499714702, 1907402.077010911190882 ], [ 3445586.381280720233917, 1907385.59541072207503 ], [ 3445578.956678493414074, 1907358.69118811446242 ], [ 3445574.161698943935335, 1907338.913551823468879 ], [ 3445570.937205021269619, 1907325.329624934820458 ], [ 3445567.912588065490127, 1907317.06777658755891 ], [ 3445565.117546232882887, 1907310.02003689808771 ], [ 3445557.259338811039925, 1907293.819933582097292 ], [ 3445551.550502499565482, 1907282.304768525063992 ], [ 3445546.837063855491579, 1907271.571719084167853 ], [ 3445542.345088632777333, 1907258.138738232664764 ], [ 3445533.5786366565153, 1907232.34606982441619 ], [ 3445524.745680504012853, 1907205.142226307885721 ], [ 3445515.922295741736889, 1907182.980418605031446 ], [ 3445506.801556144841015, 1907159.294542468851432 ], [ 3445500.889279827009887, 1907146.794535503257066 ], [ 3445490.302553503774107, 1907127.287193430587649 ], [ 3445470.644574454985559, 1907092.669910223223269 ], [ 3445459.395424047484994, 1907069.873755575157702 ], [ 3445447.715583486482501, 1907044.496565635316074 ], [ 3445433.64062387868762, 1907010.753330819774419 ], [ 3445422.768952077254653, 1906977.807169701904058 ], [ 3445411.275417771656066, 1906946.356775700347498 ], [ 3445400.771171564236283, 1906916.698224692838266 ], [ 3445392.220253423321992, 1906886.855014267144725 ], [ 3445384.882743135094643, 1906859.593391747446731 ], [ 3445380.432381522841752, 1906839.284237621584907 ], [ 3445378.287377362139523, 1906831.219430679222569 ], [ 3445373.307889802381396, 1906818.442782457685098 ], [ 3445365.557647330220789, 1906795.466407534200698 ], [ 3445359.812894261442125, 1906781.29429428698495 ], [ 3445354.867152157239616, 1906771.356560484273359 ], [ 3445350.643933202605695, 1906763.19464572891593 ], [ 3445333.382295113522559, 1906731.708098794799298 ], [ 3445329.00209472514689, 1906723.713594057830051 ], [ 3445325.886325284373015, 1906718.039981139358133 ], [ 3445316.457594060339034, 1906701.34542518761009 ], [ 3445312.338938401080668, 1906696.676351303933188 ], [ 3445293.642201845534146, 1906662.328591959318146 ], [ 3445289.642400585114956, 1906654.980651852674782 ], [ 3445289.539490448310971, 1906654.644775227177888 ], [ 3445289.305472525767982, 1906653.987813331419602 ], [ 3445289.015050287824124, 1906653.229304434731603 ], [ 3445286.130083678755909, 1906645.701525219948962 ], [ 3445284.056930038146675, 1906640.328060578554869 ], [ 3445280.733769293408841, 1906631.743642125977203 ], [ 3445277.780977613758296, 1906624.237266478594393 ], [ 3445275.219993647187948, 1906617.815443806117401 ], [ 3445273.050817038863897, 1906612.478174025425687 ], [ 3445270.853344148956239, 1906607.15571221942082 ], [ 3445268.898370755370706, 1906602.478710239985958 ], [ 3445265.599559343419969, 1906594.707279433030635 ], [ 3445258.995279910974205, 1906579.185703489230946 ], [ 3445253.455671957228333, 1906566.270520311314613 ], [ 3445247.887869001831859, 1906553.370129025541246 ], [ 3445242.290346118155867, 1906540.474697031080723 ], [ 3445242.088352522347122, 1906540.024220022372901 ], [ 3445239.995452026836574, 1906535.309809661703184 ], [ 3445238.647916638292372, 1906532.387477832613513 ], [ 3445237.282091208733618, 1906529.478284460259601 ], [ 3445235.593848328571767, 1906525.997486827196553 ], [ 3445234.160195304546505, 1906523.109696496743709 ], [ 3445232.415656400844455, 1906519.658465086948127 ], [ 3445230.92560821166262, 1906516.800257484428585 ], [ 3445229.520170632284135, 1906514.159935172181576 ], [ 3445228.775484819430858, 1906512.831645026104525 ], [ 3445228.178012303076684, 1906511.862100979778916 ], [ 3445227.553767901845276, 1906510.917197397677228 ], [ 3445226.902949765324593, 1906509.996901228325441 ], [ 3445226.222309934906662, 1906509.081580325961113 ], [ 3445225.286438818089664, 1906507.896143448306248 ], [ 3445224.313888273201883, 1906506.736999958055094 ], [ 3445223.303331546485424, 1906505.594284187536687 ], [ 3445222.266002932097763, 1906504.476208904990926 ], [ 3445220.93381286971271, 1906503.09462930355221 ], [ 3445219.573425094597042, 1906501.727841058978811 ], [ 3445219.550560205243528, 1906501.711481684353203 ], [ 3445216.6003776662983, 1906498.874960015062243 ], [ 3445215.893082362599671, 1906498.246522379340604 ], [ 3445214.945804798044264, 1906497.446294798748568 ], [ 3445213.971854405477643, 1906496.670691165141761 ], [ 3445213.215788152068853, 1906496.120999235892668 ], [ 3445212.45438905665651, 1906495.602458026027307 ], [ 3445211.666416206397116, 1906495.108524246374145 ], [ 3445210.86462879460305, 1906494.657243223628029 ], [ 3445210.046175170689821, 1906494.228916716296226 ], [ 3445209.456286614760756, 1906493.964298798469827 ], [ 3445207.88635867042467, 1906493.278037500334904 ], [ 3445202.396135988645256, 1906490.905629325192422 ], [ 3445192.736396277789026, 1906486.747435891535133 ], [ 3445187.741583121009171, 1906484.554740644292906 ], [ 3445165.645033101551235, 1906474.845762132201344 ], [ 3445160.299615111667663, 1906472.489546817727387 ], [ 3445156.767247754149139, 1906470.879900775384158 ], [ 3445154.660860491916537, 1906469.879660413134843 ], [ 3445151.868435996118933, 1906468.519785653799772 ], [ 3445149.099748853128403, 1906467.115703610470518 ], [ 3445146.356095314957201, 1906465.677083282498643 ], [ 3445143.619299512822181, 1906464.21714492351748 ], [ 3445140.210281037259847, 1906462.354919509962201 ], [ 3445136.824984667822719, 1906460.448388525517657 ], [ 3445133.444922059308738, 1906458.51072346791625 ], [ 3445129.391226194798946, 1906456.161020695464686 ], [ 3445129.055877308361232, 1906455.964793463703245 ], [ 3445127.226035462226719, 1906454.847807243233547 ], [ 3445126.152152286842465, 1906454.149398993933573 ], [ 3445124.742252562660724, 1906453.184265859192237 ], [ 3445123.368933235760778, 1906452.192855820292607 ], [ 3445122.020662787370384, 1906451.167005726369098 ], [ 3445120.687731822021306, 1906450.108335454948246 ], [ 3445119.37984973937273, 1906449.015225118026137 ], [ 3445118.088832039386034, 1906447.899127207696438 ], [ 3445116.493605364114046, 1906446.460562749067321 ], [ 3445114.912193287163973, 1906444.979345514206216 ], [ 3445114.721649673301727, 1906444.799307725625113 ], [ 3445112.756874014623463, 1906442.877799497684464 ], [ 3445112.32090763002634, 1906442.426009600283578 ], [ 3445111.920763480942696, 1906442.008591335266829 ], [ 3445111.10141825908795, 1906441.116412106901407 ], [ 3445110.318752525374293, 1906440.197939425008371 ], [ 3445109.762353562284261, 1906439.493892677826807 ], [ 3445109.055799372028559, 1906438.542547867167741 ], [ 3445108.564178582280874, 1906437.797432794002816 ], [ 3445108.100755552761257, 1906437.037526318337768 ], [ 3445107.86065711453557, 1906436.603493756148964 ], [ 3445107.675536910071969, 1906436.261158986017108 ], [ 3445107.286799607798457, 1906435.458531241398305 ], [ 3445107.17779947957024, 1906435.214454054133967 ], [ 3445105.71048491075635, 1906431.848104419186711 ], [ 3445103.966474684886634, 1906427.811739777214825 ], [ 3445102.509167143609375, 1906424.44372076052241 ], [ 3445099.615793529432267, 1906417.714226105483249 ], [ 3445096.64686066377908, 1906410.825858530355617 ], [ 3445094.382340593729168, 1906405.595283768838271 ], [ 3445094.030184112023562, 1906404.766379181295633 ], [ 3445092.015687201637775, 1906400.230443500448018 ], [ 3445090.314375911373645, 1906396.46939215506427 ], [ 3445084.839337795507163, 1906384.431104349670932 ], [ 3445083.506281378678977, 1906381.405488984659314 ], [ 3445080.082341735251248, 1906373.362520183902234 ], [ 3445061.578312077093869, 1906376.449752331711352 ], [ 3445057.36507980292663, 1906372.421863302588463 ], [ 3445052.362367577385157, 1906367.688466339604929 ], [ 3445047.332982606254518, 1906362.97969362186268 ], [ 3445038.737506859004498, 1906355.002650103997439 ], [ 3445036.543310402426869, 1906352.978100105421618 ], [ 3445024.679080174304545, 1906342.076473046094179 ], [ 3445021.323332917876542, 1906338.984836029820144 ], [ 3445013.720957274548709, 1906331.971753815421835 ], [ 3445008.414145120419562, 1906327.047005857108161 ], [ 3445003.124113743193448, 1906322.099385396810248 ], [ 3445002.99225738691166, 1906321.970078706042841 ], [ 3444998.204479992389679, 1906317.44291382515803 ], [ 3444992.655287350527942, 1906312.134950266452506 ], [ 3444983.967571718152612, 1906303.759733269456774 ], [ 3444970.569033899344504, 1906290.76371766300872 ], [ 3444965.8346186587587, 1906286.187404457014054 ], [ 3444965.128082427196205, 1906285.498320004437119 ], [ 3444963.886595629155636, 1906284.242829434107989 ], [ 3444962.063463827129453, 1906282.317766019143164 ], [ 3444960.86389051983133, 1906281.004847719799727 ], [ 3444956.177324982360005, 1906275.623577252263203 ], [ 3444953.838283204007894, 1906272.927191050490364 ], [ 3444952.073929535225034, 1906270.921712382230908 ], [ 3444950.27442118152976, 1906268.952359894523397 ], [ 3444949.058082649484277, 1906267.662412822246552 ], [ 3444947.826404537539929, 1906266.40528601128608 ], [ 3444946.568152555730194, 1906265.172766741132364 ], [ 3444945.284653421025723, 1906263.974720674566925 ], [ 3444943.966212964616716, 1906262.812866036081687 ], [ 3444942.624034974724054, 1906261.695218894630671 ], [ 3444941.238517710007727, 1906260.625150399282575 ], [ 3444939.819370585959405, 1906259.601040682289749 ], [ 3444938.358409054577351, 1906258.634342237142846 ], [ 3444936.845527393743396, 1906257.726741080405191 ], [ 3444935.876927196979523, 1906257.182248971192166 ], [ 3444933.568456765729934, 1906255.862683183513582 ], [ 3444933.478522134944797, 1906255.807078561512753 ], [ 3444933.2940210592933, 1906254.748463137075305 ], [ 3444880.04381062136963, 1906205.178678098367527 ], [ 3444803.989360203035176, 1906134.196124309208244 ], [ 3444749.872424378525466, 1906060.491481972392648 ], [ 3444732.264494466595352, 1906036.064309999579564 ], [ 3443387.75809987122193, 1906036.064309999579564 ], [ 3443387.997622148133814, 1906037.183320600772277 ], [ 3443388.727216330356896, 1906040.642517898697406 ], [ 3443389.456909819506109, 1906044.101698722690344 ], [ 3443390.175071948207915, 1906047.552716725505888 ], [ 3443390.894759241491556, 1906051.013567497953773 ], [ 3443391.614446764346212, 1906054.474418333498761 ], [ 3443392.582003898918629, 1906059.07410609908402 ], [ 3443393.580710038542747, 1906063.678683309582993 ], [ 3443393.700403927825391, 1906064.253853027941659 ], [ 3443393.837630078196526, 1906064.876532977214083 ], [ 3443393.896335575729609, 1906065.189526250818744 ], [ 3443393.966473590582609, 1906065.510698933620006 ], [ 3443394.025179092772305, 1906065.823692208854482 ], [ 3443394.083884596824646, 1906066.13668548851274 ], [ 3443394.202820545062423, 1906066.772504747845232 ], [ 3443394.261526056099683, 1906067.08549802750349 ], [ 3443394.310323989018798, 1906067.400144607992843 ], [ 3443394.41935237403959, 1906068.037617170717567 ], [ 3443394.526855831965804, 1906068.665257032727823 ], [ 3443394.625976654700935, 1906069.304382902802899 ], [ 3443394.723671624902636, 1906069.933659535832703 ], [ 3443394.81364284735173, 1906070.513789174612612 ], [ 3443394.970711269415915, 1906071.526557876029983 ], [ 3443395.216226028744131, 1906073.109623526688665 ], [ 3443395.325254485942423, 1906073.747096109669656 ], [ 3443395.422850436996669, 1906074.376389289740473 ], [ 3443395.53187891189009, 1906075.013861885527149 ], [ 3443395.590584472287446, 1906075.326855174032971 ], [ 3443395.639382456429303, 1906075.641501768492162 ], [ 3443395.699612958356738, 1906075.964327769121155 ], [ 3443395.758318524807692, 1906076.277321066008881 ], [ 3443395.817024093586951, 1906076.590314355911687 ], [ 3443395.875729664228857, 1906076.903307653963566 ], [ 3443395.945867751725018, 1906077.224480353528634 ], [ 3443395.958067250438035, 1906077.303142003482208 ], [ 3443396.098334402777255, 1906077.814355624839664 ], [ 3443396.204285949934274, 1906078.038767466088757 ], [ 3443396.338435294106603, 1906078.248386699240655 ], [ 3443396.473342591430992, 1906078.397356389788911 ], [ 3443396.68370268587023, 1906078.574083804385737 ], [ 3443396.786595326848328, 1906078.647698451532051 ], [ 3443397.073166171088815, 1906078.791534044779837 ], [ 3443397.297999624162912, 1906078.86497449525632 ], [ 3443397.570846030022949, 1906078.920315733645111 ], [ 3443397.847500262316316, 1906078.93467284552753 ], [ 3443398.118054745253175, 1906078.909699139650911 ], [ 3443398.433473230339587, 1906078.846977348206565 ], [ 3443398.570654385257512, 1906078.813998436322436 ], [ 3443403.37560861511156, 1906077.456280654994771 ], [ 3443428.675273556262255, 1906159.430515166372061 ], [ 3443534.91283385688439, 1906364.213116535684094 ], [ 3443510.197095229290426, 1906379.852758679073304 ], [ 3443557.388270078226924, 1906452.276449730852619 ], [ 3443557.913229951169342, 1906455.660560389980674 ], [ 3443557.950587578583509, 1906455.835896043339744 ], [ 3443558.061115487478673, 1906456.089806317351758 ], [ 3443558.661747769452631, 1906457.078994506970048 ], [ 3443559.726470273919404, 1906458.7674528749194 ], [ 3443560.827872038818896, 1906460.429616048000753 ], [ 3443561.946023656055331, 1906462.06870884867385 ], [ 3443563.469682158902287, 1906464.225291896378621 ], [ 3443565.802699874620885, 1906467.406842597527429 ], [ 3443568.946701, 1906471.62317719659768 ], [ 3443570.900999001227319, 1906474.262694179080427 ], [ 3443572.431416265200824, 1906476.397975123021752 ], [ 3443573.566348510794342, 1906478.014194310642779 ], [ 3443575.033612221945077, 1906480.200362790375948 ], [ 3443596.994102491997182, 1906513.666635842993855 ], [ 3443597.475824880413711, 1906514.41339994687587 ], [ 3443601.696881865616888, 1906520.790235375054181 ], [ 3443613.025500114541501, 1906537.93424558127299 ], [ 3443613.017885197419673, 1906538.016213961411268 ], [ 3443612.749777079559863, 1906540.088482713093981 ], [ 3443612.637047866359353, 1906540.93444522889331 ], [ 3443612.548668053466827, 1906541.282071328721941 ], [ 3443612.47246802598238, 1906541.446095212362707 ], [ 3443612.314824390225112, 1906541.674145923694596 ], [ 3443612.134216581471264, 1906541.885854339925572 ], [ 3443611.909403593279421, 1906542.074677819618955 ], [ 3443611.591615372337401, 1906542.319365248316899 ], [ 3443611.228096953593194, 1906542.53133501810953 ], [ 3443610.965936281252652, 1906542.675954815698788 ], [ 3443610.768553267233074, 1906542.779503302415833 ], [ 3443610.126965649891645, 1906543.098398774163797 ], [ 3443608.883979815524071, 1906543.668959961039945 ], [ 3443607.939833817537874, 1906544.068606165237725 ], [ 3443604.80857131164521, 1906545.438558352412656 ], [ 3443604.347502639982849, 1906545.67689401935786 ], [ 3443604.178317211102694, 1906545.765649903798476 ], [ 3443598.74335107812658, 1906548.730395136866719 ], [ 3443568.384723561815917, 1906565.306189641123638 ], [ 3443550.904712781775743, 1906575.011970583815128 ], [ 3443510.686768042854965, 1906597.348802252439782 ], [ 3443462.769078867509961, 1906624.299406398320571 ], [ 3443460.6275879368186, 1906632.181954592932016 ], [ 3443473.384239421691746, 1906655.714973672758788 ], [ 3443483.708602000959218, 1906674.771769996732473 ], [ 3443483.964699869044125, 1906675.243381064850837 ], [ 3443486.239995537791401, 1906679.493725721957162 ], [ 3443488.467278949916363, 1906683.762169944355264 ], [ 3443490.053418016526848, 1906686.846440850989893 ], [ 3443490.677698643412441, 1906688.05360295297578 ], [ 3443496.316532456316054, 1906699.247552146669477 ], [ 3443500.203719029203057, 1906707.011622603517026 ], [ 3443503.6801469149068, 1906713.896039560204372 ], [ 3443504.119103993289173, 1906714.760900457156822 ], [ 3443507.22289770655334, 1906722.191690096631646 ], [ 3443508.711515440605581, 1906725.628847220446914 ], [ 3443507.342023837380111, 1906726.236969313817099 ], [ 3443501.394909387454391, 1906728.782953780610114 ], [ 3443496.929199827834964, 1906730.657958697294816 ], [ 3443493.210350134875625, 1906732.236845692852512 ], [ 3443490.24970898963511, 1906733.527908744523302 ], [ 3443488.04429477173835, 1906734.511268950998783 ], [ 3443485.11565408622846, 1906735.877589424606413 ], [ 3443484.736129429191351, 1906736.051884038140997 ], [ 3443479.325542466714978, 1906738.649458288680762 ], [ 3443463.598130830097944, 1906746.287612596061081 ], [ 3443459.34583473065868, 1906748.359015790745616 ], [ 3443453.957258314825594, 1906751.033620008733124 ], [ 3443449.251536589115858, 1906753.392625882290304 ], [ 3443444.560282605700195, 1906755.779379090061411 ], [ 3443440.553392997011542, 1906757.860267924377695 ], [ 3443435.207623262424022, 1906760.679142042296007 ], [ 3443433.208654823713005, 1906761.749101851135492 ], [ 3443433.17054987186566, 1906761.765548104885966 ], [ 3443432.893249731976539, 1906761.942958608036861 ], [ 3443432.640240763314068, 1906762.14657714846544 ], [ 3443432.410096964798868, 1906762.366554437438026 ], [ 3443432.20586848910898, 1906762.622555973939598 ], [ 3443431.964303098618984, 1906762.965486402390525 ], [ 3443431.747127956710756, 1906763.334608324337751 ], [ 3443431.442332316655666, 1906763.990708408178762 ], [ 3443431.299084965605289, 1906764.377754954621196 ], [ 3443431.20613219588995, 1906764.695884743705392 ], [ 3443431.142901947256178, 1906765.009054398862645 ], [ 3443431.129966277163476, 1906765.253307296428829 ], [ 3443431.136845620814711, 1906765.494253437267616 ], [ 3443431.183354992885143, 1906765.728586061159149 ], [ 3443431.288552366197109, 1906766.013648312771693 ], [ 3443431.66662868950516, 1906766.747447787085548 ], [ 3443433.300698160659522, 1906769.944768753135577 ], [ 3443440.965381940826774, 1906784.633805870078504 ], [ 3443442.540852279402316, 1906787.649248353671283 ], [ 3443443.62695941561833, 1906789.73763058683835 ], [ 3443446.251957428175956, 1906794.867734396597371 ], [ 3443447.184854838997126, 1906796.689154032384977 ], [ 3443452.30677849939093, 1906806.516808424843475 ], [ 3443454.540074290707707, 1906810.824601638130844 ], [ 3443456.116214832291007, 1906813.910543558653444 ], [ 3443457.654349671676755, 1906817.012915231054649 ], [ 3443458.863956383429468, 1906819.504352983785793 ], [ 3443460.345696658827364, 1906822.636310483328998 ], [ 3443471.553945600055158, 1906847.002829687204212 ], [ 3443471.813878587447107, 1906847.564687445294112 ], [ 3443476.173743641003966, 1906856.93445690581575 ], [ 3443494.704817214980721, 1906900.404877367662266 ], [ 3443496.908763370476663, 1906905.43164843483828 ], [ 3443483.442797934636474, 1906912.260712389601395 ], [ 3443462.685175459366292, 1906922.785984537331387 ], [ 3443448.154213945381343, 1906930.143732172669843 ], [ 3443421.181210996583104, 1906943.844984299736097 ], [ 3443409.339565936010331, 1906949.866167912026867 ], [ 3443375.267233484890312, 1906967.203445053659379 ], [ 3443354.82887554820627, 1906977.625185886630788 ], [ 3443352.76599448453635, 1906978.675562703749165 ], [ 3443343.591600018087775, 1906983.414504234213382 ], [ 3443338.100276900455356, 1906986.277780370786786 ], [ 3443299.774256448727101, 1907006.594681538641453 ], [ 3443288.826599217951298, 1907012.41638819174841 ], [ 3443279.695660823024809, 1907017.238885703729466 ], [ 3443272.373043020721525, 1907021.073560158023611 ], [ 3443263.211615584790707, 1907025.83054060023278 ], [ 3443259.002791468519717, 1907027.985520258545876 ], [ 3443251.835648247506469, 1907031.643044660566375 ], [ 3443234.587207851465791, 1907040.352199704851955 ], [ 3443228.541591613087803, 1907043.389409537659958 ], [ 3443230.957989967428148, 1907047.686220747884363 ], [ 3443239.382533024530858, 1907062.621701216325164 ], [ 3443240.433575350791216, 1907064.483930751681328 ], [ 3443242.538040934596211, 1907068.157555936370045 ], [ 3443243.970959679223597, 1907070.581467836396769 ], [ 3443246.168300622142851, 1907074.199243895709515 ], [ 3443248.403845557477325, 1907077.800556848524138 ], [ 3443250.684253490529954, 1907081.364120725076646 ], [ 3443252.992957926820964, 1907084.912874952657148 ], [ 3443255.339668184518814, 1907088.445199141744524 ], [ 3443257.713050703518093, 1907091.952897431328893 ], [ 3443260.915716496761888, 1907096.613272594520822 ], [ 3443264.136687596328557, 1907101.260606467491016 ], [ 3443268.193715557456017, 1907107.039413140853867 ], [ 3443274.690528557635844, 1907116.294662286993116 ], [ 3443278.220863572787493, 1907121.364471026230603 ], [ 3443279.829055971931666, 1907123.607822455232963 ], [ 3443281.062228913418949, 1907125.268172424053773 ], [ 3443282.332080508582294, 1907126.902226467616856 ], [ 3443284.03695482481271, 1907129.048744169296697 ], [ 3443285.780032973736525, 1907131.178798745153472 ], [ 3443288.866022919304669, 1907134.89036519289948 ], [ 3443292.378095120191574, 1907139.186498741619289 ], [ 3443293.689002921804786, 1907140.823788403067738 ], [ 3443295.406177957542241, 1907143.048952021868899 ], [ 3443296.678224654402584, 1907144.763338504359126 ], [ 3443297.495991992764175, 1907145.907951115397736 ], [ 3443297.882444288115948, 1907146.499131976626813 ], [ 3443298.109596209600568, 1907146.915152046829462 ], [ 3443298.29711826890707, 1907147.337785948766395 ], [ 3443298.466350563336164, 1907147.773559537949041 ], [ 3443298.58604553155601, 1907148.217600420350209 ], [ 3443298.611204658634961, 1907148.314274824690074 ], [ 3443298.656203172169626, 1907148.66990858130157 ], [ 3443298.663084762636572, 1907148.910855814814568 ], [ 3443298.627968008629978, 1907149.340383926406503 ], [ 3443298.598331229761243, 1907150.263276237761602 ], [ 3443298.609007394872606, 1907150.332105738343671 ], [ 3443298.809681111015379, 1907151.543289883993566 ], [ 3443296.786390194669366, 1907155.026990809245035 ], [ 3443294.558261531870812, 1907155.799612727714702 ], [ 3443293.550006201025099, 1907156.179714377736673 ], [ 3443292.041172239463776, 1907156.804855758557096 ], [ 3443290.548331185244024, 1907157.467576586874202 ], [ 3443289.043201993219554, 1907158.182784878648818 ], [ 3443287.552654870320112, 1907158.925821606535465 ], [ 3443285.567515524569899, 1907159.95314760459587 ], [ 3443283.080926866270602, 1907161.286082000704482 ], [ 3443276.617218122817576, 1907164.695087127620354 ], [ 3443275.617357552517205, 1907165.194836313836277 ], [ 3443274.709044856019318, 1907165.628870417596772 ], [ 3443271.400905767921358, 1907167.169526390498504 ], [ 3443265.318964237812907, 1907169.96001784154214 ], [ 3443253.712823932059109, 1907175.336860774084926 ], [ 3443250.948058506473899, 1907176.645612199790776 ], [ 3443250.249985282309353, 1907176.994123289594427 ], [ 3443249.868281183764338, 1907177.219223748194054 ], [ 3443249.6488041812554, 1907177.376900569535792 ], [ 3443249.382083806674927, 1907177.623160557355732 ], [ 3443249.131371597759426, 1907177.907098238123581 ], [ 3443248.911906955763698, 1907178.19590830267407 ], [ 3443248.726740232668817, 1907178.509256328921765 ], [ 3443248.564438788220286, 1907178.838962995680049 ], [ 3443248.433384911157191, 1907179.173542041797191 ], [ 3443248.359481869265437, 1907179.417884450871497 ], [ 3443248.315301215276122, 1907179.657266442431137 ], [ 3443248.322183051612228, 1907179.898213864304125 ], [ 3443248.360312453471124, 1907180.144033666001633 ], [ 3443248.439596883021295, 1907180.393072366481647 ], [ 3443248.566137043759227, 1907180.68466113624163 ], [ 3443248.722399593796581, 1907180.971289490349591 ], [ 3443248.944207624997944, 1907181.287328184815124 ], [ 3443248.994513709098101, 1907181.349543839227408 ], [ 3443249.616377390921116, 1907182.083008492365479 ], [ 3443249.818358132150024, 1907182.271220888709649 ], [ 3443249.991372889839113, 1907182.40374348172918 ], [ 3443251.002677960321307, 1907183.092388316523284 ], [ 3443256.030913610477, 1907186.539325250079855 ], [ 3443253.905067677609622, 1907187.520534203620628 ], [ 3443215.313427454326302, 1907206.025931978831068 ], [ 3443176.721902756486088, 1907224.53136538551189 ], [ 3443186.550389521755278, 1907251.075095114530995 ], [ 3443189.437107028439641, 1907258.875031345756724 ], [ 3443194.424605643842369, 1907272.356695240130648 ], [ 3443199.521013136953115, 1907286.213489816756919 ], [ 3443203.782500864937901, 1907297.864319879328832 ], [ 3443208.043891837820411, 1907309.515166969969869 ], [ 3443216.657015849836171, 1907306.662228566128761 ], [ 3443217.144028990529478, 1907309.801940883975476 ], [ 3443218.35539838578552, 1907315.319399335421622 ], [ 3443219.528581253718585, 1907319.148455151822418 ], [ 3443220.719951655715704, 1907321.915303703630343 ], [ 3443222.357157312799245, 1907324.607744952430949 ], [ 3443224.764071330428123, 1907327.938365084817633 ], [ 3443227.714459599927068, 1907332.086144275264814 ], [ 3443230.945383993443102, 1907336.994091922650114 ], [ 3443234.876688217744231, 1907342.945095064118505 ], [ 3443239.748536419123411, 1907349.586565596750006 ], [ 3443248.34577642660588, 1907360.589442814700305 ], [ 3443248.958787261508405, 1907361.409320736303926 ], [ 3443243.004022063221782, 1907365.858963518403471 ], [ 3443222.085436090361327, 1907381.505632217507809 ], [ 3443220.016521921381354, 1907383.041232341900468 ], [ 3443219.963178153149784, 1907383.090484593529254 ], [ 3443219.630157670471817, 1907383.36798602505587 ], [ 3443219.331435174681246, 1907383.670025367522612 ], [ 3443219.047195783816278, 1907383.999909630510956 ], [ 3443218.748486279509962, 1907384.433082501171157 ], [ 3443218.513027985114604, 1907384.81534960726276 ], [ 3443218.186903478577733, 1907385.464932480361313 ], [ 3443218.164807259570807, 1907385.519057038938627 ], [ 3443218.07957189809531, 1907385.755204340908676 ], [ 3443218.024629818275571, 1907386.05690735951066 ], [ 3443218.000265251845121, 1907386.292982977582142 ], [ 3443218.015543442685157, 1907386.653578096535057 ], [ 3443218.024694767780602, 1907386.712574941106141 ], [ 3443218.033846094273031, 1907386.771571792429313 ], [ 3443218.090266280807555, 1907387.004252180922776 ], [ 3443218.238916870206594, 1907387.372850154992193 ], [ 3443218.254925195593387, 1907387.410527887986973 ], [ 3443218.890656568109989, 1907388.625871547264978 ], [ 3443219.554485987871885, 1907389.826438423246145 ], [ 3443220.258044264279306, 1907391.020374746527523 ], [ 3443220.98817536374554, 1907392.189701484050602 ], [ 3443221.748127877246588, 1907393.354051171801984 ], [ 3443222.53617843054235, 1907394.503624077420682 ], [ 3443223.352525172755122, 1907395.638387129409239 ], [ 3443224.208402615971863, 1907396.766552709741518 ], [ 3443225.382882419973612, 1907398.245039504719898 ], [ 3443226.295253162272274, 1907399.343601919710636 ], [ 3443227.567282179370522, 1907400.795720883877948 ], [ 3443228.557288167066872, 1907401.871239002095535 ], [ 3443230.263758407905698, 1907403.634171557147056 ], [ 3443230.348362719640136, 1907403.720925115514547 ], [ 3443231.295675499364734, 1907404.652258141431957 ], [ 3443231.951925989240408, 1907405.279110443312675 ], [ 3443232.633323123678565, 1907405.871503799688071 ], [ 3443233.191143214702606, 1907406.323123805923387 ], [ 3443233.775734249036759, 1907406.750101157231256 ], [ 3443234.408337252680212, 1907407.158978179795668 ], [ 3443234.900598780252039, 1907407.450054472777992 ], [ 3443235.992776583414525, 1907408.004152643028647 ], [ 3443236.048414674121886, 1907408.035216365475208 ], [ 3443236.952995121479034, 1907408.42896378133446 ], [ 3443237.687709921039641, 1907408.709837903268635 ], [ 3443238.406317310407758, 1907408.953050840646029 ], [ 3443238.948186811059713, 1907409.104611265240237 ], [ 3443239.483970666304231, 1907409.216938795056194 ], [ 3443240.013653623871505, 1907409.289935094071552 ], [ 3443240.537136611528695, 1907409.323616702575237 ], [ 3443241.044710336253047, 1907409.319604047806934 ], [ 3443241.384613699279726, 1907409.283050595317036 ], [ 3443241.886842621956021, 1907409.179056366207078 ], [ 3443242.207588128279895, 1907409.085176108172163 ], [ 3443242.446122751571238, 1907408.984841710655019 ], [ 3443252.516203742939979, 1907408.76383783435449 ], [ 3443255.406737396493554, 1907406.90238031744957 ], [ 3443256.982612161897123, 1907405.923172869952396 ], [ 3443259.363244861364365, 1907404.496947751846164 ], [ 3443261.771318634971976, 1907403.116579889552668 ], [ 3443264.185493376571685, 1907401.775543474126607 ], [ 3443266.625568707473576, 1907400.470433172304183 ], [ 3443269.071760249324143, 1907399.204752649879083 ], [ 3443271.543867623899132, 1907397.975096570560709 ], [ 3443274.019025507383049, 1907396.765106314327568 ], [ 3443277.340766541659832, 1907395.181817532749847 ], [ 3443280.688507273327559, 1907393.634438515640795 ], [ 3443284.885896952357143, 1907391.733525283634663 ], [ 3443291.015071738511324, 1907388.985567043768242 ], [ 3443299.021292555145919, 1907385.430164435878396 ], [ 3443301.156573550775647, 1907384.518996212864295 ], [ 3443303.851218808442354, 1907383.413499732036144 ], [ 3443306.005558624397963, 1907382.559675178490579 ], [ 3443308.184289004653692, 1907381.732042215531692 ], [ 3443310.370645489078015, 1907380.953573411563411 ], [ 3443312.033445679116994, 1907380.403705450939015 ], [ 3443313.699296312406659, 1907379.873503172071651 ], [ 3443314.845496288500726, 1907379.530900411540642 ], [ 3443316.771990874316543, 1907378.977373394882306 ], [ 3443318.704571075737476, 1907378.463079361477867 ], [ 3443320.64174218242988, 1907377.978382157394662 ], [ 3443323.231279294006526, 1907377.37472267774865 ], [ 3443325.179126918781549, 1907376.958855325123295 ], [ 3443327.790674132294953, 1907376.432221628259867 ], [ 3443330.398513843305409, 1907375.946556258480996 ], [ 3443333.012439162936062, 1907375.500123930629343 ], [ 3443336.284747530706227, 1907374.974175694864243 ], [ 3443339.563255836255848, 1907374.487542393850163 ], [ 3443343.50165715906769, 1907373.931127867428586 ], [ 3443343.970357393845916, 1907373.873080224730074 ], [ 3443351.808284122496843, 1907372.837251069257036 ], [ 3443353.377380490768701, 1907372.666167857591063 ], [ 3443355.351925838273019, 1907372.487942684208974 ], [ 3443356.931698673404753, 1907372.385689195012674 ], [ 3443358.516047132667154, 1907372.31293414789252 ], [ 3443360.098213265649974, 1907372.290980083635077 ], [ 3443360.585857878439128, 1907372.290194156579673 ], [ 3443364.24166943365708, 1907372.335747307632118 ], [ 3443367.148979030083865, 1907372.405345901614055 ], [ 3443370.785645617172122, 1907372.524706094292924 ], [ 3443375.134904711972922, 1907372.716800573514774 ], [ 3443381.657637357711792, 1907373.030253450619057 ], [ 3443388.902017076965421, 1907373.344419817673042 ], [ 3443392.528776136226952, 1907373.465435194084421 ], [ 3443393.365574529860169, 1907373.487077757716179 ], [ 3443399.440936556551605, 1907373.602937926771119 ], [ 3443403.636995461303741, 1907373.659205368952826 ], [ 3443407.37882438255474, 1907373.670231816591695 ], [ 3443410.466734005138278, 1907373.659155184868723 ], [ 3443411.116062426939607, 1907373.651661871233955 ], [ 3443413.459490139037371, 1907373.623710493324324 ], [ 3443415.154345641378313, 1907373.54260227130726 ], [ 3443416.287514506839216, 1907373.444273442029953 ], [ 3443417.404774186667055, 1907373.308250403730199 ], [ 3443418.528791827149689, 1907373.150924884015694 ], [ 3443420.20990772312507, 1907372.850188529584557 ], [ 3443421.88502188352868, 1907372.510104537010193 ], [ 3443423.553920911159366, 1907372.130607667379081 ], [ 3443425.776883057318628, 1907371.588132829405367 ], [ 3443433.01877708081156, 1907369.854992729378864 ], [ 3443434.143650067504495, 1907369.637000951217487 ], [ 3443435.82629124680534, 1907369.346098097739741 ], [ 3443436.950308938976377, 1907369.188773132162169 ], [ 3443438.059171175118536, 1907369.064138609915972 ], [ 3443439.220537215471268, 1907368.951017312239856 ], [ 3443440.002469056751579, 1907368.881045007845387 ], [ 3443441.166885502636433, 1907368.787589348386973 ], [ 3443442.715509905014187, 1907368.680450090905651 ], [ 3443444.664152367971838, 1907368.597338063642383 ], [ 3443446.2149718683213, 1907368.570531242992729 ], [ 3443447.771892173215747, 1907368.583055631024763 ], [ 3443448.946228799410164, 1907368.619079910684377 ], [ 3443450.507067544385791, 1907368.72173641459085 ], [ 3443451.672265688423067, 1907368.82989718252793 ], [ 3443452.843564634211361, 1907368.977389132604003 ], [ 3443454.019523004069924, 1907369.154264618642628 ], [ 3443454.468421116471291, 1907369.230658291606233 ], [ 3443456.823989568278193, 1907369.674787643598393 ], [ 3443458.694179600570351, 1907370.068786203628406 ], [ 3443460.539222897030413, 1907370.497243535704911 ], [ 3443462.36750169750303, 1907370.948673386126757 ], [ 3443464.18054120708257, 1907371.432908561779186 ], [ 3443465.978341422043741, 1907371.949949040077627 ], [ 3443467.769284587819129, 1907372.488308598287404 ], [ 3443469.99465551879257, 1907373.206350223626941 ], [ 3443471.766537489835173, 1907373.818401419790462 ], [ 3443473.982769917696714, 1907374.608579590916634 ], [ 3443474.015542650129646, 1907374.623284843750298 ], [ 3443477.948803201317787, 1907376.065031804144382 ], [ 3443487.095643085427582, 1907379.471230662660673 ], [ 3443490.99535928433761, 1907380.958825004519895 ], [ 3443494.889758857432753, 1907382.47766970959492 ], [ 3443498.758912593126297, 1907384.030989848775789 ], [ 3443501.983486238867044, 1907385.359001343138516 ], [ 3443503.245515406597406, 1907385.894845531554893 ], [ 3443512.688101190142334, 1907389.897179287392646 ], [ 3443521.061403568368405, 1907393.493000922724605 ], [ 3443529.417941302526742, 1907397.11179600819014 ], [ 3443535.709223682060838, 1907399.864678112789989 ], [ 3443536.72355397278443, 1907400.310725592309609 ], [ 3443542.96683949418366, 1907403.081806616159156 ], [ 3443549.194786579813808, 1907405.885709944879636 ], [ 3443551.545926355291158, 1907406.955895126331598 ], [ 3443557.495795087888837, 1907409.735595700331032 ], [ 3443558.81270588003099, 1907410.363155056955293 ], [ 3443562.212501777801663, 1907412.03515787050128 ], [ 3443567.642595135606825, 1907414.740205988753587 ], [ 3443574.430738898925483, 1907418.075934916269034 ], [ 3443577.17441028309986, 1907419.38333299709484 ], [ 3443579.921789203304797, 1907420.649763160385191 ], [ 3443582.694314814638346, 1907421.881734820082784 ], [ 3443583.653106064070016, 1907422.296702417079359 ], [ 3443590.856595535296947, 1907425.361471626209095 ], [ 3443601.677816125564277, 1907429.930639748694375 ], [ 3443611.612647724337876, 1907434.092933242209256 ], [ 3443623.369039910845459, 1907438.990329551277682 ], [ 3443625.726282584946603, 1907439.968813701765612 ], [ 3443660.906048562377691, 1907454.544600303051993 ], [ 3443680.57320108031854, 1907463.92192124738358 ], [ 3443677.86848053894937, 1907471.25284711131826 ], [ 3443680.780498949810863, 1907481.378830533707514 ], [ 3443687.418913705274463, 1907497.510199810611084 ], [ 3443703.264922609552741, 1907533.298413498559967 ], [ 3443705.032580897212029, 1907537.290527725126594 ], [ 3443717.505129860714078, 1907566.792440297082067 ], [ 3443734.895346183329821, 1907606.468651183648035 ], [ 3443747.359760409221053, 1907634.406279710819945 ], [ 3443752.663642475381494, 1907645.80911482940428 ], [ 3443756.053047904744744, 1907649.405401327647269 ], [ 3443769.47951683588326, 1907640.967063724528998 ], [ 3443803.280498235486448, 1907618.820309344446287 ], [ 3443831.990310016088188, 1907599.570455240784213 ], [ 3443854.285785642452538, 1907583.822118302341551 ], [ 3443867.385122381616384, 1907575.23849991732277 ], [ 3443905.52364369109273, 1907551.984115877188742 ], [ 3443930.094886089209467, 1907536.08606207696721 ], [ 3443932.595559964887798, 1907540.206618834752589 ], [ 3443932.793836542870849, 1907541.484878426417708 ], [ 3443933.67028202675283, 1907542.549092274857685 ], [ 3443934.996569946873933, 1907544.546965674497187 ], [ 3443938.731232052668929, 1907550.278719592606649 ], [ 3443957.29836919112131, 1907582.183144466252998 ], [ 3443981.040399583056569, 1907617.964917576406151 ], [ 3444005.559996733441949, 1907657.450212186202407 ], [ 3444033.341913365758955, 1907702.241633682977408 ], [ 3444053.913709823507816, 1907737.241232166066766 ], [ 3444076.848101743031293, 1907774.368293321458623 ], [ 3444079.416670078411698, 1907778.478937841253355 ], [ 3444080.659043528605253, 1907780.591690708417445 ], [ 3444106.101167771499604, 1907822.747517586220056 ], [ 3444129.935098014306277, 1907861.741944213863462 ], [ 3444149.104274868499488, 1907892.940720058977604 ], [ 3444150.84985217358917, 1907896.986961736343801 ], [ 3444152.054165717680007, 1907899.509559885365888 ], [ 3444154.24939261097461, 1907904.48949534050189 ], [ 3444155.713001574389637, 1907908.683665215736255 ], [ 3444156.856441714800894, 1907912.124280041316524 ], [ 3444157.039610511623323, 1907914.615540607832372 ], [ 3444156.894953301176429, 1907916.959762570913881 ], [ 3444156.270278444048017, 1907919.484963016817346 ], [ 3444155.226474903523922, 1907921.273223650641739 ], [ 3444154.037725172471255, 1907922.78295277338475 ], [ 3444152.734747998416424, 1907924.210871149320155 ], [ 3444150.730558648705482, 1907925.04969607363455 ], [ 3444148.017599353101104, 1907925.905927651096135 ], [ 3444142.142084783874452, 1907927.996140542672947 ], [ 3444124.119375997688621, 1907933.021345332730561 ], [ 3444095.572438831906766, 1907940.307326128939167 ], [ 3444094.498116178903729, 1907941.898835992207751 ], [ 3444093.385631736833602, 1907943.900207353988662 ], [ 3444092.799037588294595, 1907946.015664653852582 ], [ 3444092.631672168616205, 1907948.868045357521623 ], [ 3444093.653371340595186, 1907954.144696960924193 ], [ 3444104.326342047192156, 1907995.436450096778572 ], [ 3444116.729654415044934, 1908039.36487921141088 ], [ 3444124.962646367028356, 1908066.235467231599614 ], [ 3444127.0666554258205, 1908073.248098318465054 ], [ 3444132.03704419080168, 1908089.5670955136884 ], [ 3444138.215842039324343, 1908108.438274719519541 ], [ 3444130.924825090914965, 1908109.655123182106763 ], [ 3444105.172313407994807, 1908114.840681700967252 ], [ 3444103.761636205483228, 1908137.460018023848534 ], [ 3444104.671964342240244, 1908141.625482433009893 ], [ 3444107.605005133897066, 1908154.965755617478862 ], [ 3444108.418059243820608, 1908169.446636482607573 ], [ 3444108.594458413310349, 1908172.614887766772881 ], [ 3444108.266296554822475, 1908176.331360747804865 ], [ 3444107.741859464906156, 1908182.188946345821023 ], [ 3444107.302651949226856, 1908187.023472944740206 ], [ 3444109.149915349669755, 1908187.794539192458615 ], [ 3444110.997277814429253, 1908188.565588949481025 ], [ 3444110.272788424510509, 1908190.250034631462768 ], [ 3444100.793159467168152, 1908212.218684954335913 ], [ 3444097.017730655614287, 1908219.133171782828867 ], [ 3444075.720764388330281, 1908258.154800208518282 ], [ 3444067.218110515270382, 1908272.465534940361977 ], [ 3444058.495349235832691, 1908287.125718383817002 ], [ 3444049.289494659751654, 1908303.389724950306118 ], [ 3444044.376558236777782, 1908312.077887530671433 ], [ 3444042.327665951568633, 1908315.97057941951789 ], [ 3444036.093579373322427, 1908327.804569765226915 ], [ 3444031.587266197893769, 1908334.266179328318685 ], [ 3444026.980454365722835, 1908340.865510375006124 ], [ 3444020.203845099546015, 1908346.909108214313164 ], [ 3444010.204769291914999, 1908355.830777591094375 ], [ 3444005.436695613432676, 1908358.442249257583171 ], [ 3444004.758586352225393, 1908359.967652669176459 ], [ 3443999.151034893468022, 1908372.302344070049003 ], [ 3443992.264049865771085, 1908393.424846632173285 ], [ 3443985.445543335750699, 1908414.334182930644602 ], [ 3443984.950329355895519, 1908415.728190985508263 ], [ 3443974.36849156068638, 1908447.756602095672861 ], [ 3443972.753426478244364, 1908453.069843361154199 ], [ 3443969.157682847231627, 1908465.27055699005723 ], [ 3443968.761544086970389, 1908466.648031792370602 ], [ 3443964.871129836887121, 1908479.668201494263485 ], [ 3443962.849315248895437, 1908480.950211866525933 ], [ 3443959.526937893591821, 1908483.118677043821663 ], [ 3443940.06487536104396, 1908496.555243119131774 ], [ 3443937.588297860231251, 1908498.279930863529444 ], [ 3443927.247654093895108, 1908505.65476960176602 ], [ 3443914.064666465856135, 1908515.017197088804096 ], [ 3443911.603344330564141, 1908516.840215889038518 ], [ 3443905.537682618945837, 1908520.979640214005485 ], [ 3443890.785039012786001, 1908532.016287376172841 ], [ 3443854.17042841296643, 1908562.639853276545182 ], [ 3443809.798701864201576, 1908599.602054533781484 ], [ 3443774.822550207842141, 1908629.649691289057955 ], [ 3443744.174716818612069, 1908656.150506492936984 ], [ 3443724.995035987347364, 1908672.062005532439798 ], [ 3443722.305069623049349, 1908673.721458964049816 ], [ 3443722.046246155165136, 1908675.983998681884259 ], [ 3443721.901636119000614, 1908678.328249826095998 ], [ 3443722.183763776440173, 1908679.491657459177077 ], [ 3443722.816420170012861, 1908680.293937633978203 ], [ 3443747.973487586714327, 1908688.502569373929873 ], [ 3443755.045823940075934, 1908690.852801419328898 ], [ 3443779.18939327634871, 1908698.423602572875097 ], [ 3443791.367778629530221, 1908702.241652267519385 ], [ 3443791.908907630480826, 1908702.453961502294987 ], [ 3443825.525328308343887, 1908712.781368486350402 ], [ 3443839.921438223216683, 1908717.137161799473688 ], [ 3443852.922930379398167, 1908721.019697783049196 ], [ 3443882.027720294892788, 1908729.780007649445906 ], [ 3443904.944250985048711, 1908737.959145627217367 ], [ 3443930.459820789750665, 1908747.822983122896403 ], [ 3443940.931095440872014, 1908751.118978334357962 ], [ 3443950.891864449717104, 1908754.399403491523117 ], [ 3443969.365167608018965, 1908759.486897251568735 ], [ 3443990.673611725214869, 1908765.816188323544338 ], [ 3443994.514623936731368, 1908766.990877789910883 ], [ 3444013.31583137344569, 1908773.536875290097669 ], [ 3444035.874116875231266, 1908781.372351893223822 ], [ 3444046.215920798014849, 1908784.488324929028749 ], [ 3444050.155990179628134, 1908785.646384787745774 ], [ 3444060.612022173590958, 1908788.844170494936407 ], [ 3444066.830834296997637, 1908790.93328777840361 ], [ 3444077.87375804875046, 1908794.638373241294175 ], [ 3444087.903072040062398, 1908797.705530789447948 ], [ 3444099.677609660197049, 1908802.19628577074036 ], [ 3444101.941097797825933, 1908803.029015089850873 ], [ 3444117.046125570777804, 1908808.678798022214323 ], [ 3444127.014598752837628, 1908812.664084894582629 ], [ 3444133.561038720887154, 1908814.900278230430558 ], [ 3444145.038291907869279, 1908818.129290706012398 ], [ 3444180.567640161607414, 1908829.650747440988198 ], [ 3444184.736378383357078, 1908830.97250202530995 ], [ 3444190.414075272157788, 1908832.849417411722243 ], [ 3444202.69922902667895, 1908837.355847322847694 ], [ 3444206.342093145474792, 1908838.563618991523981 ], [ 3444208.178764486685395, 1908839.265734906308353 ], [ 3444209.400947125628591, 1908839.579449196811765 ], [ 3444212.502702520228922, 1908845.322851767297834 ], [ 3444229.121327312197536, 1908851.295036344090477 ], [ 3444278.521723047830164, 1908867.653469185810536 ], [ 3444287.78127995878458, 1908870.475989666767418 ], [ 3444316.081987020093948, 1908879.098333085188642 ], [ 3444324.741858412511647, 1908882.051101697608829 ], [ 3444331.414824968203902, 1908884.316737054148689 ], [ 3444343.820453512016684, 1908888.550902087939903 ], [ 3444383.906248895917088, 1908900.814973726635799 ], [ 3444390.852895752061158, 1908902.94415466231294 ], [ 3444410.173751456197351, 1908909.528224895941094 ], [ 3444415.309865888208151, 1908906.902042951667681 ], [ 3444447.634912283625454, 1908940.747295470209792 ], [ 3444453.410677831154317, 1908946.794138976605609 ], [ 3444470.103615760337561, 1908936.997360161039978 ], [ 3444472.721090241335332, 1908935.461012174375355 ], [ 3444506.622174212709069, 1908915.78161240182817 ], [ 3444512.303859076928347, 1908912.311473441077396 ], [ 3444516.201785639859736, 1908911.560093187028542 ], [ 3444521.074514358770102, 1908911.392399433068931 ], [ 3444525.572240219451487, 1908911.55974896857515 ], [ 3444535.012282473966479, 1908906.504099465673789 ], [ 3444579.471372415777296, 1908881.834762534126639 ], [ 3444590.732642337679863, 1908875.678298458922654 ], [ 3444624.99437571503222, 1908856.947606740985066 ], [ 3444634.151198499370366, 1908860.706594474380836 ], [ 3444633.87808437179774, 1908865.865157672669739 ], [ 3444633.787039279006422, 1908869.209183869650587 ], [ 3444633.93219593167305, 1908872.110297585371882 ], [ 3444634.229957594070584, 1908877.306039968738332 ], [ 3444635.366227029357105, 1908883.975830557988957 ], [ 3444641.297813192941248, 1908907.800895812455565 ], [ 3444646.771891077514738, 1908928.676203130278736 ], [ 3444652.566044258885086, 1908950.3049882191699 ], [ 3444655.112532475963235, 1908960.169151115696877 ], [ 3444664.650330815929919, 1908997.413877684157342 ], [ 3444669.659244812093675, 1909015.945753597654402 ], [ 3444670.963003936223686, 1909021.07449266128242 ], [ 3444682.9937943816185, 1909067.183696717722341 ], [ 3444695.382945324294269, 1909113.636507075512782 ], [ 3444706.323427444323897, 1909154.682150197215378 ], [ 3444717.927630804944783, 1909200.660842921817675 ], [ 3444719.406754966359586, 1909206.264693559613079 ], [ 3444728.746408229228109, 1909242.231193652609363 ], [ 3444732.268833146430552, 1909255.765723857330158 ], [ 3444739.724796580616385, 1909280.244327355641872 ], [ 3444741.898038882296532, 1909290.977897478500381 ], [ 3444742.020079889334738, 1909291.76452349149622 ], [ 3444743.056642919313163, 1909293.205522284144536 ], [ 3444743.94836807763204, 1909294.368070056661963 ], [ 3444747.362900380976498, 1909298.034847290720791 ], [ 3444748.353797169867903, 1909299.180844843154773 ], [ 3444749.527484760154039, 1909300.195463267154992 ], [ 3444760.516896131448448, 1909302.900730390334502 ], [ 3444799.13242084113881, 1909312.696928189368919 ], [ 3444806.326691505499184, 1909314.522441225824878 ], [ 3444854.216976868454367, 1909327.108351847622544 ], [ 3444893.503088071476668, 1909337.296971233794466 ], [ 3444931.646018519066274, 1909346.667652690550312 ], [ 3444935.441255616955459, 1909347.547408184502274 ], [ 3444937.57515684934333, 1909348.200039755785838 ], [ 3444981.2512012636289, 1909360.480590788880363 ], [ 3445038.263674019835889, 1909374.873076273361221 ], [ 3445089.179466736968607, 1909387.962920850142837 ], [ 3445141.50505173066631, 1909401.624638522276655 ], [ 3445179.427285615354776, 1909412.84803694835864 ], [ 3445216.716587648727, 1909421.957858390873298 ], [ 3445251.872272086795419, 1909431.726472060428932 ], [ 3445258.030045009683818, 1909433.422384275821969 ], [ 3445259.295089931227267, 1909433.715648831333965 ], [ 3445296.424561587162316, 1909443.760054967366159 ], [ 3445326.481809476856142, 1909452.765529305906966 ], [ 3445335.230805076193064, 1909455.441375247202814 ], [ 3445356.325583125930279, 1909460.394411386922002 ], [ 3445369.509724739473313, 1909462.834425843786448 ], [ 3445375.736073220614344, 1909464.31726061180234 ], [ 3445378.769221839960665, 1909465.525862335693091 ], [ 3445379.2950937487185, 1909465.63985613710247 ], [ 3445380.537341181654483, 1909466.441295260330662 ], [ 3445381.886302066035569, 1909466.619685703190044 ], [ 3445388.387144119478762, 1909468.83475407329388 ], [ 3445386.047728026285768, 1909471.170684613985941 ], [ 3445354.958937991410494, 1909502.686854486120865 ], [ 3445320.311582688242197, 1909536.814490068005398 ], [ 3445295.486027, 1909560.224336041836068 ], [ 3445292.617236521095037, 1909562.814757980173454 ], [ 3445300.052223564125597, 1909571.839561090338975 ], [ 3445306.452434184961021, 1909580.536104355473071 ], [ 3445321.003043052274734, 1909595.912086906842887 ], [ 3445364.763581113424152, 1909645.492065469268709 ], [ 3445383.443071588408202, 1909666.191128374775872 ], [ 3445385.406462578568608, 1909668.365157918538898 ], [ 3445387.88501814333722, 1909671.108899164013565 ], [ 3445391.530540252570063, 1909675.150835365056992 ], [ 3445403.231215800158679, 1909687.904880813788623 ], [ 3445433.022450478281826, 1909711.635408020811155 ], [ 3445402.963680578395724, 1909788.148427341831848 ], [ 3445399.711541634518653, 1909870.120328951161355 ], [ 3445412.316914524417371, 1909925.614644581917673 ], [ 3445455.736887663137168, 1909973.982721818145365 ], [ 3445583.764956413302571, 1910065.828305081930012 ], [ 3445583.189674848690629, 1910087.772817315766588 ], [ 3445581.844611768610775, 1910104.541733579011634 ], [ 3445564.666756519116461, 1910128.298736326163635 ], [ 3445571.335167803801596, 1910132.719181995838881 ], [ 3445577.68546386808157, 1910131.286735866917297 ], [ 3445583.865641944110394, 1910129.851812073495239 ], [ 3445626.09083851845935, 1910120.989310402423143 ], [ 3445648.380760713480413, 1910115.958116687135771 ], [ 3445691.238359579350799, 1910106.586765393381938 ], [ 3445731.764194645453244, 1910097.907093610381708 ], [ 3445767.519450292456895, 1910089.92276783240959 ], [ 3445803.152946230955422, 1910082.463165375171229 ], [ 3445815.612399324309081, 1910079.576962667051703 ], [ 3445822.577436115592718, 1910077.304995135171339 ], [ 3445824.566490000113845, 1910076.619067580671981 ], [ 3445824.566490000113845, 1907949.887863984564319 ], [ 3445821.473586717620492, 1907942.721262601902708 ] ] ], [ [ [ 3445816.518832755740732, 1910192.202855861280113 ], [ 3445814.072841993067414, 1910194.124131027143449 ], [ 3445811.642122908029705, 1910196.143832870526239 ], [ 3445808.525609759613872, 1910198.983991350978613 ], [ 3445807.13889469159767, 1910200.526756214676425 ], [ 3445801.942270786501467, 1910206.336851249914616 ], [ 3445800.784211937803775, 1910208.043208215385675 ], [ 3445798.140267988666892, 1910211.308879721676931 ], [ 3445795.633442287798971, 1910214.14817463979125 ], [ 3445784.866992905270308, 1910226.637643527705222 ], [ 3445782.238307328894734, 1910230.001645736396313 ], [ 3445767.593775790650398, 1910248.282849087379873 ], [ 3445759.288666949607432, 1910258.94926719693467 ], [ 3445755.920905486680567, 1910263.445347605738789 ], [ 3445753.269434696529061, 1910267.317528034327552 ], [ 3445747.677019027993083, 1910275.816416032146662 ], [ 3445744.278938388451934, 1910281.427174212178215 ], [ 3445743.250369057990611, 1910283.313676189165562 ], [ 3445741.574275549035519, 1910286.922320419922471 ], [ 3445737.742249041330069, 1910295.631719257449731 ], [ 3445737.20903804525733, 1910297.435559090925381 ], [ 3445733.377413933631033, 1910308.767722000135109 ], [ 3445731.610153240617365, 1910314.408964556874707 ], [ 3445725.882077557966113, 1910333.824915980920196 ], [ 3445725.25752180814743, 1910336.350119920447469 ], [ 3445724.290175215806812, 1910339.941269538365304 ], [ 3445723.505537088960409, 1910342.089791747508571 ], [ 3445722.340048109646887, 1910345.714007024420425 ], [ 3445721.593633488751948, 1910348.763917995383963 ], [ 3445718.523968642111868, 1910359.767091575078666 ], [ 3445716.673110141884536, 1910366.834631158038974 ], [ 3445715.728748583234847, 1910371.228941379580647 ], [ 3445714.654802645556629, 1910375.44312805426307 ], [ 3445712.590532143600285, 1910382.445308225462213 ], [ 3445711.341442356817424, 1910387.495818419614807 ], [ 3445709.47541593760252, 1910394.464917968492955 ], [ 3445708.020443656481802, 1910398.843565520830452 ], [ 3445705.9561926741153, 1910405.84584678336978 ], [ 3445703.732024751603603, 1910413.782583615276963 ], [ 3445702.566738346125931, 1910418.718136912211776 ], [ 3445698.598720964044333, 1910435.722054618643597 ], [ 3445697.631580023560673, 1910440.624543866841123 ], [ 3445697.121555977500975, 1910444.542881447356194 ], [ 3445695.340155869722366, 1910457.953927834518254 ], [ 3445695.134877366479486, 1910461.21616471465677 ], [ 3445694.907107771839947, 1910467.609261233359575 ], [ 3445694.976059907115996, 1910470.018740135710686 ], [ 3445696.2292201500386, 1910493.817825523437932 ], [ 3445696.618471164256334, 1910498.292217081412673 ], [ 3445697.733025535941124, 1910512.026894063455984 ], [ 3445698.447435088921338, 1910519.622789999237284 ], [ 3445824.566490000113845, 1910519.622789999237284 ], [ 3445824.566490000113845, 1910186.924275260884315 ], [ 3445816.518832755740732, 1910192.202855861280113 ] ] ] ] } }
]
}
