{
"type": "FeatureCollection",
"name": "Tírig",
"crs": { "type": "name", "properties": { "name": "urn:ogc:def:crs:EPSG::3035" } },
"features": [
{ "type": "Feature", "properties": { "SITE_NAME": "Racó del Frare", "ODESIGNATE": "Paraje Natural Municipal", "NUT2": 52, "SITE_CODE_": "ES522104", "DESIG_ABBR": "ES15", "SITE_CDDA": "389053_CDDA", "Sup_ha": 207.35378930900001 }, "geometry": { "type": "Polygon", "coordinates": [ [ [ 3482480.318252603057772, 1985448.863763414788991 ], [ 3482473.208487065508962, 1985444.557891591219231 ], [ 3482451.846516346558928, 1985431.613242114661261 ], [ 3482447.956420936621726, 1985429.252964313374832 ], [ 3482447.828881248366088, 1985429.175372277852148 ], [ 3482446.915205529890954, 1985428.624618455534801 ], [ 3482419.913514532148838, 1985412.881168517516926 ], [ 3482395.719435052014887, 1985479.011226169299334 ], [ 3482374.786029690876603, 1985467.405964426696301 ], [ 3482357.945156629197299, 1985459.562547776149586 ], [ 3482335.92948579788208, 1985453.4596677783411 ], [ 3482313.548319398425519, 1985447.552896563662216 ], [ 3482266.080677564255893, 1985438.668601095443591 ], [ 3482224.459512242116034, 1985418.166988347424194 ], [ 3482222.524293877650052, 1985417.216220094589517 ], [ 3482180.408098029904068, 1985403.991271360544488 ], [ 3482157.879666077438742, 1985395.92674716655165 ], [ 3482137.000435716938227, 1985388.650972610106692 ], [ 3482107.827377165202051, 1985378.967826172243804 ], [ 3482090.010386561974883, 1985373.563129066955298 ], [ 3482074.937711542472243, 1985371.352205203380436 ], [ 3482062.949816669337451, 1985370.229270811192691 ], [ 3482043.881695823743939, 1985368.96208429033868 ], [ 3482042.519585080910474, 1985379.237158343195915 ], [ 3481998.67530074948445, 1985371.498299300204962 ], [ 3481999.646162936929613, 1985364.945663892896846 ], [ 3481980.823773237876594, 1985365.11593090929091 ], [ 3481960.457760127261281, 1985364.206833860371262 ], [ 3481942.067754400894046, 1985364.835105351405218 ], [ 3481921.82294955290854, 1985366.246531521901488 ], [ 3481908.343646040186286, 1985370.436046370305121 ], [ 3481897.021972982678562, 1985373.502273276215419 ], [ 3481885.125547613017261, 1985378.29683962254785 ], [ 3481874.848774261306971, 1985386.666065010009333 ], [ 3481844.272900858428329, 1985410.647765554487705 ], [ 3481825.26051351102069, 1985394.038411620305851 ], [ 3481827.95238557877019, 1985372.770700969966128 ], [ 3481829.383347554132342, 1985357.032837891718373 ], [ 3481831.193058885168284, 1985341.367933719186112 ], [ 3481835.012710466980934, 1985326.356103021418676 ], [ 3481837.484845411963761, 1985318.774798618629575 ], [ 3481836.899505670648068, 1985292.003199826227501 ], [ 3481801.089950836729258, 1985295.036445173667744 ], [ 3481796.657703727018088, 1985295.59268000209704 ], [ 3481785.966464005876333, 1985293.981856612954289 ], [ 3481777.240661914460361, 1985295.060759556246921 ], [ 3481768.700201502069831, 1985295.490754364058375 ], [ 3481759.725733329541981, 1985296.604148085461929 ], [ 3481750.553618552628905, 1985300.540029294323176 ], [ 3481743.837582796812057, 1985303.543440214591101 ], [ 3481735.040235873777419, 1985311.907289412571117 ], [ 3481725.151019126642495, 1985319.637848183978349 ], [ 3481718.648177212569863, 1985325.673644655849785 ], [ 3481712.617030164692551, 1985329.490589561406523 ], [ 3481702.140182529110461, 1985336.137766767060384 ], [ 3481690.345872373320162, 1985347.549580204300582 ], [ 3481685.732214267365634, 1985355.51177013060078 ], [ 3481672.639653074555099, 1985341.333253398537636 ], [ 3481668.542599391192198, 1985339.023542273091152 ], [ 3481639.524537257384509, 1985311.896407403750345 ], [ 3481605.917789031751454, 1985283.288842935115099 ], [ 3481592.796159012243152, 1985273.988578427117318 ], [ 3481578.038093153852969, 1985261.265425004530698 ], [ 3481563.858980549499393, 1985250.91799916792661 ], [ 3481548.839210458565503, 1985242.134949370520189 ], [ 3481531.021080414298922, 1985230.924285493092611 ], [ 3481515.652756340801716, 1985222.41575943143107 ], [ 3481497.542291874531657, 1985214.907908389111981 ], [ 3481482.494102386757731, 1985209.851697309175506 ], [ 3481465.105252414476126, 1985203.464198149740696 ], [ 3481458.770986406132579, 1985201.825051164021716 ], [ 3481447.608467375859618, 1985196.066148966783658 ], [ 3481436.98893430409953, 1985188.331705624703318 ], [ 3481425.862724021542817, 1985179.51578497630544 ], [ 3481411.743867911864072, 1985166.850037458352745 ], [ 3481398.034674486611038, 1985156.696697067236528 ], [ 3481382.771852588281035, 1985143.032252029981464 ], [ 3481378.466752937529236, 1985139.371465815929696 ], [ 3481369.300857660360634, 1985131.564070258988068 ], [ 3481358.924180735833943, 1985119.210652572102845 ], [ 3481348.425358409062028, 1985109.85260701389052 ], [ 3481293.709916959516704, 1985081.520721952663735 ], [ 3481334.582303356379271, 1985021.137029041768983 ], [ 3481348.010328219272196, 1985011.146032828371972 ], [ 3481331.198661950416863, 1985003.059968865243718 ], [ 3481316.455892671365291, 1984995.030559844803065 ], [ 3481300.936590559314936, 1984984.785100957844406 ], [ 3481293.95533711463213, 1984979.52573873125948 ], [ 3481281.394105504266918, 1984971.922306603752077 ], [ 3481268.290645001921803, 1984965.493581729708239 ], [ 3481262.155717932619154, 1984962.673656756756827 ], [ 3481253.410437077749521, 1984975.45719909388572 ], [ 3481244.595033743884414, 1984974.693077018251643 ], [ 3481230.491647788323462, 1984970.545048624044284 ], [ 3481214.077218810096383, 1984964.131806378718466 ], [ 3481199.384366911370307, 1984956.097507910104468 ], [ 3481205.361679686699063, 1984941.353879230096936 ], [ 3481168.922772309742868, 1984920.123131475644186 ], [ 3481139.599953745026141, 1984902.576844073832035 ], [ 3481133.49456753814593, 1984897.20130465994589 ], [ 3481121.130348686128855, 1984891.400529861683026 ], [ 3481109.015101870056242, 1984886.496317157754675 ], [ 3481096.491634963080287, 1984882.222858947468922 ], [ 3481082.662124904803932, 1984880.760929960291833 ], [ 3481072.252568982541561, 1984880.073592426721007 ], [ 3481060.10523562412709, 1984878.506066175643355 ], [ 3481050.14384210202843, 1984874.751418898813426 ], [ 3481039.201552505604923, 1984872.684906242415309 ], [ 3481033.156358586158603, 1984872.749275540700182 ], [ 3481027.874486495740712, 1984883.680475331144407 ], [ 3481018.986956636421382, 1984896.217882886063308 ], [ 3481008.346690582111478, 1984910.2492639136035 ], [ 3481002.991772961337119, 1984922.308775551849976 ], [ 3480997.64954960718751, 1984933.356045481050387 ], [ 3480994.533097513951361, 1984944.874972181627527 ], [ 3480993.045532483607531, 1984957.064405491808429 ], [ 3480994.031037061475217, 1984970.60225166962482 ], [ 3480993.970336819067597, 1984982.991647608578205 ], [ 3480992.674008483998477, 1984997.845252136467025 ], [ 3480986.731362054590136, 1985013.566649217624217 ], [ 3480981.490168002434075, 1985029.829547110246494 ], [ 3480976.340294332709163, 1985050.037864700425416 ], [ 3480973.870976030826569, 1985061.473094977904111 ], [ 3480973.079604333266616, 1985078.429309471743181 ], [ 3480969.397598219104111, 1985100.235075970413163 ], [ 3480965.643242956139147, 1985126.652858879417181 ], [ 3480960.693123157601804, 1985150.665688101667911 ], [ 3480960.096022987738252, 1985168.233542595524341 ], [ 3480961.231078292708844, 1985183.028040740638971 ], [ 3480959.904232325032353, 1985196.603265259414911 ], [ 3480953.408108493778855, 1985206.652858285000548 ], [ 3480944.670368564780802, 1985211.877663907827809 ], [ 3480931.9104875465855, 1985219.940928611438721 ], [ 3480918.933909958228469, 1985228.405953308800235 ], [ 3480905.674336486496031, 1985237.66964341676794 ], [ 3480893.040997246745974, 1985247.882918886141852 ], [ 3480884.00506055355072, 1985258.1324358927086 ], [ 3480877.671265132725239, 1985267.38530061324127 ], [ 3480868.819629344157875, 1985276.97598823858425 ], [ 3480860.360572318080813, 1985284.595965101616457 ], [ 3480848.52178404154256, 1985290.746676260139793 ], [ 3480836.70521907415241, 1985295.99415871524252 ], [ 3480823.187026776839048, 1985297.765153697691858 ], [ 3480809.812270865775645, 1985296.438695057528093 ], [ 3480777.911304344888777, 1985302.16147916787304 ], [ 3480767.429132425691932, 1985303.533601139206439 ], [ 3480757.483475553803146, 1985307.255557633005083 ], [ 3480733.363502915017307, 1985319.09994193771854 ], [ 3480723.888441026210785, 1985326.729899851838127 ], [ 3480714.53055266616866, 1985335.359293594025075 ], [ 3480703.088225272484124, 1985343.753516548778862 ], [ 3480691.622819289099425, 1985353.040931391529739 ], [ 3480678.386371412780136, 1985361.411550470395014 ], [ 3480666.190425243228674, 1985367.737583287060261 ], [ 3480653.743294646032155, 1985368.852581586455926 ], [ 3480646.495827123522758, 1985367.253523628227413 ], [ 3480630.898464427795261, 1985357.035901226103306 ], [ 3480620.974312324076891, 1985345.949671553447843 ], [ 3480615.152438074816018, 1985329.474151084199548 ], [ 3480610.981868901755661, 1985313.927269391715527 ], [ 3480605.629751336295158, 1985301.349793660687283 ], [ 3480595.895448603667319, 1985286.540797924622893 ], [ 3480585.123126987367868, 1985271.603725488064811 ], [ 3480573.428808575030416, 1985258.569427315378562 ], [ 3480560.007243893109262, 1985246.165520063834265 ], [ 3480548.11583346594125, 1985235.843555359402671 ], [ 3480535.204124656505883, 1985221.197221964597702 ], [ 3480520.867767008021474, 1985205.449642077786848 ], [ 3480509.123973406851292, 1985189.87744401791133 ], [ 3480498.193589328788221, 1985172.543343061348423 ], [ 3480488.710377952083945, 1985155.527302146190777 ], [ 3480481.082601379603148, 1985140.050476098433137 ], [ 3480471.885412681847811, 1985126.44000179739669 ], [ 3480453.810615832917392, 1985103.011801579734311 ], [ 3480414.578896383289248, 1985166.508453928167 ], [ 3480409.083412325941026, 1985155.987422403879464 ], [ 3480398.597869012039155, 1985144.46589626185596 ], [ 3480386.42623654473573, 1985133.931308974744752 ], [ 3480424.311726227402687, 1985067.804140841122717 ], [ 3480399.525837497785687, 1985038.749665503390133 ], [ 3480392.610493591055274, 1985048.26006499514915 ], [ 3480314.897017682436854, 1985155.157942526973784 ], [ 3480279.340568156447262, 1985204.067460200749338 ], [ 3480264.817976534366608, 1985224.047241155523807 ], [ 3480264.847675224766135, 1985232.263353899586946 ], [ 3480264.86407293798402, 1985237.317152442643419 ], [ 3480264.940518198534846, 1985240.743424283806235 ], [ 3480265.038406951818615, 1985245.228628580691293 ], [ 3480265.230530431028455, 1985253.228467477718368 ], [ 3480264.847106724511832, 1985258.662153078475967 ], [ 3480263.995913684368134, 1985270.758936229161918 ], [ 3480263.751371842809021, 1985277.210027855355293 ], [ 3480263.266365807969123, 1985290.392097011674196 ], [ 3480262.658711111638695, 1985303.205810819519684 ], [ 3480262.353003398515284, 1985309.53279949631542 ], [ 3480260.733869638293982, 1985331.325742050539702 ], [ 3480257.749775260686874, 1985355.715687345247716 ], [ 3480254.850939255673438, 1985373.2098520740401 ], [ 3480252.628013373352587, 1985394.31138191302307 ], [ 3480248.938198066316545, 1985413.825524374842644 ], [ 3480246.34005562402308, 1985424.702885465929285 ], [ 3480243.807464816141874, 1985435.293469869531691 ], [ 3480242.251564690377563, 1985442.874682887922972 ], [ 3480240.617899321485311, 1985450.834034287836403 ], [ 3480240.56699241977185, 1985451.059224675642326 ], [ 3480240.356569517403841, 1985452.691704844823107 ], [ 3480238.20823822543025, 1985468.860586097463965 ], [ 3480236.688743143342435, 1985476.858789002289996 ], [ 3480234.746529899537563, 1985487.060858555603772 ], [ 3480229.99938369449228, 1985505.297547872876748 ], [ 3480227.034311597701162, 1985514.619262160733342 ], [ 3480224.313162834849209, 1985523.156203370075673 ], [ 3480219.138986612204462, 1985540.303660597419366 ], [ 3480217.614487734623253, 1985545.349088718881831 ], [ 3480210.357388583943248, 1985566.215528613654897 ], [ 3480206.304369112476707, 1985580.739929259289056 ], [ 3480204.61387168802321, 1985586.77268596412614 ], [ 3480200.148018722888082, 1985608.245335273910314 ], [ 3480170.206862418912351, 1985642.296755133895203 ], [ 3480163.096752553246915, 1985655.009794631740078 ], [ 3480145.156903642229736, 1985687.098976998589933 ], [ 3480136.939651690423489, 1985701.783028109930456 ], [ 3480141.673590949270874, 1985705.281347199808806 ], [ 3480154.336695927195251, 1985714.636301568476483 ], [ 3480172.109627292491496, 1985728.453750065993518 ], [ 3480191.253800977487117, 1985744.148286123294383 ], [ 3480212.609745817258954, 1985762.238051187712699 ], [ 3480230.956943436525762, 1985775.598521878011525 ], [ 3480248.354660511948168, 1985787.300562978954986 ], [ 3480271.522756669204682, 1985798.904979778919369 ], [ 3480295.68467508116737, 1985811.402791186468676 ], [ 3480318.640137211885303, 1985821.2563125139568 ], [ 3480355.996432365849614, 1985834.627622152678668 ], [ 3480377.448969690594822, 1985843.638043390586972 ], [ 3480396.307055524084717, 1985853.494473892496899 ], [ 3480416.661012744531035, 1985869.670807208167389 ], [ 3480433.278170669451356, 1985883.512021000497043 ], [ 3480446.489955916535109, 1985897.788475617067888 ], [ 3480458.418681837618351, 1985909.928871093317866 ], [ 3480467.746623911429197, 1985918.440978398080915 ], [ 3480483.246509718708694, 1985917.115453698905185 ], [ 3480499.065067729447037, 1985909.611833401024342 ], [ 3480513.303689905442297, 1985905.126888030208647 ], [ 3480524.943820800632238, 1985903.640710877953097 ], [ 3480543.259879676159471, 1985906.683095148298889 ], [ 3480561.684254787862301, 1985908.423435240518302 ], [ 3480579.124571822118014, 1985910.540896793827415 ], [ 3480595.941004923544824, 1985910.577445078874007 ], [ 3480614.98538776487112, 1985918.753905708901584 ], [ 3480637.060286263003945, 1985932.02793725929223 ], [ 3480654.664493902586401, 1985942.16806927905418 ], [ 3480692.454046491999179, 1985964.807276442181319 ], [ 3480710.725810415577143, 1985977.41453741164878 ], [ 3480728.639763058628887, 1985991.348492220509797 ], [ 3480733.017390892840922, 1985980.326015133410692 ], [ 3480736.629979462828487, 1985968.377765311626717 ], [ 3480740.059277086518705, 1985955.826859390828758 ], [ 3480744.242624289356172, 1985945.464200013317168 ], [ 3480753.190292471088469, 1985936.284381390316412 ], [ 3480765.616542979609221, 1985928.323860791046172 ], [ 3480782.039619318209589, 1985922.793090288294479 ], [ 3480797.832301439251751, 1985919.506749097025022 ], [ 3480819.1714754300192, 1985914.242927844170481 ], [ 3480839.366881153080612, 1985907.980494253570214 ], [ 3480875.809493388980627, 1985897.986625622026622 ], [ 3480892.48877882771194, 1985894.593023359542713 ], [ 3480919.205352370161563, 1985885.866709857946262 ], [ 3480934.134423232637346, 1985880.753333200700581 ], [ 3480956.675525632221252, 1985873.679507668595761 ], [ 3480979.875371430069208, 1985866.771023267880082 ], [ 3480996.370376317296177, 1985864.036308928858489 ], [ 3481012.17375847324729, 1985862.030394269851968 ], [ 3480998.948846663348377, 1985848.645914332708344 ], [ 3480989.549022360704839, 1985837.337699445430189 ], [ 3480980.062817404512316, 1985825.267119560856372 ], [ 3480969.229170684702694, 1985810.43603325705044 ], [ 3480985.741475133690983, 1985811.143432429526001 ], [ 3481006.487122907768935, 1985815.148159935604781 ], [ 3481025.037570371758193, 1985820.189888635650277 ], [ 3481039.392930663190782, 1985827.816941142780706 ], [ 3481052.867603040765971, 1985838.86419993522577 ], [ 3481064.664807788096368, 1985852.038787321653217 ], [ 3481071.945394678972661, 1985865.027200772427022 ], [ 3481078.921854921616614, 1985878.686308168107644 ], [ 3481093.970165699720383, 1985904.475052217487246 ], [ 3481100.006691774353385, 1985917.746061989106238 ], [ 3481109.097505771555007, 1985945.302501180907711 ], [ 3481112.843004734721035, 1985958.73900898755528 ], [ 3481117.594102458562702, 1985972.046415607212111 ], [ 3481125.588848802726716, 1985984.564171926816925 ], [ 3481137.94124040659517, 1985994.861020381329581 ], [ 3481150.154689466580749, 1986002.748954479815438 ], [ 3481166.672840870451182, 1986009.081939268391579 ], [ 3481179.835568324662745, 1986018.508246415993199 ], [ 3481191.349347477778792, 1986024.833257985534146 ], [ 3481206.673531116452068, 1986025.307199833448976 ], [ 3481220.022529054898769, 1986024.253760819789022 ], [ 3481232.698404058814049, 1986025.06846865080297 ], [ 3481255.129568935837597, 1986029.237840366084129 ], [ 3481278.985884548630565, 1986034.628490408649668 ], [ 3481294.940483096055686, 1986041.657688956009224 ], [ 3481308.1603823909536, 1986049.42659642198123 ], [ 3481317.632429370190948, 1986064.692046787822619 ], [ 3481325.033205532468855, 1986085.317178840748966 ], [ 3481332.651175452861935, 1986105.66057216655463 ], [ 3481336.492833275813609, 1986121.129837898071855 ], [ 3481343.11561052268371, 1986141.721299479249865 ], [ 3481349.613240346312523, 1986159.021498366259038 ], [ 3481351.53890327597037, 1986176.771696566836908 ], [ 3481359.714891135692596, 1986200.754166717175394 ], [ 3481378.55536358198151, 1986236.000659686047584 ], [ 3481389.873768684454262, 1986252.816452965140343 ], [ 3481402.806305251084268, 1986265.84937378228642 ], [ 3481422.684143525082618, 1986253.501768626505509 ], [ 3481444.846124256029725, 1986237.665754646761343 ], [ 3481460.596186531707644, 1986225.203760659787804 ], [ 3481479.249182406812906, 1986215.559537652414292 ], [ 3481501.859122577123344, 1986191.210183924296871 ], [ 3481519.387029595673084, 1986176.731306550325826 ], [ 3481541.312453499063849, 1986159.447025245754048 ], [ 3481562.941259671002626, 1986139.909490175079554 ], [ 3481585.898533622734249, 1986119.670492094941437 ], [ 3481611.55443761497736, 1986099.436308830976486 ], [ 3481637.289501232560724, 1986077.912969385506585 ], [ 3481674.789291114546359, 1986045.911772005259991 ], [ 3481695.295722926035523, 1986026.664887153776363 ], [ 3481719.065924294292927, 1986004.774348840815946 ], [ 3481754.72366704698652, 1985971.502813382307068 ], [ 3481718.938313374295831, 1985794.606932952068746 ], [ 3481716.730726566631347, 1985782.530773474136367 ], [ 3481711.696988136507571, 1985769.561412311159074 ], [ 3481708.087040165904909, 1985757.683266517706215 ], [ 3481702.560735175386071, 1985742.870228545740247 ], [ 3481697.137208971194923, 1985730.86027315678075 ], [ 3481690.859697881154716, 1985714.239210123661906 ], [ 3481682.0997961666435, 1985698.362883831840008 ], [ 3481674.195740891620517, 1985685.035323954885826 ], [ 3481668.892523392103612, 1985676.957763092825189 ], [ 3481645.986977458000183, 1985663.975203331327066 ], [ 3481627.760491490364075, 1985653.395330582512543 ], [ 3481611.524465045891702, 1985645.212470644619316 ], [ 3481594.940486280247569, 1985638.35513365524821 ], [ 3481580.801490645855665, 1985633.449683214537799 ], [ 3481565.442706781439483, 1985629.104728800710291 ], [ 3481552.08246570173651, 1985628.177066481439397 ], [ 3481537.98861819691956, 1985627.611890279687941 ], [ 3481519.272903164383024, 1985628.082276062574238 ], [ 3481491.753149262163788, 1985631.971797795966268 ], [ 3481476.362096359021962, 1985642.195987629238516 ], [ 3481458.83885186444968, 1985654.762238038238138 ], [ 3481441.070438599679619, 1985668.213684517191723 ], [ 3481428.690891530830413, 1985676.019152265507728 ], [ 3481416.79353210888803, 1985695.510036523919553 ], [ 3481401.520974459126592, 1985706.633574547478929 ], [ 3481392.598892638925463, 1985672.793687309138477 ], [ 3481383.157111381180584, 1985641.197358285775408 ], [ 3481393.12537745712325, 1985637.503415000624955 ], [ 3481401.926136969588697, 1985634.855350505793467 ], [ 3481408.981764701660722, 1985627.073256054660305 ], [ 3481420.984618643298745, 1985598.141689359908924 ], [ 3481433.123449768871069, 1985576.795109994011 ], [ 3481448.693813257850707, 1985552.187557545490563 ], [ 3481467.637494511902332, 1985521.912301748758182 ], [ 3481400.910908166319132, 1985470.645937535446137 ], [ 3481405.348227148875594, 1985460.308480537030846 ], [ 3481408.233787102624774, 1985448.912402186542749 ], [ 3481412.319578952621669, 1985403.491154897492379 ], [ 3481416.405334949027747, 1985358.070044074906036 ], [ 3481417.167224212549627, 1985347.203258154913783 ], [ 3481417.929131568875164, 1985336.336571749765426 ], [ 3481418.522516617551446, 1985326.252234873827547 ], [ 3481419.115804985165596, 1985316.167915523285046 ], [ 3481427.721483213361353, 1985316.37214756780304 ], [ 3481433.049660400487483, 1985318.135305295931175 ], [ 3481438.377822109963745, 1985319.898365082917735 ], [ 3481444.872463512700051, 1985322.918255372904241 ], [ 3481451.366990428417921, 1985325.938064366579056 ], [ 3481458.070245220325887, 1985330.779445193707943 ], [ 3481464.773484672419727, 1985335.620728064794093 ], [ 3481470.477132765576243, 1985340.139983156463131 ], [ 3481476.180864548310637, 1985344.659123616525903 ], [ 3481479.885886096395552, 1985348.539174913661554 ], [ 3481483.590907776728272, 1985352.419226300437003 ], [ 3481488.019742092117667, 1985355.882624734193087 ], [ 3481492.448675449937582, 1985359.34600678505376 ], [ 3481496.668943888973445, 1985343.90432408824563 ], [ 3481500.889202982187271, 1985328.462546869413927 ], [ 3481514.066294120624661, 1985341.876873632892966 ], [ 3481527.243371388874948, 1985355.291103145573288 ], [ 3481533.569394645746797, 1985339.982578883646056 ], [ 3481539.895325222518295, 1985324.674076134804636 ], [ 3481571.857160746119916, 1985356.016242551384494 ], [ 3481603.818920384161174, 1985387.358530544675887 ], [ 3481619.240815609693527, 1985370.654310746351257 ], [ 3481637.038843948859721, 1985385.455893460894004 ], [ 3481654.836972382385284, 1985400.257462072884664 ], [ 3481642.812417545355856, 1985407.977934713708237 ], [ 3481634.304203983861953, 1985414.281147310277447 ], [ 3481625.795991864986718, 1985420.584362984402105 ], [ 3481627.801776161417365, 1985422.579464916838333 ], [ 3481650.089151275344193, 1985429.956629666732624 ], [ 3481662.720564326271415, 1985442.99912895867601 ], [ 3481668.049352386035025, 1985449.402362753637135 ], [ 3481713.909500483423471, 1985419.411608279915527 ], [ 3481715.533072029706091, 1985426.970285588875413 ], [ 3481715.872482545673847, 1985434.465106592979282 ], [ 3481716.849379217252135, 1985441.997216157848015 ], [ 3481719.109214236028492, 1985449.463299533119425 ], [ 3481724.849888928234577, 1985455.045037077274173 ], [ 3481732.092507300898433, 1985459.257690687896684 ], [ 3481737.217247659806162, 1985465.05023718602024 ], [ 3481741.614249978214502, 1985473.126830911030993 ], [ 3481744.099473283626139, 1985481.331539131235331 ], [ 3481747.852575364988297, 1985492.424686556914821 ], [ 3481749.763195893261582, 1985502.1275129748974 ], [ 3481752.406974568963051, 1985511.577942360891029 ], [ 3481756.477296715136617, 1985521.108199426904321 ], [ 3481763.262511889915913, 1985527.818591426825151 ], [ 3481773.453890840988606, 1985535.955628987634555 ], [ 3481780.22380771394819, 1985544.459427651017904 ], [ 3481784.524355000350624, 1985551.774744849884883 ], [ 3481784.379823026712984, 1985558.566380041185766 ], [ 3481781.74889450147748, 1985566.984149982919917 ], [ 3481777.210104477126151, 1985580.324864073423669 ], [ 3481772.042769106570631, 1985588.751993343932554 ], [ 3481758.63553292164579, 1985596.603205022402108 ], [ 3481761.252199355512857, 1985601.286404031561688 ], [ 3481774.560828442685306, 1985600.577428526245058 ], [ 3481782.002994492184371, 1985613.339801016030833 ], [ 3481791.621172566432506, 1985626.929127390030771 ], [ 3481803.916834952309728, 1985640.395301099400967 ], [ 3481817.65626455238089, 1985650.085344979772344 ], [ 3481836.647031342610717, 1985661.581180467503145 ], [ 3481876.009127534925938, 1985690.263429010054097 ], [ 3481885.948964096605778, 1985700.487477683229372 ], [ 3481909.687108249869198, 1985698.03149988478981 ], [ 3481921.980515772476792, 1985697.572628196328878 ], [ 3481935.32322341343388, 1985696.329764879541472 ], [ 3481954.880270532332361, 1985696.387544090859592 ], [ 3481966.492702911607921, 1985696.666471436619759 ], [ 3481996.561444884166121, 1985701.366077661048621 ], [ 3482013.284159985836595, 1985704.375614308286458 ], [ 3482037.665869523305446, 1985713.839450494619086 ], [ 3482047.935284430161119, 1985720.557438500924036 ], [ 3482058.223065027967095, 1985729.455991197377443 ], [ 3482075.712902446743101, 1985756.11601250921376 ], [ 3482098.090103594586253, 1985788.732194007374346 ], [ 3482118.869897775352001, 1985820.925002183299512 ], [ 3482125.736789455637336, 1985834.134517525788397 ], [ 3482133.892844610847533, 1985850.360621027415618 ], [ 3482144.131475840229541, 1985866.802276062779129 ], [ 3482155.020928848534822, 1985886.213179823709652 ], [ 3482186.220188037492335, 1985936.231453513260931 ], [ 3482195.621764111332595, 1985955.087953529553488 ], [ 3482204.270324107725173, 1985973.157752012601122 ], [ 3482210.26032813731581, 1985987.514740607701242 ], [ 3482217.876580191776156, 1986003.553723668679595 ], [ 3482225.482029091566801, 1986024.449032799573615 ], [ 3482229.494360905140638, 1986040.492268976988271 ], [ 3482232.956438731402159, 1986056.229217784712091 ], [ 3482234.717555026523769, 1986069.77095969975926 ], [ 3482236.734121929854155, 1986080.34440653398633 ], [ 3482243.531165197491646, 1986095.993476462783292 ], [ 3482249.685120959300548, 1986104.708213340956718 ], [ 3482259.751662948634475, 1986110.945612462935969 ], [ 3482271.429946176707745, 1986110.707530058221892 ], [ 3482284.643798235803843, 1986109.48743669455871 ], [ 3482303.297401423100382, 1986107.491895818151534 ], [ 3482319.459602870978415, 1986105.210963544202968 ], [ 3482336.850602584891021, 1986103.399671070976183 ], [ 3482353.21462535392493, 1986102.630537131801248 ], [ 3482371.314460711088032, 1986102.371364487102255 ], [ 3482383.895295249763876, 1986104.176829221891239 ], [ 3482415.314109435770661, 1986113.288988209795207 ], [ 3482429.244186669122428, 1986119.496652178931981 ], [ 3482441.446966139599681, 1986126.334862114628777 ], [ 3482454.755191368050873, 1986135.697185867698863 ], [ 3482468.413511696271598, 1986147.698030742350966 ], [ 3482476.942557680886239, 1986157.790810159873217 ], [ 3482481.768617437686771, 1986160.379290944896638 ], [ 3482484.437965000513941, 1986155.293980403337628 ], [ 3482484.437965000513941, 1985451.360419419361278 ], [ 3482480.318252603057772, 1985448.863763414788991 ] ] ] } }
]
}
