{
"type": "FeatureCollection",
"name": "Horcajuelo_de_la_Sierra",
"crs": { "type": "name", "properties": { "name": "urn:ogc:def:crs:EPSG::3035" } },
"features": [
{ "type": "Feature", "properties": { "ENP_GRAL": 1.0, "ENP_GRAL_NAME": "Otros Parques", "color": "#38A800" }, "geometry": { "type": "MultiPolygon", "coordinates": [ [ [ [ 3188843.386941196396947, 2104975.84812474437058 ], [ 3188841.628057535272092, 2104977.694008216261864 ], [ 3188841.301152063068002, 2104978.037446261383593 ], [ 3188841.152520187199116, 2104978.270615993998945 ], [ 3188839.922625194303691, 2104980.204234444070607 ], [ 3188838.476752380374819, 2104982.585598150268197 ], [ 3188837.374422466382384, 2104985.210810600779951 ], [ 3188836.382980480790138, 2104988.526180295273662 ], [ 3188836.019418563693762, 2104991.326121472753584 ], [ 3188835.746801248751581, 2104995.326004561968148 ], [ 3188835.880690899211913, 2104999.963964935857803 ], [ 3188837.227578118443489, 2105014.613002208061516 ], [ 3188837.228647838812321, 2105014.625380939804018 ], [ 3188837.247185305226594, 2105014.824711726978421 ], [ 3188839.438729584217072, 2105036.735450060106814 ], [ 3188840.714547523297369, 2105048.709923555143178 ], [ 3188840.72562921885401, 2105048.812666321638972 ], [ 3188840.743220819160342, 2105048.978214106522501 ], [ 3188840.781076803803444, 2105049.332960352301598 ], [ 3188841.251467547379434, 2105053.746904542203993 ], [ 3188842.404515685047954, 2105066.010114502161741 ], [ 3188844.256682760082185, 2105074.400810841470957 ], [ 3188844.49204849684611, 2105075.119532515760511 ], [ 3188845.071964999195188, 2105076.890082769561559 ], [ 3188845.071964999195188, 2104974.293374807573855 ], [ 3188843.386941196396947, 2104975.84812474437058 ] ] ], [ [ [ 3188842.221125974319875, 2105116.81352827930823 ], [ 3188838.871305602602661, 2105121.251136328093708 ], [ 3188835.212315430864692, 2105125.392665296792984 ], [ 3188834.316688566468656, 2105126.406558960676193 ], [ 3188805.045273499563336, 2105152.81545327231288 ], [ 3188798.95816974202171, 2105158.543109161779284 ], [ 3188793.684672567993402, 2105165.547425873577595 ], [ 3188788.580968861468136, 2105174.244373562280089 ], [ 3188785.602251543663442, 2105180.19454731233418 ], [ 3188784.966194779612124, 2105181.464870937168598 ], [ 3188782.947553123347461, 2105185.973355658352375 ], [ 3188780.028200357221067, 2105192.463813023176044 ], [ 3188776.96416964288801, 2105198.465717838145792 ], [ 3188776.961937603540719, 2105198.47016235999763 ], [ 3188776.95642267819494, 2105198.481363594532013 ], [ 3188776.165034157689661, 2105200.031736156903207 ], [ 3188772.182994292117655, 2105208.126875358633697 ], [ 3188769.2676139799878, 2105214.008500564843416 ], [ 3188767.612385676708072, 2105220.784352636896074 ], [ 3188766.912684042938054, 2105227.190065984614193 ], [ 3188766.766522956546396, 2105237.045920381322503 ], [ 3188767.354657100047916, 2105247.684715939685702 ], [ 3188768.535360257606953, 2105264.369120877701789 ], [ 3188768.559093653224409, 2105264.701614582911134 ], [ 3188768.559395362623036, 2105264.745948536321521 ], [ 3188768.584829044528306, 2105267.267994651570916 ], [ 3188768.708788905292749, 2105279.572438053786755 ], [ 3188767.266537788324058, 2105294.012712561991066 ], [ 3188765.753381570801139, 2105306.742632272653282 ], [ 3188764.450559033080935, 2105313.535610726103187 ], [ 3188764.44931439589709, 2105313.542415815871209 ], [ 3188764.426081468816847, 2105313.663532481528819 ], [ 3188764.393942822702229, 2105313.753780239261687 ], [ 3188762.114975795149803, 2105320.148909803014249 ], [ 3188746.088437363971025, 2105357.614669259637594 ], [ 3188742.339502966031432, 2105367.797340666875243 ], [ 3188732.689952661283314, 2105387.507612518034875 ], [ 3188732.687286081258208, 2105387.513146564830095 ], [ 3188732.625816551968455, 2105387.638933721464127 ], [ 3188714.896993754431605, 2105418.917144971899688 ], [ 3188701.114356874953955, 2105445.045140358153731 ], [ 3188697.999405686743557, 2105454.402542282827199 ], [ 3188697.961941557005048, 2105454.515308467671275 ], [ 3188697.919814728200436, 2105454.737730458844453 ], [ 3188696.259123638272285, 2105463.528898647986352 ], [ 3188695.220147903077304, 2105474.149097844958305 ], [ 3188694.927699130028486, 2105478.659178978297859 ], [ 3188695.117343699559569, 2105482.375744809396565 ], [ 3188696.635047527961433, 2105490.59785035578534 ], [ 3188696.657513281330466, 2105490.719678378663957 ], [ 3188696.755210041999817, 2105491.112689594738185 ], [ 3188698.371902709826827, 2105497.614641451276839 ], [ 3188700.737793922889978, 2105505.408791863359511 ], [ 3188702.365018672309816, 2105513.02820023521781 ], [ 3188702.673078897409141, 2105516.217224918305874 ], [ 3188702.727583498694003, 2105520.317016360349953 ], [ 3188702.728240909986198, 2105520.362301543354988 ], [ 3188702.711773370392621, 2105520.675793052650988 ], [ 3188702.57804413465783, 2105523.226433656178415 ], [ 3188701.898551057092845, 2105526.588227995671332 ], [ 3188700.812265718355775, 2105529.312095447443426 ], [ 3188698.604036540724337, 2105532.637834183871746 ], [ 3188696.528005425818264, 2105535.537895766086876 ], [ 3188696.364544844254851, 2105535.766571523156017 ], [ 3188692.90389924030751, 2105539.514152077492326 ], [ 3188685.090515716467053, 2105547.774013030342758 ], [ 3188669.076624421402812, 2105564.445661876350641 ], [ 3188668.472042195964605, 2105565.07538334466517 ], [ 3188647.784862731583416, 2105586.129721019417048 ], [ 3188645.49615107383579, 2105588.361408647149801 ], [ 3188638.916895273607224, 2105594.776892099063843 ], [ 3188634.920407775789499, 2105599.738348360639066 ], [ 3188634.259572591632605, 2105600.558714574668556 ], [ 3188633.296761740930378, 2105602.089670774526894 ], [ 3188629.890533724799752, 2105607.506024663336575 ], [ 3188622.657763187773526, 2105620.021434280090034 ], [ 3188613.370784930884838, 2105637.457873873412609 ], [ 3188613.294442381709814, 2105637.625789474695921 ], [ 3188611.86958041228354, 2105640.760821115225554 ], [ 3188609.95770279597491, 2105644.034562584478408 ], [ 3188606.007634086534381, 2105647.260146132670343 ], [ 3188595.227667815051973, 2105651.58058314351365 ], [ 3188579.636500399559736, 2105657.554658744949847 ], [ 3188562.153269490227103, 2105663.75890941824764 ], [ 3188544.515948548913002, 2105670.90222105756402 ], [ 3188526.953716632910073, 2105679.147031282074749 ], [ 3188499.638623158447444, 2105693.052719785831869 ], [ 3188484.031670398078859, 2105701.461771823465824 ], [ 3188473.188545337878168, 2105707.921559077687562 ], [ 3188465.627983210608363, 2105712.691635079681873 ], [ 3188463.171006191521883, 2105713.83137973677367 ], [ 3188459.560614764690399, 2105715.375937888398767 ], [ 3188453.892132360488176, 2105717.382330749649554 ], [ 3188449.282420120202005, 2105718.392648927867413 ], [ 3188398.353650415316224, 2105730.65848577581346 ], [ 3188370.655546558089554, 2105737.740113604813814 ], [ 3188344.719202714040875, 2105744.411928317509592 ], [ 3188333.955185370054096, 2105746.297479087486863 ], [ 3188322.886987274512649, 2105746.918988350778818 ], [ 3188313.880853961221874, 2105746.469919497147202 ], [ 3188270.354966110549867, 2105740.312352627515793 ], [ 3188255.178674086928368, 2105738.106649026274681 ], [ 3188240.784626599401236, 2105736.979914013296366 ], [ 3188231.146429508924484, 2105737.654879827052355 ], [ 3188221.105307150632143, 2105739.616715747863054 ], [ 3188208.895504693500698, 2105743.883801273070276 ], [ 3188199.01629779022187, 2105748.756057091057301 ], [ 3188193.549320551101118, 2105752.652763494290411 ], [ 3188188.520846089348197, 2105757.384624572470784 ], [ 3188184.527161564677954, 2105762.239147371612489 ], [ 3188180.822011288255453, 2105768.259419957175851 ], [ 3188177.736988361924887, 2105774.981793358922005 ], [ 3188176.291173664852977, 2105779.896721180994064 ], [ 3188175.319361877627671, 2105785.235424689482898 ], [ 3188175.196756540797651, 2105791.438681468367577 ], [ 3188175.678596855141222, 2105798.245546109043062 ], [ 3188177.815464140847325, 2105808.410770436748862 ], [ 3188179.498203446622938, 2105815.108518145978451 ], [ 3188181.220287326257676, 2105820.7859674282372 ], [ 3188183.64157538022846, 2105830.191886307671666 ], [ 3188184.324884326662868, 2105833.821799370460212 ], [ 3188184.395930032245815, 2105838.065765455365181 ], [ 3188183.878524559549987, 2105841.804663099348545 ], [ 3188182.882960835471749, 2105845.728659009560943 ], [ 3188179.778080618940294, 2105852.961220880970359 ], [ 3188165.581297328695655, 2105879.668973946012557 ], [ 3188161.658778041601181, 2105886.233937256969512 ], [ 3188157.052963263355196, 2105891.702604921534657 ], [ 3188153.067244211211801, 2105895.339656848460436 ], [ 3188149.713589259423316, 2105897.852685560937971 ], [ 3188143.09716627933085, 2105901.545292023569345 ], [ 3188138.120090627577156, 2105903.430727644823492 ], [ 3188132.570245309732854, 2105904.909588330425322 ], [ 3188121.229570169467479, 2105906.99766032397747 ], [ 3188097.442203216254711, 2105909.340838268399239 ], [ 3188093.792279042303562, 2105909.372147490270436 ], [ 3188090.916699395980686, 2105909.166677453089505 ], [ 3188088.633497292175889, 2105908.857238517142832 ], [ 3188085.678805523086339, 2105908.158719893079251 ], [ 3188080.559547085314989, 2105906.623378654010594 ], [ 3188076.76755469571799, 2105905.767507528886199 ], [ 3188074.598916252143681, 2105905.539443319663405 ], [ 3188072.477749929763377, 2105905.606984755024314 ], [ 3188068.693623869679868, 2105906.067268722224981 ], [ 3188064.988381118513644, 2105907.020439330022782 ], [ 3188058.628776182886213, 2105909.147960942704231 ], [ 3188052.616688971873373, 2105910.91058630309999 ], [ 3188045.538206338416785, 2105912.353309070691466 ], [ 3188035.959267143160105, 2105914.031459024176002 ], [ 3188031.223081118892878, 2105914.253054432105273 ], [ 3188010.591633972711861, 2105914.117572350427508 ], [ 3188007.155011306516826, 2105914.212865146808326 ], [ 3187999.570639916695654, 2105915.034725020639598 ], [ 3187989.549065894447267, 2105916.486095482483506 ], [ 3187979.215442848391831, 2105917.890789610333741 ], [ 3187974.11187481880188, 2105918.98747353348881 ], [ 3187969.944457158446312, 2105920.224193445406854 ], [ 3187964.99885434564203, 2105922.306616862304509 ], [ 3187951.903988308738917, 2105928.654013235587627 ], [ 3187944.529037491418421, 2105932.682008099276572 ], [ 3187940.570948412641883, 2105934.591449577361345 ], [ 3187937.339682746678591, 2105935.968207779340446 ], [ 3187931.837141087278724, 2105937.742832791525871 ], [ 3187925.429944424889982, 2105939.574589042924345 ], [ 3187918.608058288693428, 2105941.985592607408762 ], [ 3187912.820990623906255, 2105944.519448859617114 ], [ 3187901.689432801678777, 2105949.813557988032699 ], [ 3187896.131545138545334, 2105952.509851455688477 ], [ 3187892.208941329736263, 2105954.007819739170372 ], [ 3187888.602525156922638, 2105954.943492678925395 ], [ 3187884.683861847035587, 2105955.832522623240948 ], [ 3187877.079930514097214, 2105957.164537268690765 ], [ 3187874.579461927525699, 2105957.399873760528862 ], [ 3187872.837408750317991, 2105957.299673132132739 ], [ 3187869.388950154650956, 2105956.687561955302954 ], [ 3187865.482218115590513, 2105955.750466133002192 ], [ 3187858.395675173029304, 2105953.343572767451406 ], [ 3187854.963029243983328, 2105952.830134936142713 ], [ 3187851.210374755784869, 2105953.487405125983059 ], [ 3187846.122496812604368, 2105954.682596890255809 ], [ 3187839.648247751407325, 2105956.72879513958469 ], [ 3187834.686857910826802, 2105958.712660701014102 ], [ 3187821.793491848744452, 2105964.416760556399822 ], [ 3187816.551647107582539, 2105966.551098742522299 ], [ 3187811.870715548284352, 2105968.384496917482466 ], [ 3187804.456251105293632, 2105970.899428077973425 ], [ 3187797.057568321935833, 2105973.512835938483477 ], [ 3187792.194932892918587, 2105975.479408056009561 ], [ 3187790.394772184547037, 2105976.068881940096617 ], [ 3187785.538885028101504, 2105977.658803973346949 ], [ 3187782.403084849007428, 2105978.404117328580469 ], [ 3187774.194022506475449, 2105980.35534770321101 ], [ 3187765.780226796865463, 2105982.335958585143089 ], [ 3187760.750107753556222, 2105983.647010741289705 ], [ 3187758.66599079221487, 2105984.190258795395494 ], [ 3187750.726168079301715, 2105986.594447940587997 ], [ 3187743.690901195630431, 2105988.94152176566422 ], [ 3187743.554607842117548, 2105989.003298936411738 ], [ 3187737.441786233801395, 2105991.759028747677803 ], [ 3187730.082674252800643, 2105995.88573716674 ], [ 3187725.690060607157648, 2105998.8847337779589 ], [ 3187712.532004056498408, 2106009.905086040496826 ], [ 3187704.631652142386883, 2106016.356020060367882 ], [ 3187698.145423406735063, 2106022.762015352025628 ], [ 3187692.21623651497066, 2106029.475795242935419 ], [ 3187686.962510237470269, 2106035.969908726401627 ], [ 3187683.521863511763513, 2106041.741043900605291 ], [ 3187676.296848576981574, 2106055.573038005270064 ], [ 3187670.087231648154557, 2106064.970824499614537 ], [ 3187662.826823564246297, 2106074.147326317615807 ], [ 3187657.810042127035558, 2106079.586527608335018 ], [ 3187654.950175531208515, 2106082.013107215054333 ], [ 3187652.556323656346649, 2106083.547218419611454 ], [ 3187644.987885812763125, 2106087.001130294054747 ], [ 3187638.023781275376678, 2106091.058565448969603 ], [ 3187637.871166644617915, 2106091.127458655275404 ], [ 3187635.088801650330424, 2106092.383550718426704 ], [ 3187631.186049364507198, 2106093.37116251187399 ], [ 3187630.145830937661231, 2106093.494611381087452 ], [ 3187627.599232332780957, 2106093.796823299024254 ], [ 3187624.153717119246721, 2106094.156484998762608 ], [ 3187623.305561025161296, 2106094.244970829691738 ], [ 3187620.887939929496497, 2106094.364367999136448 ], [ 3187618.4938093284145, 2106094.236937641166151 ], [ 3187616.894391113892198, 2106094.151892079971731 ], [ 3187613.704584870487452, 2106093.968463606201112 ], [ 3187611.668344401288778, 2106093.851303561590612 ], [ 3187608.06978282192722, 2106093.569532472640276 ], [ 3187606.313245195429772, 2106093.616494685411453 ], [ 3187605.340243315324187, 2106093.642434209119529 ], [ 3187603.466752664651722, 2106093.858552367426455 ], [ 3187601.951011422090232, 2106094.033382380846888 ], [ 3187599.209053474944085, 2106094.354415476322174 ], [ 3187598.463044752366841, 2106094.441728715784848 ], [ 3187596.862243507988751, 2106094.765534527599812 ], [ 3187594.72621711390093, 2106095.19769546482712 ], [ 3187591.785527282394469, 2106096.011910368222743 ], [ 3187590.74052856862545, 2106096.301282696425915 ], [ 3187583.077216607052833, 2106099.163779160939157 ], [ 3187582.485035177320242, 2106099.311399783007801 ], [ 3187578.976965247653425, 2106100.185994310304523 ], [ 3187574.946935161948204, 2106100.63214616663754 ], [ 3187572.692304166033864, 2106100.881693579256535 ], [ 3187569.812260237056762, 2106100.899180826731026 ], [ 3187566.099531508982182, 2106100.92177714407444 ], [ 3187562.897926229052246, 2106100.664717187173665 ], [ 3187560.545625227503479, 2106100.475845717824996 ], [ 3187554.928732578642666, 2106099.634975391905755 ], [ 3187554.911348729394376, 2106099.631028192583472 ], [ 3187552.171367416158319, 2106098.9026317615062 ], [ 3187549.62653252389282, 2106097.903214225545526 ], [ 3187549.137587093282491, 2106097.711193804163486 ], [ 3187548.015764214098454, 2106097.125869390554726 ], [ 3187546.811071572825313, 2106096.497297797352076 ], [ 3187519.930406918749213, 2106081.444366316311061 ], [ 3187515.095490830019116, 2106079.149882759898901 ], [ 3187509.403381684795022, 2106077.208046205341816 ], [ 3187499.587283635511994, 2106074.873911908827722 ], [ 3187498.87397857895121, 2106074.667991914320737 ], [ 3187491.284138020128012, 2106072.477416711393744 ], [ 3187489.590093734208494, 2106072.041994942352176 ], [ 3187488.001513717696071, 2106071.633701166138053 ], [ 3187484.683508564718068, 2106071.201448366977274 ], [ 3187480.772818165831268, 2106070.873126413673162 ], [ 3187478.984558016061783, 2106070.71263079252094 ], [ 3187478.094609012827277, 2106070.632815972901881 ], [ 3187473.95095376111567, 2106070.750672155059874 ], [ 3187467.551717525813729, 2106071.364912338554859 ], [ 3187465.903642138466239, 2106071.756086402572691 ], [ 3187462.661496274638921, 2106072.525730943772942 ], [ 3187458.889109913725406, 2106073.693303722888231 ], [ 3187454.455764145590365, 2106075.572656239382923 ], [ 3187447.481045904569328, 2106078.529287176672369 ], [ 3187446.166127046570182, 2106078.884089048951864 ], [ 3187445.340127583127469, 2106079.107027704827487 ], [ 3187442.673649156931788, 2106079.574054571799934 ], [ 3187440.385187326464802, 2106079.863991011865437 ], [ 3187438.494432951323688, 2106080.103509843349457 ], [ 3187435.156580752693117, 2106080.181546187959611 ], [ 3187433.054782323539257, 2106080.011323935352266 ], [ 3187430.01357719860971, 2106079.764986446127295 ], [ 3187426.039814903400838, 2106079.042453903704882 ], [ 3187410.176029990427196, 2106073.815286244265735 ], [ 3187403.760993427596986, 2106071.797526356764138 ], [ 3187398.29411344230175, 2106070.626976588740945 ], [ 3187396.468278104439378, 2106070.463236580137163 ], [ 3187395.615822936408222, 2106070.386786347720772 ], [ 3187392.163408291526139, 2106070.383452538400888 ], [ 3187389.449670113157481, 2106070.554939898662269 ], [ 3187386.388388234190643, 2106071.091134264133871 ], [ 3187377.046248195227236, 2106074.247876415494829 ], [ 3187368.225669684354216, 2106078.123880841769278 ], [ 3187361.988579927477986, 2106081.649141215719283 ], [ 3187359.713140407111496, 2106083.628798588179052 ], [ 3187355.573257884941995, 2106087.231646819040179 ], [ 3187355.21003872808069, 2106087.668316476978362 ], [ 3187351.232056432403624, 2106092.451199085451663 ], [ 3187345.223853949457407, 2106101.205720306374133 ], [ 3187341.368472060654312, 2106107.556264020502567 ], [ 3187336.197684539481997, 2106116.468209859915078 ], [ 3187330.118392083793879, 2106128.579463587142527 ], [ 3187327.633691070135683, 2106133.98049281258136 ], [ 3187325.22014139406383, 2106141.091865055263042 ], [ 3187324.761923193000257, 2106145.833955108653754 ], [ 3187325.144938265439123, 2106157.725166134536266 ], [ 3187325.824362957850099, 2106164.497470507863909 ], [ 3187326.085097222588956, 2106167.390801425091922 ], [ 3187326.491888245102018, 2106173.096009390894324 ], [ 3187326.207541940268129, 2106178.922398624941707 ], [ 3187325.520200507249683, 2106183.501744405832142 ], [ 3187324.307446057908237, 2106187.970656455960125 ], [ 3187322.537735366728157, 2106192.131673522759229 ], [ 3187320.823349973186851, 2106195.370923550799489 ], [ 3187309.368460762314498, 2106209.36500050034374 ], [ 3187308.427762771956623, 2106210.514234186150134 ], [ 3187308.044168140739202, 2106210.916876991279423 ], [ 3187305.646889457479119, 2106213.433615118265152 ], [ 3187301.923540143296123, 2106216.352110918611288 ], [ 3187301.31762226158753, 2106216.827044029254466 ], [ 3187299.687414194457233, 2106217.660999944899231 ], [ 3187295.593791193794459, 2106219.755192702636123 ], [ 3187289.025396889075637, 2106222.536397194024175 ], [ 3187288.653378463815898, 2106222.693893477320671 ], [ 3187287.016318007837981, 2106223.209520064294338 ], [ 3187279.955307989381254, 2106225.43371048104018 ], [ 3187273.278398244641721, 2106227.266013923566788 ], [ 3187271.786353019997478, 2106227.675466505810618 ], [ 3187255.215514985844493, 2106232.605360344052315 ], [ 3187251.772842479869723, 2106233.754920621402562 ], [ 3187245.000535856932402, 2106236.016301305964589 ], [ 3187239.010424004867673, 2106238.081060425378382 ], [ 3187236.630233235657215, 2106238.901491169352084 ], [ 3187236.343933874275535, 2106239.058563959319144 ], [ 3187233.643899518065155, 2106240.539431112352759 ], [ 3187230.812101961113513, 2106242.313052770681679 ], [ 3187228.477229223586619, 2106243.775449560023844 ], [ 3187225.797080472577363, 2106245.532435581553727 ], [ 3187222.781050749123096, 2106247.509601597674191 ], [ 3187217.961891403887421, 2106250.380715435370803 ], [ 3187213.1981386016123, 2106252.329945730045438 ], [ 3187206.70470153959468, 2106254.593757055234164 ], [ 3187205.601945664733648, 2106254.978183432482183 ], [ 3187197.152661062777042, 2106257.370510793756694 ], [ 3187181.72349860612303, 2106261.188247233163565 ], [ 3187179.037383421324193, 2106262.165544951800257 ], [ 3187175.541504702530801, 2106263.791417029686272 ], [ 3187172.622412430588156, 2106265.214797227177769 ], [ 3187170.311535664834082, 2106266.633065603673458 ], [ 3187166.614916894584894, 2106269.316038104705513 ], [ 3187162.581074168905616, 2106272.243748823180795 ], [ 3187159.223508486524224, 2106275.365519008599222 ], [ 3187156.18194048339501, 2106278.558606205508113 ], [ 3187155.399823062121868, 2106279.379685827530921 ], [ 3187149.652333931066096, 2106285.960413132794201 ], [ 3187149.357584668789059, 2106286.339689686894417 ], [ 3187147.464072210714221, 2106288.775988357141614 ], [ 3187145.998557760380208, 2106291.667626592330635 ], [ 3187144.710797384846956, 2106295.034934319555759 ], [ 3187142.226067148149014, 2106302.969544489867985 ], [ 3187134.993365059606731, 2106328.153465794399381 ], [ 3187131.134123807307333, 2106342.713632149621844 ], [ 3187126.812758587766439, 2106355.023695752024651 ], [ 3187125.015398997813463, 2106360.912493529263884 ], [ 3187122.59392907563597, 2106366.707847712561488 ], [ 3187120.642541437409818, 2106371.002058614976704 ], [ 3187118.414764338172972, 2106374.837982136756182 ], [ 3187115.657481430098414, 2106379.172041008248925 ], [ 3187113.003011150285602, 2106382.880036092363298 ], [ 3187104.768485353328288, 2106394.495906820520759 ], [ 3187104.225879425182939, 2106395.261346553452313 ], [ 3187103.985637369565666, 2106395.63421630486846 ], [ 3187098.778687488753349, 2106403.715083488728851 ], [ 3187088.871892378665507, 2106420.449439879506826 ], [ 3187084.854599173180759, 2106428.95669528702274 ], [ 3187082.579268229659647, 2106435.030379954725504 ], [ 3187081.414040106348693, 2106439.795018672477454 ], [ 3187081.030922705773264, 2106443.105086044408381 ], [ 3187080.545005765743554, 2106452.10842174757272 ], [ 3187080.454172860831022, 2106461.042439439799637 ], [ 3187080.908474324271083, 2106479.711339261382818 ], [ 3187079.901180479675531, 2106493.062391401268542 ], [ 3187078.013180038891733, 2106505.351738651283085 ], [ 3187074.777966300025582, 2106520.005098903551698 ], [ 3187072.818838607519865, 2106528.050439247861505 ], [ 3187071.238763148430735, 2106533.394474836532027 ], [ 3187068.920029975473881, 2106538.563794267363846 ], [ 3187065.854716777801514, 2106544.775891941040754 ], [ 3187061.790055584162474, 2106552.987436662893742 ], [ 3187059.024970911443233, 2106558.538984858430922 ], [ 3187057.800508980639279, 2106562.30048589175567 ], [ 3187056.66679243510589, 2106567.262296664528549 ], [ 3187055.8294243728742, 2106572.172187969554216 ], [ 3187053.996632040478289, 2106583.539593582041562 ], [ 3187052.420524546410888, 2106588.274885374121368 ], [ 3187050.500856898259372, 2106592.766240771394223 ], [ 3187045.847652676515281, 2106600.472750145941973 ], [ 3187037.497165623586625, 2106615.515713521279395 ], [ 3187023.790305343456566, 2106637.678997923154384 ], [ 3187015.408337232656777, 2106652.524805984459817 ], [ 3187010.308849101886153, 2106670.747879352420568 ], [ 3186996.677195750176907, 2106699.080003752373159 ], [ 3186994.488893900997937, 2106706.962733635678887 ], [ 3186992.067455844953656, 2106715.291781182400882 ], [ 3186987.137830073013902, 2106727.607252468355 ], [ 3186986.371513752266765, 2106729.160306136589497 ], [ 3186986.000294248573482, 2106730.644138322677463 ], [ 3186985.498593802563846, 2106734.481706927064806 ], [ 3186985.044324730988592, 2106736.081432064063847 ], [ 3186984.79152901424095, 2106737.037905525881797 ], [ 3186984.076665814034641, 2106738.277917467057705 ], [ 3186983.179904684890062, 2106739.651140693575144 ], [ 3186981.789494938217103, 2106741.110852011945099 ], [ 3186976.25147329736501, 2106745.830793418455869 ], [ 3186973.739264346659184, 2106747.892416281625628 ], [ 3186968.548846445046365, 2106752.247431207913905 ], [ 3186966.919357366394252, 2106753.441760248504579 ], [ 3186966.368343056179583, 2106753.845569455530494 ], [ 3186963.149090177379549, 2106755.929726456291974 ], [ 3186960.93269711220637, 2106757.277959311380982 ], [ 3186959.171340313740075, 2106758.349459157325327 ], [ 3186957.18833635840565, 2106759.912995774298906 ], [ 3186955.71497703762725, 2106761.48858405649662 ], [ 3186954.454915252979845, 2106763.128144680522382 ], [ 3186953.340998690575361, 2106765.046127838548273 ], [ 3186952.187569071538746, 2106767.984458776190877 ], [ 3186951.634552208241075, 2106769.601486098952591 ], [ 3186951.326544547453523, 2106771.479716047644615 ], [ 3186951.077757561579347, 2106774.360894040204585 ], [ 3186950.923663536086679, 2106777.833536671474576 ], [ 3186950.789458365179598, 2106785.863107628654689 ], [ 3186951.152892056852579, 2106793.197639111429453 ], [ 3186950.611783823929727, 2106798.055541138164699 ], [ 3186949.272765810135752, 2106804.269349863287061 ], [ 3186947.27411609236151, 2106810.801514990627766 ], [ 3186944.983077933546156, 2106816.776852908544242 ], [ 3186944.390550866723061, 2106819.414229120593518 ], [ 3186944.212777444627136, 2106821.472226534038782 ], [ 3186943.821843389421701, 2106828.533355521969497 ], [ 3186943.979800106491894, 2106832.052670498378575 ], [ 3186944.777862604707479, 2106835.763965979684144 ], [ 3186945.729886308312416, 2106838.536203973926604 ], [ 3186947.400681389030069, 2106841.993150113616139 ], [ 3186954.60983182489872, 2106855.931671808473766 ], [ 3186956.683608860708773, 2106860.635468221269548 ], [ 3186957.86085589742288, 2106864.178886195644736 ], [ 3186960.483763588126749, 2106872.9417221583426 ], [ 3186963.150266093201935, 2106885.142467697151005 ], [ 3186964.868591135367751, 2106896.495912173297256 ], [ 3186964.785701017361134, 2106901.679009301587939 ], [ 3186964.197305425070226, 2106906.241173326037824 ], [ 3186962.301161701790988, 2106912.147228548303246 ], [ 3186959.524374970234931, 2106919.525131801143289 ], [ 3186957.584990278817713, 2106924.526680551469326 ], [ 3186951.790270439349115, 2106938.412555862218142 ], [ 3186949.732384219765663, 2106943.941581659950316 ], [ 3186948.318263843189925, 2106949.053890853188932 ], [ 3186946.165545766241848, 2106961.592380390036851 ], [ 3186945.225561764091253, 2106969.661698196083307 ], [ 3186945.427146062254906, 2106981.686465118546039 ], [ 3186946.213298875838518, 2106989.757385746575892 ], [ 3186948.29929481074214, 2107017.970963934902102 ], [ 3186948.394162240903825, 2107023.629637664649636 ], [ 3186947.785910303704441, 2107028.701899688690901 ], [ 3186947.244762888178229, 2107031.0263532679528 ], [ 3186946.391651997808367, 2107033.3040203563869 ], [ 3186944.594393401406705, 2107036.659191793762147 ], [ 3186942.63510671351105, 2107039.63748190458864 ], [ 3186940.000442520715296, 2107042.835241983179003 ], [ 3186939.882018159143627, 2107042.912843839265406 ], [ 3186929.496592816431075, 2107049.722037300467491 ], [ 3186321.359464737121016, 2107448.454264999832958 ], [ 3188845.071964999195188, 2107448.454264999832958 ], [ 3188845.071964999195188, 2105111.460425181314349 ], [ 3188842.221125974319875, 2105116.81352827930823 ] ] ] ] } },
{ "type": "Feature", "properties": { "ENP_GRAL": 6.0, "ENP_GRAL_NAME": "Otros Espacios Naturales Protegidos", "color": "#7F8F0D" }, "geometry": { "type": "Polygon", "coordinates": [ [ [ 3188692.90389924030751, 2105539.514152077492326 ], [ 3188696.364544844254851, 2105535.766571523156017 ], [ 3188696.528005425818264, 2105535.537895766086876 ], [ 3188702.711773370392621, 2105520.675793052650988 ], [ 3188702.728240909986198, 2105520.362301543354988 ], [ 3188702.727583498694003, 2105520.317016360349953 ], [ 3188700.737793922889978, 2105505.408791863359511 ], [ 3188698.371902709826827, 2105497.614641451276839 ], [ 3188696.755210041999817, 2105491.112689594738185 ], [ 3188696.645512891001999, 2105490.722084291279316 ], [ 3188696.635047527961433, 2105490.59785035578534 ], [ 3188695.117343699559569, 2105482.375744809396565 ], [ 3188694.927699130028486, 2105478.659178978297859 ], [ 3188695.220147903077304, 2105474.149097844958305 ], [ 3188696.259123638272285, 2105463.528898647986352 ], [ 3188697.919814728200436, 2105454.737730458844453 ], [ 3188697.949842410162091, 2105454.517731675878167 ], [ 3188697.999405686743557, 2105454.402542282827199 ], [ 3188701.114356874953955, 2105445.045140358153731 ], [ 3188714.896993754431605, 2105418.917144971899688 ], [ 3188732.625816551968455, 2105387.638933721464127 ], [ 3188732.687286081258208, 2105387.513146564830095 ], [ 3188732.689952661283314, 2105387.507612518034875 ], [ 3188746.063116146717221, 2105357.416728616692126 ], [ 3188764.393942822702229, 2105313.753780239261687 ], [ 3188764.426081468816847, 2105313.663532481528819 ], [ 3188764.44931439589709, 2105313.542415815871209 ], [ 3188764.450559033080935, 2105313.535610726103187 ], [ 3188767.263347662985325, 2105293.912336908746511 ], [ 3188768.692942690104246, 2105279.474177770316601 ], [ 3188768.584829044528306, 2105267.267994651570916 ], [ 3188768.559395362623036, 2105264.745948536321521 ], [ 3188768.535360257606953, 2105264.369120877701789 ], [ 3188767.354657100047916, 2105247.684715939685702 ], [ 3188766.766522956546396, 2105237.045920381322503 ], [ 3188766.912684042938054, 2105227.190065984614193 ], [ 3188767.612385676708072, 2105220.784352636896074 ], [ 3188769.2676139799878, 2105214.008500564843416 ], [ 3188772.182994292117655, 2105208.126875358633697 ], [ 3188776.165034157689661, 2105200.031736156903207 ], [ 3188776.95642267819494, 2105198.481363594532013 ], [ 3188776.961937603540719, 2105198.47016235999763 ], [ 3188776.96416964288801, 2105198.465717838145792 ], [ 3188784.950431712903082, 2105181.366494843736291 ], [ 3188785.602251543663442, 2105180.19454731233418 ], [ 3188788.580968861468136, 2105174.244373562280089 ], [ 3188793.684672567993402, 2105165.547425873577595 ], [ 3188798.95816974202171, 2105158.543109161779284 ], [ 3188805.045273499563336, 2105152.81545327231288 ], [ 3188834.316688566468656, 2105126.406558960676193 ], [ 3188835.212315430864692, 2105125.392665296792984 ], [ 3188845.071964999195188, 2105111.39261300675571 ], [ 3188845.071964999195188, 2105077.21162101905793 ], [ 3188844.49204849684611, 2105075.119532515760511 ], [ 3188844.256682760082185, 2105074.400810841470957 ], [ 3188842.404515685047954, 2105066.010114502161741 ], [ 3188841.251467547379434, 2105053.746904542203993 ], [ 3188840.781076803803444, 2105049.332960352301598 ], [ 3188840.743220819160342, 2105048.978214106522501 ], [ 3188840.72562921885401, 2105048.812666321638972 ], [ 3188840.714547523297369, 2105048.709923555143178 ], [ 3188839.407188248820603, 2105036.538599477149546 ], [ 3188837.247185305226594, 2105014.824711726978421 ], [ 3188837.228647838812321, 2105014.625380939804018 ], [ 3188837.227578118443489, 2105014.613002208061516 ], [ 3188835.880690899211913, 2104999.963964935857803 ], [ 3188835.746801248751581, 2104995.326004561968148 ], [ 3188836.019418563693762, 2104991.326121472753584 ], [ 3188836.382980480790138, 2104988.526180295273662 ], [ 3188837.374422466382384, 2104985.210810600779951 ], [ 3188838.476752380374819, 2104982.585598150268197 ], [ 3188839.922625194303691, 2104980.204234444070607 ], [ 3188841.152520187199116, 2104978.270615993998945 ], [ 3188841.279167970642447, 2104977.94015993969515 ], [ 3188841.628057535272092, 2104977.694008216261864 ], [ 3188843.386941196396947, 2104975.84812474437058 ], [ 3188845.071964999195188, 2104974.293374807573855 ], [ 3188845.071964999195188, 2102237.146763846278191 ], [ 3188755.830656148027629, 2102254.736283924430609 ], [ 3188688.236591635271907, 2102259.987204004079103 ], [ 3188650.504154881462455, 2102252.408030700869858 ], [ 3188547.360380626749247, 2102238.550498704425991 ], [ 3188540.584577277768403, 2102261.018177637830377 ], [ 3188544.037718973122537, 2102337.430420096497983 ], [ 3188523.210721421521157, 2102424.681986195966601 ], [ 3188514.193265838548541, 2102506.825336021371186 ], [ 3188509.921682193875313, 2102551.655603725463152 ], [ 3188536.565883699804544, 2102765.878965500276536 ], [ 3188546.804406155832112, 2102917.106064737774432 ], [ 3188557.211014981847256, 2103067.797344606369734 ], [ 3188565.60024718567729, 2103159.559119989164174 ], [ 3188552.388270809315145, 2103212.542310628574342 ], [ 3188536.764209578745067, 2103307.496737188659608 ], [ 3188525.980232623405755, 2103443.152405904605985 ], [ 3188517.150939321145415, 2103559.71836535166949 ], [ 3188511.138334850315005, 2103635.25542915891856 ], [ 3188494.482993010431528, 2103713.670122609008104 ], [ 3188510.312205323018134, 2103796.022343909367919 ], [ 3188515.546169086825103, 2103958.768290233798325 ], [ 3188505.004036382772028, 2104015.338044408708811 ], [ 3188507.129885162692517, 2104108.197840110398829 ], [ 3188505.387074440252036, 2104181.467525479383767 ], [ 3188509.324340123683214, 2104245.635110391303897 ], [ 3188512.621039636433125, 2104311.94180560298264 ], [ 3188514.629903781227767, 2104414.956359027884901 ], [ 3188490.397533012554049, 2104494.192448273301125 ], [ 3188473.838805568404496, 2104598.93950979411602 ], [ 3188452.953417828306556, 2104706.978112260811031 ], [ 3188417.597889581695199, 2104843.90003430377692 ], [ 3188390.180653586983681, 2104951.56318689789623 ], [ 3188372.985316910780966, 2105072.130358409602195 ], [ 3188362.530098176561296, 2105156.554450063034892 ], [ 3188358.308238564990461, 2105265.221908434294164 ], [ 3188350.86875022482127, 2105355.198361034970731 ], [ 3188349.722817529924214, 2105434.951707268133759 ], [ 3188431.370326681993902, 2105481.960343159735203 ], [ 3188451.726252834312618, 2105513.35710774268955 ], [ 3188497.15956764202565, 2105532.760376205202192 ], [ 3188523.442299757618457, 2105597.574919855222106 ], [ 3188594.986489217728376, 2105651.420551828108728 ], [ 3188613.294442381709814, 2105637.625789474695921 ], [ 3188613.370784930884838, 2105637.457873873412609 ], [ 3188622.657763187773526, 2105620.021434280090034 ], [ 3188629.890533724799752, 2105607.506024663336575 ], [ 3188633.296761740930378, 2105602.089670774526894 ], [ 3188634.250030051916838, 2105600.459248517174274 ], [ 3188634.920407775789499, 2105599.738348360639066 ], [ 3188638.916895273607224, 2105594.776892099063843 ], [ 3188645.49615107383579, 2105588.361408647149801 ], [ 3188647.753433707170188, 2105585.932951036375016 ], [ 3188668.459943066351116, 2105565.07780656311661 ], [ 3188669.076624421402812, 2105564.445661876350641 ], [ 3188685.090515716467053, 2105547.774013030342758 ], [ 3188692.90389924030751, 2105539.514152077492326 ] ] ] } }
]
}
