{
"type": "FeatureCollection",
"name": "Inca",
"crs": { "type": "name", "properties": { "name": "urn:ogc:def:crs:EPSG::3035" } },
"features": [
{ "type": "Feature", "properties": { "ENP_GRAL": 6.0, "ENP_GRAL_NAME": "Otros Espacios Naturales Protegidos", "color": "#7F8F0D" }, "geometry": { "type": "Polygon", "coordinates": [ [ [ 3707912.154182489495724, 1880582.552033140556887 ], [ 3707907.638872920535505, 1880528.983680142555386 ], [ 3707916.813267988618463, 1880518.135945132700726 ], [ 3707938.411359074525535, 1880475.145048675127327 ], [ 3707959.342849289532751, 1880436.215618167072535 ], [ 3707973.76809483859688, 1880403.887314813910052 ], [ 3708003.371832503471524, 1880348.157718003960326 ], [ 3708037.895090627949685, 1880278.975633247056976 ], [ 3708062.82870036829263, 1880227.678333507617936 ], [ 3708102.522234648931772, 1880148.02024201862514 ], [ 3708131.208809178788215, 1880093.376154696103185 ], [ 3708152.223988494835794, 1880055.438596401596442 ], [ 3708166.444882795680314, 1880026.867615375900641 ], [ 3708162.443871520459652, 1880011.415365240070969 ], [ 3708153.540868878364563, 1879977.03201457252726 ], [ 3708144.104543466120958, 1879940.588302162708715 ], [ 3708131.894598389510065, 1879931.607926645083353 ], [ 3708113.271137073636055, 1879917.910223292652518 ], [ 3708097.339589283801615, 1879906.192747116321698 ], [ 3708076.37712583411485, 1879890.774736291496083 ], [ 3708059.724995791912079, 1879878.527236185735092 ], [ 3708039.748273320496082, 1879863.834165063221008 ], [ 3708036.092862158548087, 1879867.364149140194058 ], [ 3708019.551903637126088, 1879882.155161695322022 ], [ 3708004.573328997939825, 1879895.580688497517258 ], [ 3708000.194730760529637, 1879899.287958109984174 ], [ 3707996.321398481260985, 1879902.235162323340774 ], [ 3707995.41781046288088, 1879903.899297130294144 ], [ 3707992.046825372613966, 1879909.529417902929708 ], [ 3707988.313928516115993, 1879914.932305959518999 ], [ 3707984.235410158988088, 1879920.0851619055029 ], [ 3707982.382906202226877, 1879922.214656448923051 ], [ 3707970.91313555277884, 1879935.033867930527776 ], [ 3707968.358504998963326, 1879937.785089067416266 ], [ 3707963.641888626851141, 1879942.372217270312831 ], [ 3707958.635893490165472, 1879946.646665821317583 ], [ 3707953.274118932895362, 1879950.651111735729501 ], [ 3707942.509632214903831, 1879958.136071759741753 ], [ 3707930.75816472619772, 1879971.387266116449609 ], [ 3707926.951378472149372, 1879975.765933169983327 ], [ 3707917.377684341743588, 1879987.443393811583519 ], [ 3707916.38578318990767, 1879988.634580576093867 ], [ 3707911.978824940510094, 1879993.515086301369593 ], [ 3707907.262116520665586, 1879998.102246949682012 ], [ 3707902.256127781234682, 1880002.37671225797385 ], [ 3707896.982270723208785, 1880006.31998560205102 ], [ 3707891.462920546997339, 1880009.915224247379228 ], [ 3707885.722078713588417, 1880013.146932278759778 ], [ 3707879.784031833987683, 1880016.001476686215028 ], [ 3707873.674083717633039, 1880018.466568371513858 ], [ 3707867.418927444145083, 1880020.531704790424556 ], [ 3707861.044758136384189, 1880022.187769010895863 ], [ 3707854.579418246168643, 1880023.427791179856285 ], [ 3707848.050144298002124, 1880024.246807058108971 ], [ 3707841.485130000859499, 1880024.640804093563929 ], [ 3707834.912281222641468, 1880024.608528056181967 ], [ 3707828.360079985111952, 1880024.149837883887812 ], [ 3707821.856204375624657, 1880023.266629862599075 ], [ 3707815.428860690444708, 1880021.962925634346902 ], [ 3707813.444990175776184, 1880021.423639915883541 ], [ 3707813.922319960780442, 1880025.478542276658118 ], [ 3707814.25472715171054, 1880031.986312800319865 ], [ 3707814.157072552479804, 1880038.506194390822202 ], [ 3707813.629891445394605, 1880045.009874122217298 ], [ 3707812.675324299372733, 1880051.469585659680888 ], [ 3707811.297368774190545, 1880057.857767529552802 ], [ 3707809.315482620149851, 1880064.715943469665945 ], [ 3707801.328232681844383, 1880088.602072777925059 ], [ 3707799.496382548473775, 1880093.62726534367539 ], [ 3707796.891042644158006, 1880099.638310078531504 ], [ 3707793.896339893341064, 1880105.471421717200428 ], [ 3707790.52556999027729, 1880111.101467457367107 ], [ 3707786.792817775625736, 1880116.504494026070461 ], [ 3707782.714100325480103, 1880121.657243227818981 ], [ 3707778.30691693443805, 1880126.537525401916355 ], [ 3707773.590354172512889, 1880131.124905746197328 ], [ 3707768.584563734009862, 1880135.399281130637974 ], [ 3707763.310621547978371, 1880139.34261038643308 ], [ 3707757.791367786470801, 1880142.937775225844234 ], [ 3707752.050452843308449, 1880146.169637133833021 ], [ 3707746.112316278740764, 1880149.024237081408501 ], [ 3707740.002558893058449, 1880151.489238223060966 ], [ 3707733.747408697381616, 1880153.55441321968101 ], [ 3707727.373357819858938, 1880155.210597418015823 ], [ 3707720.90790663799271, 1880156.450574214104563 ], [ 3707714.378717722371221, 1880157.269511888269335 ], [ 3707707.813603743910789, 1880157.663559212349355 ], [ 3707701.240866614505649, 1880157.631398383295164 ], [ 3707694.688646311871707, 1880157.172641617944464 ], [ 3707688.184878990985453, 1880156.289545546518639 ], [ 3707681.757428923621774, 1880154.985885114409029 ], [ 3707675.43392049241811, 1880153.267181397881359 ], [ 3707669.241441166959703, 1880151.140749161830172 ], [ 3707663.20617547724396, 1880148.615956381428987 ], [ 3707659.275386951863766, 1880146.712585936766118 ], [ 3707657.802409254014492, 1880145.958996963920072 ], [ 3707652.31277350988239, 1880146.259280623868108 ], [ 3707645.739987777080387, 1880146.226832449436188 ], [ 3707639.187679877970368, 1880145.768196038203314 ], [ 3707632.684007972013205, 1880144.885090191150084 ], [ 3707627.560901222284883, 1880143.881457829847932 ], [ 3707596.217100623529404, 1880136.886950279586017 ], [ 3707589.241299007553607, 1880135.018161589279771 ], [ 3707583.04884426202625, 1880132.891932868631557 ], [ 3707577.01375624537468, 1880130.367017021635547 ], [ 3707571.162063626106828, 1880127.454414238687605 ], [ 3707565.518688058946282, 1880124.166507426649332 ], [ 3707560.107816261705011, 1880120.517504924442619 ], [ 3707554.952581924386322, 1880116.52268778719008 ], [ 3707550.075374831445515, 1880112.199766665464267 ], [ 3707545.496802599169314, 1880107.56673760781996 ], [ 3707541.236554886680096, 1880102.643551866291091 ], [ 3707537.31257524387911, 1880097.451344403671101 ], [ 3707533.742195239290595, 1880092.012553645996377 ], [ 3707530.540370211470872, 1880086.349998577032238 ], [ 3707527.720612453762442, 1880080.4883365444839 ], [ 3707525.295558174606413, 1880074.452465657843277 ], [ 3707523.275077346712351, 1880068.268430214840919 ], [ 3707521.668361865915358, 1880061.96248354902491 ], [ 3707520.481549315154552, 1880055.561468588421121 ], [ 3707519.720645325258374, 1880049.093354393495247 ], [ 3707519.387812040746212, 1880042.585520072840154 ], [ 3707519.485583656467497, 1880036.065787432249635 ], [ 3707520.012656929437071, 1880029.562090544495732 ], [ 3707520.967431562952697, 1880023.102411029394716 ], [ 3707521.716441607102752, 1880019.3820053008385 ], [ 3707534.113293070346117, 1879963.353960899170488 ], [ 3707533.799968246370554, 1879960.230707127368078 ], [ 3707533.467431171797216, 1879953.72273372951895 ], [ 3707533.565004153642803, 1879947.202942040516064 ], [ 3707534.092091964557767, 1879940.699253160972148 ], [ 3707534.955425729043782, 1879933.685158461797982 ], [ 3707528.136179711669683, 1879931.330206021899357 ], [ 3707523.132385287433863, 1879929.647481432650238 ], [ 3707519.918421020265669, 1879930.20987038873136 ], [ 3707513.389292522333562, 1879931.028700409922749 ], [ 3707506.824285646434873, 1879931.422933841822669 ], [ 3707500.251399324741215, 1879931.390598237048835 ], [ 3707493.699061688501388, 1879930.931862365687266 ], [ 3707487.195391982793808, 1879930.048853081883863 ], [ 3707480.767942510545254, 1879928.745294821448624 ], [ 3707474.444322709925473, 1879927.026610591914505 ], [ 3707468.251947150565684, 1879924.900263684568927 ], [ 3707462.216856368351728, 1879922.3753437618725 ], [ 3707456.36514803674072, 1879919.4626390831545 ], [ 3707450.721704836934805, 1879916.17494061565958 ], [ 3707445.310905455611646, 1879912.525722814025357 ], [ 3707440.155721608083695, 1879908.531196758616716 ], [ 3707435.278506993316114, 1879904.208174797473475 ], [ 3707430.699944238178432, 1879899.575143255060539 ], [ 3707426.439410920720547, 1879894.652002895483747 ], [ 3707424.142390480265021, 1879891.699749801075086 ], [ 3707391.112514477688819, 1879847.541384901385754 ], [ 3707389.485668622888625, 1879845.30141265061684 ], [ 3707385.915291448589414, 1879839.862521911272779 ], [ 3707382.713402427267283, 1879834.200079125817865 ], [ 3707379.893978801555932, 1879828.33846625755541 ], [ 3707377.468636570032686, 1879822.302543893223628 ], [ 3707375.448478742036968, 1879816.118460195371881 ], [ 3707373.841463962569833, 1879809.812364633893594 ], [ 3707372.654938869178295, 1879803.411710127256811 ], [ 3707372.050699549727142, 1879798.277751149842516 ], [ 3707371.240753580350429, 1879799.383360914187506 ], [ 3707315.854080077726394, 1879830.508120160317048 ], [ 3707305.051012839656323, 1879831.009068284649402 ], [ 3707296.654502174817026, 1879820.789646388497204 ], [ 3707294.504422291181982, 1879810.991242937976494 ], [ 3707299.612325957044959, 1879802.02023786213249 ], [ 3707343.247875451575965, 1879776.982779294718057 ], [ 3707350.556033248081803, 1879766.808105983538553 ], [ 3707363.102951726410538, 1879729.807182519696653 ], [ 3707360.773097627796233, 1879726.723871968686581 ], [ 3707357.20250339480117, 1879721.28481624671258 ], [ 3707354.00064130499959, 1879715.622471529524773 ], [ 3707351.181116481777281, 1879709.760777108604088 ], [ 3707351.092698315158486, 1879709.540979805169627 ], [ 3707332.587015039287508, 1879703.988669116515666 ], [ 3707267.702742526307702, 1879693.50390752684325 ], [ 3707242.354601720813662, 1879702.850499521242455 ], [ 3707247.507750705815852, 1879712.370806410908699 ], [ 3707244.151958042290062, 1879722.679232761263847 ], [ 3707198.199858035426587, 1879740.433055032743141 ], [ 3707217.243104512337595, 1879750.165908040944487 ], [ 3707210.6750628342852, 1879758.27248907322064 ], [ 3707185.367261447943747, 1879760.61718743480742 ], [ 3707162.832503523677588, 1879759.205955416895449 ], [ 3707151.634406192693859, 1879766.24193151993677 ], [ 3707142.824213339947164, 1879773.556696469662711 ], [ 3707132.345260667614639, 1879779.026359286857769 ], [ 3707121.729891688097268, 1879779.509838273283094 ], [ 3707112.312470902688801, 1879774.383890209253877 ], [ 3707106.126924299634993, 1879764.959390683332458 ], [ 3707108.17890234850347, 1879753.77200340339914 ], [ 3707114.694944929797202, 1879746.169965488836169 ], [ 3707135.591274247039109, 1879741.234798086574301 ], [ 3707152.348152429796755, 1879737.6827960787341 ], [ 3707151.709634510800242, 1879725.244987529469654 ], [ 3707163.357204199768603, 1879723.166166328592226 ], [ 3707164.888024675194174, 1879712.526958120055497 ], [ 3707172.091930986382067, 1879703.361623912351206 ], [ 3707256.116191678214818, 1879672.381487622391433 ], [ 3707262.630397311411798, 1879669.979781704489142 ], [ 3707336.889218826778233, 1879680.595924309687689 ], [ 3707340.153558332007378, 1879681.187013931106776 ], [ 3707338.560809311456978, 1879676.31140763591975 ], [ 3707336.954070307314396, 1879670.005675270454958 ], [ 3707335.76743469433859, 1879663.604843892389908 ], [ 3707335.006169802509248, 1879657.136699370807037 ], [ 3707334.719424072653055, 1879651.524776075500995 ], [ 3707323.294039919041097, 1879648.670343928039074 ], [ 3707288.207659824751318, 1879641.95516314310953 ], [ 3707286.309901023283601, 1879641.572966173524037 ], [ 3707264.626974509097636, 1879636.988826724234968 ], [ 3707238.576587358489633, 1879634.445445598335937 ], [ 3707231.816281479783356, 1879633.536733401473612 ], [ 3707225.3888976322487, 1879632.233065685257316 ], [ 3707219.065376173704863, 1879630.514467536238953 ], [ 3707212.872789688408375, 1879628.388155635679141 ], [ 3707206.837787837721407, 1879625.863222564337775 ], [ 3707200.986018306575716, 1879622.950829975074157 ], [ 3707195.34262478351593, 1879619.662822990911081 ], [ 3707189.931755012366921, 1879616.013817989034578 ], [ 3707184.776671705301851, 1879612.019276301842183 ], [ 3707179.899461537599564, 1879607.696253940463066 ], [ 3707175.320777103304863, 1879603.063041121931747 ], [ 3707171.060383021831512, 1879598.140079352771863 ], [ 3707167.13665777258575, 1879592.948032146086916 ], [ 3707165.24530765786767, 1879590.164872603490949 ], [ 3707161.235905230045319, 1879584.042582378257066 ], [ 3707133.381414611823857, 1879584.478188809705898 ], [ 3707115.234263291582465, 1879571.163191820960492 ], [ 3707111.445794716477394, 1879555.018310318002477 ], [ 3707120.011777950916439, 1879525.73168770596385 ], [ 3707137.484463445842266, 1879502.61830584378913 ], [ 3707146.232383681461215, 1879494.509949774714187 ], [ 3707146.311070575844496, 1879494.234060237184167 ], [ 3707148.516164164058864, 1879488.07080863812007 ], [ 3707151.121592144947499, 1879482.05972635303624 ], [ 3707154.116188571788371, 1879476.226609986275434 ], [ 3707157.487266265321523, 1879470.596595634939149 ], [ 3707161.22001670813188, 1879465.193551848176867 ], [ 3707165.298491187859327, 1879460.040525197982788 ], [ 3707169.705660823266953, 1879455.16013246984221 ], [ 3707174.422339352313429, 1879450.572824582224712 ], [ 3707179.428230335470289, 1879446.298426568740979 ], [ 3707184.70207412680611, 1879442.355109526310116 ], [ 3707190.221509876195341, 1879438.759814522461966 ], [ 3707196.550531112123281, 1879435.226241882424802 ], [ 3707225.154200613498688, 1879420.783096830826253 ], [ 3707229.915997817181051, 1879418.531853422522545 ], [ 3707236.025913387537003, 1879416.066640491364524 ], [ 3707242.281148188747466, 1879414.00146870710887 ], [ 3707248.655164466239512, 1879412.345208409009501 ], [ 3707255.120857322588563, 1879411.105012581916526 ], [ 3707261.650113648269325, 1879410.286086103413254 ], [ 3707268.215159300714731, 1879409.891871884465218 ], [ 3707274.787767014000565, 1879409.924177649430931 ], [ 3707281.340018472634256, 1879410.382853040238842 ], [ 3707287.843824268318713, 1879411.265966928564012 ], [ 3707294.271304933354259, 1879412.569645954063162 ], [ 3707300.594706941861659, 1879414.288188434671611 ], [ 3707306.863126182928681, 1879416.443466565338895 ], [ 3707347.989681976847351, 1879420.51096948585473 ], [ 3707355.056134019512683, 1879421.475466773845255 ], [ 3707381.339156582485884, 1879426.106322065694258 ], [ 3707382.365473296027631, 1879424.620919012697414 ], [ 3707386.444165963213891, 1879419.468001194298267 ], [ 3707390.851324584335089, 1879414.587553666671738 ], [ 3707395.568119937088341, 1879410.000371783273295 ], [ 3707400.573997523635626, 1879405.725919905584306 ], [ 3707405.847841719165444, 1879401.782647232525051 ], [ 3707411.367177655920386, 1879398.187412437750027 ], [ 3707417.108186232857406, 1879394.955581738613546 ], [ 3707423.046313183382154, 1879392.101031767204404 ], [ 3707429.156026046723127, 1879389.635887196054682 ], [ 3707435.411339228972793, 1879387.570637508295476 ], [ 3707441.78529498167336, 1879385.914722422370687 ], [ 3707448.250950403511524, 1879384.674364742590114 ], [ 3707454.78029746748507, 1879383.855455571087077 ], [ 3707461.345334030222148, 1879383.461273260880262 ], [ 3707467.918159909080714, 1879383.493773952824995 ], [ 3707474.470370747148991, 1879383.952282263431698 ], [ 3707480.973967225290835, 1879384.835455255815759 ], [ 3707487.40163397276774, 1879386.13912822236307 ], [ 3707493.725137469358742, 1879387.857776687480509 ], [ 3707499.917603281326592, 1879389.984151758020744 ], [ 3707505.938601011876017, 1879392.502627674257383 ], [ 3707525.599564488977194, 1879401.492499445099384 ], [ 3707531.45821749093011, 1879404.408346423180774 ], [ 3707533.231611622497439, 1879405.388376802904531 ], [ 3707540.042057842947543, 1879405.73542483150959 ], [ 3707541.792267803102732, 1879404.240997321670875 ], [ 3707547.066292195115238, 1879400.297620246419683 ], [ 3707552.585426688194275, 1879396.702442503534257 ], [ 3707558.326530261896551, 1879393.470621162327006 ], [ 3707564.264538609888405, 1879390.616013980237767 ], [ 3707570.374345345888287, 1879388.150878196349367 ], [ 3707576.629796889610589, 1879386.08593100681901 ], [ 3707583.003716453909874, 1879384.429843470454216 ], [ 3707589.46936522051692, 1879383.189508798765019 ], [ 3707595.998621173202991, 1879382.370735784759745 ], [ 3707602.563635200727731, 1879381.976476839277893 ], [ 3707606.035290230531245, 1879381.94052329682745 ], [ 3707614.790633368305862, 1879371.373483919771388 ], [ 3707615.793211176991463, 1879368.571143788052723 ], [ 3707618.398748730309308, 1879362.560030721593648 ], [ 3707621.393368442542851, 1879356.72700068471022 ], [ 3707622.492043490055948, 1879354.799083412857726 ], [ 3707627.094546421431005, 1879346.924758858978748 ], [ 3707629.36705478746444, 1879343.222638116916642 ], [ 3707630.741469647735357, 1879341.144491713028401 ], [ 3707634.532774520572275, 1879335.205395834287629 ], [ 3707636.464949059300125, 1879328.356349920155481 ], [ 3707638.670063236262649, 1879322.193087592255324 ], [ 3707641.275425468105823, 1879316.182112409733236 ], [ 3707644.270136688835919, 1879310.348976930836216 ], [ 3707646.586357615422457, 1879306.392949764151126 ], [ 3707652.754689907189459, 1879296.386743207927793 ], [ 3707654.016636096872389, 1879275.988313135690987 ], [ 3707654.468575100880116, 1879270.852040999568999 ], [ 3707655.423459995537996, 1879264.392339444952086 ], [ 3707656.801454679574817, 1879258.004317947430536 ], [ 3707658.59708479559049, 1879251.715171735733747 ], [ 3707660.802280650939792, 1879245.551707981387153 ], [ 3707663.407541359309107, 1879239.540661650942639 ], [ 3707666.402180827222764, 1879233.707651583477855 ], [ 3707669.773184644524008, 1879228.077664906391874 ], [ 3707673.505858140997589, 1879222.674651866545901 ], [ 3707677.584822530392557, 1879217.522069534286857 ], [ 3707681.991779589094222, 1879212.641532015288249 ], [ 3707686.708455064333975, 1879208.054147273069248 ], [ 3707691.714483402203768, 1879203.779951796168461 ], [ 3707696.988628834951669, 1879199.836610054131597 ], [ 3707702.507783363573253, 1879196.241483582882211 ], [ 3707708.24880588054657, 1879193.009729221928865 ], [ 3707714.187013042159379, 1879190.155043055769056 ], [ 3707720.296848355792463, 1879187.690055509796366 ], [ 3707726.552083154208958, 1879185.624993326608092 ], [ 3707732.926110683940351, 1879183.968938327394426 ], [ 3707739.391895059496164, 1879182.728831081883982 ], [ 3707745.921125185675919, 1879181.909907726803795 ], [ 3707752.486170996911824, 1879181.515889038564637 ], [ 3707759.058958292007446, 1879181.548256465932354 ], [ 3707765.611172792501748, 1879182.006922668544576 ], [ 3707772.115052226930857, 1879182.890104671474546 ], [ 3707776.033551978878677, 1879183.633055250858888 ], [ 3707783.379337755497545, 1879185.176915352931246 ], [ 3707805.430952872615308, 1879186.363725506234914 ], [ 3707822.238281290978193, 1879187.345736422110349 ], [ 3707825.102097524795681, 1879187.226120040751994 ], [ 3707831.674826499074697, 1879187.25880732294172 ], [ 3707838.22715057246387, 1879187.717565080849454 ], [ 3707844.731124476995319, 1879188.600740063237026 ], [ 3707851.158541831187904, 1879189.904309963807464 ], [ 3707857.482051325961947, 1879191.623211504891515 ], [ 3707863.674673588946462, 1879193.749509222107008 ], [ 3707866.77817970328033, 1879194.989908891264349 ], [ 3707883.166187490336597, 1879201.859663954004645 ], [ 3707884.585431915242225, 1879202.481643146369606 ], [ 3707887.367209356278181, 1879199.192747760331258 ], [ 3707969.709140165243298, 1879218.558916180860251 ], [ 3708013.59219968225807, 1879236.487832731101662 ], [ 3708025.939351450651884, 1879239.343740917509422 ], [ 3708038.662907389458269, 1879242.785389601252973 ], [ 3708041.912779163569212, 1879241.712663553887978 ], [ 3708048.286773239262402, 1879240.056556375464424 ], [ 3708054.752325621433556, 1879238.816427369602025 ], [ 3708061.281551353633404, 1879237.997645161813125 ], [ 3708067.846661415882409, 1879237.603553992230445 ], [ 3708074.419428689870983, 1879237.635960996383801 ], [ 3708080.971950029954314, 1879238.094813293311745 ], [ 3708087.475581132806838, 1879238.977866287343204 ], [ 3708093.903042821213603, 1879240.281853182474151 ], [ 3708100.226689765695482, 1879242.000451810192317 ], [ 3708106.189848510548472, 1879244.039951971499249 ], [ 3708128.290939972735941, 1879252.385276821441948 ], [ 3708154.328260820824653, 1879262.209259784081951 ], [ 3708193.443474091589451, 1879276.977099017007276 ], [ 3708202.735490469262004, 1879280.208479364868253 ], [ 3708205.643645050469786, 1879279.304288004990667 ], [ 3708212.017628878355026, 1879277.648203652352095 ], [ 3708218.483368845190853, 1879276.408065106486902 ], [ 3708225.012698013335466, 1879275.589386528125033 ], [ 3708227.497884973883629, 1879275.38988024299033 ], [ 3708233.968108884990215, 1879274.950528562767431 ], [ 3708238.048006095457822, 1879274.755866844439879 ], [ 3708244.620777293574065, 1879274.788392536109313 ], [ 3708249.0657380502671, 1879275.053009059512988 ], [ 3708251.701421065256, 1879275.268180403392762 ], [ 3708260.399368292652071, 1879273.719877359690145 ], [ 3708262.307571382261813, 1879273.398991643683985 ], [ 3708268.836982493288815, 1879272.580206354381517 ], [ 3708275.402079658582807, 1879272.186142693040892 ], [ 3708281.974863848183304, 1879272.218772080494091 ], [ 3708284.395682570524514, 1879272.338362301699817 ], [ 3708290.754369484260678, 1879272.72912634932436 ], [ 3708294.885746579617262, 1879273.068363400408998 ], [ 3708301.389462970197201, 1879273.95142482034862 ], [ 3708303.116171821020544, 1879274.301784607814625 ], [ 3708338.023673265241086, 1879243.429621676681563 ], [ 3708371.469716225285083, 1879209.339715132024139 ], [ 3708412.42116509610787, 1879156.559739019256085 ], [ 3708449.86951539106667, 1879110.102512351470068 ], [ 3708469.792610006406903, 1879023.279443054227158 ], [ 3708461.448057809844613, 1879008.056487053865567 ], [ 3708455.439273004420102, 1878996.61552808037959 ], [ 3708450.599599116481841, 1878987.066626825137064 ], [ 3708446.009602362755686, 1878980.49338320386596 ], [ 3708439.33431063266471, 1878973.113673107465729 ], [ 3708428.320882850792259, 1878962.136730538215488 ], [ 3708416.222856087144464, 1878950.260716353775933 ], [ 3708411.549240667372942, 1878942.695649651112035 ], [ 3708390.43770738504827, 1878907.660690944408998 ], [ 3708378.839048230554909, 1878889.739666276145726 ], [ 3708356.474394637160003, 1878851.821393711026758 ], [ 3708351.801977170631289, 1878844.256135788746178 ], [ 3708349.465209156274796, 1878840.47349593648687 ], [ 3708344.292753624264151, 1878838.952851917594671 ], [ 3708329.943357084412128, 1878836.282860587118194 ], [ 3708326.773461043834686, 1878834.577322681900114 ], [ 3708323.267989043146372, 1878828.903263052692637 ], [ 3708318.34470183076337, 1878818.362437757430598 ], [ 3708313.002659515943378, 1878802.860796612221748 ], [ 3708310.831147518474609, 1878789.065497676609084 ], [ 3708309.41009518597275, 1878772.202129714656621 ], [ 3708309.157303420826793, 1878757.229250525357202 ], [ 3708309.653233094140887, 1878727.191469537327066 ], [ 3708310.731184723321348, 1878692.100577015196905 ], [ 3708312.063134175725281, 1878671.981865755049512 ], [ 3708311.06003980897367, 1878660.078553113155067 ], [ 3708306.135807548183948, 1878649.537285757949576 ], [ 3708305.216258253902197, 1878638.625305728754029 ], [ 3708307.216439903713763, 1878626.443197049666196 ], [ 3708300.959470967296511, 1878624.023355336626992 ], [ 3708295.36870990274474, 1878617.542726788669825 ], [ 3708293.032556774094701, 1878613.760693552205339 ], [ 3708287.608696757815778, 1878609.263559505110607 ], [ 3708284.020699366927147, 1878602.598009560024366 ], [ 3708279.430996994487941, 1878596.025122737511992 ], [ 3708276.093871186487377, 1878592.335233543068171 ], [ 3708274.674740354996175, 1878587.467681475449353 ], [ 3708275.258022491820157, 1878582.415565982228145 ], [ 3708277.259903884958476, 1878582.230183573905379 ], [ 3708277.174036417622119, 1878569.241226317360997 ], [ 3708276.670782091561705, 1878551.292253176216036 ], [ 3708282.92334381211549, 1878529.719028937397525 ], [ 3708289.509447445161641, 1878500.115962040843442 ], [ 3708298.094455785583705, 1878458.331945605576038 ], [ 3708303.095815812237561, 1878433.875052464194596 ], [ 3708330.353232604917139, 1878302.384759463369846 ], [ 3707877.944336479064077, 1878273.304824646096677 ], [ 3707876.278925887774676, 1878289.455016790190712 ], [ 3707874.944721796084195, 1878291.57818722515367 ], [ 3707868.855627132114023, 1878297.140821142122149 ], [ 3707860.514570271596313, 1878305.911368752364069 ], [ 3707855.843731494620442, 1878310.342891264008358 ], [ 3707854.092560349032283, 1878313.504379640799016 ], [ 3707849.672360608354211, 1878320.912113702623174 ], [ 3707848.004725542385131, 1878325.06493828073144 ], [ 3707845.252162404824048, 1878328.319849766092375 ], [ 3707842.415992178022861, 1878330.581630056491122 ], [ 3707837.661660015117377, 1878334.02141528390348 ], [ 3707832.82374157384038, 1878336.468869946198538 ], [ 3707827.985274161677808, 1878338.916714810300618 ], [ 3707823.063502145931125, 1878340.372083161724731 ], [ 3707818.142042097169906, 1878341.827502790139988 ], [ 3707705.223169558681548, 1878546.236518590711057 ], [ 3707545.154627575539052, 1878658.038616520585492 ], [ 3707390.61908705253154, 1878452.411053827265278 ], [ 3707382.692415185272694, 1878442.148547163698822 ], [ 3707394.949074896518141, 1878408.021882111905143 ], [ 3707420.865645371843129, 1878248.661306416150182 ], [ 3707440.711972660850734, 1878196.836191106354818 ], [ 3707448.216600641142577, 1878178.145486696157604 ], [ 3707444.042365676257759, 1878164.536061446648091 ], [ 3707435.281511320732534, 1878156.349540048511699 ], [ 3707439.035676320083439, 1878153.00304619804956 ], [ 3707441.62033179635182, 1878147.764456471195444 ], [ 3707467.888557021971792, 1878088.345720320707187 ], [ 3707484.065921735949814, 1878052.856549344025552 ], [ 3707610.443243895191699, 1877996.1620834749192 ], [ 3707604.84799370681867, 1877965.688813182059675 ], [ 3707494.611191052943468, 1878004.391822954639792 ], [ 3707457.264086194336414, 1877914.376584821846336 ], [ 3707370.051698143128306, 1877705.51264160242863 ], [ 3707395.993133822456002, 1877690.11372079863213 ], [ 3707344.761999708134681, 1877632.875666472595185 ], [ 3707342.425310478545725, 1877629.093214317690581 ], [ 3707339.088202377315611, 1877625.403323105769232 ], [ 3707334.498155010864139, 1877618.830488795414567 ], [ 3707288.931126598268747, 1877509.081610419088975 ], [ 3707290.097194177564234, 1877498.976634335471317 ], [ 3707280.168226026929915, 1877488.899184851674363 ], [ 3707125.900758714415133, 1877382.223102425225079 ], [ 3707029.374831610359251, 1877350.175780687713996 ], [ 3707102.85591011447832, 1877264.389298817375675 ], [ 3707116.696044184267521, 1877213.120839050738141 ], [ 3707134.545954418368638, 1877197.470199316041544 ], [ 3707164.576254069805145, 1877182.692541140131652 ], [ 3707190.933915183413774, 1877160.255807547364384 ], [ 3707194.353532063774765, 1877152.941419740440324 ], [ 3707206.865757477004081, 1877145.784718069480732 ], [ 3707248.317438900005072, 1877086.959010322345421 ], [ 3707246.064798568375409, 1877084.16851331340149 ], [ 3707240.975368006154895, 1877083.639655193081126 ], [ 3707229.546258114743978, 1877079.700482493033633 ], [ 3707222.204200916457921, 1877076.381226863479242 ], [ 3707217.69835547124967, 1877070.800524154677987 ], [ 3707212.941817454993725, 1877062.243436810793355 ], [ 3707208.352549720089883, 1877055.669980500359088 ], [ 3707206.097921328153461, 1877040.883042189991102 ], [ 3707205.011278819758445, 1877027.987738283118233 ], [ 3707202.089398005977273, 1877017.260937518905848 ], [ 3707191.659161396790296, 1877001.231595567194745 ], [ 3707191.824132259935141, 1876991.219341754680499 ], [ 3707193.408454039599746, 1876986.073590307263657 ], [ 3707195.994045178405941, 1876980.836155378259718 ], [ 3707197.327093387953937, 1876972.714819516520947 ], [ 3707197.575861510820687, 1876963.693756510736421 ], [ 3707198.826113472227007, 1876954.581077188020572 ], [ 3707199.324001736938953, 1876936.539202438434586 ], [ 3707198.488166536670178, 1876926.619572381256148 ], [ 3707192.311992748174816, 1876913.195233431877568 ], [ 3707184.301535663194954, 1876901.94104585214518 ], [ 3707172.203623285051435, 1876890.064990299753845 ], [ 3707165.193901206366718, 1876878.717598034301773 ], [ 3707159.436311121564358, 1876870.25276622036472 ], [ 3707156.266062257811427, 1876868.547570162918419 ], [ 3707149.674734043423086, 1876862.159815634833649 ], [ 3707143.082811838015914, 1876855.772156232967973 ], [ 3707140.913325752597302, 1876853.973952052649111 ], [ 3707122.307338527869433, 1876836.703122518723831 ], [ 3707117.801550174131989, 1876831.122008892241865 ], [ 3707116.215978446416557, 1876824.270609510596842 ], [ 3707111.874654752202332, 1876808.676330314483494 ], [ 3707107.950410368386656, 1876786.047271664952859 ], [ 3707103.359213285148144, 1876767.477792268386111 ], [ 3707100.354247407056391, 1876755.759404452517629 ], [ 3707077.739014126826078, 1876714.866017450811341 ], [ 3707069.644841989036649, 1876702.618925486458465 ], [ 3707061.467793092597276, 1876689.380602098768577 ], [ 3707049.869129700120538, 1876671.460107738384977 ], [ 3707048.616978439968079, 1876668.577350723091513 ], [ 3707034.514958370942622, 1876644.890186869772151 ], [ 3707032.178231842350215, 1876641.107748102396727 ], [ 3707016.990828144364059, 1876616.521534590981901 ], [ 3707009.898271447047591, 1876604.182907351758331 ], [ 3706998.054582904092968, 1876619.275918508181348 ], [ 3706989.880813193507493, 1876630.030535971513018 ], [ 3706985.376511333975941, 1876636.445819877320901 ], [ 3706979.454913137946278, 1876643.992246969137341 ], [ 3706972.44856202788651, 1876650.639827702660114 ], [ 3706968.193565323483199, 1876648.035179089289159 ], [ 3706963.938334471080452, 1876645.4296640092507 ], [ 3706961.76873533334583, 1876643.631377591285855 ], [ 3706951.08984405035153, 1876636.623079594457522 ], [ 3706919.219095602165908, 1876617.581128878286108 ], [ 3706916.048120042309165, 1876615.875849528703839 ], [ 3706857.562112094834447, 1876580.305252832593396 ], [ 3706852.223142869770527, 1876576.800929764052853 ], [ 3706838.456311593297869, 1876569.078366574598476 ], [ 3706827.860864683054388, 1876563.062423005001619 ], [ 3706817.098351514898241, 1876555.061410619644448 ], [ 3706811.841843860223889, 1876552.549593990901485 ], [ 3706806.585344969294965, 1876550.03717348119244 ], [ 3706803.331720659509301, 1876547.339521189918742 ], [ 3706779.887547322083265, 1876532.516239617951214 ], [ 3706771.964256777428091, 1876546.246926565654576 ], [ 3706749.522407271433622, 1876543.327058880822733 ], [ 3706735.089614900294691, 1876539.66554577415809 ], [ 3706726.998140583746135, 1876539.415690368041396 ], [ 3706710.729582413099706, 1876537.923478352371603 ], [ 3706693.460336466319859, 1876536.524171041557565 ], [ 3706671.937069882638752, 1876532.52007317636162 ], [ 3706655.836340686772019, 1876533.012024559779093 ], [ 3706630.809179979376495, 1876535.330723400227726 ], [ 3706614.876223891507834, 1876537.80644608149305 ], [ 3706597.10690965410322, 1876542.451575472718105 ], [ 3706570.747009430080652, 1876552.8915427448228 ], [ 3706553.062459234148264, 1876558.528335720766336 ], [ 3706543.636104566976428, 1876566.400997021701187 ], [ 3706530.124842870049179, 1876585.647431714460254 ], [ 3706517.696294509340078, 1876593.797236193437129 ], [ 3706503.680890162475407, 1876595.095819303998724 ], [ 3706489.331968314014375, 1876592.426358159165829 ], [ 3706466.722997059114277, 1876587.522254522657022 ], [ 3706459.715885931625962, 1876588.171458003576845 ], [ 3706457.713546359911561, 1876588.356922461418435 ], [ 3706455.627717383671552, 1876587.551145347068086 ], [ 3706452.624675965867937, 1876587.829418066423386 ], [ 3706447.619096718728542, 1876588.293187650619075 ], [ 3706432.770036168396473, 1876591.667575409868732 ], [ 3706380.883755070157349, 1876610.471962749259546 ], [ 3706351.41378, 1876622.958761531626806 ], [ 3706351.41378, 1880587.575720000779256 ], [ 3707915.257394468411803, 1880587.575720000779256 ], [ 3707912.154182489495724, 1880582.552033140556887 ] ], [ [ 3706475.928484930191189, 1879952.803841361077502 ], [ 3706461.579349710140377, 1879950.134504643501714 ], [ 3706462.494570813607424, 1879937.052587426966056 ], [ 3706454.318897758610547, 1879935.810952342813835 ], [ 3706453.231868459377438, 1879922.914807843510062 ], [ 3706474.415781555231661, 1879898.956863663159311 ], [ 3706502.239551982842386, 1879911.874839615309611 ], [ 3706499.365635063499212, 1879931.636599460616708 ], [ 3706509.168206298258156, 1879934.227070834487677 ], [ 3706509.712539474014193, 1879946.67389452480711 ], [ 3706515.470776790753007, 1879955.138494204962626 ], [ 3706520.478529561311007, 1879966.671051708050072 ], [ 3706522.315624468959868, 1879976.499097807100043 ], [ 3706520.064343179110438, 1879985.704754338599741 ], [ 3706519.482137936167419, 1879990.758082501357421 ], [ 3706509.554971905425191, 1879992.6770213493146 ], [ 3706491.536691328044981, 1879994.346746273338795 ], [ 3706456.581264482811093, 1879986.588936290005222 ], [ 3706459.248165516648442, 1879970.345698560122401 ], [ 3706472.51150224590674, 1879972.115066199796274 ], [ 3706475.928484930191189, 1879952.803841361077502 ] ] ] } }
]
}
