{
"type": "FeatureCollection",
"name": "Bellcaire_d'Empordà",
"crs": { "type": "name", "properties": { "name": "urn:ogc:def:crs:EPSG::3035" } },
"features": [
{ "type": "Feature", "properties": { "SITE_NAME": "Del Montgrí, les Illes Medes i el Baix Ter", "ODESIGNATE": "Parque Natural", "NUT2": 51, "SITE_CODE_": "ES512057", "DESIG_ABBR": "ES10", "SITE_CDDA": "555546001_CDDA", "Sup_ha": 7819.89537337 }, "geometry": { "type": "Polygon", "coordinates": [ [ [ 3749871.444995305035263, 2131919.535662199370563 ], [ 3749854.119145315140486, 2131981.24587573716417 ], [ 3749832.190430373884737, 2132018.84318527393043 ], [ 3749806.818852478638291, 2132045.742188488133252 ], [ 3749774.604186153039336, 2132051.741463585756719 ], [ 3749712.850778763182461, 2132036.446395741775632 ], [ 3749683.090953311882913, 2132041.716715388931334 ], [ 3749655.651102445553988, 2132073.816413321532309 ], [ 3749618.718152664136142, 2132153.376149754039943 ], [ 3749597.895618507172912, 2132215.411629984155297 ], [ 3749588.56329944357276, 2132276.379186367616057 ], [ 3749497.800510815810412, 2132344.916102606803179 ], [ 3749474.899944499135017, 2132377.094901555683464 ], [ 3749462.490569647401571, 2132408.298590699210763 ], [ 3749457.574665110558271, 2132438.805600753985345 ], [ 3749451.819664527196437, 2132529.490920182317495 ], [ 3749420.50633173622191, 2132592.501964377239347 ], [ 3749399.18472680170089, 2132654.584378289058805 ], [ 3749323.811571536585689, 2132778.786728699691594 ], [ 3749315.157177481800318, 2132812.646471526008099 ], [ 3749318.701422405894846, 2132842.089977917261422 ], [ 3749313.095521155744791, 2132845.873277374077588 ], [ 3749300.40802334388718, 2132855.22637255769223 ], [ 3749280.99206433352083, 2132868.881227938458323 ], [ 3749261.854592381045222, 2132883.191176175139844 ], [ 3749257.61825658287853, 2132888.362979054450989 ], [ 3749255.141915043350309, 2132894.783511989749968 ], [ 3749251.906523367390037, 2132908.49670550879091 ], [ 3749250.396724116522819, 2132924.233199017588049 ], [ 3749249.914974464569241, 2132940.324802415445447 ], [ 3749246.441967720165849, 2132950.594295466318727 ], [ 3749242.414611614774913, 2132954.103950235061347 ], [ 3749236.776189713738859, 2132955.289135579951108 ], [ 3749225.493151474744081, 2132953.974106634967029 ], [ 3749218.538886884227395, 2132950.774207766633481 ], [ 3749211.708338215015829, 2132945.278963850345463 ], [ 3749198.116912542842329, 2132931.717686422169209 ], [ 3749188.890912324655801, 2132924.261460724286735 ], [ 3749183.486970680765808, 2132921.748767812736332 ], [ 3749177.143420590553433, 2132921.18654111539945 ], [ 3749165.411207266151905, 2132924.000097269192338 ], [ 3749153.489522533491254, 2132929.275385379325598 ], [ 3749146.401666371617466, 2132934.081252279691398 ], [ 3749108.907215053215623, 2132965.67396835051477 ], [ 3749071.418445486109704, 2132996.985748287755996 ], [ 3749033.117968102917075, 2133027.060742909088731 ], [ 3748994.70050266943872, 2133057.176849487237632 ], [ 3748978.855511157773435, 2133069.848626893945038 ], [ 3748964.049903579987586, 2133083.355361793190241 ], [ 3748955.090522388927639, 2133093.774399662390351 ], [ 3748944.700378303881735, 2133110.586892642080784 ], [ 3748941.114415729418397, 2133120.947118755429983 ], [ 3748940.136891626287252, 2133131.074744765181094 ], [ 3748942.120656515005976, 2133150.984057776164263 ], [ 3748947.81497610732913, 2133182.007463253103197 ], [ 3748956.565958100836724, 2133212.736745062284172 ], [ 3748960.228889848105609, 2133220.6199636682868 ], [ 3748965.101553356274962, 2133227.929937346372753 ], [ 3748975.229653298389167, 2133242.093629281967878 ], [ 3748979.697192559950054, 2133252.175860386807472 ], [ 3748982.027338477782905, 2133270.149706409778446 ], [ 3748980.588272395078093, 2133288.914732926059514 ], [ 3748977.865817039273679, 2133301.107919158879668 ], [ 3748972.147068186663091, 2133316.15389194432646 ], [ 3748965.934654803946614, 2133330.96530325897038 ], [ 3748963.123920938000083, 2133341.203360477462411 ], [ 3748959.342138916254044, 2133362.460016088560224 ], [ 3748955.570450583938509, 2133383.715729606803507 ], [ 3748985.306885804515332, 2133408.226841839961708 ], [ 3748997.847564435563982, 2133415.925771983806044 ], [ 3749011.3839628752321, 2133421.518772790208459 ], [ 3749021.149733073543757, 2133422.173501693177968 ], [ 3749036.251896457746625, 2133418.615766379982233 ], [ 3749043.712062776088715, 2133417.301236871629953 ], [ 3749050.950117361266166, 2133417.840275493916124 ], [ 3749068.063299227971584, 2133424.843793761916459 ], [ 3749085.404090229421854, 2133431.916135005652905 ], [ 3749097.166890456806868, 2133434.699107744731009 ], [ 3749109.022828771732748, 2133436.000950058922172 ], [ 3749110.88540041167289, 2133458.235340094193816 ], [ 3749112.737021749839187, 2133480.460653815418482 ], [ 3749115.492595593910664, 2133497.41341303428635 ], [ 3749119.90698426309973, 2133514.101677345111966 ], [ 3749127.9820123645477, 2133547.498194779735059 ], [ 3749128.90453037340194, 2133569.810034929774702 ], [ 3749125.961664612870663, 2133592.381070917937905 ], [ 3749122.157998578622937, 2133607.55954768974334 ], [ 3749115.247800794430077, 2133623.267255229875445 ], [ 3749105.839364303275943, 2133637.343971068970859 ], [ 3749101.490824587643147, 2133641.564746459480375 ], [ 3749096.064695221371949, 2133644.853919980116189 ], [ 3749085.299497008323669, 2133651.273772717919201 ], [ 3749080.824861813336611, 2133657.529571376275271 ], [ 3749077.827131710015237, 2133670.850200908724219 ], [ 3749076.685913184657693, 2133684.438900852110237 ], [ 3749074.489516539499164, 2133711.678436705842614 ], [ 3749069.571078510954976, 2133751.351565537974238 ], [ 3749064.246824563480914, 2133764.087153158150613 ], [ 3749058.252028484363109, 2133780.130529697518796 ], [ 3749057.13545836834237, 2133782.420755024068058 ], [ 3749056.318799478933215, 2133784.108983804471791 ], [ 3749055.837028653826565, 2133786.446265442762524 ], [ 3749055.590206240303814, 2133789.413137472700328 ], [ 3749056.378700938541442, 2133791.894173674285412 ], [ 3749057.807364599779248, 2133794.205357753671706 ], [ 3749060.179433920886368, 2133796.709472803398967 ], [ 3749062.895284104626626, 2133798.650622857734561 ], [ 3749066.900544563308358, 2133800.822524640709162 ], [ 3749071.028792703058571, 2133802.672521988861263 ], [ 3749076.14398132590577, 2133804.641034703701735 ], [ 3749081.324763712938875, 2133806.433218954131007 ], [ 3749084.857853836379945, 2133807.456996049266309 ], [ 3749088.38202049722895, 2133808.491602984257042 ], [ 3749093.287341536954045, 2133810.129052296280861 ], [ 3749098.168003378901631, 2133811.828959062695503 ], [ 3749103.141794592142105, 2133813.670400583185256 ], [ 3749108.044141174294055, 2133815.738882091362029 ], [ 3749111.765872853808105, 2133817.89705980848521 ], [ 3749115.020625769160688, 2133820.709711625240743 ], [ 3749117.617236323654652, 2133823.48336552688852 ], [ 3749120.11006532330066, 2133826.336784058250487 ], [ 3749123.075251235626638, 2133829.877539053559303 ], [ 3749126.511931049637496, 2133834.095700821839273 ], [ 3749128.382337052375078, 2133836.856727018486708 ], [ 3749131.285489303059876, 2133840.262932741083205 ], [ 3749133.312411987222731, 2133841.687219737097621 ], [ 3749135.39798196638003, 2133842.394789006561041 ], [ 3749136.715797514654696, 2133842.262347671203315 ], [ 3749139.92651832010597, 2133840.37111447378993 ], [ 3749143.127824530471116, 2133838.260463629849255 ], [ 3749145.6664750832133, 2133837.102863560430706 ], [ 3749148.329652479849756, 2133836.10400690510869 ], [ 3749151.649160141125321, 2133835.3547323490493 ], [ 3749155.036031601484865, 2133835.270187192130834 ], [ 3749157.244687377475202, 2133835.655836966820061 ], [ 3749157.661588211543858, 2133835.771563364192843 ], [ 3749157.41289222612977, 2133835.970771430060267 ], [ 3749148.168142748065293, 2133851.354624666273594 ], [ 3749138.182095551397651, 2133869.812439760193229 ], [ 3749134.701082485727966, 2133876.146201857365668 ], [ 3749098.753522776067257, 2133949.60601136693731 ], [ 3749087.39767029741779, 2133969.693789377808571 ], [ 3749072.233333231881261, 2133998.149083191063255 ], [ 3749069.472166760824621, 2134071.027932398486882 ], [ 3749068.521348707843572, 2134089.146644032560289 ], [ 3749076.782906698528677, 2134219.599304239265621 ], [ 3749086.946012701373547, 2134220.65766914235428 ], [ 3749093.655253934208304, 2134222.538133842870593 ], [ 3749098.49511677864939, 2134226.094897893257439 ], [ 3749102.163969106506556, 2134227.757164299022406 ], [ 3749103.963557941839099, 2134231.095811567269266 ], [ 3749106.348587343469262, 2134235.381617513019592 ], [ 3749106.735313622280955, 2134239.853273911401629 ], [ 3749107.707595208659768, 2134245.272171088028699 ], [ 3749106.026300528086722, 2134254.944412972312421 ], [ 3749104.871338352095336, 2134259.058614908717573 ], [ 3749103.018095556646585, 2134266.743500741198659 ], [ 3749104.18910748232156, 2134268.6379982419312 ], [ 3749105.773822140879929, 2134269.49236218072474 ], [ 3749100.214134933426976, 2134292.547221483197063 ], [ 3749058.922029627952725, 2134298.389584048185498 ], [ 3749061.022324781864882, 2134305.206172693055123 ], [ 3749061.296354651916772, 2134314.19586144015193 ], [ 3749058.04642101470381, 2134329.022464057896286 ], [ 3749054.866465196944773, 2134338.834082993678749 ], [ 3749050.031922610942274, 2134352.80631387559697 ], [ 3749043.929736546706408, 2134375.410792781971395 ], [ 3749041.791878043208271, 2134385.626467060297728 ], [ 3749041.0398108093068, 2134400.220846543088555 ], [ 3749041.426555248908699, 2134404.692512200213969 ], [ 3749042.898479820229113, 2134410.064921458717436 ], [ 3749047.7705711517483, 2134425.638888778164983 ], [ 3749055.22644477058202, 2134441.974352003540844 ], [ 3749063.139047183096409, 2134457.766587218269706 ], [ 3749076.691867301240563, 2134480.547019911464304 ], [ 3749087.966912331059575, 2134476.994416868779808 ], [ 3749096.87319853156805, 2134475.164788381196558 ], [ 3749121.1799943940714, 2134470.90151543263346 ], [ 3749155.650010673329234, 2134467.696774870157242 ], [ 3749161.86510404618457, 2134487.152681169565767 ], [ 3749185.328526328317821, 2134478.961083509027958 ], [ 3749186.257807693909854, 2134483.88307320792228 ], [ 3749223.451314606703818, 2134471.41003879904747 ], [ 3749220.991091892588884, 2134501.188522285781801 ], [ 3749237.648655431810766, 2134501.643217187840492 ], [ 3749249.896106512285769, 2134503.509627232328057 ], [ 3749258.474688520655036, 2134503.71368077583611 ], [ 3749264.426502108108252, 2134502.659522426780313 ], [ 3749265.710307349450886, 2134500.035981671418995 ], [ 3749268.621739476453513, 2134498.76363000459969 ], [ 3749271.119573375675827, 2134498.531395536847413 ], [ 3749275.511783263646066, 2134500.794201189652085 ], [ 3749276.240468299947679, 2134503.397649838589132 ], [ 3749276.333703187294304, 2134512.237109399400651 ], [ 3749292.729736370034516, 2134513.550885864533484 ], [ 3749378.366842499468476, 2134497.415660203900188 ], [ 3749459.805641827173531, 2134521.775710455141962 ], [ 3749402.360716206487268, 2134665.131094339769334 ], [ 3749382.834754902869463, 2134713.024048757739365 ], [ 3749392.342651600018144, 2134718.150273346342146 ], [ 3749364.046891453675926, 2134792.644001427572221 ], [ 3749369.429653882049024, 2134795.116559250280261 ], [ 3749407.416449812240899, 2134811.378289942629635 ], [ 3749423.735501410905272, 2134816.4221564643085 ], [ 3749449.131602169480175, 2134820.211558195762336 ], [ 3749474.853797513525933, 2134821.94712639786303 ], [ 3749521.373271375894547, 2134824.724346876144409 ], [ 3749567.91967910900712, 2134826.767819857224822 ], [ 3749608.34760928992182, 2134827.937785478308797 ], [ 3749648.831102510914207, 2134828.231025076005608 ], [ 3749681.375513083767146, 2134826.868409588001668 ], [ 3749713.827148232143372, 2134824.432530917227268 ], [ 3749739.770170763134956, 2134822.201180896256119 ], [ 3749765.585646568797529, 2134818.499115208163857 ], [ 3749783.720713885501027, 2134814.028519231826067 ], [ 3749801.535600550938398, 2134808.415798655711114 ], [ 3749804.064012709073722, 2134788.627827235031873 ], [ 3749806.582746684551239, 2134768.840744649060071 ], [ 3749808.771827137097716, 2134741.631783367134631 ], [ 3749810.672220882959664, 2134714.349528234452009 ], [ 3749812.552617813460529, 2134702.434974648989737 ], [ 3749818.300325847230852, 2134685.282699004281312 ], [ 3749822.880872183479369, 2134677.224084067158401 ], [ 3749828.823553562164307, 2134669.659739242866635 ], [ 3749842.891618998255581, 2134656.942848690785468 ], [ 3749865.942976272664964, 2134642.819795521907508 ], [ 3749890.030275209806859, 2134630.664063567295671 ], [ 3749903.657324268482625, 2134625.891372311860323 ], [ 3749910.522509657777846, 2134623.520323816686869 ], [ 3749916.982050157152116, 2134619.834645996335894 ], [ 3749923.086261428426951, 2134613.788052057847381 ], [ 3749929.258869674988091, 2134602.826694082468748 ], [ 3749933.534968342166394, 2134590.549285545013845 ], [ 3749936.93786334618926, 2134577.14088958222419 ], [ 3749939.107613483909518, 2134557.045768884941936 ], [ 3749937.744113803375512, 2134537.439389234408736 ], [ 3749935.094830906949937, 2134527.372898708097637 ], [ 3749881.772227002773434, 2134525.403365066740662 ], [ 3749877.30296500492841, 2134520.309585531242192 ], [ 3749873.568161869421601, 2134494.011979852803051 ], [ 3749873.134174561593682, 2134488.412792349234223 ], [ 3749872.813982764258981, 2134482.963432394899428 ], [ 3749872.566346489824355, 2134477.887797757051885 ], [ 3749872.290501257404685, 2134472.834917924366891 ], [ 3749872.061332665383816, 2134469.600787221454084 ], [ 3749872.002853732556105, 2134468.6947086378932 ], [ 3749871.915978861041367, 2134467.436566831544042 ], [ 3750618.379291238728911, 2134174.461757212877274 ], [ 3750630.621891549788415, 2134181.277327734977007 ], [ 3750632.348940179683268, 2134182.148451539687812 ], [ 3750634.109902942087501, 2134183.527433218434453 ], [ 3750635.585332463029772, 2134184.632376740686595 ], [ 3750636.586095514707267, 2134185.841545434202999 ], [ 3750637.567375602666289, 2134188.10431388579309 ], [ 3750638.459932129830122, 2134190.15483304252848 ], [ 3750642.912419292144477, 2134194.791918703820556 ], [ 3750645.049620633944869, 2134197.525788175873458 ], [ 3750646.451470833271742, 2134207.913149212021381 ], [ 3750640.213547634426504, 2134351.232255405280739 ], [ 3750636.823807274922729, 2134376.088395098224282 ], [ 3750631.919293688144535, 2134395.075312349945307 ], [ 3750629.834540678653866, 2134408.697347175329924 ], [ 3750615.601305063813925, 2134412.869237190112472 ], [ 3750598.390918313525617, 2134418.836178441997617 ], [ 3750583.857698370236903, 2134424.193691075779498 ], [ 3750577.715007964987308, 2134426.925509495660663 ], [ 3750576.957300737965852, 2134497.546938135754317 ], [ 3750511.237812099047005, 2134501.95242370525375 ], [ 3750510.231752639636397, 2134477.830665257759392 ], [ 3750509.116073629353195, 2134472.215726480819285 ], [ 3750496.920834382064641, 2134481.626769952476025 ], [ 3750464.616481249686331, 2134506.496033818926662 ], [ 3750435.689352994784713, 2134528.376912127248943 ], [ 3750406.615347513929009, 2134550.071130149066448 ], [ 3750405.264642597176135, 2134550.988051050808281 ], [ 3750372.286238408647478, 2134573.305708920583129 ], [ 3750338.195314356591552, 2134596.848628695122898 ], [ 3750263.358817001804709, 2134654.329493811819702 ], [ 3750178.802158935926855, 2134699.802509724162519 ], [ 3750094.235815960448235, 2134745.276572553440928 ], [ 3750083.11698622815311, 2134751.21834046812728 ], [ 3750071.340763619169593, 2134755.267899374011904 ], [ 3750058.254240206442773, 2134756.474959602579474 ], [ 3750058.933086941950023, 2134765.406417559832335 ], [ 3750059.188218403607607, 2134768.938728306442499 ], [ 3750059.433350807987154, 2134772.471873413771391 ], [ 3750059.666871940717101, 2134775.986075685359538 ], [ 3750059.911157189868391, 2134779.509389527607709 ], [ 3750060.234837141819298, 2134784.06698233447969 ], [ 3750060.638502161949873, 2134788.61719764303416 ], [ 3750061.600582973100245, 2134795.780036309733987 ], [ 3750062.663366033695638, 2134802.943480285815895 ], [ 3750063.145634149201214, 2134806.775118144229054 ], [ 3750063.599027528427541, 2134810.61954877898097 ], [ 3750063.962566629052162, 2134815.0532765109092 ], [ 3750064.32655888563022, 2134819.496900564525276 ], [ 3750064.919282490387559, 2134824.370212164707482 ], [ 3750065.631213934160769, 2134829.222159939352423 ], [ 3750066.298420500941575, 2134833.327213409356773 ], [ 3750066.975709960330278, 2134837.43131828121841 ], [ 3750067.621778619010001, 2134841.408007209654897 ], [ 3750068.228026770055294, 2134845.388507984578609 ], [ 3750068.714432748034596, 2134849.850830153562129 ], [ 3750069.151981012895703, 2134854.327711898367852 ], [ 3750069.693130435422063, 2134858.604709738399833 ], [ 3750070.224296471569687, 2134862.882640128023922 ], [ 3750073.022244753316045, 2134895.347620663233101 ], [ 3750072.091482320334762, 2134897.627811253536493 ], [ 3750069.98616457497701, 2134898.905394501984119 ], [ 3750065.999188249930739, 2134899.035600231960416 ], [ 3750061.99069354031235, 2134899.037604481913149 ], [ 3750057.587800750508904, 2134899.366648754104972 ], [ 3750053.194512132555246, 2134899.694923878647387 ], [ 3750048.728944529779255, 2134899.999905509874225 ], [ 3750044.274421330541372, 2134900.313852251973003 ], [ 3750036.249075010418892, 2134900.919577680528164 ], [ 3750031.796179180964828, 2134901.253400886896998 ], [ 3750027.333185113966465, 2134901.588075002655387 ], [ 3750022.879425679799169, 2134901.911969401873648 ], [ 3750018.416233792435378, 2134902.246676685288548 ], [ 3750010.648401512764394, 2134903.028816006612033 ], [ 3750002.88786014309153, 2134903.900502084754407 ], [ 3749998.55333444988355, 2134904.323481331579387 ], [ 3749994.216416248586029, 2134904.716639773920178 ], [ 3749989.314472654368728, 2134905.102160628885031 ], [ 3749984.410349547863007, 2134905.457926534116268 ], [ 3749979.950609450228512, 2134905.832355645485222 ], [ 3749975.504712901078165, 2134906.365855114534497 ], [ 3749971.985668205656111, 2134907.133670492097735 ], [ 3749968.514849266503006, 2134908.1074886796996 ], [ 3749964.324800399597734, 2134909.388407137710601 ], [ 3749960.130746805574745, 2134910.619727631099522 ], [ 3749956.41231852537021, 2134911.526396255474538 ], [ 3749952.670629675965756, 2134912.284905897919089 ], [ 3749949.247676779516041, 2134912.883477868977934 ], [ 3749945.82407355774194, 2134913.472186271101236 ], [ 3749941.223987066186965, 2134914.320525215007365 ], [ 3749936.638413736131042, 2134915.217645964119583 ], [ 3749934.587708620354533, 2134915.959153608884662 ], [ 3749932.634168324060738, 2134916.661661989055574 ], [ 3749928.609169009141624, 2134917.987422294914722 ], [ 3749925.707736040931195, 2134918.327235066331923 ], [ 3749922.800358702428639, 2134918.597524551674724 ], [ 3749918.629610674455762, 2134918.935135458596051 ], [ 3749914.458097962662578, 2134919.262800911907107 ], [ 3749911.301679532974958, 2134919.796611568890512 ], [ 3749908.313270862679929, 2134921.346545441076159 ], [ 3749906.911983720492572, 2134923.309932883363217 ], [ 3749906.302659729495645, 2134925.580316199921072 ], [ 3749906.022833521012217, 2134928.401030383072793 ], [ 3749906.629926083609462, 2134931.109210166148841 ], [ 3749907.539330018684268, 2134932.427127565257251 ], [ 3749908.790031141135842, 2134933.492779524531215 ], [ 3749910.257408540695906, 2134933.807132835499942 ], [ 3749911.517696968279779, 2134934.291010147891939 ], [ 3749913.153612267225981, 2134936.783415705896914 ], [ 3749914.77827001363039, 2134939.266790738329291 ], [ 3749915.103238967247307, 2134944.305191008374095 ], [ 3749915.468226854223758, 2134949.339747073594481 ], [ 3749915.771569646894932, 2134953.428455040790141 ], [ 3749916.104780977126211, 2134957.5144799570553 ], [ 3749916.730424286797643, 2134961.603300783783197 ], [ 3749917.615094971377403, 2134965.657996538095176 ], [ 3749918.481324780732393, 2134969.504120849072933 ], [ 3749919.445962417405099, 2134973.321012332569808 ], [ 3749920.419330157339573, 2134976.656276730354875 ], [ 3749921.48200069507584, 2134979.973268541507423 ], [ 3749922.687795421574265, 2134983.437190752942115 ], [ 3749923.982325886376202, 2134986.872862166725099 ], [ 3749925.514642090070993, 2134990.266310370527208 ], [ 3749927.007902201265097, 2134993.673516359645873 ], [ 3749928.237605981063098, 2134997.065133695490658 ], [ 3749929.447737401816994, 2135000.458551261108369 ], [ 3749930.919697799254209, 2135004.548856111243367 ], [ 3749932.283152950927615, 2135008.669244387187064 ], [ 3749933.293022828176618, 2135012.542065540328622 ], [ 3749934.204568744637072, 2135016.444005264900625 ], [ 3749938.429677721112967, 2135036.064961008727551 ], [ 3749939.031595612876117, 2135039.414721495471895 ], [ 3749939.61536818370223, 2135042.906440929509699 ], [ 3749940.62149484269321, 2135046.268762555904686 ], [ 3749943.778611619956791, 2135053.424002782441676 ], [ 3749937.051469466183335, 2135052.620779315475374 ], [ 3749917.198095885105431, 2135049.798468632623553 ], [ 3749897.495138296857476, 2135046.040650391951203 ], [ 3749881.250814092811197, 2135041.981240808032453 ], [ 3749865.170967723242939, 2135037.375785258132964 ], [ 3749839.571949326898903, 2135029.257855978328735 ], [ 3749813.923359881620854, 2135021.154507151804864 ], [ 3749792.79897955711931, 2135015.866070132702589 ], [ 3749771.268698506057262, 2135012.989299896173179 ], [ 3749733.052183818072081, 2135011.303254107013345 ], [ 3749694.825477459467947, 2135010.199105741456151 ], [ 3749646.367613585200161, 2135009.114462699741125 ], [ 3749620.433830677997321, 2135008.453064521308988 ], [ 3749620.238320930395275, 2135017.747472113929689 ], [ 3749618.164145788177848, 2135069.156260117888451 ], [ 3749617.608725305180997, 2135079.306950378697366 ], [ 3749617.516656306572258, 2135079.260415568016469 ], [ 3749615.029313099570572, 2135079.261314722243696 ], [ 3749611.917413493152708, 2135079.500516739673913 ], [ 3749608.8124392288737, 2135079.699002909474075 ], [ 3749605.471287682652473, 2135079.729162270203233 ], [ 3749602.122643520124257, 2135079.790059600025415 ], [ 3749598.227136932313442, 2135079.931792266666889 ], [ 3749594.336825843900442, 2135080.133201374672353 ], [ 3749591.234357963781804, 2135080.361591946799308 ], [ 3749588.122935952153057, 2135080.600616232957691 ], [ 3749583.274091200903058, 2135080.9012370724231 ], [ 3749578.41871892567724, 2135081.122258058749139 ], [ 3749573.33185857674107, 2135081.114359952509403 ], [ 3749568.248725324403495, 2135081.035956235602498 ], [ 3749563.325176893733442, 2135081.283267845399678 ], [ 3749558.398936388548464, 2135081.621058703400195 ], [ 3749556.22600873792544, 2135081.883202765136957 ], [ 3749554.054905860684812, 2135081.814608820714056 ], [ 3749545.055672464892268, 2135084.434189958497882 ], [ 3749540.044970805756748, 2135085.190601233392954 ], [ 3749534.93335678614676, 2135085.475510533433408 ], [ 3749527.831874718423933, 2135086.1657655807212 ], [ 3749520.725492849946022, 2135086.796296828426421 ], [ 3749516.002905277069658, 2135087.155274051241577 ], [ 3749511.279142376501113, 2135087.504272465594113 ], [ 3749506.385638878680766, 2135087.869027368724346 ], [ 3749501.50223330128938, 2135088.23293210240081 ], [ 3749496.234390859492123, 2135088.46219496242702 ], [ 3749490.967703976202756, 2135088.471009552944452 ], [ 3749486.471858174540102, 2135087.957384075038135 ], [ 3749481.990876060910523, 2135087.27212306112051 ], [ 3749478.613060117699206, 2135087.225618137046695 ], [ 3749475.24291632277891, 2135087.619078474119306 ], [ 3749472.964482851326466, 2135088.291715038008988 ], [ 3749466.37407127674669, 2135092.612746655009687 ], [ 3749435.202985022217035, 2135047.156997981481254 ], [ 3749408.909749085549265, 2135012.849440242163837 ], [ 3749403.019041870255023, 2135007.266801524907351 ], [ 3749388.700000104028732, 2135011.152264713309705 ], [ 3749373.023763436824083, 2135015.404468384571373 ], [ 3749377.74077988229692, 2135024.291655548848212 ], [ 3749380.209805908147246, 2135035.721764836926013 ], [ 3749379.242068549152464, 2135053.060840059537441 ], [ 3749378.893414846621454, 2135066.145267018117011 ], [ 3749383.730462506879121, 2135076.423656852915883 ], [ 3749394.111886730417609, 2135088.039731702301651 ], [ 3749405.993549864273518, 2135105.586561901494861 ], [ 3749583.964226642157882, 2135488.254921473562717 ], [ 3749697.790884983725846, 2135783.379427798092365 ], [ 3749911.891459882259369, 2136316.721834996715188 ], [ 3749918.428723736666143, 2136350.261960482690483 ], [ 3749933.643749047070742, 2136387.132379539310932 ], [ 3749971.363936420995742, 2136448.044894343707711 ], [ 3749993.221694310195744, 2136531.898460590280592 ], [ 3750001.6010572463274, 2136572.529737560078502 ], [ 3750044.61502392962575, 2136675.893015342764556 ], [ 3750067.371301410719752, 2136734.390340092591941 ], [ 3750104.249342014081776, 2136898.145771849900484 ], [ 3750128.522141941823065, 2137066.138415290042758 ], [ 3750146.758446762338281, 2137145.731187456287444 ], [ 3750222.082565090153366, 2137341.18292770255357 ], [ 3750282.158998778089881, 2137510.44542769389227 ], [ 3750318.817692398093641, 2137600.526603050064296 ], [ 3750326.659276960417628, 2137636.449974444694817 ], [ 3750331.304222286213189, 2137663.715423956513405 ], [ 3750333.294528044760227, 2137691.257564055733383 ], [ 3750331.048490604385734, 2137716.518998152576387 ], [ 3750328.20983640756458, 2137741.795482241548598 ], [ 3750328.930839858017862, 2137780.163948629982769 ], [ 3750329.184231590479612, 2137818.595853672362864 ], [ 3750325.611925847828388, 2137862.051527351606637 ], [ 3750319.655709143728018, 2137905.308046079240739 ], [ 3750314.639070773031563, 2137927.180823684670031 ], [ 3750310.210800473578274, 2137949.099190983921289 ], [ 3750307.058259841520339, 2137980.645615412387997 ], [ 3750304.322505300864577, 2138012.233354636933655 ], [ 3750299.221364361699671, 2138075.264318541623652 ], [ 3750294.424076084047556, 2138138.317198674194515 ], [ 3750293.269995113834739, 2138175.147088870406151 ], [ 3750291.33532574493438, 2138211.919447496533394 ], [ 3750287.857107479590923, 2138241.96888 ], [ 3751044.752388774417341, 2138241.96888 ], [ 3751045.20031863451004, 2138241.098940698895603 ], [ 3751064.433699548244476, 2138200.785547412466258 ], [ 3751078.729559827130288, 2138171.388870895374566 ], [ 3751088.74938435992226, 2138144.483299111016095 ], [ 3751098.759243506006896, 2138117.57867631316185 ], [ 3751101.676102445926517, 2138106.00823320588097 ], [ 3751102.624639551155269, 2138094.039887251798064 ], [ 3751102.273597093299031, 2138069.610800470691174 ], [ 3751103.320328486151993, 2138053.536360915750265 ], [ 3751109.136055009905249, 2138025.649193299934268 ], [ 3751115.457084710709751, 2137997.785299100913107 ], [ 3751118.192932931706309, 2137978.99942961614579 ], [ 3751119.780394939705729, 2137954.510403976775706 ], [ 3751120.691056339070201, 2137929.99423480220139 ], [ 3751120.006462341640145, 2137911.606442234478891 ], [ 3751119.365494177676737, 2137893.254803558811545 ], [ 3751120.960951910354197, 2137881.196182576008141 ], [ 3751124.296391924843192, 2137868.645362075883895 ], [ 3751127.769806864671409, 2137856.171818757429719 ], [ 3751134.926789500750601, 2137824.814395054709166 ], [ 3751142.498461320996284, 2137793.5886789271608 ], [ 3751149.798485221806914, 2137773.547158673871309 ], [ 3751167.532766432035714, 2137733.733350647613406 ], [ 3751133.512801112607121, 2137719.646764745935798 ], [ 3751092.070491830818355, 2137700.459610866848379 ], [ 3751072.012715679127723, 2137689.80275123892352 ], [ 3751028.813760587479919, 2137667.77379650156945 ], [ 3751027.825057578273118, 2137656.346176229882985 ], [ 3751012.81050581485033, 2137616.671890623867512 ], [ 3750999.079700257629156, 2137574.374125310219824 ], [ 3750994.048619866836816, 2137553.077120290137827 ], [ 3751033.963576170615852, 2137556.286403274163604 ], [ 3751076.319735290948302, 2137559.842240553349257 ], [ 3751102.886671555228531, 2137562.15089612826705 ], [ 3751129.461971314158291, 2137564.438851972110569 ], [ 3751140.685257195495069, 2137564.948329919017851 ], [ 3751151.914435434620827, 2137564.475594314746559 ], [ 3751152.920940979849547, 2137564.381993811577559 ], [ 3751176.1813660338521, 2137568.019946433603764 ], [ 3751189.83338248450309, 2137570.155560539104044 ], [ 3751244.827805424574763, 2137570.224011124577373 ], [ 3751250.653701436705887, 2137570.043127977754921 ], [ 3751256.451606633141637, 2137569.073520341422409 ], [ 3751260.098613668233156, 2137568.153595754876733 ], [ 3751261.705972687341273, 2137567.293002026155591 ], [ 3751262.862451344262809, 2137565.993438339326531 ], [ 3751266.145900572184473, 2137559.708144295029342 ], [ 3751269.349565937649459, 2137553.430198469664901 ], [ 3751279.274293162859976, 2137534.386987400241196 ], [ 3751289.240493651013821, 2137515.359947881661355 ], [ 3751293.395081014372408, 2137508.783315568231046 ], [ 3751300.708061245270073, 2137499.599105067551136 ], [ 3751307.674080546479672, 2137490.12666956987232 ], [ 3751317.816627524793148, 2137471.85458166943863 ], [ 3751326.351411692798138, 2137452.810302305035293 ], [ 3751330.062334757298231, 2137441.456739266868681 ], [ 3751334.24272695183754, 2137418.75812756922096 ], [ 3751335.295726451091468, 2137409.396774384193122 ], [ 3751337.91667803004384, 2137393.12595132458955 ], [ 3751345.791229444090277, 2137379.371978201903403 ], [ 3751348.272765705361962, 2137373.131144619546831 ], [ 3751355.180645367596298, 2137371.487414725590497 ], [ 3751372.144661149941385, 2137392.949821707326919 ], [ 3751393.588467470370233, 2137407.985722352750599 ], [ 3751401.785695307888091, 2137421.247663617134094 ], [ 3751417.836579342838377, 2137443.796577079221606 ], [ 3751457.803129920735955, 2137533.240132829174399 ], [ 3751472.275031830184162, 2137572.463911048602313 ], [ 3751642.773973810486495, 2137500.99511734303087 ], [ 3751642.808097659144551, 2137481.797782907728106 ], [ 3751640.401498629711568, 2137444.547797131352127 ], [ 3751637.953966537024826, 2137407.291849668137729 ], [ 3751635.700124039780349, 2137372.271478801965714 ], [ 3751633.476191798225045, 2137337.248530526645482 ], [ 3751634.279939842410386, 2137325.003140648826957 ], [ 3751638.435267398133874, 2137306.67659598775208 ], [ 3751640.087252974510193, 2137297.597953100688756 ], [ 3751642.856383714359254, 2137274.772373672574759 ], [ 3751645.737369043752551, 2137251.956353021785617 ], [ 3751647.653888745233417, 2137238.485786304809153 ], [ 3751649.652205713558942, 2137225.027588202618062 ], [ 3751660.466838883701712, 2137176.802467206958681 ], [ 3751662.726975594647229, 2137151.820489132776856 ], [ 3751664.884997221641243, 2137126.818006288260221 ], [ 3751672.39483555406332, 2137093.594923954457045 ], [ 3751680.366309874691069, 2137060.469269608613104 ], [ 3751690.287567266728729, 2137021.823386895470321 ], [ 3751699.901157160289586, 2136983.116008336655796 ], [ 3751704.284946002997458, 2136957.996786120347679 ], [ 3751708.036261783912778, 2136932.786133377812803 ], [ 3751711.916505276225507, 2136918.381736762821674 ], [ 3751714.267799293622375, 2136903.879153452813625 ], [ 3751713.850690832361579, 2136891.83741525746882 ], [ 3751713.432342574931681, 2136879.785911554470658 ], [ 3751714.425232607405633, 2136852.026820464991033 ], [ 3751715.993121254257858, 2136824.394592975266278 ], [ 3751720.392913769930601, 2136798.642863783054054 ], [ 3751722.268409559968859, 2136785.747144148685038 ], [ 3751722.630187160335481, 2136772.811664949171245 ], [ 3751721.158183084800839, 2136746.714072016067803 ], [ 3751719.69648961070925, 2136720.615600687451661 ], [ 3751716.147213919088244, 2136699.729620066005737 ], [ 3751712.588260198943317, 2136678.844524811953306 ], [ 3751712.272685243748128, 2136668.676614406518638 ], [ 3751715.065729028079659, 2136653.341564827598631 ], [ 3751717.934797411318868, 2136637.959406015463173 ], [ 3751722.870117160957307, 2136582.888523244298995 ], [ 3751728.017201896291226, 2136527.818002233747393 ], [ 3751732.901519678533077, 2136484.732119705528021 ], [ 3751737.964737461879849, 2136441.619644990190864 ], [ 3751740.192938930355012, 2136421.268534881062806 ], [ 3751740.358035182580352, 2136415.584429138805717 ], [ 3751875.367428008466959, 2136448.79451254196465 ], [ 3751919.526267969980836, 2136460.377450973261148 ], [ 3751950.830468578264117, 2136470.530463879462332 ], [ 3751995.168138411827385, 2136484.180387896019965 ], [ 3752037.217817186377943, 2136497.001067416742444 ], [ 3752175.61384123377502, 2136540.345647568814456 ], [ 3752215.093498645350337, 2136550.229985752608627 ], [ 3752296.265780845656991, 2136585.689872149843723 ], [ 3752311.808042672462761, 2136594.563172253314406 ], [ 3752326.916120959911495, 2136600.040935296565294 ], [ 3752339.796147333923727, 2136604.683938419446349 ], [ 3752352.665636964142323, 2136609.31799521157518 ], [ 3752368.692309209145606, 2136615.521793284453452 ], [ 3752384.765541090629995, 2136621.681197681464255 ], [ 3752399.196158547885716, 2136626.430551189929247 ], [ 3752413.747051112353802, 2136630.828240861650556 ], [ 3752421.226795714348555, 2136632.998012726195157 ], [ 3752428.476428174413741, 2136635.890350952744484 ], [ 3752438.598891620524228, 2136637.524197683669627 ], [ 3752439.271309341304004, 2136637.732165346853435 ], [ 3752440.543497521895915, 2136638.114795998204499 ], [ 3752444.155614913441241, 2136638.891060990281403 ], [ 3752447.811506209895015, 2136639.472927467897534 ], [ 3752456.808111155405641, 2136641.131186012644321 ], [ 3752458.844483472872525, 2136641.502898170612752 ], [ 3752465.794238116592169, 2136642.790458788629621 ], [ 3752473.482766253873706, 2136644.22968533821404 ], [ 3752481.170134026557207, 2136645.659031796269119 ], [ 3752511.882180000189692, 2136651.551328473258764 ], [ 3752511.882180000189692, 2131918.577920000534505 ], [ 3749871.98333416832611, 2131918.577920000534505 ], [ 3749871.444995305035263, 2131919.535662199370563 ] ] ] } },
{ "type": "Feature", "properties": { "SITE_NAME": "Illes Medes", "ODESIGNATE": "Plan Especial de Protección (PEIN)", "NUT2": 51, "SITE_CODE_": "ES510123", "DESIG_ABBR": "ES43", "SITE_CDDA": "389123_CDDA", "Sup_ha": 8246.68826524 }, "geometry": { "type": "Polygon", "coordinates": [ [ [ 3751045.20031863451004, 2138241.098940698895603 ], [ 3751064.433699548244476, 2138200.785547412466258 ], [ 3751078.729559827130288, 2138171.388870895374566 ], [ 3751088.74938435992226, 2138144.483299111016095 ], [ 3751098.759243506006896, 2138117.57867631316185 ], [ 3751101.676102445926517, 2138106.00823320588097 ], [ 3751102.624639551155269, 2138094.039887251798064 ], [ 3751102.273597093299031, 2138069.610800470691174 ], [ 3751103.320328486151993, 2138053.536360915750265 ], [ 3751109.136055009905249, 2138025.649193299934268 ], [ 3751115.457084710709751, 2137997.785299100913107 ], [ 3751118.192932931706309, 2137978.99942961614579 ], [ 3751119.780394939705729, 2137954.510403976775706 ], [ 3751120.691056339070201, 2137929.99423480220139 ], [ 3751120.006462341640145, 2137911.606442234478891 ], [ 3751119.365494177676737, 2137893.254803558811545 ], [ 3751120.960951910354197, 2137881.196182576008141 ], [ 3751124.296391924843192, 2137868.645362075883895 ], [ 3751127.769806864671409, 2137856.171818757429719 ], [ 3751134.926789500750601, 2137824.814395054709166 ], [ 3751142.498461320996284, 2137793.5886789271608 ], [ 3751149.798485221806914, 2137773.547158673871309 ], [ 3751167.532766432035714, 2137733.733350647613406 ], [ 3751133.512801112607121, 2137719.646764745935798 ], [ 3751092.070491830818355, 2137700.459610866848379 ], [ 3751072.012715679127723, 2137689.80275123892352 ], [ 3751028.813760587479919, 2137667.77379650156945 ], [ 3751027.825057578273118, 2137656.346176229882985 ], [ 3751012.81050581485033, 2137616.671890623867512 ], [ 3750999.079700257629156, 2137574.374125310219824 ], [ 3750994.048619866836816, 2137553.077120290137827 ], [ 3751033.963576170615852, 2137556.286403274163604 ], [ 3751076.319735290948302, 2137559.842240553349257 ], [ 3751102.886671555228531, 2137562.15089612826705 ], [ 3751129.461971314158291, 2137564.438851972110569 ], [ 3751140.685257195495069, 2137564.948329919017851 ], [ 3751151.914435434620827, 2137564.475594314746559 ], [ 3751152.920940979849547, 2137564.381993811577559 ], [ 3751176.1813660338521, 2137568.019946433603764 ], [ 3751189.83338248450309, 2137570.155560539104044 ], [ 3751244.827805424574763, 2137570.224011124577373 ], [ 3751250.653701436705887, 2137570.043127977754921 ], [ 3751256.451606633141637, 2137569.073520341422409 ], [ 3751260.098613668233156, 2137568.153595754876733 ], [ 3751261.705972687341273, 2137567.293002026155591 ], [ 3751262.862451344262809, 2137565.993438339326531 ], [ 3751266.145900572184473, 2137559.708144295029342 ], [ 3751269.349565937649459, 2137553.430198469664901 ], [ 3751279.274293162859976, 2137534.386987400241196 ], [ 3751289.240493651013821, 2137515.359947881661355 ], [ 3751293.395081014372408, 2137508.783315568231046 ], [ 3751300.708061245270073, 2137499.599105067551136 ], [ 3751307.674080546479672, 2137490.12666956987232 ], [ 3751317.816627524793148, 2137471.85458166943863 ], [ 3751326.351411692798138, 2137452.810302305035293 ], [ 3751330.062334757298231, 2137441.456739266868681 ], [ 3751334.24272695183754, 2137418.75812756922096 ], [ 3751335.295726451091468, 2137409.396774384193122 ], [ 3751337.91667803004384, 2137393.12595132458955 ], [ 3751345.791229444090277, 2137379.371978201903403 ], [ 3751348.272765705361962, 2137373.131144619546831 ], [ 3751355.180645367596298, 2137371.487414725590497 ], [ 3751372.144661149941385, 2137392.949821707326919 ], [ 3751393.588467470370233, 2137407.985722352750599 ], [ 3751401.785695307888091, 2137421.247663617134094 ], [ 3751417.836579342838377, 2137443.796577079221606 ], [ 3751457.803129920735955, 2137533.240132829174399 ], [ 3751472.275031830184162, 2137572.463911048602313 ], [ 3751642.773973810486495, 2137500.99511734303087 ], [ 3751642.808097659144551, 2137481.797782907728106 ], [ 3751640.401498629711568, 2137444.547797131352127 ], [ 3751637.953966537024826, 2137407.291849668137729 ], [ 3751635.700124039780349, 2137372.271478801965714 ], [ 3751633.476191798225045, 2137337.248530526645482 ], [ 3751634.279939842410386, 2137325.003140648826957 ], [ 3751638.435267398133874, 2137306.67659598775208 ], [ 3751640.087252974510193, 2137297.597953100688756 ], [ 3751642.856383714359254, 2137274.772373672574759 ], [ 3751645.737369043752551, 2137251.956353021785617 ], [ 3751647.653888745233417, 2137238.485786304809153 ], [ 3751649.652205713558942, 2137225.027588202618062 ], [ 3751660.466838883701712, 2137176.802467206958681 ], [ 3751662.726975594647229, 2137151.820489132776856 ], [ 3751664.884997221641243, 2137126.818006288260221 ], [ 3751672.39483555406332, 2137093.594923954457045 ], [ 3751680.366309874691069, 2137060.469269608613104 ], [ 3751690.287567266728729, 2137021.823386895470321 ], [ 3751699.901157160289586, 2136983.116008336655796 ], [ 3751704.284946002997458, 2136957.996786120347679 ], [ 3751708.036261783912778, 2136932.786133377812803 ], [ 3751711.916505276225507, 2136918.381736762821674 ], [ 3751714.267799293622375, 2136903.879153452813625 ], [ 3751713.850690832361579, 2136891.83741525746882 ], [ 3751713.432342574931681, 2136879.785911554470658 ], [ 3751714.425232607405633, 2136852.026820464991033 ], [ 3751715.993121254257858, 2136824.394592975266278 ], [ 3751720.392913769930601, 2136798.642863783054054 ], [ 3751722.268409559968859, 2136785.747144148685038 ], [ 3751722.630187160335481, 2136772.811664949171245 ], [ 3751721.158183084800839, 2136746.714072016067803 ], [ 3751719.69648961070925, 2136720.615600687451661 ], [ 3751716.147213919088244, 2136699.729620066005737 ], [ 3751712.588260198943317, 2136678.844524811953306 ], [ 3751712.272685243748128, 2136668.676614406518638 ], [ 3751715.065729028079659, 2136653.341564827598631 ], [ 3751717.934797411318868, 2136637.959406015463173 ], [ 3751722.870117160957307, 2136582.888523244298995 ], [ 3751728.017201896291226, 2136527.818002233747393 ], [ 3751732.901519678533077, 2136484.732119705528021 ], [ 3751737.964737461879849, 2136441.619644990190864 ], [ 3751740.192938930355012, 2136421.268534881062806 ], [ 3751740.358035182580352, 2136415.584429138805717 ], [ 3751875.367428008466959, 2136448.79451254196465 ], [ 3751919.526267969980836, 2136460.377450973261148 ], [ 3751950.830468578264117, 2136470.530463879462332 ], [ 3751995.168138411827385, 2136484.180387896019965 ], [ 3752037.217817186377943, 2136497.001067416742444 ], [ 3752175.61384123377502, 2136540.345647568814456 ], [ 3752215.093498645350337, 2136550.229985752608627 ], [ 3752296.265780845656991, 2136585.689872149843723 ], [ 3752311.808042672462761, 2136594.563172253314406 ], [ 3752326.916120959911495, 2136600.040935296565294 ], [ 3752339.796147333923727, 2136604.683938419446349 ], [ 3752352.665636964142323, 2136609.31799521157518 ], [ 3752368.692309209145606, 2136615.521793284453452 ], [ 3752384.765541090629995, 2136621.681197681464255 ], [ 3752399.196158547885716, 2136626.430551189929247 ], [ 3752413.747051112353802, 2136630.828240861650556 ], [ 3752421.226795714348555, 2136632.998012726195157 ], [ 3752428.476428174413741, 2136635.890350952744484 ], [ 3752438.598891620524228, 2136637.524197683669627 ], [ 3752439.271309341304004, 2136637.732165346853435 ], [ 3752440.543497521895915, 2136638.114795998204499 ], [ 3752444.155614913441241, 2136638.891060990281403 ], [ 3752447.811506209895015, 2136639.472927467897534 ], [ 3752456.808111155405641, 2136641.131186012644321 ], [ 3752458.844483472872525, 2136641.502898170612752 ], [ 3752465.794238116592169, 2136642.790458788629621 ], [ 3752473.482766253873706, 2136644.22968533821404 ], [ 3752481.170134026557207, 2136645.659031796269119 ], [ 3752511.882180000189692, 2136651.551328473258764 ], [ 3752511.882180000189692, 2131918.577920000534505 ], [ 3749871.98333416832611, 2131918.577920000534505 ], [ 3749871.444995305035263, 2131919.535662199370563 ], [ 3749854.119145315140486, 2131981.24587573716417 ], [ 3749832.190430373884737, 2132018.84318527393043 ], [ 3749806.818852478638291, 2132045.742188488133252 ], [ 3749774.604186153039336, 2132051.741463585756719 ], [ 3749712.850778763182461, 2132036.446395741775632 ], [ 3749683.090953311882913, 2132041.716715388931334 ], [ 3749655.651102445553988, 2132073.816413321532309 ], [ 3749618.718152664136142, 2132153.376149754039943 ], [ 3749597.895618507172912, 2132215.411629984155297 ], [ 3749588.56329944357276, 2132276.379186367616057 ], [ 3749497.800510815810412, 2132344.916102606803179 ], [ 3749474.899944499135017, 2132377.094901555683464 ], [ 3749462.490569647401571, 2132408.298590699210763 ], [ 3749457.574665110558271, 2132438.805600753985345 ], [ 3749451.819664527196437, 2132529.490920182317495 ], [ 3749420.50633173622191, 2132592.501964377239347 ], [ 3749399.18472680170089, 2132654.584378289058805 ], [ 3749323.811571536585689, 2132778.786728699691594 ], [ 3749315.157177481800318, 2132812.646471526008099 ], [ 3749318.701422405894846, 2132842.089977917261422 ], [ 3749313.095521155744791, 2132845.873277374077588 ], [ 3749300.40802334388718, 2132855.22637255769223 ], [ 3749280.99206433352083, 2132868.881227938458323 ], [ 3749261.854592381045222, 2132883.191176175139844 ], [ 3749257.61825658287853, 2132888.362979054450989 ], [ 3749255.141915043350309, 2132894.783511989749968 ], [ 3749251.906523367390037, 2132908.49670550879091 ], [ 3749250.396724116522819, 2132924.233199017588049 ], [ 3749249.914974464569241, 2132940.324802415445447 ], [ 3749246.441967720165849, 2132950.594295466318727 ], [ 3749242.414611614774913, 2132954.103950235061347 ], [ 3749236.776189713738859, 2132955.289135579951108 ], [ 3749225.493151474744081, 2132953.974106634967029 ], [ 3749218.538886884227395, 2132950.774207766633481 ], [ 3749211.708338215015829, 2132945.278963850345463 ], [ 3749198.116912542842329, 2132931.717686422169209 ], [ 3749188.890912324655801, 2132924.261460724286735 ], [ 3749183.486970680765808, 2132921.748767812736332 ], [ 3749177.143420590553433, 2132921.18654111539945 ], [ 3749165.411207266151905, 2132924.000097269192338 ], [ 3749153.489522533491254, 2132929.275385379325598 ], [ 3749146.401666371617466, 2132934.081252279691398 ], [ 3749108.907215053215623, 2132965.67396835051477 ], [ 3749071.418445486109704, 2132996.985748287755996 ], [ 3749033.117968102917075, 2133027.060742909088731 ], [ 3748994.70050266943872, 2133057.176849487237632 ], [ 3748978.855511157773435, 2133069.848626893945038 ], [ 3748964.049903579987586, 2133083.355361793190241 ], [ 3748955.090522388927639, 2133093.774399662390351 ], [ 3748944.700378303881735, 2133110.586892642080784 ], [ 3748941.114415729418397, 2133120.947118755429983 ], [ 3748940.136891626287252, 2133131.074744765181094 ], [ 3748942.120656515005976, 2133150.984057776164263 ], [ 3748947.81497610732913, 2133182.007463253103197 ], [ 3748956.565958100836724, 2133212.736745062284172 ], [ 3748960.228889848105609, 2133220.6199636682868 ], [ 3748965.101553356274962, 2133227.929937346372753 ], [ 3748975.229653298389167, 2133242.093629281967878 ], [ 3748979.697192559950054, 2133252.175860386807472 ], [ 3748982.027338477782905, 2133270.149706409778446 ], [ 3748980.588272395078093, 2133288.914732926059514 ], [ 3748977.865817039273679, 2133301.107919158879668 ], [ 3748972.147068186663091, 2133316.15389194432646 ], [ 3748965.934654803946614, 2133330.96530325897038 ], [ 3748963.123920938000083, 2133341.203360477462411 ], [ 3748959.342138916254044, 2133362.460016088560224 ], [ 3748955.570450583938509, 2133383.715729606803507 ], [ 3748985.306885804515332, 2133408.226841839961708 ], [ 3748997.847564435563982, 2133415.925771983806044 ], [ 3749011.3839628752321, 2133421.518772790208459 ], [ 3749021.149733073543757, 2133422.173501693177968 ], [ 3749036.251896457746625, 2133418.615766379982233 ], [ 3749043.712062776088715, 2133417.301236871629953 ], [ 3749050.950117361266166, 2133417.840275493916124 ], [ 3749068.063299227971584, 2133424.843793761916459 ], [ 3749085.404090229421854, 2133431.916135005652905 ], [ 3749097.166890456806868, 2133434.699107744731009 ], [ 3749109.022828771732748, 2133436.000950058922172 ], [ 3749110.88540041167289, 2133458.235340094193816 ], [ 3749112.737021749839187, 2133480.460653815418482 ], [ 3749115.492595593910664, 2133497.41341303428635 ], [ 3749119.90698426309973, 2133514.101677345111966 ], [ 3749127.9820123645477, 2133547.498194779735059 ], [ 3749128.90453037340194, 2133569.810034929774702 ], [ 3749125.961664612870663, 2133592.381070917937905 ], [ 3749122.157998578622937, 2133607.55954768974334 ], [ 3749115.247800794430077, 2133623.267255229875445 ], [ 3749105.839364303275943, 2133637.343971068970859 ], [ 3749101.490824587643147, 2133641.564746459480375 ], [ 3749096.064695221371949, 2133644.853919980116189 ], [ 3749085.299497008323669, 2133651.273772717919201 ], [ 3749080.824861813336611, 2133657.529571376275271 ], [ 3749077.827131710015237, 2133670.850200908724219 ], [ 3749076.685913184657693, 2133684.438900852110237 ], [ 3749074.489516539499164, 2133711.678436705842614 ], [ 3749069.571078510954976, 2133751.351565537974238 ], [ 3749064.246824563480914, 2133764.087153158150613 ], [ 3749058.252028484363109, 2133780.130529697518796 ], [ 3749057.13545836834237, 2133782.420755024068058 ], [ 3749056.318799478933215, 2133784.108983804471791 ], [ 3749055.837028653826565, 2133786.446265442762524 ], [ 3749055.590206240303814, 2133789.413137472700328 ], [ 3749056.378700938541442, 2133791.894173674285412 ], [ 3749057.807364599779248, 2133794.205357753671706 ], [ 3749060.179433920886368, 2133796.709472803398967 ], [ 3749062.895284104626626, 2133798.650622857734561 ], [ 3749066.900544563308358, 2133800.822524640709162 ], [ 3749071.028792703058571, 2133802.672521988861263 ], [ 3749076.14398132590577, 2133804.641034703701735 ], [ 3749081.324763712938875, 2133806.433218954131007 ], [ 3749084.857853836379945, 2133807.456996049266309 ], [ 3749088.38202049722895, 2133808.491602984257042 ], [ 3749093.287341536954045, 2133810.129052296280861 ], [ 3749098.168003378901631, 2133811.828959062695503 ], [ 3749103.141794592142105, 2133813.670400583185256 ], [ 3749108.044141174294055, 2133815.738882091362029 ], [ 3749111.765872853808105, 2133817.89705980848521 ], [ 3749115.020625769160688, 2133820.709711625240743 ], [ 3749117.617236323654652, 2133823.48336552688852 ], [ 3749120.11006532330066, 2133826.336784058250487 ], [ 3749123.075251235626638, 2133829.877539053559303 ], [ 3749126.511931049637496, 2133834.095700821839273 ], [ 3749128.382337052375078, 2133836.856727018486708 ], [ 3749131.285489303059876, 2133840.262932741083205 ], [ 3749133.312411987222731, 2133841.687219737097621 ], [ 3749135.39798196638003, 2133842.394789006561041 ], [ 3749136.715797514654696, 2133842.262347671203315 ], [ 3749139.92651832010597, 2133840.37111447378993 ], [ 3749143.127824530471116, 2133838.260463629849255 ], [ 3749145.6664750832133, 2133837.102863560430706 ], [ 3749148.329652479849756, 2133836.10400690510869 ], [ 3749151.649160141125321, 2133835.3547323490493 ], [ 3749155.036031601484865, 2133835.270187192130834 ], [ 3749157.244687377475202, 2133835.655836966820061 ], [ 3749157.661588211543858, 2133835.771563364192843 ], [ 3749157.41289222612977, 2133835.970771430060267 ], [ 3749148.168142748065293, 2133851.354624666273594 ], [ 3749138.182095551397651, 2133869.812439760193229 ], [ 3749134.701082485727966, 2133876.146201857365668 ], [ 3749098.753522776067257, 2133949.60601136693731 ], [ 3749087.39767029741779, 2133969.693789377808571 ], [ 3749072.233333231881261, 2133998.149083191063255 ], [ 3749069.472166760824621, 2134071.027932398486882 ], [ 3749068.521348707843572, 2134089.146644032560289 ], [ 3749076.782906698528677, 2134219.599304239265621 ], [ 3749086.946012701373547, 2134220.65766914235428 ], [ 3749093.655253934208304, 2134222.538133842870593 ], [ 3749098.49511677864939, 2134226.094897893257439 ], [ 3749102.163969106506556, 2134227.757164299022406 ], [ 3749103.963557941839099, 2134231.095811567269266 ], [ 3749106.348587343469262, 2134235.381617513019592 ], [ 3749106.735313622280955, 2134239.853273911401629 ], [ 3749107.707595208659768, 2134245.272171088028699 ], [ 3749106.026300528086722, 2134254.944412972312421 ], [ 3749104.871338352095336, 2134259.058614908717573 ], [ 3749103.018095556646585, 2134266.743500741198659 ], [ 3749104.18910748232156, 2134268.6379982419312 ], [ 3749105.773822140879929, 2134269.49236218072474 ], [ 3749100.214134933426976, 2134292.547221483197063 ], [ 3749058.922029627952725, 2134298.389584048185498 ], [ 3749061.022324781864882, 2134305.206172693055123 ], [ 3749061.296354651916772, 2134314.19586144015193 ], [ 3749058.04642101470381, 2134329.022464057896286 ], [ 3749054.866465196944773, 2134338.834082993678749 ], [ 3749050.031922610942274, 2134352.80631387559697 ], [ 3749043.929736546706408, 2134375.410792781971395 ], [ 3749041.791878043208271, 2134385.626467060297728 ], [ 3749041.0398108093068, 2134400.220846543088555 ], [ 3749041.426555248908699, 2134404.692512200213969 ], [ 3749042.898479820229113, 2134410.064921458717436 ], [ 3749047.7705711517483, 2134425.638888778164983 ], [ 3749055.22644477058202, 2134441.974352003540844 ], [ 3749063.139047183096409, 2134457.766587218269706 ], [ 3749076.691867301240563, 2134480.547019911464304 ], [ 3749087.966912331059575, 2134476.994416868779808 ], [ 3749096.87319853156805, 2134475.164788381196558 ], [ 3749121.1799943940714, 2134470.90151543263346 ], [ 3749155.650010673329234, 2134467.696774870157242 ], [ 3749161.86510404618457, 2134487.152681169565767 ], [ 3749185.328526328317821, 2134478.961083509027958 ], [ 3749186.257807693909854, 2134483.88307320792228 ], [ 3749223.451314606703818, 2134471.41003879904747 ], [ 3749220.991091892588884, 2134501.188522285781801 ], [ 3749237.648655431810766, 2134501.643217187840492 ], [ 3749249.896106512285769, 2134503.509627232328057 ], [ 3749258.474688520655036, 2134503.71368077583611 ], [ 3749264.426502108108252, 2134502.659522426780313 ], [ 3749265.710307349450886, 2134500.035981671418995 ], [ 3749268.621739476453513, 2134498.76363000459969 ], [ 3749271.119573375675827, 2134498.531395536847413 ], [ 3749275.511783263646066, 2134500.794201189652085 ], [ 3749276.240468299947679, 2134503.397649838589132 ], [ 3749276.333703187294304, 2134512.237109399400651 ], [ 3749292.729736370034516, 2134513.550885864533484 ], [ 3749378.366842499468476, 2134497.415660203900188 ], [ 3749459.805641827173531, 2134521.775710455141962 ], [ 3749402.360716206487268, 2134665.131094339769334 ], [ 3749382.834754902869463, 2134713.024048757739365 ], [ 3749392.342651600018144, 2134718.150273346342146 ], [ 3749364.046891453675926, 2134792.644001427572221 ], [ 3749369.429653882049024, 2134795.116559250280261 ], [ 3749407.416449812240899, 2134811.378289942629635 ], [ 3749423.735501410905272, 2134816.4221564643085 ], [ 3749449.131602169480175, 2134820.211558195762336 ], [ 3749474.853797513525933, 2134821.94712639786303 ], [ 3749521.373271375894547, 2134824.724346876144409 ], [ 3749567.91967910900712, 2134826.767819857224822 ], [ 3749608.34760928992182, 2134827.937785478308797 ], [ 3749648.831102510914207, 2134828.231025076005608 ], [ 3749681.375513083767146, 2134826.868409588001668 ], [ 3749713.827148232143372, 2134824.432530917227268 ], [ 3749739.770170763134956, 2134822.201180896256119 ], [ 3749765.585646568797529, 2134818.499115208163857 ], [ 3749783.720713885501027, 2134814.028519231826067 ], [ 3749801.535600550938398, 2134808.415798655711114 ], [ 3749804.064012709073722, 2134788.627827235031873 ], [ 3749806.582746684551239, 2134768.840744649060071 ], [ 3749808.771827137097716, 2134741.631783367134631 ], [ 3749810.672220882959664, 2134714.349528234452009 ], [ 3749812.552617813460529, 2134702.434974648989737 ], [ 3749818.300325847230852, 2134685.282699004281312 ], [ 3749822.880872183479369, 2134677.224084067158401 ], [ 3749828.823553562164307, 2134669.659739242866635 ], [ 3749842.891618998255581, 2134656.942848690785468 ], [ 3749865.942976272664964, 2134642.819795521907508 ], [ 3749890.030275209806859, 2134630.664063567295671 ], [ 3749903.657324268482625, 2134625.891372311860323 ], [ 3749910.522509657777846, 2134623.520323816686869 ], [ 3749916.982050157152116, 2134619.834645996335894 ], [ 3749923.086261428426951, 2134613.788052057847381 ], [ 3749929.258869674988091, 2134602.826694082468748 ], [ 3749933.534968342166394, 2134590.549285545013845 ], [ 3749936.93786334618926, 2134577.14088958222419 ], [ 3749939.107613483909518, 2134557.045768884941936 ], [ 3749937.744113803375512, 2134537.439389234408736 ], [ 3749935.094830906949937, 2134527.372898708097637 ], [ 3749881.772227002773434, 2134525.403365066740662 ], [ 3749877.30296500492841, 2134520.309585531242192 ], [ 3749873.568161869421601, 2134494.011979852803051 ], [ 3749873.134174561593682, 2134488.412792349234223 ], [ 3749872.813982764258981, 2134482.963432394899428 ], [ 3749872.566346489824355, 2134477.887797757051885 ], [ 3749872.290501257404685, 2134472.834917924366891 ], [ 3749872.061332665383816, 2134469.600787221454084 ], [ 3749872.002853732556105, 2134468.6947086378932 ], [ 3749871.915978861041367, 2134467.436566831544042 ], [ 3750618.379291238728911, 2134174.461757212877274 ], [ 3750630.621891549788415, 2134181.277327734977007 ], [ 3750632.348940179683268, 2134182.148451539687812 ], [ 3750634.109902942087501, 2134183.527433218434453 ], [ 3750635.585332463029772, 2134184.632376740686595 ], [ 3750636.586095514707267, 2134185.841545434202999 ], [ 3750637.567375602666289, 2134188.10431388579309 ], [ 3750638.459932129830122, 2134190.15483304252848 ], [ 3750642.912419292144477, 2134194.791918703820556 ], [ 3750645.049620633944869, 2134197.525788175873458 ], [ 3750646.451470833271742, 2134207.913149212021381 ], [ 3750640.213547634426504, 2134351.232255405280739 ], [ 3750636.823807274922729, 2134376.088395098224282 ], [ 3750631.919293688144535, 2134395.075312349945307 ], [ 3750629.834540678653866, 2134408.697347175329924 ], [ 3750615.601305063813925, 2134412.869237190112472 ], [ 3750598.390918313525617, 2134418.836178441997617 ], [ 3750583.857698370236903, 2134424.193691075779498 ], [ 3750577.715007964987308, 2134426.925509495660663 ], [ 3750576.957300737965852, 2134497.546938135754317 ], [ 3750511.237812099047005, 2134501.95242370525375 ], [ 3750510.231752639636397, 2134477.830665257759392 ], [ 3750509.116073629353195, 2134472.215726480819285 ], [ 3750496.920834382064641, 2134481.626769952476025 ], [ 3750464.616481249686331, 2134506.496033818926662 ], [ 3750435.689352994784713, 2134528.376912127248943 ], [ 3750406.615347513929009, 2134550.071130149066448 ], [ 3750405.264642597176135, 2134550.988051050808281 ], [ 3750372.286238408647478, 2134573.305708920583129 ], [ 3750338.195314356591552, 2134596.848628695122898 ], [ 3750263.358817001804709, 2134654.329493811819702 ], [ 3750178.802158935926855, 2134699.802509724162519 ], [ 3750094.235815960448235, 2134745.276572553440928 ], [ 3750083.11698622815311, 2134751.21834046812728 ], [ 3750071.340763619169593, 2134755.267899374011904 ], [ 3750058.254240206442773, 2134756.474959602579474 ], [ 3750058.933086941950023, 2134765.406417559832335 ], [ 3750059.188218403607607, 2134768.938728306442499 ], [ 3750059.433350807987154, 2134772.471873413771391 ], [ 3750059.666871940717101, 2134775.986075685359538 ], [ 3750059.911157189868391, 2134779.509389527607709 ], [ 3750060.234837141819298, 2134784.06698233447969 ], [ 3750060.638502161949873, 2134788.61719764303416 ], [ 3750061.600582973100245, 2134795.780036309733987 ], [ 3750062.663366033695638, 2134802.943480285815895 ], [ 3750063.145634149201214, 2134806.775118144229054 ], [ 3750063.599027528427541, 2134810.61954877898097 ], [ 3750063.962566629052162, 2134815.0532765109092 ], [ 3750064.32655888563022, 2134819.496900564525276 ], [ 3750064.919282490387559, 2134824.370212164707482 ], [ 3750065.631213934160769, 2134829.222159939352423 ], [ 3750066.298420500941575, 2134833.327213409356773 ], [ 3750066.975709960330278, 2134837.43131828121841 ], [ 3750067.621778619010001, 2134841.408007209654897 ], [ 3750068.228026770055294, 2134845.388507984578609 ], [ 3750068.714432748034596, 2134849.850830153562129 ], [ 3750069.151981012895703, 2134854.327711898367852 ], [ 3750069.693130435422063, 2134858.604709738399833 ], [ 3750070.224296471569687, 2134862.882640128023922 ], [ 3750073.022244753316045, 2134895.347620663233101 ], [ 3750072.091482320334762, 2134897.627811253536493 ], [ 3750069.98616457497701, 2134898.905394501984119 ], [ 3750065.999188249930739, 2134899.035600231960416 ], [ 3750061.99069354031235, 2134899.037604481913149 ], [ 3750057.587800750508904, 2134899.366648754104972 ], [ 3750053.194512132555246, 2134899.694923878647387 ], [ 3750048.728944529779255, 2134899.999905509874225 ], [ 3750044.274421330541372, 2134900.313852251973003 ], [ 3750036.249075010418892, 2134900.919577680528164 ], [ 3750031.796179180964828, 2134901.253400886896998 ], [ 3750027.333185113966465, 2134901.588075002655387 ], [ 3750022.879425679799169, 2134901.911969401873648 ], [ 3750018.416233792435378, 2134902.246676685288548 ], [ 3750010.648401512764394, 2134903.028816006612033 ], [ 3750002.88786014309153, 2134903.900502084754407 ], [ 3749998.55333444988355, 2134904.323481331579387 ], [ 3749994.216416248586029, 2134904.716639773920178 ], [ 3749989.314472654368728, 2134905.102160628885031 ], [ 3749984.410349547863007, 2134905.457926534116268 ], [ 3749979.950609450228512, 2134905.832355645485222 ], [ 3749975.504712901078165, 2134906.365855114534497 ], [ 3749971.985668205656111, 2134907.133670492097735 ], [ 3749968.514849266503006, 2134908.1074886796996 ], [ 3749964.324800399597734, 2134909.388407137710601 ], [ 3749960.130746805574745, 2134910.619727631099522 ], [ 3749956.41231852537021, 2134911.526396255474538 ], [ 3749952.670629675965756, 2134912.284905897919089 ], [ 3749949.247676779516041, 2134912.883477868977934 ], [ 3749945.82407355774194, 2134913.472186271101236 ], [ 3749941.223987066186965, 2134914.320525215007365 ], [ 3749936.638413736131042, 2134915.217645964119583 ], [ 3749934.587708620354533, 2134915.959153608884662 ], [ 3749932.634168324060738, 2134916.661661989055574 ], [ 3749928.609169009141624, 2134917.987422294914722 ], [ 3749925.707736040931195, 2134918.327235066331923 ], [ 3749922.800358702428639, 2134918.597524551674724 ], [ 3749918.629610674455762, 2134918.935135458596051 ], [ 3749914.458097962662578, 2134919.262800911907107 ], [ 3749911.301679532974958, 2134919.796611568890512 ], [ 3749908.313270862679929, 2134921.346545441076159 ], [ 3749906.911983720492572, 2134923.309932883363217 ], [ 3749906.302659729495645, 2134925.580316199921072 ], [ 3749906.022833521012217, 2134928.401030383072793 ], [ 3749906.629926083609462, 2134931.109210166148841 ], [ 3749907.539330018684268, 2134932.427127565257251 ], [ 3749908.790031141135842, 2134933.492779524531215 ], [ 3749910.257408540695906, 2134933.807132835499942 ], [ 3749911.517696968279779, 2134934.291010147891939 ], [ 3749913.153612267225981, 2134936.783415705896914 ], [ 3749914.77827001363039, 2134939.266790738329291 ], [ 3749915.103238967247307, 2134944.305191008374095 ], [ 3749915.468226854223758, 2134949.339747073594481 ], [ 3749915.771569646894932, 2134953.428455040790141 ], [ 3749916.104780977126211, 2134957.5144799570553 ], [ 3749916.730424286797643, 2134961.603300783783197 ], [ 3749917.615094971377403, 2134965.657996538095176 ], [ 3749918.481324780732393, 2134969.504120849072933 ], [ 3749919.445962417405099, 2134973.321012332569808 ], [ 3749920.419330157339573, 2134976.656276730354875 ], [ 3749921.48200069507584, 2134979.973268541507423 ], [ 3749922.687795421574265, 2134983.437190752942115 ], [ 3749923.982325886376202, 2134986.872862166725099 ], [ 3749925.514642090070993, 2134990.266310370527208 ], [ 3749927.007902201265097, 2134993.673516359645873 ], [ 3749928.237605981063098, 2134997.065133695490658 ], [ 3749929.447737401816994, 2135000.458551261108369 ], [ 3749930.919697799254209, 2135004.548856111243367 ], [ 3749932.283152950927615, 2135008.669244387187064 ], [ 3749933.293022828176618, 2135012.542065540328622 ], [ 3749934.204568744637072, 2135016.444005264900625 ], [ 3749938.429677721112967, 2135036.064961008727551 ], [ 3749939.031595612876117, 2135039.414721495471895 ], [ 3749939.61536818370223, 2135042.906440929509699 ], [ 3749940.62149484269321, 2135046.268762555904686 ], [ 3749943.778611619956791, 2135053.424002782441676 ], [ 3749937.051469466183335, 2135052.620779315475374 ], [ 3749917.198095885105431, 2135049.798468632623553 ], [ 3749897.495138296857476, 2135046.040650391951203 ], [ 3749881.250814092811197, 2135041.981240808032453 ], [ 3749865.170967723242939, 2135037.375785258132964 ], [ 3749839.571949326898903, 2135029.257855978328735 ], [ 3749813.923359881620854, 2135021.154507151804864 ], [ 3749792.79897955711931, 2135015.866070132702589 ], [ 3749771.268698506057262, 2135012.989299896173179 ], [ 3749733.052183818072081, 2135011.303254107013345 ], [ 3749694.825477459467947, 2135010.199105741456151 ], [ 3749646.367613585200161, 2135009.114462699741125 ], [ 3749620.433830677997321, 2135008.453064521308988 ], [ 3749620.238320930395275, 2135017.747472113929689 ], [ 3749618.164145788177848, 2135069.156260117888451 ], [ 3749617.608725305180997, 2135079.306950378697366 ], [ 3749617.516656306572258, 2135079.260415568016469 ], [ 3749615.029313099570572, 2135079.261314722243696 ], [ 3749611.917413493152708, 2135079.500516739673913 ], [ 3749608.8124392288737, 2135079.699002909474075 ], [ 3749605.471287682652473, 2135079.729162270203233 ], [ 3749602.122643520124257, 2135079.790059600025415 ], [ 3749598.227136932313442, 2135079.931792266666889 ], [ 3749594.336825843900442, 2135080.133201374672353 ], [ 3749591.234357963781804, 2135080.361591946799308 ], [ 3749588.122935952153057, 2135080.600616232957691 ], [ 3749583.274091200903058, 2135080.9012370724231 ], [ 3749578.41871892567724, 2135081.122258058749139 ], [ 3749573.33185857674107, 2135081.114359952509403 ], [ 3749568.248725324403495, 2135081.035956235602498 ], [ 3749563.325176893733442, 2135081.283267845399678 ], [ 3749558.398936388548464, 2135081.621058703400195 ], [ 3749556.22600873792544, 2135081.883202765136957 ], [ 3749554.054905860684812, 2135081.814608820714056 ], [ 3749545.055672464892268, 2135084.434189958497882 ], [ 3749540.044970805756748, 2135085.190601233392954 ], [ 3749534.93335678614676, 2135085.475510533433408 ], [ 3749527.831874718423933, 2135086.1657655807212 ], [ 3749520.725492849946022, 2135086.796296828426421 ], [ 3749516.002905277069658, 2135087.155274051241577 ], [ 3749511.279142376501113, 2135087.504272465594113 ], [ 3749506.385638878680766, 2135087.869027368724346 ], [ 3749501.50223330128938, 2135088.23293210240081 ], [ 3749496.234390859492123, 2135088.46219496242702 ], [ 3749490.967703976202756, 2135088.471009552944452 ], [ 3749486.471858174540102, 2135087.957384075038135 ], [ 3749481.990876060910523, 2135087.27212306112051 ], [ 3749478.613060117699206, 2135087.225618137046695 ], [ 3749475.24291632277891, 2135087.619078474119306 ], [ 3749472.964482851326466, 2135088.291715038008988 ], [ 3749466.37407127674669, 2135092.612746655009687 ], [ 3749435.202985022217035, 2135047.156997981481254 ], [ 3749408.909749085549265, 2135012.849440242163837 ], [ 3749403.019041870255023, 2135007.266801524907351 ], [ 3749388.700000104028732, 2135011.152264713309705 ], [ 3749373.023763436824083, 2135015.404468384571373 ], [ 3749377.74077988229692, 2135024.291655548848212 ], [ 3749380.209805908147246, 2135035.721764836926013 ], [ 3749379.242068549152464, 2135053.060840059537441 ], [ 3749378.893414846621454, 2135066.145267018117011 ], [ 3749383.730462506879121, 2135076.423656852915883 ], [ 3749394.111886730417609, 2135088.039731702301651 ], [ 3749405.993549864273518, 2135105.586561901494861 ], [ 3749583.964226642157882, 2135488.254921473562717 ], [ 3749697.790884983725846, 2135783.379427798092365 ], [ 3749911.891459882259369, 2136316.721834996715188 ], [ 3749918.428723736666143, 2136350.261960482690483 ], [ 3749933.643749047070742, 2136387.132379539310932 ], [ 3749971.363936420995742, 2136448.044894343707711 ], [ 3749993.221694310195744, 2136531.898460590280592 ], [ 3750001.6010572463274, 2136572.529737560078502 ], [ 3750044.61502392962575, 2136675.893015342764556 ], [ 3750067.371301410719752, 2136734.390340092591941 ], [ 3750104.249342014081776, 2136898.145771849900484 ], [ 3750128.522141941823065, 2137066.138415290042758 ], [ 3750146.758446762338281, 2137145.731187456287444 ], [ 3750222.082565090153366, 2137341.18292770255357 ], [ 3750282.158998778089881, 2137510.44542769389227 ], [ 3750318.817692398093641, 2137600.526603050064296 ], [ 3750326.659276960417628, 2137636.449974444694817 ], [ 3750331.304222286213189, 2137663.715423956513405 ], [ 3750333.294528044760227, 2137691.257564055733383 ], [ 3750331.048490604385734, 2137716.518998152576387 ], [ 3750328.20983640756458, 2137741.795482241548598 ], [ 3750328.930839858017862, 2137780.163948629982769 ], [ 3750329.184231590479612, 2137818.595853672362864 ], [ 3750325.611925847828388, 2137862.051527351606637 ], [ 3750319.655709143728018, 2137905.308046079240739 ], [ 3750314.639070773031563, 2137927.180823684670031 ], [ 3750310.210800473578274, 2137949.099190983921289 ], [ 3750307.058259841520339, 2137980.645615412387997 ], [ 3750304.322505300864577, 2138012.233354636933655 ], [ 3750299.221364361699671, 2138075.264318541623652 ], [ 3750294.424076084047556, 2138138.317198674194515 ], [ 3750293.269995113834739, 2138175.147088870406151 ], [ 3750291.33532574493438, 2138211.919447496533394 ], [ 3750287.857107479590923, 2138241.96888 ], [ 3751044.752388774417341, 2138241.96888 ], [ 3751045.20031863451004, 2138241.098940698895603 ] ] ] } }
]
}
