{
"type": "FeatureCollection",
"name": "Breda",
"crs": { "type": "name", "properties": { "name": "urn:ogc:def:crs:EPSG::3035" } },
"features": [
{ "type": "Feature", "properties": { "SITE_NAME": "el Montseny", "ODESIGNATE": "Plan Especial de Protección (PEIN)", "NUT2": 51, "SITE_CODE_": "ES510131", "DESIG_ABBR": "ES43", "SITE_CDDA": "389130_CDDA", "Sup_ha": 31073.821816700001 }, "geometry": { "type": "Polygon", "coordinates": [ [ [ 3701388.847903730347753, 2105215.301664331927896 ], [ 3701393.562317381612957, 2105200.746355425566435 ], [ 3701393.615364480763674, 2105199.499262630008161 ], [ 3701393.775581941008568, 2105197.6212596334517 ], [ 3701393.785839819349349, 2105195.646802612580359 ], [ 3701393.570048111490905, 2105193.623664446175098 ], [ 3701393.173503252677619, 2105191.126771733164787 ], [ 3701392.681184074375778, 2105189.279671160504222 ], [ 3701392.005856898613274, 2105187.069714249111712 ], [ 3701391.343040863983333, 2105185.338903431780636 ], [ 3701390.489830779843032, 2105183.625992194749415 ], [ 3701389.422695506829768, 2105181.882758932188153 ], [ 3701388.180802717804909, 2105180.105585776735097 ], [ 3701381.798442990984768, 2105173.62342732725665 ], [ 3701375.130844170227647, 2105167.56770246475935 ], [ 3701370.644972992595285, 2105163.571517204865813 ], [ 3701366.148586322087795, 2105159.565876875072718 ], [ 3701358.046369981020689, 2105151.831764001399279 ], [ 3701349.9320875168778, 2105144.078375414013863 ], [ 3701343.418344155419618, 2105137.588495717383921 ], [ 3701337.175177324097604, 2105130.621696531306952 ], [ 3701334.506339875981212, 2105126.55480597820133 ], [ 3701332.270824107341468, 2105122.36751116393134 ], [ 3701328.304994462057948, 2105114.015056265518069 ], [ 3701325.458597344346344, 2105108.703115032985806 ], [ 3701319.701090352609754, 2105099.316656289156526 ], [ 3701313.650295061524957, 2105090.148385284934193 ], [ 3701309.776272076182067, 2105085.303210656624287 ], [ 3701305.399644050281495, 2105080.935719730332494 ], [ 3701302.226308576297015, 2105078.368674758821726 ], [ 3701292.992709810379893, 2105072.113333428278565 ], [ 3701283.472146140411496, 2105066.265163316391408 ], [ 3701276.534263228531927, 2105062.208303929306567 ], [ 3701269.526216779835522, 2105058.048018461093307 ], [ 3701265.00322356633842, 2105054.775809910148382 ], [ 3701256.371584781911224, 2105046.631204332225025 ], [ 3701247.924288627691567, 2105038.518962731119245 ], [ 3701235.239912778139114, 2105026.487013007514179 ], [ 3701222.557255917228758, 2105014.47493121959269 ], [ 3701211.73528131749481, 2105004.412046647630632 ], [ 3701200.848907919600606, 2104994.535162192303687 ], [ 3701196.703339582309127, 2104991.328461393713951 ], [ 3701192.162526415195316, 2104988.66945169121027 ], [ 3701188.99154319614172, 2104987.173946264199913 ], [ 3701184.584647483192384, 2104985.483639691956341 ], [ 3701179.947177136782557, 2104984.386194311548024 ], [ 3701175.277804663404822, 2104983.852576466742903 ], [ 3701172.232671200763434, 2104983.81777510419488 ], [ 3701165.338856780901551, 2104984.344247362576425 ], [ 3701160.480172218754888, 2104985.119924156460911 ], [ 3701155.512218044139445, 2104986.257742368616164 ], [ 3701147.255216564517468, 2104988.495053846389055 ], [ 3701138.996971970424056, 2104990.721286958549172 ], [ 3701135.645715216174722, 2104991.567433854565024 ], [ 3701133.791504158638418, 2104992.021578679792583 ], [ 3701124.741629638709128, 2104994.292818790767342 ], [ 3701110.355625233147293, 2104997.405438458546996 ], [ 3701099.962671933695674, 2104998.590796554461122 ], [ 3701089.45360991358757, 2104998.665382640901953 ], [ 3701083.496620490215719, 2104998.26244702655822 ], [ 3701082.862364500295371, 2104998.151707096025348 ], [ 3701077.890522513072938, 2104997.265912146307528 ], [ 3701077.655492933467031, 2104997.227775534614921 ], [ 3701069.047532840166241, 2104994.940074890386313 ], [ 3701060.432815874461085, 2104992.693686861544847 ], [ 3701052.593967625871301, 2104991.735955441370606 ], [ 3701044.854975236114115, 2104991.931167458649725 ], [ 3701036.764671576209366, 2104993.882456778548658 ], [ 3701028.926204545423388, 2104997.232030079700053 ], [ 3701022.771105797495693, 2105000.714025794528425 ], [ 3701016.820699126459658, 2105004.467658563051373 ], [ 3701012.545597333926708, 2105006.511629505548626 ], [ 3701006.55343887489289, 2105007.684746448881924 ], [ 3701000.438803490251303, 2105007.446777930483222 ], [ 3700989.382103110197932, 2105005.729718515649438 ], [ 3700978.332600603811443, 2105003.981855349615216 ], [ 3700969.07857250329107, 2105002.495991175062954 ], [ 3700959.937442522961646, 2105000.568901038728654 ], [ 3700950.784533196594566, 2104997.691615141928196 ], [ 3700941.578251121100038, 2104994.658672520890832 ], [ 3700935.010885555762798, 2104994.083151821047068 ], [ 3700928.550302594900131, 2104994.959284007549286 ], [ 3700920.812511377502233, 2104997.02765088621527 ], [ 3700913.048664458096027, 2104999.027960892766714 ], [ 3700899.819400809239596, 2105001.771935330703855 ], [ 3700886.582242830190808, 2105004.426129307597876 ], [ 3700875.328655707649887, 2105006.492664044722915 ], [ 3700863.998186593875289, 2105007.666658487636596 ], [ 3700853.909442188218236, 2105007.591280296444893 ], [ 3700843.801909128203988, 2105007.297432410530746 ], [ 3700834.727185647469014, 2105008.46974856685847 ], [ 3700825.8049076506868, 2105011.169739961624146 ], [ 3700817.535467620473355, 2105015.240783787798136 ], [ 3700809.629589085932821, 2105019.678555428050458 ], [ 3700804.133248025551438, 2105022.157379758544266 ], [ 3700796.820733738597482, 2105024.836958081461489 ], [ 3700789.449762758798897, 2105027.421766215469688 ], [ 3700784.791618340648711, 2105029.701733286492527 ], [ 3700775.152598993852735, 2105035.984946334734559 ], [ 3700774.382996265310794, 2105036.518019694834948 ], [ 3700770.190668847411871, 2105039.40523217106238 ], [ 3700765.694711883552372, 2105042.501657572574914 ], [ 3700753.440919152460992, 2105051.053543642163277 ], [ 3700741.016396718099713, 2105059.371037937700748 ], [ 3700727.58390636742115, 2105067.221914914436638 ], [ 3700714.159804892726243, 2105075.162502574268728 ], [ 3700709.891135333105922, 2105079.028621272183955 ], [ 3700706.087712846230716, 2105083.382178721949458 ], [ 3700698.404333831742406, 2105092.016136539168656 ], [ 3700691.304579491727054, 2105098.200500702485442 ], [ 3700683.591993936337531, 2105103.592626684345305 ], [ 3700673.403727953322232, 2105108.655556974932551 ], [ 3700662.941633584909141, 2105113.11242897156626 ], [ 3700656.277645578142256, 2105116.65237074252218 ], [ 3700646.196288335602731, 2105123.298033106140792 ], [ 3700636.440732879564166, 2105130.453257507644594 ], [ 3700632.228139703162014, 2105134.033800934441388 ], [ 3700628.569826103746891, 2105138.083316472359002 ], [ 3700626.579634502530098, 2105141.275102695450187 ], [ 3700625.690297410357744, 2105144.854058805853128 ], [ 3700625.502645975910127, 2105148.507877809926867 ], [ 3700625.032886642962694, 2105155.763035928830504 ], [ 3700622.839107875712216, 2105164.172873827628791 ], [ 3700619.547266906592995, 2105172.344807841815054 ], [ 3700619.366523638367653, 2105172.582382597960532 ], [ 3700617.345671147573739, 2105175.185863360762596 ], [ 3700615.997238781768829, 2105176.364233612082899 ], [ 3700614.742511345073581, 2105177.463218106888235 ], [ 3700608.623558415099978, 2105180.66188046336174 ], [ 3700602.02468697540462, 2105182.162622680421919 ], [ 3700595.355390720069408, 2105182.257111464627087 ], [ 3700588.011539096944034, 2105181.083160649053752 ], [ 3700583.409966975450516, 2105179.591850960627198 ], [ 3700580.820149331353605, 2105178.753061266615987 ], [ 3700580.003395583480597, 2105178.278881215490401 ], [ 3700578.391820152290165, 2105177.348073931410909 ], [ 3700572.814900594297796, 2105174.125435168854892 ], [ 3700565.77978637162596, 2105168.364605776499957 ], [ 3700561.12084835767746, 2105163.062275319360197 ], [ 3700557.586847657337785, 2105157.023456268012524 ], [ 3700556.553563327528536, 2105153.11374337784946 ], [ 3700556.562617970630527, 2105152.171599988359958 ], [ 3700556.591005513910204, 2105149.003709352109581 ], [ 3700557.062395459972322, 2105147.236434889491647 ], [ 3700557.291594970971346, 2105146.393512945622206 ], [ 3700563.638282270170748, 2105132.896654920652509 ], [ 3700571.087043831124902, 2105120.037954716943204 ], [ 3700581.182076083496213, 2105104.697238150518388 ], [ 3700591.066881872713566, 2105089.255880243144929 ], [ 3700601.168512834236026, 2105072.131229348946363 ], [ 3700611.685835184529424, 2105055.278396441135556 ], [ 3700621.625797527842224, 2105041.283915296196938 ], [ 3700631.599644278176129, 2105027.337070523295552 ], [ 3700642.392762588337064, 2105012.270354568492621 ], [ 3700647.523312134668231, 2105005.086526399478316 ], [ 3700648.576325931120664, 2105003.716128537431359 ], [ 3700651.407207127194852, 2105000.031782533042133 ], [ 3700651.778322500176728, 2104999.548906303942204 ], [ 3700652.579207413364202, 2104998.503284310456365 ], [ 3700653.793149286881089, 2104996.918117617722601 ], [ 3700655.597293315455317, 2104994.56257045827806 ], [ 3700656.068121371790767, 2104993.94783539371565 ], [ 3700659.98598506487906, 2104989.403477267827839 ], [ 3700664.206218033097684, 2104985.211321694776416 ], [ 3700668.231481669936329, 2104981.210313820745796 ], [ 3700669.67965826485306, 2104979.77122259978205 ], [ 3700670.70245264377445, 2104978.755113154649734 ], [ 3700671.280811245087534, 2104978.180634231306612 ], [ 3700672.442379475105554, 2104977.026445682626218 ], [ 3700673.676741435192525, 2104975.593691135756671 ], [ 3700675.728429523296654, 2104973.212360695004463 ], [ 3700678.710935551207513, 2104969.266519040800631 ], [ 3700680.670748961623758, 2104965.606899230275303 ], [ 3700682.001016011927277, 2104961.655820086598396 ], [ 3700682.69820442982018, 2104958.305042063817382 ], [ 3700683.0879722898826, 2104954.892967462539673 ], [ 3700683.125729084014893, 2104951.253426666371524 ], [ 3700682.631142816040665, 2104947.864125488325953 ], [ 3700681.12333101965487, 2104944.289465694688261 ], [ 3700678.885640831664205, 2104940.893440972082317 ], [ 3700677.115341849625111, 2104938.825908336788416 ], [ 3700673.05193482991308, 2104935.050244957208633 ], [ 3700668.753832517657429, 2104931.937647327315062 ], [ 3700665.687905777711421, 2104930.262063416652381 ], [ 3700658.169017320498824, 2104927.061047361698002 ], [ 3700650.522741152904928, 2104924.482987249735743 ], [ 3700645.948681142181158, 2104923.386027100495994 ], [ 3700645.328512763604522, 2104923.23740774858743 ], [ 3700642.316309029702097, 2104922.648604207672179 ], [ 3700639.253381287679076, 2104922.054437350481749 ], [ 3700628.491423891857266, 2104920.72886212496087 ], [ 3700627.758828192949295, 2104920.639935453422368 ], [ 3700616.290864144917578, 2104919.181970851495862 ], [ 3700605.825029799714684, 2104917.430184454191476 ], [ 3700595.38991885818541, 2104915.454406976699829 ], [ 3700584.692800934426486, 2104912.651482672896236 ], [ 3700574.281682929955423, 2104908.73040942568332 ], [ 3700568.752994845155627, 2104905.252675394527614 ], [ 3700564.139614750631154, 2104900.707283206284046 ], [ 3700558.649262197315693, 2104893.709202958736569 ], [ 3700557.489688709378242, 2104892.065593430772424 ], [ 3700555.722615659702569, 2104889.567203947342932 ], [ 3700553.541559449862689, 2104886.476525477133691 ], [ 3700547.53951139561832, 2104877.293561017140746 ], [ 3700541.384024508763105, 2104868.194966115988791 ], [ 3700539.09243727196008, 2104865.925781724974513 ], [ 3700535.334314808715135, 2104862.19211868615821 ], [ 3700528.45046357344836, 2104857.128320926334709 ], [ 3700522.255835899151862, 2104852.930955350864679 ], [ 3700516.116307618096471, 2104848.679997269064188 ], [ 3700509.099713621195406, 2104843.24810014013201 ], [ 3700502.315767976921052, 2104837.48425226053223 ], [ 3700498.378917616326362, 2104832.96546675870195 ], [ 3700495.852627667132765, 2104827.62314062891528 ], [ 3700494.36359579116106, 2104819.839962648693472 ], [ 3700493.473083677235991, 2104811.990626442246139 ], [ 3700492.7146400148049, 2104802.295503575354815 ], [ 3700493.061427627690136, 2104792.446483617648482 ], [ 3700494.822825126349926, 2104787.774245510809124 ], [ 3700495.109066361095756, 2104787.006180898286402 ], [ 3700498.101860951632261, 2104782.017339203506708 ], [ 3700502.121345026418567, 2104775.850842592306435 ], [ 3700506.014696284197271, 2104769.625789985992014 ], [ 3700508.494835187215358, 2104763.483355723321438 ], [ 3700509.748208654578775, 2104757.015356524847448 ], [ 3700509.597448004409671, 2104750.84923685528338 ], [ 3700508.35040620714426, 2104744.815996391698718 ], [ 3700505.815297678578645, 2104737.050851268228143 ], [ 3700503.568983972538263, 2104729.248302721884102 ], [ 3700503.501613654196262, 2104721.251656847074628 ], [ 3700504.813048671931028, 2104713.125256840139627 ], [ 3700507.255815465934575, 2104704.802887754514813 ], [ 3700510.896643874235451, 2104696.938865973614156 ], [ 3700515.722321005538106, 2104690.776466105598956 ], [ 3700521.864579400978982, 2104685.982798133511096 ], [ 3700528.075004544574767, 2104683.487635524943471 ], [ 3700534.599481935612857, 2104682.765518001746386 ], [ 3700538.825755699072033, 2104683.300321090035141 ], [ 3700545.171781972050667, 2104685.399466414935887 ], [ 3700551.148325187154114, 2104688.464338340330869 ], [ 3700554.533264947123826, 2104691.272258559707552 ], [ 3700560.661338598933071, 2104697.608421197161078 ], [ 3700566.758000511676073, 2104703.927984814625233 ], [ 3700571.607993048615754, 2104708.761733234394342 ], [ 3700576.620113926939666, 2104713.489734509959817 ], [ 3700579.299291661940515, 2104714.771174526773393 ], [ 3700582.188099425286055, 2104715.210901168640703 ], [ 3700588.132933973800391, 2104715.003827027976513 ], [ 3700595.214190497994423, 2104714.659998198971152 ], [ 3700602.291150979232043, 2104714.266499048098922 ], [ 3700606.960636878851801, 2104714.569548718631268 ], [ 3700614.716590966098011, 2104715.735243602655828 ], [ 3700622.452321151271462, 2104716.902551248669624 ], [ 3700629.118926079012454, 2104716.076471372507513 ], [ 3700635.609583777375519, 2104713.444167078007013 ], [ 3700639.376175247598439, 2104710.757340419106185 ], [ 3700642.579161359462887, 2104707.731839897111058 ], [ 3700647.802402436733246, 2104700.581287180073559 ], [ 3700650.365198838990182, 2104694.460857787169516 ], [ 3700651.138187656644732, 2104688.258154242299497 ], [ 3700650.211502055171877, 2104683.136485370341688 ], [ 3700648.165901325643063, 2104678.11927156848833 ], [ 3700646.122543070465326, 2104674.986309984698892 ], [ 3700641.824984328821301, 2104670.261234759818763 ], [ 3700637.487278949003667, 2104666.100438130088151 ], [ 3700628.347515667788684, 2104658.604096085298806 ], [ 3700616.310658918228, 2104649.396447485312819 ], [ 3700604.175283063203096, 2104640.338495793286711 ], [ 3700597.150590306147933, 2104635.278192414902151 ], [ 3700595.588706268463284, 2104634.118252351880074 ], [ 3700593.845901763532311, 2104632.823724473360926 ], [ 3700592.02849489916116, 2104631.491386085748672 ], [ 3700590.60103032598272, 2104630.593980072066188 ], [ 3700589.757784818764776, 2104630.161934458184987 ], [ 3700583.114855627529323, 2104622.992636264767498 ], [ 3700576.69330040551722, 2104615.936766440514475 ], [ 3700592.450170168653131, 2104615.876380038447678 ], [ 3700596.506104810163379, 2104615.135425813496113 ], [ 3700600.361578633543104, 2104613.130812752060592 ], [ 3700604.684130573179573, 2104608.60862467251718 ], [ 3700607.727800689637661, 2104603.274830088485032 ], [ 3700608.380564392544329, 2104600.107992454897612 ], [ 3700608.940263574942946, 2104597.381539698690176 ], [ 3700608.983178256545216, 2104597.0845119478181 ], [ 3700609.393958560191095, 2104594.243802148848772 ], [ 3700610.447959947399795, 2104591.169992778450251 ], [ 3700612.403993222396821, 2104587.821341569069773 ], [ 3700614.54376408457756, 2104584.725907777436078 ], [ 3700619.125860443804413, 2104578.546258212067187 ], [ 3700624.320483145769686, 2104572.810289760120213 ], [ 3700630.06645735213533, 2104568.555154270026833 ], [ 3700636.098643417470157, 2104564.824045604094863 ], [ 3700639.094481431413442, 2104563.351188655942678 ], [ 3700641.644335377030075, 2104562.089987625367939 ], [ 3700646.885404518805444, 2104559.104350505396724 ], [ 3700649.267994036898017, 2104556.837206502910703 ], [ 3700652.363455425016582, 2104552.680692153982818 ], [ 3700655.539791212417185, 2104548.416173480451107 ], [ 3700659.102111500222236, 2104544.185328030958772 ], [ 3700663.341851879376918, 2104540.45217929687351 ], [ 3700666.276140693575144, 2104539.325259989593178 ], [ 3700670.939461516682059, 2104539.208588352892548 ], [ 3700675.448641169350594, 2104540.216995264403522 ], [ 3700681.54373318143189, 2104542.911162155680358 ], [ 3700687.541108820587397, 2104545.523863026872277 ], [ 3700693.560223969630897, 2104547.222671508323401 ], [ 3700699.827404883690178, 2104547.71647853218019 ], [ 3700707.021894068457186, 2104547.282128850929439 ], [ 3700714.22532093571499, 2104546.485810630023479 ], [ 3700721.27832604246214, 2104545.463645556010306 ], [ 3700728.077391281723976, 2104543.603741263505071 ], [ 3700734.931258313823491, 2104539.585229128599167 ], [ 3700741.233101703692228, 2104534.53677611425519 ], [ 3700747.207719394005835, 2104529.198244348634034 ], [ 3700752.86298197787255, 2104523.549498775973916 ], [ 3700758.135338002815843, 2104517.195147625170648 ], [ 3700762.815660701133311, 2104510.40553765790537 ], [ 3700766.635582196060568, 2104503.796166117768735 ], [ 3700770.386829100549221, 2104497.09471178939566 ], [ 3700773.844284539110959, 2104491.300992754753679 ], [ 3700778.138339133001864, 2104485.749586739577353 ], [ 3700783.435061693191528, 2104482.127732066903263 ], [ 3700789.364408179651946, 2104480.109163019340485 ], [ 3700799.449743435252458, 2104478.161117834039032 ], [ 3700809.546756451949477, 2104476.703038352541625 ], [ 3700818.619201020337641, 2104475.851877066772431 ], [ 3700827.707115704193711, 2104475.299631366506219 ], [ 3700834.800447619520128, 2104475.07407474797219 ], [ 3700842.028972087427974, 2104475.989704987965524 ], [ 3700845.744458127301186, 2104477.95458813291043 ], [ 3700850.283695142716169, 2104481.756016560830176 ], [ 3700854.899684928357601, 2104485.169114293064922 ], [ 3700861.532263931352645, 2104488.954064374789596 ], [ 3700864.515086018014699, 2104489.991144422441721 ], [ 3700868.025746662635356, 2104491.211674623191357 ], [ 3700868.656257560942322, 2104491.430940587073565 ], [ 3700877.863641310017556, 2104493.311522010713816 ], [ 3700887.186962893232703, 2104495.131534210406244 ], [ 3700894.917059704661369, 2104496.579818184953183 ], [ 3700902.67092923540622, 2104497.955883353017271 ], [ 3700906.955404127947986, 2104498.345134349539876 ], [ 3700913.480822833720595, 2104497.753002147190273 ], [ 3700919.749194119591266, 2104495.922742093447596 ], [ 3700926.68731229705736, 2104492.17716789059341 ], [ 3700933.60890097450465, 2104488.242174458689988 ], [ 3700940.276280009653419, 2104485.673588659614325 ], [ 3700946.91141666425392, 2104483.198061525821686 ], [ 3700950.946507689543068, 2104481.176660794764757 ], [ 3700956.336789232678711, 2104476.884549329057336 ], [ 3700960.61275186855346, 2104471.475390713196248 ], [ 3700965.088782823178917, 2104464.064204685855657 ], [ 3700969.590244601015002, 2104456.600276608020067 ], [ 3700974.42978919763118, 2104448.744052702561021 ], [ 3700979.361750565003604, 2104440.899137057363987 ], [ 3700983.217614216264337, 2104435.639549418352544 ], [ 3700986.76855472382158, 2104431.589567341841757 ], [ 3700987.590839432552457, 2104430.651784991845489 ], [ 3700992.389519697055221, 2104426.275078230537474 ], [ 3700998.079973161220551, 2104423.126966768875718 ], [ 3701001.935748435556889, 2104422.342792841605842 ], [ 3701006.493224660865963, 2104421.4159627687186 ], [ 3701014.741890454664826, 2104419.89080489333719 ], [ 3701023.447009698487818, 2104417.602059748023748 ], [ 3701032.005279201082885, 2104414.645277033094317 ], [ 3701039.742130286060274, 2104411.285501922480762 ], [ 3701046.945648359134793, 2104407.00384775782004 ], [ 3701051.684963912703097, 2104402.051531272940338 ], [ 3701056.599365942180157, 2104397.033155140466988 ], [ 3701063.133118380792439, 2104392.453755848109722 ], [ 3701069.716705029364675, 2104387.869591980241239 ], [ 3701076.140492805745453, 2104384.582709272392094 ], [ 3701082.542901874519885, 2104381.287554231472313 ], [ 3701087.110869131051004, 2104378.810624854639173 ], [ 3701088.238906767219305, 2104378.199001284316182 ], [ 3701094.32010593265295, 2104374.904158971272409 ], [ 3701100.400565663352609, 2104371.959659940563142 ], [ 3701103.282236408442259, 2104370.922637198120356 ], [ 3701106.837966338265687, 2104369.643022481817752 ], [ 3701119.026482900604606, 2104368.139035034924746 ], [ 3701131.133058830164373, 2104366.853151494637132 ], [ 3701138.442071317695081, 2104366.117034785449505 ], [ 3701142.024831676855683, 2104365.621075740084052 ], [ 3701145.505163132213056, 2104364.863572173751891 ], [ 3701149.753985347691923, 2104362.862280301284045 ], [ 3701155.802488541230559, 2104359.07983622699976 ], [ 3701161.666891241911799, 2104354.913458508439362 ], [ 3701169.030693280510604, 2104349.565508550032973 ], [ 3701176.390836969949305, 2104344.177054956555367 ], [ 3701181.973332512192428, 2104340.247045314870775 ], [ 3701184.900815072469413, 2104338.460750454105437 ], [ 3701187.970550193451345, 2104336.920487126335502 ], [ 3701189.94088498223573, 2104336.415238443296403 ], [ 3701193.404718112200499, 2104336.160593273118138 ], [ 3701198.646186848171055, 2104336.79073728621006 ], [ 3701203.704365059733391, 2104338.089185203425586 ], [ 3701211.501223508268595, 2104340.454787883907557 ], [ 3701211.823963421396911, 2104340.552764314692467 ], [ 3701219.905747103039175, 2104343.040091224014759 ], [ 3701228.73015756579116, 2104345.617630778346211 ], [ 3701237.72985187266022, 2104347.768279791343957 ], [ 3701242.417474053334445, 2104348.280103659722954 ], [ 3701249.502680081408471, 2104348.096350247971714 ], [ 3701256.562617497518659, 2104347.273641464300454 ], [ 3701265.314040411729366, 2104345.741757817100734 ], [ 3701273.911272250115871, 2104343.592918515205383 ], [ 3701279.115338441450149, 2104341.692343709990382 ], [ 3701286.840813000686467, 2104338.313236611429602 ], [ 3701294.734932155348361, 2104335.259348756168038 ], [ 3701303.984553946182132, 2104332.498298816382885 ], [ 3701309.29204882401973, 2104330.9786022962071 ], [ 3701313.22405695496127, 2104329.858710398897529 ], [ 3701321.943073878996074, 2104327.137431873939931 ], [ 3701330.569807794876397, 2104324.164933037012815 ], [ 3701335.310087851714343, 2104322.257986822165549 ], [ 3701342.129953342489898, 2104318.773456515744328 ], [ 3701343.675388552714139, 2104317.776863862760365 ], [ 3701348.685258250683546, 2104314.562358511146158 ], [ 3701352.196200447157025, 2104311.718981606885791 ], [ 3701352.39051018981263, 2104311.51979024708271 ], [ 3701356.957859412766993, 2104306.914586102589965 ], [ 3701359.006983798928559, 2104304.288936216384172 ], [ 3701360.837903222534806, 2104301.47296401206404 ], [ 3701365.003784198313951, 2104293.269155873917043 ], [ 3701369.140004269778728, 2104284.958389393053949 ], [ 3701369.148029201664031, 2104284.95656649209559 ], [ 3701373.828435400035232, 2104276.580328366719186 ], [ 3701373.845837606117129, 2104276.548652356490493 ], [ 3701377.2266831304878, 2104271.383548435755074 ], [ 3701380.5983154354617, 2104266.229430844075978 ], [ 3701383.520731875672936, 2104261.588137987069786 ], [ 3701386.577948160469532, 2104256.874109559692442 ], [ 3701389.015931569971144, 2104254.201471394393593 ], [ 3701390.54381120717153, 2104253.125151148997247 ], [ 3701390.78145722206682, 2104252.957727533765137 ], [ 3701393.41162050422281, 2104251.104763709940016 ], [ 3701398.032346298918128, 2104248.397654745727777 ], [ 3701403.003984420094639, 2104245.787822585552931 ], [ 3701407.879604464396834, 2104243.116899941582233 ], [ 3701410.260629969183356, 2104241.531283266842365 ], [ 3701413.604429869446903, 2104238.733630144037306 ], [ 3701416.851019041612744, 2104235.744707635138184 ], [ 3701424.247856753878295, 2104228.450090009719133 ], [ 3701431.76962611079216, 2104221.203854807186872 ], [ 3701435.13479084149003, 2104218.303955627139658 ], [ 3701440.451775344554335, 2104214.329588924534619 ], [ 3701445.912588094361126, 2104210.622153404168785 ], [ 3701449.095044989138842, 2104208.520733358338475 ], [ 3701451.995164738968015, 2104202.719321001321077 ], [ 3701452.027384341694415, 2104202.651154927909374 ], [ 3701454.41112722363323, 2104197.599795707967132 ], [ 3701456.157573448494077, 2104194.971723295748234 ], [ 3701459.295636977534741, 2104191.542020093649626 ], [ 3701460.604381651617587, 2104189.786681406665593 ], [ 3701461.505706537514925, 2104187.859326836187392 ], [ 3701462.016685591079295, 2104184.105102229863405 ], [ 3701461.924052324146032, 2104178.374584932811558 ], [ 3701461.130701468791813, 2104172.699200459755957 ], [ 3701459.057924286462367, 2104163.989170813467354 ], [ 3701457.060745389200747, 2104155.221174691803753 ], [ 3701456.250151944346726, 2104150.159490876831114 ], [ 3701455.790139404125512, 2104142.50997021375224 ], [ 3701455.712424436118454, 2104134.854736719280481 ], [ 3701456.088389645796269, 2104126.165358680766076 ], [ 3701456.573404141236097, 2104117.565660830121487 ], [ 3701456.414268588647246, 2104114.325508459005505 ], [ 3701455.523956661112607, 2104109.390680402051657 ], [ 3701455.519500572700053, 2104109.363101294264197 ], [ 3701455.604636875446886, 2104105.252088882960379 ], [ 3701455.692232111468911, 2104101.257445177063346 ], [ 3701455.888617599382997, 2104099.366171727888286 ], [ 3701455.906636552419513, 2104099.193944912869483 ], [ 3701456.702174856327474, 2104096.164516273885965 ], [ 3701457.905127173755318, 2104093.18700768891722 ], [ 3701458.832544261589646, 2104091.60528263123706 ], [ 3701459.309575420804322, 2104090.791575890034437 ], [ 3701461.033468037843704, 2104088.59652558201924 ], [ 3701465.229381915181875, 2104084.587015419267118 ], [ 3701470.039718222338706, 2104081.161026196554303 ], [ 3701474.228197614662349, 2104079.045282383449376 ], [ 3701475.327909752726555, 2104078.654246790334582 ], [ 3701476.446399541571736, 2104078.25629606610164 ], [ 3701478.726793791167438, 2104077.721865651197731 ], [ 3701484.252894619945437, 2104077.213607715442777 ], [ 3701489.731082892976701, 2104076.850048343650997 ], [ 3701491.990847527049482, 2104076.658143696375191 ], [ 3701494.022360331378877, 2104076.157067198306322 ], [ 3701494.33236038684845, 2104075.897653661668301 ], [ 3701494.752563100773841, 2104075.167040125001222 ], [ 3701494.765670727007091, 2104075.085693828761578 ], [ 3701494.755681118462235, 2104075.086630586534739 ], [ 3701493.687593705020845, 2104074.176886400207877 ], [ 3701492.700666168238968, 2104073.336217490490526 ], [ 3701489.330593533348292, 2104071.288428081199527 ], [ 3701485.705736781470478, 2104069.555055038072169 ], [ 3701478.217334758490324, 2104066.240789503790438 ], [ 3701474.43501287791878, 2104064.782663168385625 ], [ 3701470.581566914916039, 2104063.551436020061374 ], [ 3701467.192797340918332, 2104062.917764265090227 ], [ 3701461.998287238180637, 2104062.48348166141659 ], [ 3701456.748571888543665, 2104062.344815003685653 ], [ 3701449.869383868761361, 2104062.57937989756465 ], [ 3701442.930159023031592, 2104062.819582534488291 ], [ 3701439.102159023284912, 2104062.697796137072146 ], [ 3701433.445782367140055, 2104061.816023460589349 ], [ 3701427.820237666368484, 2104060.590854798909277 ], [ 3701422.576319986023009, 2104059.078378255479038 ], [ 3701424.400916855316609, 2104046.731129484716803 ], [ 3701425.721296017523855, 2104030.96197304315865 ], [ 3701425.296177008189261, 2104011.330831683240831 ], [ 3701424.601033125072718, 2104003.873516176827252 ], [ 3701423.914870039094239, 2103996.405657230410725 ], [ 3701423.756363312713802, 2103992.253893186338246 ], [ 3701423.726418979931623, 2103986.07661971077323 ], [ 3701423.433727025520056, 2103983.159070224501193 ], [ 3701422.715874918736517, 2103980.452157597057521 ], [ 3701420.848368050996214, 2103977.021296145394444 ], [ 3701416.80153767298907, 2103972.042111405171454 ], [ 3701412.624759161379188, 2103967.075218869838864 ], [ 3701407.530717110261321, 2103960.350941765122116 ], [ 3701402.586982432752848, 2103953.262420924380422 ], [ 3701401.297953517176211, 2103950.939260498154908 ], [ 3701399.630944301839918, 2103946.688361199107021 ], [ 3701398.068201079964638, 2103940.033992323093116 ], [ 3701396.934289296157658, 2103933.328983620740473 ], [ 3701395.725962159689516, 2103923.436196585651487 ], [ 3701395.206425094977021, 2103918.476497589610517 ], [ 3701394.438037834595889, 2103913.550348072312772 ], [ 3701392.001408118754625, 2103903.311870596837252 ], [ 3701390.37727786693722, 2103898.275709355715662 ], [ 3701388.386253921315074, 2103893.304288600571454 ], [ 3701386.249649187084287, 2103888.867009550333023 ], [ 3701382.687343212775886, 2103882.500007321126759 ], [ 3701378.883006014395505, 2103876.246337891556323 ], [ 3701374.500809126999229, 2103869.375531903002411 ], [ 3701372.111603731289506, 2103866.08382253954187 ], [ 3701369.494693923741579, 2103862.963441942818463 ], [ 3701367.13055137777701, 2103860.781334267463535 ], [ 3701363.188007608987391, 2103857.936078914441168 ], [ 3701359.322362382896245, 2103855.053297618404031 ], [ 3701358.428044726606458, 2103854.376040181610733 ], [ 3701357.047594424337149, 2103853.323589178733528 ], [ 3701356.097764408681542, 2103852.591377665754408 ], [ 3701354.187552267219871, 2103851.117908561602235 ], [ 3701352.032385446131229, 2103848.905884106643498 ], [ 3701351.236612972803414, 2103847.628364535979927 ], [ 3701350.720893712714314, 2103846.204159876797348 ], [ 3701349.671050541568547, 2103840.703738024458289 ], [ 3701348.786662786267698, 2103832.343052363023162 ], [ 3701348.102995968423784, 2103823.973353561013937 ], [ 3701347.349089373834431, 2103814.438408531248569 ], [ 3701346.395627054385841, 2103804.932034105062485 ], [ 3701345.85528614744544, 2103802.178212619386613 ], [ 3701344.293657671660185, 2103797.516654546372592 ], [ 3701340.93286252534017, 2103790.80016621388495 ], [ 3701337.249768067151308, 2103784.665203699842095 ], [ 3701337.025593713391572, 2103784.285539746284485 ], [ 3701329.44081670185551, 2103772.175973943900317 ], [ 3701325.452000279445201, 2103766.349996386095881 ], [ 3701321.187143570743501, 2103760.710244270972908 ], [ 3701314.01145370490849, 2103752.158519584685564 ], [ 3701306.799049654975533, 2103743.649704984389246 ], [ 3701300.501592942513525, 2103735.706750200130045 ], [ 3701294.484259889926761, 2103727.506472423672676 ], [ 3701293.084556342568249, 2103725.184073676355183 ], [ 3701291.23485647700727, 2103720.800086283124983 ], [ 3701288.923256979789585, 2103713.985696824733168 ], [ 3701288.189660764764994, 2103712.261496367864311 ], [ 3701287.521040035877377, 2103710.701623319648206 ], [ 3701285.676726936362684, 2103707.65897858235985 ], [ 3701281.784586487803608, 2103702.375279841013253 ], [ 3701277.995835000649095, 2103697.231458881404251 ], [ 3701277.882066662888974, 2103697.08170055039227 ], [ 3701274.163169213570654, 2103693.794756301678717 ], [ 3701272.702829495538026, 2103691.818334720563143 ], [ 3701271.571420106105506, 2103689.680544769391418 ], [ 3701270.90148884896189, 2103687.179453537799418 ], [ 3701270.844950811006129, 2103686.292954198550433 ], [ 3701270.630624494049698, 2103682.76727943867445 ], [ 3701269.819183252286166, 2103680.950688627082855 ], [ 3701264.911864625290036, 2103669.982137249782681 ], [ 3701260.002845819108188, 2103658.993815704248846 ], [ 3701256.333911479450762, 2103651.395308375358582 ], [ 3701250.292054236866534, 2103640.231893412768841 ], [ 3701244.287844551261514, 2103629.03659835178405 ], [ 3701238.23799788672477, 2103617.434106548316777 ], [ 3701235.546907273121178, 2103611.476530412212014 ], [ 3701233.479976921807975, 2103605.280042392201722 ], [ 3701230.520237703341991, 2103593.077036936767399 ], [ 3701230.178309514187276, 2103591.676758975721896 ], [ 3701226.986313187982887, 2103578.063711638562381 ], [ 3701223.475876851938665, 2103563.678749800659716 ], [ 3701219.924955162219703, 2103549.298025581054389 ], [ 3701217.653631448280066, 2103541.427478733472526 ], [ 3701213.462674314156175, 2103529.891422574408352 ], [ 3701208.877307281829417, 2103518.451932813972235 ], [ 3701206.463190451730043, 2103512.898894160985947 ], [ 3701204.423447436653078, 2103509.114088366273791 ], [ 3701202.16878286935389, 2103504.938223982229829 ], [ 3701199.670885856729001, 2103501.096033440902829 ], [ 3701196.896849255077541, 2103497.319382276851684 ], [ 3701193.621208140160888, 2103493.339848036877811 ], [ 3701190.585384816862643, 2103490.028480745851994 ], [ 3701184.888776993844658, 2103484.723606156185269 ], [ 3701180.287197957746685, 2103481.248455015942454 ], [ 3701176.655903806444257, 2103478.975389828905463 ], [ 3701170.913611512165517, 2103476.16842789016664 ], [ 3701164.818840487860143, 2103474.175652200821787 ], [ 3701155.516778469551355, 2103472.133652086369693 ], [ 3701141.548169208690524, 2103469.597772813867778 ], [ 3701127.616654648445547, 2103466.898120561614633 ], [ 3701109.372031331062317, 2103463.020420075394213 ], [ 3701100.283231426496059, 2103460.878083708696067 ], [ 3701091.246617615222931, 2103458.300280936993659 ], [ 3701087.650548036210239, 2103457.015050995629281 ], [ 3701081.631268086843193, 2103454.263797186780721 ], [ 3701080.960088051855564, 2103453.887080764397979 ], [ 3701072.992576743476093, 2103449.415110945701599 ], [ 3701072.755704693030566, 2103449.275411169975996 ], [ 3701064.406042714603245, 2103444.351006350945681 ], [ 3701057.150569998193532, 2103440.354021714534611 ], [ 3701053.653287282213569, 2103438.118173454888165 ], [ 3701050.348973137326539, 2103435.433188003487885 ], [ 3701047.084648533724248, 2103431.81299105565995 ], [ 3701045.048083682078868, 2103428.878517158329487 ], [ 3701042.471771597862244, 2103424.242385189514607 ], [ 3701038.502985027618706, 2103416.441580611281097 ], [ 3701034.45396295748651, 2103408.287325102370232 ], [ 3701030.779929609969258, 2103399.467218102887273 ], [ 3701027.36447634967044, 2103402.131228591315448 ], [ 3701023.877993473317474, 2103404.211163650266826 ], [ 3701019.329104941338301, 2103406.470967150758952 ], [ 3701014.728152338415384, 2103408.474853109568357 ], [ 3701005.370081270113587, 2103412.077175000682473 ], [ 3701001.605833672918379, 2103413.27171260304749 ], [ 3700997.759037444833666, 2103414.213731014635414 ], [ 3700990.058037399780005, 2103416.127902630716562 ], [ 3700985.094427539967, 2103418.015992671251297 ], [ 3700982.129761189687997, 2103419.606242532841861 ], [ 3700979.316332801710814, 2103421.432684098836035 ], [ 3700974.156725076027215, 2103425.712927345186472 ], [ 3700971.060489322990179, 2103428.928387982770801 ], [ 3700967.349565186072141, 2103433.543289849068969 ], [ 3700958.166073882952332, 2103446.143788618501276 ], [ 3700948.768777326215059, 2103462.220454421360046 ], [ 3700939.361747674643993, 2103478.297721902839839 ], [ 3700935.27543981699273, 2103486.013249614741653 ], [ 3700931.744677057489753, 2103493.996545761823654 ], [ 3700928.047131827566773, 2103504.109471035189927 ], [ 3700925.727015279233456, 2103510.477384889498353 ], [ 3700922.243844554759562, 2103522.493162999860942 ], [ 3700921.811691623181105, 2103524.366167156491429 ], [ 3700920.758885455317795, 2103521.383635526522994 ], [ 3700918.473368060775101, 2103514.406256600283086 ], [ 3700917.476957865990698, 2103506.146076545584947 ], [ 3700916.993240958545357, 2103497.757694921456277 ], [ 3700916.657230589538813, 2103488.86464424431324 ], [ 3700916.630012695211917, 2103486.896373387426138 ], [ 3700916.597497430630028, 2103484.563239752314985 ], [ 3700915.709211235865951, 2103477.785300472285599 ], [ 3700915.777837845962495, 2103473.221393154468387 ], [ 3700915.864319683518261, 2103468.165092930197716 ], [ 3700915.706640984863043, 2103463.08152293600142 ], [ 3700915.453430680092424, 2103459.92010479606688 ], [ 3700915.201823962852359, 2103456.778473014943302 ], [ 3700915.190444854088128, 2103451.871555793099105 ], [ 3700914.649123270995915, 2103449.688655307516456 ], [ 3700913.989222049713135, 2103447.997777851764113 ], [ 3700912.989014564547688, 2103446.448880937881768 ], [ 3700910.697618613950908, 2103443.829232882708311 ], [ 3700908.245829663705081, 2103441.334687175694853 ], [ 3700905.617894688621163, 2103439.017000690102577 ], [ 3700903.380825791973621, 2103437.373887839727104 ], [ 3700900.841909148730338, 2103435.969302800949663 ], [ 3700899.636846092529595, 2103435.661704394966364 ], [ 3700899.627945162821561, 2103435.660547899082303 ], [ 3700899.173469625413418, 2103435.54492939542979 ], [ 3700897.468913283664733, 2103435.634690918494016 ], [ 3700895.43489305023104, 2103436.4564741528593 ], [ 3700893.666511957067996, 2103437.904500204138458 ], [ 3700890.875573608092964, 2103442.202855790965259 ], [ 3700890.491225925274193, 2103443.00011930288747 ], [ 3700887.406361772213131, 2103449.84022615943104 ], [ 3700884.991147173102945, 2103455.45562984328717 ], [ 3700884.392299585044384, 2103455.752145702019334 ], [ 3700883.622361478861421, 2103455.584001271985471 ], [ 3700882.740297853015363, 2103454.935559751465917 ], [ 3700882.200573281385005, 2103453.353488676715642 ], [ 3700881.741287471726537, 2103452.234656761400402 ], [ 3700880.782457824796438, 2103454.65840203082189 ], [ 3700874.375079489313066, 2103470.714755860622972 ], [ 3700871.019708601757884, 2103479.202819333411753 ], [ 3700870.589595938101411, 2103480.284879008308053 ], [ 3700870.160243342164904, 2103481.376889095641673 ], [ 3700868.721671007107943, 2103485.007526176981628 ], [ 3700863.069701260887086, 2103499.296539177186787 ], [ 3700863.068382033612579, 2103499.300383138470352 ], [ 3700859.839912304189056, 2103509.38639484718442 ], [ 3700853.549621048383415, 2103527.495314004831016 ], [ 3700847.030466083437204, 2103545.515214465092868 ], [ 3700841.06607139762491, 2103562.150966571643949 ], [ 3700834.362204103730619, 2103578.505869914777577 ], [ 3700824.910989673808217, 2103597.331682925112545 ], [ 3700815.257508386392146, 2103616.036603014916182 ], [ 3700805.731842620763928, 2103635.400106062646955 ], [ 3700798.056042710319161, 2103650.995032495819032 ], [ 3700796.206196218729019, 2103654.764323050621897 ], [ 3700795.726863943971694, 2103655.740728087723255 ], [ 3700788.971947696059942, 2103669.526189443189651 ], [ 3700781.726612043101341, 2103684.278802314773202 ], [ 3700773.786346505396068, 2103700.308451927267015 ], [ 3700765.876369180157781, 2103716.345624312758446 ], [ 3700760.277580199763179, 2103728.119642170146108 ], [ 3700754.709925572387874, 2103739.910409896168858 ], [ 3700748.628056422807276, 2103750.296772458590567 ], [ 3700741.268505989573896, 2103760.002303829882294 ], [ 3700736.563858981244266, 2103764.299627394881099 ], [ 3700731.186938242055476, 2103767.348496901802719 ], [ 3700727.283459746278822, 2103768.565869537182152 ], [ 3700719.003502461593598, 2103769.382785280235112 ], [ 3700710.679025566205382, 2103769.202506089583039 ], [ 3700699.351628247648478, 2103768.322028160095215 ], [ 3700687.995931210927665, 2103767.574362875893712 ], [ 3700676.798078638501465, 2103767.60295390104875 ], [ 3700665.663468138314784, 2103768.717150780372322 ], [ 3700662.882236680015922, 2103769.629648287780583 ], [ 3700660.294182967860252, 2103771.034310360904783 ], [ 3700655.675611986313015, 2103774.933625548146665 ], [ 3700652.985660317819566, 2103778.071077970322222 ], [ 3700651.238602694123983, 2103780.929203137289733 ], [ 3700650.007062875665724, 2103783.809283547103405 ], [ 3700648.983581140637398, 2103789.795156048610806 ], [ 3700649.370790242217481, 2103796.599894422106445 ], [ 3700649.845014288555831, 2103799.389494407456368 ], [ 3700650.089712238870561, 2103800.839721447788179 ], [ 3700647.792000893503428, 2103802.106987195089459 ], [ 3700645.52114041801542, 2103803.45185290183872 ], [ 3700643.604536379687488, 2103804.583222490269691 ], [ 3700643.162949595600367, 2103804.83495331229642 ], [ 3700638.204571799375117, 2103807.714082795660943 ], [ 3700636.477886566892266, 2103808.246686366386712 ], [ 3700634.621767599135637, 2103808.330650938209146 ], [ 3700630.863896802067757, 2103807.621462455485016 ], [ 3700627.532896465621889, 2103806.491579879075289 ], [ 3700624.525314103346318, 2103804.790455494076014 ], [ 3700619.172826687805355, 2103800.434652042575181 ], [ 3700617.499382750596851, 2103799.00528874900192 ], [ 3700613.963297633454204, 2103795.985223519615829 ], [ 3700608.646906648762524, 2103791.115182805806398 ], [ 3700603.148983445949852, 2103786.242137592285872 ], [ 3700601.573762631975114, 2103785.147855897434056 ], [ 3700599.867509641684592, 2103784.286294253077358 ], [ 3700596.2733408883214, 2103783.141034377738833 ], [ 3700593.894654979463667, 2103782.773178505245596 ], [ 3700591.733164878562093, 2103782.935956557281315 ], [ 3700589.605167863424867, 2103783.836692155804485 ], [ 3700588.403624614700675, 2103784.850920586846769 ], [ 3700586.600096611771733, 2103787.173557365313172 ], [ 3700585.134073306340724, 2103789.554766708053648 ], [ 3700582.191621100064367, 2103794.197991826571524 ], [ 3700579.001577217597514, 2103798.423689496703446 ], [ 3700575.541921622119844, 2103802.444241717923433 ], [ 3700567.940771970897913, 2103809.587878997437656 ], [ 3700560.089673082344234, 2103816.404352106153965 ], [ 3700546.594126367941499, 2103827.716910406947136 ], [ 3700533.111133696977049, 2103839.058245118707418 ], [ 3700516.793240371160209, 2103852.90921079274267 ], [ 3700500.487173506524414, 2103866.779203064739704 ], [ 3700488.193389038089663, 2103876.8471071254462 ], [ 3700476.080072604119778, 2103887.138547061011195 ], [ 3700468.557231821119785, 2103894.605367782991379 ], [ 3700467.180557985790074, 2103896.200930185616016 ], [ 3700462.332057749852538, 2103901.820177930407226 ], [ 3700458.2160654948093, 2103907.058459103107452 ], [ 3700456.452339706476778, 2103909.303133531007916 ], [ 3700450.827296818606555, 2103916.62311873678118 ], [ 3700444.864122775383294, 2103924.383271543309093 ], [ 3700440.807574414182454, 2103929.42146120686084 ], [ 3700436.720198654569685, 2103934.452528593596071 ], [ 3700434.665219239890575, 2103936.778737583663315 ], [ 3700432.315524673089385, 2103938.842266154941171 ], [ 3700430.584417230449617, 2103939.906080546788871 ], [ 3700428.063945706468076, 2103940.693519316613674 ], [ 3700423.272496412973851, 2103941.193038064520806 ], [ 3700418.464102162979543, 2103941.614134845323861 ], [ 3700414.511802335269749, 2103942.035049133002758 ], [ 3700410.564739578869194, 2103942.51545468531549 ], [ 3700408.542658808641136, 2103943.12585083860904 ], [ 3700406.737662120256573, 2103944.2667999221012 ], [ 3700403.484261737205088, 2103947.526840254664421 ], [ 3700401.483220208436251, 2103950.128514393232763 ], [ 3700400.119791579432786, 2103952.880782390013337 ], [ 3700399.678728172089905, 2103954.885357122868299 ], [ 3700399.624018557369709, 2103959.027298163622618 ], [ 3700399.740207325667143, 2103960.332614725921303 ], [ 3700399.988100762479007, 2103963.119838601909578 ], [ 3700400.712369726970792, 2103966.13695761281997 ], [ 3700401.476597643457353, 2103969.150328824296594 ], [ 3700401.442093384917825, 2103971.196883316151798 ], [ 3700400.755376238841563, 2103973.50501300022006 ], [ 3700399.722579849883914, 2103975.655328105669469 ], [ 3700397.251896671950817, 2103979.813487376552075 ], [ 3700393.439930346794426, 2103986.281188938301057 ], [ 3700389.279293183702976, 2103992.561176357325166 ], [ 3700387.443565144203603, 2103994.977090280503035 ], [ 3700385.365714765153825, 2103997.155229209922254 ], [ 3700383.806485301349312, 2103998.343233970925212 ], [ 3700381.446044338401407, 2103999.466179595328867 ], [ 3700378.446495109237731, 2104000.18830251134932 ], [ 3700375.417724600061774, 2104000.572563295252621 ], [ 3700369.317567509133369, 2104000.964619487058371 ], [ 3700363.994433892890811, 2104001.023298076353967 ], [ 3700358.680650185327977, 2104001.191270098090172 ], [ 3700358.198921133764088, 2104001.328095283359289 ], [ 3700357.048693461343646, 2104001.654817067086697 ], [ 3700355.648220662027597, 2104002.697733405046165 ], [ 3700354.951420202851295, 2104003.724716953467578 ], [ 3700354.410351341590285, 2104005.388056647498161 ], [ 3700354.308943367563188, 2104007.010251684114337 ], [ 3700354.666492708958685, 2104010.211991302669048 ], [ 3700355.277841940987855, 2104013.421780402306467 ], [ 3700355.367557367309928, 2104013.892366477288306 ], [ 3700356.169378225225955, 2104017.573306228034198 ], [ 3700356.323392446618527, 2104020.052947578951716 ], [ 3700356.028936902061105, 2104023.285804075654596 ], [ 3700355.438668738584965, 2104026.476309427060187 ], [ 3700353.575741199310869, 2104032.771116632036865 ], [ 3700350.54327120538801, 2104040.798327084165066 ], [ 3700347.033778617158532, 2104048.549807049334049 ], [ 3700344.575934820342809, 2104053.228381265886128 ], [ 3700341.438277987297624, 2104059.201372764538974 ], [ 3700335.354792890138924, 2104069.568130768835545 ], [ 3700326.567895186599344, 2104083.033203050494194 ], [ 3700317.589260334614664, 2104096.376051789149642 ], [ 3700310.254906031768769, 2104106.942519199103117 ], [ 3700309.698756811209023, 2104107.743765922263265 ], [ 3700301.357984638307244, 2104118.913369869813323 ], [ 3700298.801508588250726, 2104121.497055570594966 ], [ 3700297.796965149231255, 2104122.155092723667622 ], [ 3700295.732133197132498, 2104123.507837589364499 ], [ 3700293.488994965329766, 2104124.589747219346464 ], [ 3700292.680469793733209, 2104124.859089065343142 ], [ 3700289.220450222957879, 2104126.011884066741914 ], [ 3700284.870060740038753, 2104126.720530463848263 ], [ 3700281.967942882329226, 2104126.822522907052189 ], [ 3700274.385881990194321, 2104126.151534753851593 ], [ 3700268.538809361867607, 2104125.5430231327191 ], [ 3700266.793527826666832, 2104125.36143453605473 ], [ 3700262.9513083929196, 2104125.190979984588921 ], [ 3700259.111793780233711, 2104125.401035142596811 ], [ 3700256.616665040142834, 2104126.015763164497912 ], [ 3700254.624112258199602, 2104127.084085969254375 ], [ 3700252.965101967565715, 2104128.632079612463713 ], [ 3700250.241478621494025, 2104132.543591463007033 ], [ 3700249.346165963448584, 2104134.254193521570414 ], [ 3700248.201449852436781, 2104136.441058503463864 ], [ 3700246.880655201151967, 2104140.501390818506479 ], [ 3700246.426820012740791, 2104144.570630769710988 ], [ 3700246.074683496728539, 2104148.650254871230572 ], [ 3700245.55037737172097, 2104151.904688834678382 ], [ 3700244.585248557385057, 2104155.070285317488015 ], [ 3700243.318404309917241, 2104157.192494371905923 ], [ 3700241.573021329473704, 2104159.139170411042869 ], [ 3700239.629671606235206, 2104160.543484595604241 ], [ 3700238.247032902669162, 2104161.093910907395184 ], [ 3700236.326138742268085, 2104161.24406402092427 ], [ 3700232.170827937778085, 2104160.482067458331585 ], [ 3700227.99046669434756, 2104159.662225076928735 ], [ 3700224.438169233035296, 2104159.234239206649363 ], [ 3700220.874262713361531, 2104158.787305749021471 ], [ 3700215.602912912610918, 2104157.699268789496273 ], [ 3700214.708277944475412, 2104157.443830626085401 ], [ 3700210.428884335327893, 2104156.221532295458019 ], [ 3700209.161503918003291, 2104155.659315585158765 ], [ 3700208.003372645471245, 2104154.846495056524873 ], [ 3700205.764215104281902, 2104153.063292264938354 ], [ 3700204.156114561483264, 2104152.172407447360456 ], [ 3700202.292164997663349, 2104151.816477661021054 ], [ 3700200.358163126278669, 2104152.047980054281652 ], [ 3700199.21537542482838, 2104152.575902661774307 ], [ 3700197.174066157080233, 2104154.129622288048267 ], [ 3700195.337597815785557, 2104155.95465160952881 ], [ 3700193.023649483919144, 2104158.89615716598928 ], [ 3700190.661927951034158, 2104161.752117164898664 ], [ 3700189.492658407893032, 2104162.888521023560315 ], [ 3700187.056867549195886, 2104165.255503132008016 ], [ 3700186.836248456500471, 2104165.47363588726148 ], [ 3700183.475238507147878, 2104168.796851066406816 ], [ 3700181.44715166836977, 2104171.016606126911938 ], [ 3700173.675982020795345, 2104179.522261342499405 ], [ 3700164.139109833166003, 2104189.971091970801353 ], [ 3700163.877504183445126, 2104190.25772616174072 ], [ 3700150.893206181935966, 2104203.986460666172206 ], [ 3700137.651120144873857, 2104217.529074122197926 ], [ 3700136.823430438525975, 2104218.30685812048614 ], [ 3700134.288395426236093, 2104220.689257237128913 ], [ 3700134.111376713961363, 2104220.835537862498313 ], [ 3700130.735114514827728, 2104223.626865879166871 ], [ 3700125.022385655902326, 2104227.826493050437421 ], [ 3700123.253697882406414, 2104229.126737011130899 ], [ 3700123.227922582998872, 2104229.14326668670401 ], [ 3700120.629871985409409, 2104230.815224780701101 ], [ 3700117.866092486772686, 2104232.166320225223899 ], [ 3700115.899018978700042, 2104232.831676625646651 ], [ 3700111.784282538574189, 2104233.818680372089148 ], [ 3700110.554110628087074, 2104234.0384561419487 ], [ 3700107.647970751859248, 2104234.557343496009707 ], [ 3700099.335069937631488, 2104235.567742946092039 ], [ 3700093.053779402282089, 2104236.076885746326298 ], [ 3700092.06595102744177, 2104236.100548417307436 ], [ 3700083.78909410443157, 2104236.045582975260913 ], [ 3700083.075634280685335, 2104236.001468600239605 ], [ 3700079.453945382032543, 2104235.46983994403854 ], [ 3700074.82687387894839, 2104234.495039202272892 ], [ 3700072.282738563604653, 2104233.959052009508014 ], [ 3700069.535612479317933, 2104232.824500175192952 ], [ 3700068.187489540781826, 2104232.098936587572098 ], [ 3700066.905147481709719, 2104231.40860353037715 ], [ 3700065.0805010702461, 2104230.808535875752568 ], [ 3700062.401035092305392, 2104230.6892548520118 ], [ 3700062.365118214860559, 2104230.696771821938455 ], [ 3700059.690108902286738, 2104231.254136168863624 ], [ 3700058.043122894130647, 2104232.009641569107771 ], [ 3700049.938057387247682, 2104236.936999620869756 ], [ 3700041.843065327499062, 2104241.863308731466532 ], [ 3700037.829423748888075, 2104244.253241206519306 ], [ 3700033.802439616061747, 2104246.604259719140828 ], [ 3700031.75360769405961, 2104247.487595242448151 ], [ 3700029.55183697398752, 2104247.884539770428091 ], [ 3700028.125051355455071, 2104247.808078845031559 ], [ 3700026.253032923676074, 2104247.242500747554004 ], [ 3700024.442557077854872, 2104246.340558816678822 ], [ 3700020.725258904974908, 2104244.585864899680018 ], [ 3700018.324767389334738, 2104243.849539139308035 ], [ 3700015.915783364325762, 2104243.364382260479033 ], [ 3700014.357732421718538, 2104243.400383642874658 ], [ 3700012.684115279931575, 2104243.847927818074822 ], [ 3700011.037227991037071, 2104244.603419281542301 ], [ 3700007.922203039750457, 2104246.668590406887233 ], [ 3700000.845627225935459, 2104252.541126516647637 ], [ 3699993.867968644015491, 2104258.274178679101169 ], [ 3699979.250771792605519, 2104268.960948140360415 ], [ 3699964.53154424438253, 2104279.517096696887165 ], [ 3699958.918144673109055, 2104283.439269785769284 ], [ 3699953.01991777587682, 2104287.0978441266343 ], [ 3699950.579549045767635, 2104288.228226638399065 ], [ 3699948.038242246955633, 2104289.00764805264771 ], [ 3699947.722719861660153, 2104289.061335888691247 ], [ 3699942.807257318403572, 2104289.899097049608827 ], [ 3699939.063103212043643, 2104290.280407806392759 ], [ 3699935.306062811985612, 2104290.512704086489975 ], [ 3699931.217005416750908, 2104290.515758325345814 ], [ 3699927.139556949958205, 2104290.537760655395687 ], [ 3699923.729251861572266, 2104291.168265494517982 ], [ 3699920.354708867147565, 2104292.09586312668398 ], [ 3699918.079573143739253, 2104292.459636745974422 ], [ 3699908.932435216382146, 2104292.639975378289819 ], [ 3699908.806620926596224, 2104292.634161563590169 ], [ 3699900.983611430041492, 2104292.276803855784237 ], [ 3699889.710851484909654, 2104290.389588376507163 ], [ 3699888.72852417267859, 2104290.134164567105472 ], [ 3699878.953321129083633, 2104287.592880250420421 ], [ 3699868.205003729555756, 2104284.785187480971217 ], [ 3699864.897979211062193, 2104283.904307357035577 ], [ 3699860.615770940668881, 2104282.546174356713891 ], [ 3699853.685162979178131, 2104280.672328800428659 ], [ 3699850.695495297200978, 2104280.111464290879667 ], [ 3699850.27422384545207, 2104280.093168479390442 ], [ 3699847.775702370330691, 2104279.984754311386496 ], [ 3699847.668407328892499, 2104279.987079742364585 ], [ 3699846.025899082422256, 2104280.251581748016179 ], [ 3699845.765801793895662, 2104280.293538106605411 ], [ 3699840.513009116053581, 2104282.098506996873766 ], [ 3699835.348193300887942, 2104284.33606562577188 ], [ 3699831.0521270474419, 2104286.482784240040928 ], [ 3699830.066838555969298, 2104286.975153296254575 ], [ 3699824.787825133651495, 2104289.523781375028193 ], [ 3699821.054426213726401, 2104290.495171304326504 ], [ 3699817.139044916257262, 2104290.642173167318106 ], [ 3699814.556574964895844, 2104290.363582658581436 ], [ 3699813.777115765959024, 2104290.210322735831141 ], [ 3699810.389432916417718, 2104289.899784830398858 ], [ 3699806.829202253371477, 2104288.801493882667273 ], [ 3699803.834055398590863, 2104287.358508775942028 ], [ 3699801.282081311568618, 2104286.12900950293988 ], [ 3699798.193999729584903, 2104284.584124908782542 ], [ 3699796.360857124440372, 2104283.667072643525898 ], [ 3699789.58556367456913, 2104280.095856485888362 ], [ 3699784.255433729384094, 2104276.929963315837085 ], [ 3699778.812200929038227, 2104273.854806666262448 ], [ 3699777.345894766040146, 2104273.321372871287167 ], [ 3699775.801153052132577, 2104273.045570583082736 ], [ 3699772.588486513588578, 2104273.166713348589838 ], [ 3699770.463612035382539, 2104273.636569203808904 ], [ 3699767.79789407318458, 2104274.607839952688664 ], [ 3699759.900767311453819, 2104278.213521507568657 ], [ 3699752.060895605478436, 2104282.01422542380169 ], [ 3699747.713918560184538, 2104284.275116590783 ], [ 3699743.366858279332519, 2104286.536122890654951 ], [ 3699741.04948044102639, 2104287.574860646855086 ], [ 3699738.571210216730833, 2104288.268161150161177 ], [ 3699736.927445656619966, 2104288.362293679267168 ], [ 3699734.865617586765438, 2104287.814529424533248 ], [ 3699732.761898889672011, 2104286.54951989185065 ], [ 3699732.386357224546373, 2104286.271917432546616 ], [ 3699730.814259925857186, 2104285.109629564918578 ], [ 3699727.172145603690296, 2104281.895529992878437 ], [ 3699723.79663670482114, 2104278.736539669334888 ], [ 3699720.422846023924649, 2104275.597418003249913 ], [ 3699715.761050075292587, 2104271.657664058730006 ], [ 3699710.771851398982108, 2104268.009019091725349 ], [ 3699708.915952464565635, 2104266.931174977682531 ], [ 3699706.961638538166881, 2104266.112836973741651 ], [ 3699702.812642511446029, 2104265.190039741806686 ], [ 3699698.414861373603344, 2104265.00164892245084 ], [ 3699694.045879139564931, 2104265.261421428993344 ], [ 3699690.550381428562105, 2104265.839750400278717 ], [ 3699687.043290073052049, 2104266.399230055510998 ], [ 3699683.5957031971775, 2104266.482325917109847 ], [ 3699680.173895915970206, 2104265.931962580420077 ], [ 3699677.960305121261626, 2104265.027890343684703 ], [ 3699676.019857537932694, 2104263.787624556105584 ], [ 3699674.299822414293885, 2104262.416510421782732 ], [ 3699670.929565905593336, 2104259.667640179395676 ], [ 3699668.488795728422701, 2104257.883435304276645 ], [ 3699665.948432112112641, 2104256.22865301091224 ], [ 3699663.989837563596666, 2104255.360742203891277 ], [ 3699661.760760214645416, 2104254.858713681809604 ], [ 3699659.561226621735841, 2104254.814700785093009 ], [ 3699655.221337558701634, 2104255.412161853630096 ], [ 3699650.269308475777507, 2104256.26754698343575 ], [ 3699645.327154671773314, 2104257.121913578361273 ], [ 3699641.100163181778044, 2104257.859101865440607 ], [ 3699636.901323788799345, 2104258.573626664467156 ], [ 3699631.981072007212788, 2104258.864996338728815 ], [ 3699627.023764716461301, 2104258.3785769790411 ], [ 3699617.055353304836899, 2104256.319063752889633 ], [ 3699610.469083544798195, 2104255.180162821430713 ], [ 3699610.409436434973031, 2104255.169012350030243 ], [ 3699597.946247129701078, 2104253.734891273546964 ], [ 3699585.448751993011683, 2104252.36344056436792 ], [ 3699577.097564388997853, 2104251.534366766922176 ], [ 3699569.364987747743726, 2104251.218298594933003 ], [ 3699567.752187234349549, 2104251.227343766950071 ], [ 3699561.643259668722749, 2104251.261759140063077 ], [ 3699557.48426199844107, 2104251.271398649085313 ], [ 3699553.347600598353893, 2104251.539331989828497 ], [ 3699550.631511473562568, 2104252.04463716968894 ], [ 3699545.595364794135094, 2104253.558903130237013 ], [ 3699540.680151837877929, 2104255.42235631076619 ], [ 3699531.10359126701951, 2104259.756697673816234 ], [ 3699521.985606673639268, 2104264.065015743952245 ], [ 3699519.888274404220283, 2104265.05599877750501 ], [ 3699516.314317906275392, 2104266.731577717699111 ], [ 3699508.665169783867896, 2104270.365048144944012 ], [ 3699507.480790378525853, 2104270.905674798879772 ], [ 3699504.96349762333557, 2104272.054876256734133 ], [ 3699504.881206713151187, 2104272.092285397462547 ], [ 3699500.437960677780211, 2104274.112102130427957 ], [ 3699495.631724032573402, 2104276.306160842068493 ], [ 3699482.334657328668982, 2104281.640341768041253 ], [ 3699468.969397366978228, 2104286.771230150014162 ], [ 3699457.734000190161169, 2104290.910422715358436 ], [ 3699446.483848008327186, 2104294.991490480490029 ], [ 3699436.2466787584126, 2104298.676587549038231 ], [ 3699425.895523513201624, 2104301.971761097200215 ], [ 3699409.745271440595388, 2104305.53073647711426 ], [ 3699393.406131370924413, 2104308.306360430084169 ], [ 3699381.578752527013421, 2104309.90691891964525 ], [ 3699369.75267376890406, 2104311.517644545063376 ], [ 3699362.041837060358375, 2104313.323090401478112 ], [ 3699349.228791545145214, 2104316.448552656918764 ], [ 3699337.960848780348897, 2104321.382561062462628 ], [ 3699328.499256022274494, 2104324.594169990159571 ], [ 3699318.264038893394172, 2104326.436342540197074 ], [ 3699310.312443707603961, 2104328.364508483093232 ], [ 3699302.350228053983301, 2104330.28384278062731 ], [ 3699295.933989838697016, 2104332.258209865540266 ], [ 3699289.71318566147238, 2104334.865438534878194 ], [ 3699277.56345640309155, 2104340.893378040287644 ], [ 3699266.210144076496363, 2104347.508064558729529 ], [ 3699254.739614706486464, 2104353.813159206416458 ], [ 3699237.305398853961378, 2104360.818315744865686 ], [ 3699219.791102977003902, 2104367.580222723074257 ], [ 3699203.113777453545481, 2104375.175414506811649 ], [ 3699186.348938068374991, 2104382.458451955579221 ], [ 3699183.068676067516208, 2104383.196800221223384 ], [ 3699180.509318454191089, 2104383.767646929249167 ], [ 3699174.420176443178207, 2104383.938410017639399 ], [ 3699162.148966362699866, 2104383.086739039979875 ], [ 3699157.369715912733227, 2104382.443428182508796 ], [ 3699152.59081900306046, 2104381.229069986846298 ], [ 3699143.153603067621589, 2104378.789697155356407 ], [ 3699137.01049374602735, 2104378.564798095263541 ], [ 3699133.464409137610346, 2104379.48862228076905 ], [ 3699130.107047350611538, 2104381.196036090143025 ], [ 3699123.921098322141916, 2104386.303692346438766 ], [ 3699120.165120593737811, 2104390.392851586453617 ], [ 3699117.779276358429343, 2104393.66165617108345 ], [ 3699117.692151718307287, 2104393.819963421672583 ], [ 3699115.878567409701645, 2104397.075179225765169 ], [ 3699115.258966411463916, 2104398.295057147275656 ], [ 3699112.439884037710726, 2104403.898403075989336 ], [ 3699109.557830085977912, 2104408.075812740717083 ], [ 3699102.602160857524723, 2104415.92045259103179 ], [ 3699095.079276926349849, 2104423.157091546803713 ], [ 3699089.482114625629038, 2104427.268288737162948 ], [ 3699073.875315988436341, 2104436.756577441934496 ], [ 3699057.897514439187944, 2104445.567832870408893 ], [ 3699039.85067633073777, 2104454.91437126416713 ], [ 3699027.06090423790738, 2104461.804244007915258 ], [ 3699017.014037837274373, 2104467.104150583501905 ], [ 3699014.162946680560708, 2104468.61377405654639 ], [ 3699009.635880429297686, 2104470.190811907872558 ], [ 3699004.877763119526207, 2104470.837564489804208 ], [ 3698995.056497063953429, 2104471.06806067051366 ], [ 3698989.89990616729483, 2104471.652172053232789 ], [ 3698988.623446116223931, 2104471.802310338709503 ], [ 3698986.769428668543696, 2104472.256688909605145 ], [ 3698988.413949703797698, 2104470.078945922665298 ], [ 3698988.685258737765253, 2104469.722793239168823 ], [ 3698992.553432744927704, 2104466.114311965182424 ], [ 3698997.494590828195214, 2104462.806286067236215 ], [ 3699000.051780839916319, 2104461.163725272752345 ], [ 3699002.399432878009975, 2104458.960143435746431 ], [ 3699005.160104484762996, 2104454.313902048394084 ], [ 3699005.805465986020863, 2104451.879487730562687 ], [ 3699005.86650113761425, 2104449.439388643018901 ], [ 3699003.967417242471129, 2104443.317697934806347 ], [ 3699001.744607024826109, 2104437.185558598022908 ], [ 3699001.238639960996807, 2104430.171414756216109 ], [ 3699001.041562558151782, 2104426.614243043586612 ], [ 3699000.32867436343804, 2104423.155285985209048 ], [ 3698997.700741436332464, 2104418.032848316244781 ], [ 3698995.74948369525373, 2104415.97249470371753 ], [ 3698993.388945595826954, 2104414.541159771382809 ], [ 3698988.855296341702342, 2104412.772928337100893 ], [ 3698984.294339291751385, 2104411.047474950086325 ], [ 3698978.903935432899743, 2104409.399866310413927 ], [ 3698976.28239071322605, 2104408.434225796721876 ], [ 3698973.91415821807459, 2104407.023501617833972 ], [ 3698965.676776820793748, 2104400.523934199474752 ], [ 3698958.770515342243016, 2104406.381307997740805 ], [ 3698952.05851261690259, 2104410.066355644725263 ], [ 3698944.976953806355596, 2104412.263732675462961 ], [ 3698935.057632862590253, 2104413.805688813328743 ], [ 3698932.494999378919601, 2104413.986049338709563 ], [ 3698930.893002772703767, 2104414.096313460730016 ], [ 3698925.275691535323858, 2104414.483633417636156 ], [ 3698910.14650085195899, 2104414.59102910105139 ], [ 3698895.178013668395579, 2104414.69407005328685 ], [ 3698878.33073871769011, 2104414.852639717981219 ], [ 3698861.498304252978414, 2104415.07053829729557 ], [ 3698846.978197623975575, 2104415.461784751620144 ], [ 3698832.518774045631289, 2104416.097368601709604 ], [ 3698821.508123104460537, 2104417.010922315530479 ], [ 3698810.508755140472203, 2104418.283536514732987 ], [ 3698801.643696294166148, 2104419.666573263239115 ], [ 3698795.967505, 2104421.106905028689653 ], [ 3698795.967505, 2105235.899495000485331 ], [ 3701382.176838632673025, 2105235.899495000485331 ], [ 3701388.847903730347753, 2105215.301664331927896 ] ] ] } },
{ "type": "Feature", "properties": { "SITE_NAME": "Riera d`Arbúcies", "ODESIGNATE": "Plan Especial de Protección (PEIN)", "NUT2": 51, "SITE_CODE_": "ES510161", "DESIG_ABBR": "ES43", "SITE_CDDA": "389160_CDDA", "Sup_ha": 100.41670913199999 }, "geometry": { "type": "Polygon", "coordinates": [ [ [ 3701491.366140313912183, 2105225.326303948648274 ], [ 3701493.411435768939555, 2105221.932782378979027 ], [ 3701518.110374071169645, 2105174.216450962238014 ], [ 3701521.04906067205593, 2105165.415090405382216 ], [ 3701527.359737804159522, 2105128.069108113646507 ], [ 3701527.748796699568629, 2105124.487623672001064 ], [ 3701528.577976165805012, 2105106.747865734156221 ], [ 3701528.503878386691213, 2105102.798699758481234 ], [ 3701523.808223968371749, 2105048.514999229926616 ], [ 3701525.250780210830271, 2105012.653269701637328 ], [ 3701529.597259287722409, 2104972.043730567675084 ], [ 3701531.722621963359416, 2104960.982494498603046 ], [ 3701548.526130400132388, 2104913.105554692447186 ], [ 3701549.616556224413216, 2104910.914148487150669 ], [ 3701566.715891581960022, 2104885.020251615904272 ], [ 3701573.814996470231563, 2104876.452793344855309 ], [ 3701575.752429864834994, 2104874.674283853266388 ], [ 3701599.814357972703874, 2104861.978761416859925 ], [ 3701602.753530533052981, 2104860.976722506806254 ], [ 3701669.591062401421368, 2104849.177875310182571 ], [ 3701703.305661323945969, 2104845.98199076205492 ], [ 3701705.597389802802354, 2104846.063193246722221 ], [ 3701705.896098798140883, 2104846.073837268166244 ], [ 3701710.750298324972391, 2104846.880588298663497 ], [ 3701713.270755050703883, 2104847.651430317666382 ], [ 3701714.783261690288782, 2104848.510986793786287 ], [ 3701724.835669950582087, 2104856.789000875782222 ], [ 3701733.07787881186232, 2104861.618064622394741 ], [ 3701739.734452125616372, 2104864.201337107457221 ], [ 3701742.476889129728079, 2104865.811035432852805 ], [ 3701751.31936160614714, 2104873.134920240845531 ], [ 3701752.704728877637535, 2104874.537480562459677 ], [ 3701772.111005802638829, 2104898.573209198191762 ], [ 3701777.363669860176742, 2104903.65582421515137 ], [ 3701786.538732417393476, 2104910.656024536583573 ], [ 3701787.660343607887626, 2104911.981037621386349 ], [ 3701812.049590113572776, 2104954.988439339213073 ], [ 3701813.274665357545018, 2104956.969275886192918 ], [ 3701843.148877620697021, 2105001.262900021858513 ], [ 3701851.254689703695476, 2105016.203024272806942 ], [ 3701856.406521545723081, 2105023.113457028754056 ], [ 3701868.799426324665546, 2105035.470104209147394 ], [ 3701875.694434724748135, 2105040.587824182584882 ], [ 3701889.952645674347878, 2105048.262829963117838 ], [ 3701896.773726360872388, 2105050.909534165635705 ], [ 3701913.20645190961659, 2105055.080357991158962 ], [ 3701919.705483312252909, 2105055.997776357457042 ], [ 3701957.707431416027248, 2105057.136542759370059 ], [ 3701966.906168725341558, 2105055.990774198435247 ], [ 3701984.597020026762038, 2105050.954005494713783 ], [ 3701992.61703049717471, 2105047.345442372374237 ], [ 3702022.825528718996793, 2105028.079436925705522 ], [ 3702028.811195201706141, 2105023.083217853680253 ], [ 3702038.965157413389534, 2105012.085275017656386 ], [ 3702088.7014913209714, 2104971.634631702676415 ], [ 3702090.771219467744231, 2104970.335748921148479 ], [ 3702097.781620386987925, 2104968.134856964461505 ], [ 3702101.033133249729872, 2104967.724205636419356 ], [ 3702108.056260172277689, 2104967.986850308254361 ], [ 3702111.161367212422192, 2104968.602555928751826 ], [ 3702139.892435398418456, 2104979.238897258415818 ], [ 3702142.475845367647707, 2104980.061161644291133 ], [ 3702212.325466150883585, 2104998.945017420686781 ], [ 3702215.202099309302866, 2104999.567955233156681 ], [ 3702233.155881240498275, 2105002.576816958375275 ], [ 3702236.282432985957712, 2105002.796166257932782 ], [ 3702238.964200211688876, 2105002.984348352998495 ], [ 3702274.452363073825836, 2105002.009869396686554 ], [ 3702282.885294325649738, 2105000.56688186340034 ], [ 3702335.578815599437803, 2104983.658112540841103 ], [ 3702339.068161593284458, 2104982.29233853938058 ], [ 3702345.772794999647886, 2104979.185131825041026 ], [ 3702345.772794999647886, 2104922.620241292752326 ], [ 3702333.677732395473868, 2104929.857892072759569 ], [ 3702318.757201981730759, 2104936.751394658815116 ], [ 3702271.980066067539155, 2104951.7658466771245 ], [ 3702269.16718500200659, 2104952.246347448788583 ], [ 3702240.920765962451696, 2104953.022350873798132 ], [ 3702238.981980013661087, 2104952.888155022636056 ], [ 3702225.378301584161818, 2104950.608118506148458 ], [ 3702157.299156908411533, 2104932.254220244474709 ], [ 3702124.478952601086348, 2104920.147707675117999 ], [ 3702115.195587466470897, 2104918.308428482152522 ], [ 3702098.361133423168212, 2104917.666950391605496 ], [ 3702088.567735117394477, 2104918.902564424090087 ], [ 3702071.806380860507488, 2104923.892452981323004 ], [ 3702067.94509454537183, 2104925.372580436058342 ], [ 3702063.890884123276919, 2104927.723793934565037 ], [ 3702062.573384454008192, 2104928.721801899839193 ], [ 3702006.843975134193897, 2104973.893595494329929 ], [ 3702003.65821360424161, 2104976.869904051534832 ], [ 3701994.691649646032602, 2104986.575663365423679 ], [ 3701992.695980720221996, 2104988.244031371548772 ], [ 3701969.566470020916313, 2105002.994119539856911 ], [ 3701966.896380124147981, 2105004.195935131516308 ], [ 3701965.489948912523687, 2105004.59739879053086 ], [ 3701958.010379867162555, 2105006.732167156878859 ], [ 3701954.933885719161481, 2105007.116175383329391 ], [ 3701924.930778147652745, 2105006.214217929169536 ], [ 3701922.767537132836878, 2105005.911795827560127 ], [ 3701913.128529744688421, 2105003.470374466851354 ], [ 3701910.843868429772556, 2105002.581376982852817 ], [ 3701903.659626536536962, 2104998.707644598558545 ], [ 3701901.367239916697145, 2104997.004520424641669 ], [ 3701895.139482252299786, 2104990.797387945465744 ], [ 3701893.418808021117002, 2104988.490573291666806 ], [ 3701887.192824750673026, 2104976.939494572579861 ], [ 3701885.673056193161756, 2104974.438046230003238 ], [ 3701855.624011374078691, 2104929.884412441402674 ], [ 3701828.496980268042535, 2104881.998124059289694 ], [ 3701827.158564474899322, 2104879.877937937155366 ], [ 3701824.172041535843164, 2104876.348911127541214 ], [ 3701821.453161873854697, 2104873.995406694710255 ], [ 3701810.742285341955721, 2104865.95781834051013 ], [ 3701808.98395713372156, 2104864.261208903044462 ], [ 3701797.134391447063535, 2104849.584762793034315 ], [ 3701790.023504428565502, 2104840.77726996736601 ], [ 3701785.88016773853451, 2104836.574643486179411 ], [ 3701771.029569230508059, 2104824.267437130212784 ], [ 3701762.779354270547628, 2104819.431926404125988 ], [ 3701756.116583843715489, 2104816.850473720580339 ], [ 3701753.367552963085473, 2104815.237525477074087 ], [ 3701740.699986677616835, 2104804.74149376526475 ], [ 3701738.975435234140605, 2104803.436602250672877 ], [ 3701735.019182559568435, 2104801.183932366780937 ], [ 3701730.723845178727061, 2104799.662553216330707 ], [ 3701728.540851908735931, 2104799.197840104345232 ], [ 3701710.739267185330391, 2104796.214817408937961 ], [ 3701702.942947872914374, 2104795.933710031211376 ], [ 3701664.869509578216821, 2104799.505036036949605 ], [ 3701662.418815648183227, 2104799.829503016546369 ], [ 3701589.740668851416558, 2104812.665284651797265 ], [ 3701580.936432172544301, 2104815.669515289366245 ], [ 3701547.906001721974462, 2104832.968931602779776 ], [ 3701544.903217870276421, 2104834.799448526464403 ], [ 3701541.310052611399442, 2104837.819690383039415 ], [ 3701539.831911984365433, 2104839.438770703040063 ], [ 3701527.919318738393486, 2104853.622801619581878 ], [ 3701525.835411989595741, 2104856.403508646413684 ], [ 3701505.628944832831621, 2104887.137986440211535 ], [ 3701503.600632891058922, 2104890.64435599418357 ], [ 3701501.738713423721492, 2104895.471459398511797 ], [ 3701484.084564975462854, 2104945.451559844426811 ], [ 3701482.924433262087405, 2104949.707089795731008 ], [ 3701480.263601827435195, 2104963.348307281732559 ], [ 3701479.877999374177307, 2104965.873921580612659 ], [ 3701475.341578639112413, 2105008.064817760139704 ], [ 3701475.196689078118652, 2105009.984726126305759 ], [ 3701473.595370161347091, 2105047.448678915388882 ], [ 3701473.68572325212881, 2105051.285754497162998 ], [ 3701478.402600880712271, 2105106.83550854306668 ], [ 3701477.746280386578292, 2105120.789842827245593 ], [ 3701472.396162825636566, 2105152.900437883101404 ], [ 3701471.413600993342698, 2105155.838347201701254 ], [ 3701449.120487331878394, 2105198.717860605567694 ], [ 3701447.777307287789881, 2105200.65673426957801 ], [ 3701427.165945357643068, 2105230.22333108773455 ], [ 3701424.709616351872683, 2105235.899495000485331 ], [ 3701483.99433373240754, 2105235.899495000485331 ], [ 3701491.366140313912183, 2105225.326303948648274 ] ] ] } },
{ "type": "Feature", "properties": { "SITE_NAME": "Riera d`Arbucies-Hostalric", "ODESIGNATE": "Reserva Natural Parcial", "NUT2": 51, "SITE_CODE_": "ES512037", "DESIG_ABBR": "ES06", "SITE_CDDA": "349712_CDDA", "Sup_ha": 58.197423363200002 }, "geometry": { "type": "Polygon", "coordinates": [ [ [ 3701491.366140313912183, 2105225.326303948648274 ], [ 3701493.411435768939555, 2105221.932782378979027 ], [ 3701518.110374071169645, 2105174.216450962238014 ], [ 3701521.04906067205593, 2105165.415090405382216 ], [ 3701527.359737804159522, 2105128.069108113646507 ], [ 3701527.748796699568629, 2105124.487623672001064 ], [ 3701528.577976165805012, 2105106.747865734156221 ], [ 3701528.503878386691213, 2105102.798699758481234 ], [ 3701523.808223968371749, 2105048.514999229926616 ], [ 3701525.250780210830271, 2105012.653269701637328 ], [ 3701529.597259287722409, 2104972.043730567675084 ], [ 3701531.722621963359416, 2104960.982494498603046 ], [ 3701548.526130400132388, 2104913.105554692447186 ], [ 3701549.616556224413216, 2104910.914148487150669 ], [ 3701566.715891581960022, 2104885.020251615904272 ], [ 3701573.814996470231563, 2104876.452793344855309 ], [ 3701575.752429864834994, 2104874.674283853266388 ], [ 3701599.814357972703874, 2104861.978761416859925 ], [ 3701602.753530533052981, 2104860.976722506806254 ], [ 3701669.591062401421368, 2104849.177875310182571 ], [ 3701703.305661323945969, 2104845.98199076205492 ], [ 3701705.597389802802354, 2104846.063193246722221 ], [ 3701705.896098798140883, 2104846.073837268166244 ], [ 3701710.750298324972391, 2104846.880588298663497 ], [ 3701713.270755050703883, 2104847.651430317666382 ], [ 3701714.783261690288782, 2104848.510986793786287 ], [ 3701724.835669950582087, 2104856.789000875782222 ], [ 3701733.07787881186232, 2104861.618064622394741 ], [ 3701739.734452125616372, 2104864.201337107457221 ], [ 3701742.476889129728079, 2104865.811035432852805 ], [ 3701751.31936160614714, 2104873.134920240845531 ], [ 3701752.704728877637535, 2104874.537480562459677 ], [ 3701772.111005802638829, 2104898.573209198191762 ], [ 3701777.363669860176742, 2104903.65582421515137 ], [ 3701786.538732417393476, 2104910.656024536583573 ], [ 3701787.660343607887626, 2104911.981037621386349 ], [ 3701812.049590113572776, 2104954.988439339213073 ], [ 3701813.274665357545018, 2104956.969275886192918 ], [ 3701843.148877620697021, 2105001.262900021858513 ], [ 3701851.254689703695476, 2105016.203024272806942 ], [ 3701856.406521545723081, 2105023.113457028754056 ], [ 3701868.799426324665546, 2105035.470104209147394 ], [ 3701875.694434724748135, 2105040.587824182584882 ], [ 3701889.952645674347878, 2105048.262829963117838 ], [ 3701896.773726360872388, 2105050.909534165635705 ], [ 3701913.20645190961659, 2105055.080357991158962 ], [ 3701919.705483312252909, 2105055.997776357457042 ], [ 3701957.707431416027248, 2105057.136542759370059 ], [ 3701966.906168725341558, 2105055.990774198435247 ], [ 3701984.597020026762038, 2105050.954005494713783 ], [ 3701992.61703049717471, 2105047.345442372374237 ], [ 3702022.825528718996793, 2105028.079436925705522 ], [ 3702028.811195201706141, 2105023.083217853680253 ], [ 3702038.965157413389534, 2105012.085275017656386 ], [ 3702088.7014913209714, 2104971.634631702676415 ], [ 3702090.771219467744231, 2104970.335748921148479 ], [ 3702097.781620386987925, 2104968.134856964461505 ], [ 3702101.033133249729872, 2104967.724205636419356 ], [ 3702108.056260172277689, 2104967.986850308254361 ], [ 3702111.161367212422192, 2104968.602555928751826 ], [ 3702139.892435398418456, 2104979.238897258415818 ], [ 3702142.475845367647707, 2104980.061161644291133 ], [ 3702212.325466150883585, 2104998.945017420686781 ], [ 3702215.202099309302866, 2104999.567955233156681 ], [ 3702233.155881240498275, 2105002.576816958375275 ], [ 3702236.282432985957712, 2105002.796166257932782 ], [ 3702238.964200211688876, 2105002.984348352998495 ], [ 3702274.452363073825836, 2105002.009869396686554 ], [ 3702282.885294325649738, 2105000.56688186340034 ], [ 3702335.578815599437803, 2104983.658112540841103 ], [ 3702339.068161593284458, 2104982.29233853938058 ], [ 3702345.772794999647886, 2104979.185131825041026 ], [ 3702345.772794999647886, 2104922.620241292752326 ], [ 3702333.677732395473868, 2104929.857892072759569 ], [ 3702318.757201981730759, 2104936.751394658815116 ], [ 3702271.980066067539155, 2104951.7658466771245 ], [ 3702269.16718500200659, 2104952.246347448788583 ], [ 3702240.920765962451696, 2104953.022350873798132 ], [ 3702238.981980013661087, 2104952.888155022636056 ], [ 3702225.378301584161818, 2104950.608118506148458 ], [ 3702157.299156908411533, 2104932.254220244474709 ], [ 3702124.478952601086348, 2104920.147707675117999 ], [ 3702115.195587466470897, 2104918.308428482152522 ], [ 3702098.361133423168212, 2104917.666950391605496 ], [ 3702088.567735117394477, 2104918.902564424090087 ], [ 3702071.806380860507488, 2104923.892452981323004 ], [ 3702067.94509454537183, 2104925.372580436058342 ], [ 3702063.890884123276919, 2104927.723793934565037 ], [ 3702062.573384454008192, 2104928.721801899839193 ], [ 3702006.843975134193897, 2104973.893595494329929 ], [ 3702003.65821360424161, 2104976.869904051534832 ], [ 3701994.691649646032602, 2104986.575663365423679 ], [ 3701992.695980720221996, 2104988.244031371548772 ], [ 3701969.566470020916313, 2105002.994119539856911 ], [ 3701966.896380124147981, 2105004.195935131516308 ], [ 3701965.489948912523687, 2105004.59739879053086 ], [ 3701958.010379867162555, 2105006.732167156878859 ], [ 3701954.933885719161481, 2105007.116175383329391 ], [ 3701924.930778147652745, 2105006.214217929169536 ], [ 3701922.767537132836878, 2105005.911795827560127 ], [ 3701913.128529744688421, 2105003.470374466851354 ], [ 3701910.843868429772556, 2105002.581376982852817 ], [ 3701903.659626536536962, 2104998.707644598558545 ], [ 3701901.367239916697145, 2104997.004520424641669 ], [ 3701895.139482252299786, 2104990.797387945465744 ], [ 3701893.418808021117002, 2104988.490573291666806 ], [ 3701887.192824750673026, 2104976.939494572579861 ], [ 3701885.673056193161756, 2104974.438046230003238 ], [ 3701855.624011374078691, 2104929.884412441402674 ], [ 3701828.496980268042535, 2104881.998124059289694 ], [ 3701827.158564474899322, 2104879.877937937155366 ], [ 3701824.172041535843164, 2104876.348911127541214 ], [ 3701821.453161873854697, 2104873.995406694710255 ], [ 3701810.742285341955721, 2104865.95781834051013 ], [ 3701808.98395713372156, 2104864.261208903044462 ], [ 3701797.134391447063535, 2104849.584762793034315 ], [ 3701790.023504428565502, 2104840.77726996736601 ], [ 3701785.88016773853451, 2104836.574643486179411 ], [ 3701771.029569230508059, 2104824.267437130212784 ], [ 3701762.779354270547628, 2104819.431926404125988 ], [ 3701756.116583843715489, 2104816.850473720580339 ], [ 3701753.367552963085473, 2104815.237525477074087 ], [ 3701740.699986677616835, 2104804.74149376526475 ], [ 3701738.975435234140605, 2104803.436602250672877 ], [ 3701735.019182559568435, 2104801.183932366780937 ], [ 3701730.723845178727061, 2104799.662553216330707 ], [ 3701728.540851908735931, 2104799.197840104345232 ], [ 3701710.739267185330391, 2104796.214817408937961 ], [ 3701702.942947872914374, 2104795.933710031211376 ], [ 3701664.869509578216821, 2104799.505036036949605 ], [ 3701662.418815648183227, 2104799.829503016546369 ], [ 3701589.740668851416558, 2104812.665284651797265 ], [ 3701580.936432172544301, 2104815.669515289366245 ], [ 3701547.906001721974462, 2104832.968931602779776 ], [ 3701544.903217870276421, 2104834.799448526464403 ], [ 3701541.310052611399442, 2104837.819690383039415 ], [ 3701539.831911984365433, 2104839.438770703040063 ], [ 3701527.919318738393486, 2104853.622801619581878 ], [ 3701525.835411989595741, 2104856.403508646413684 ], [ 3701505.628944832831621, 2104887.137986440211535 ], [ 3701503.600632891058922, 2104890.64435599418357 ], [ 3701501.738713423721492, 2104895.471459398511797 ], [ 3701484.084564975462854, 2104945.451559844426811 ], [ 3701482.924433262087405, 2104949.707089795731008 ], [ 3701480.263601827435195, 2104963.348307281732559 ], [ 3701479.877999374177307, 2104965.873921580612659 ], [ 3701475.341578639112413, 2105008.064817760139704 ], [ 3701475.196689078118652, 2105009.984726126305759 ], [ 3701473.595370161347091, 2105047.448678915388882 ], [ 3701473.68572325212881, 2105051.285754497162998 ], [ 3701478.402600880712271, 2105106.83550854306668 ], [ 3701477.746280386578292, 2105120.789842827245593 ], [ 3701472.396162825636566, 2105152.900437883101404 ], [ 3701471.413600993342698, 2105155.838347201701254 ], [ 3701449.120487331878394, 2105198.717860605567694 ], [ 3701447.777307287789881, 2105200.65673426957801 ], [ 3701427.165945357643068, 2105230.22333108773455 ], [ 3701424.709616351872683, 2105235.899495000485331 ], [ 3701483.99433373240754, 2105235.899495000485331 ], [ 3701491.366140313912183, 2105225.326303948648274 ] ] ] } }
]
}
