{
"type": "FeatureCollection",
"name": "Collsuspina",
"crs": { "type": "name", "properties": { "name": "urn:ogc:def:crs:EPSG::3035" } },
"features": [
{ "type": "Feature", "properties": { "SITE_NAME": "El Moianes i la Riera de Muntanyola", "ODESIGNATE": "Plan Especial de Protección (PEIN)", "NUT2": 51, "SITE_CODE_": "ES510133", "DESIG_ABBR": "ES43", "SITE_CDDA": "389132_CDDA", "Sup_ha": 10629.4109068 }, "geometry": { "type": "Polygon", "coordinates": [ [ [ 3669210.765091170556843, 2118744.331291527487338 ], [ 3669173.953285832889378, 2118712.817302043549716 ], [ 3669153.535022683441639, 2118692.875989156775177 ], [ 3669115.484162630047649, 2118672.414654270745814 ], [ 3669077.6760582793504, 2118642.088636325206608 ], [ 3669043.798179069533944, 2118619.045810963027179 ], [ 3669006.366705706343055, 2118593.058278970420361 ], [ 3668995.855114673264325, 2118573.274564266204834 ], [ 3668997.807543059810996, 2118557.780216927174479 ], [ 3669001.22664512693882, 2118546.521553207188845 ], [ 3669023.328877411782742, 2118522.561209577135742 ], [ 3669048.231236640829593, 2118492.868484728969634 ], [ 3669067.964719223789871, 2118466.945284448564053 ], [ 3669089.838771550450474, 2118427.696832094807178 ], [ 3669105.776197983883321, 2118408.693594136275351 ], [ 3669119.156334215309471, 2118385.557494919747114 ], [ 3669133.155931298155338, 2118356.895928531885147 ], [ 3669145.123618776444346, 2118317.490516657009721 ], [ 3669155.098940133582801, 2118280.4605130283162 ], [ 3669170.337424991652369, 2118240.746069803833961 ], [ 3669181.066373790148646, 2118212.393486822489649 ], [ 3669183.677803839091212, 2118204.491102064028382 ], [ 3669186.90875146118924, 2118191.063543445896357 ], [ 3669187.770969588309526, 2118175.672652776353061 ], [ 3669187.314568765461445, 2118145.096085490658879 ], [ 3669183.43885978218168, 2118125.778709566220641 ], [ 3669173.641094606835395, 2118101.553436615504324 ], [ 3669162.233404774218798, 2118083.537422782741487 ], [ 3669162.660726197529584, 2118075.986077049747109 ], [ 3669153.489591212943196, 2118066.854849144816399 ], [ 3669134.00896851439029, 2118035.374577395152301 ], [ 3669111.500590431503952, 2118007.526887052692473 ], [ 3669095.696884117089212, 2117999.022417594213039 ], [ 3669082.124976489692926, 2117996.969024574384093 ], [ 3669069.924592651426792, 2117991.459738608449697 ], [ 3669064.366481457836926, 2117985.322793261148036 ], [ 3669066.53525591827929, 2117971.793207454960793 ], [ 3669069.287629566621035, 2117964.871107421815395 ], [ 3669083.22613082267344, 2117951.89207736775279 ], [ 3669096.233512586448342, 2117947.326479600276798 ], [ 3669116.671155166812241, 2117932.070164387114346 ], [ 3669132.134623504243791, 2117917.283936712890863 ], [ 3669149.255971940234303, 2117902.340928883291781 ], [ 3669161.966912262141705, 2117894.477133161388338 ], [ 3669170.267554372083396, 2117893.692621774971485 ], [ 3669180.809688291978091, 2117899.358382002450526 ], [ 3669194.811428962275386, 2117906.360293976962566 ], [ 3669212.71372708119452, 2117919.665771692059934 ], [ 3669219.929793580435216, 2117925.645913316868246 ], [ 3669228.373453450389206, 2117926.510976646095514 ], [ 3669238.198734543286264, 2117923.919199777301401 ], [ 3669246.355969250202179, 2117921.485291489865631 ], [ 3669257.695237547159195, 2117917.077221680432558 ], [ 3669267.376320714130998, 2117912.825895662419498 ], [ 3669273.875468906480819, 2117910.548717481084168 ], [ 3669305.429357378743589, 2117907.566209651064128 ], [ 3669318.293384233489633, 2117901.350973203778267 ], [ 3669340.581973555032164, 2117878.415844347327948 ], [ 3669352.934002310503274, 2117866.418649584054947 ], [ 3669359.145808026194572, 2117860.832188854459673 ], [ 3669368.070692972745746, 2117857.494051713030785 ], [ 3669378.796599183231592, 2117855.648878292646259 ], [ 3669389.113111867103726, 2117858.831560241989791 ], [ 3669400.269581008702517, 2117861.944616360589862 ], [ 3669411.753143317997456, 2117859.196136116515845 ], [ 3669420.523659516125917, 2117854.199533112347126 ], [ 3669427.288076621480286, 2117845.234769268892705 ], [ 3669432.495865914039314, 2117828.081793202087283 ], [ 3669436.404343040660024, 2117815.219427825883031 ], [ 3669443.557178860995919, 2117801.218501033261418 ], [ 3669450.853440530598164, 2117788.867781500332057 ], [ 3669457.608095380943269, 2117779.90404691407457 ], [ 3669466.101241307333112, 2117771.597637903876603 ], [ 3669474.810286668129265, 2117765.775229194201529 ], [ 3669487.5213438058272, 2117757.911561233922839 ], [ 3669499.355273459106684, 2117752.726004685275257 ], [ 3669496.95872154738754, 2117746.560484921559691 ], [ 3669440.001917015295476, 2117617.826959642581642 ], [ 3669429.99317433917895, 2117593.71671830303967 ], [ 3669415.380083899945021, 2117572.01543242437765 ], [ 3669415.343703499995172, 2117571.016984862275422 ], [ 3669411.529189060907811, 2117479.057745113968849 ], [ 3669411.493689907249063, 2117478.069335639476776 ], [ 3669425.933792561292648, 2117475.041436391882598 ], [ 3669448.919112166855484, 2117471.266148400027305 ], [ 3669463.873302913736552, 2117466.386272059753537 ], [ 3669480.18186220806092, 2117463.422401839867234 ], [ 3669494.932191085070372, 2117461.647660678252578 ], [ 3669505.75736947497353, 2117458.740997559390962 ], [ 3669512.204059392213821, 2117454.234404700808227 ], [ 3669515.388823796529323, 2117449.044538175687194 ], [ 3669520.706536351703107, 2117442.090092962607741 ], [ 3669535.184505970217288, 2117437.525854699779302 ], [ 3669551.059975935611874, 2117435.374285371508449 ], [ 3669563.468576091807336, 2117431.797002087347209 ], [ 3669577.131274842657149, 2117422.831658002454787 ], [ 3669594.000145221594721, 2117408.804601899348199 ], [ 3669614.292847346514463, 2117394.543966208584607 ], [ 3669632.841495209373534, 2117382.00120697543025 ], [ 3669656.874179481994361, 2117366.856021734885871 ], [ 3669674.079769948963076, 2117356.243458994198591 ], [ 3669698.580210640560836, 2117344.630826952401549 ], [ 3669723.142995400354266, 2117329.676278667058796 ], [ 3669737.076171393506229, 2117318.952126996591687 ], [ 3669738.157840418163687, 2117319.811741957440972 ], [ 3669892.059144820086658, 2117442.699474877677858 ], [ 3670177.32722829002887, 2117491.309851593337953 ], [ 3670181.576924717053771, 2117493.073246318846941 ], [ 3670187.5617391243577, 2117489.370877117849886 ], [ 3670199.156610600184649, 2117478.27673549298197 ], [ 3670216.605389576870948, 2117457.472474581096321 ], [ 3670227.34026081347838, 2117436.471449703909457 ], [ 3670232.149452697951347, 2117424.355624264106154 ], [ 3670244.838882421143353, 2117406.495897474698722 ], [ 3670255.60459356661886, 2117395.480514128692448 ], [ 3670265.388165748678148, 2117382.894143086392432 ], [ 3670275.397540513426065, 2117372.79171498818323 ], [ 3670282.43865729868412, 2117367.1271743029356 ], [ 3670291.004444853868335, 2117359.655440309084952 ], [ 3670307.583493073936552, 2117348.09041200671345 ], [ 3670321.881331766024232, 2117339.245561296120286 ], [ 3670328.850642810575664, 2117332.756519035901874 ], [ 3670332.975037468131632, 2117322.378242096398026 ], [ 3670335.695710069034249, 2117305.460384527221322 ], [ 3670341.517772051971406, 2117285.755226950161159 ], [ 3670350.31120951520279, 2117265.127997790463269 ], [ 3670357.428768009413034, 2117256.63131115725264 ], [ 3670378.311866504140198, 2117243.717740047723055 ], [ 3670393.76954118302092, 2117240.694268148392439 ], [ 3670396.68702451325953, 2117238.147456796839833 ], [ 3670399.822620052844286, 2117236.525600613094866 ], [ 3670401.56730629876256, 2117235.278703953605145 ], [ 3670403.83215344324708, 2117233.061105341650546 ], [ 3670405.768374030012637, 2117230.424058170989156 ], [ 3670413.662037544883788, 2117227.466199822723866 ], [ 3670422.757857390213758, 2117223.475886962376535 ], [ 3670429.592800049576908, 2117217.611264961306006 ], [ 3670438.508958126883954, 2117211.550117593724281 ], [ 3670442.401883251965046, 2117208.051057188771665 ], [ 3670450.494024379178882, 2117184.783829303458333 ], [ 3670461.411886166781187, 2117158.600761226378381 ], [ 3670465.411400648299605, 2117128.697525896131992 ], [ 3670469.842189930845052, 2117091.098189435899258 ], [ 3670483.708879094570875, 2117048.233956623822451 ], [ 3670488.55593210272491, 2117028.09236894082278 ], [ 3670496.203005921561271, 2117002.218550664372742 ], [ 3670497.402519083581865, 2116978.047629898414016 ], [ 3670494.672058115713298, 2116946.592986867763102 ], [ 3670487.957129797898233, 2116919.889317261055112 ], [ 3670480.245996539015323, 2116894.373104213736951 ], [ 3670467.648411210160702, 2116875.880154927726835 ], [ 3670451.968164572957903, 2116859.864990280941129 ], [ 3670443.510796640999615, 2116854.390664053149521 ], [ 3670443.419455645605922, 2116848.83352623693645 ], [ 3670408.714781567454338, 2116847.424261294770986 ], [ 3670391.077202864456922, 2116848.188925440423191 ], [ 3670385.062202368397266, 2116846.533125977031887 ], [ 3670369.816396682988852, 2116833.898051474709064 ], [ 3670339.469634582288563, 2116810.186793949455023 ], [ 3670322.944656793493778, 2116800.79852192569524 ], [ 3670302.004733566660434, 2116794.962756695225835 ], [ 3670281.411365502048284, 2116775.018528180196881 ], [ 3670269.417319502681494, 2116763.64907418936491 ], [ 3670265.728377014864236, 2116756.884851883165538 ], [ 3670263.3963951356709, 2116748.579192941077054 ], [ 3670261.108009914401919, 2116722.217035265173763 ], [ 3670252.990094472654164, 2116701.094039255287498 ], [ 3670249.839086875785142, 2116679.619122799020261 ], [ 3670246.162852781824768, 2116676.853808248415589 ], [ 3670230.868193110451102, 2116670.252807744778693 ], [ 3670220.692079273518175, 2116671.21444419817999 ], [ 3670200.214537956751883, 2116671.691341239027679 ], [ 3670170.332019122317433, 2116670.33146479120478 ], [ 3670143.070929060224444, 2116662.470287623815238 ], [ 3670110.689370114821941, 2116643.960695721674711 ], [ 3670063.559135786257684, 2116624.757014933973551 ], [ 3670044.228998468257487, 2116619.625599442049861 ], [ 3670024.025536373257637, 2116612.489449372049421 ], [ 3670006.931172557640821, 2116600.884735280182213 ], [ 3669986.741539464797825, 2116591.777654456906021 ], [ 3669984.804596967995167, 2116591.970911152660847 ], [ 3669982.878378745634109, 2116592.172982044517994 ], [ 3669980.367224191315472, 2116592.711124777793884 ], [ 3669978.029520549811423, 2116593.623074425384402 ], [ 3669973.480281510390341, 2116595.625849393196404 ], [ 3669966.683721681125462, 2116598.191637830808759 ], [ 3669959.906070977449417, 2116600.625762290786952 ], [ 3669955.262072648853064, 2116601.885748541913927 ], [ 3669948.839171664789319, 2116602.95367459859699 ], [ 3669942.194514405913651, 2116603.671905518043786 ], [ 3669937.734645602293313, 2116604.153413560707122 ], [ 3669926.362713799346238, 2116605.518412063829601 ], [ 3669915.016606444492936, 2116606.600690484978259 ], [ 3669913.093100943602622, 2116606.602093636523932 ], [ 3669911.187988844700158, 2116606.351339444518089 ], [ 3669907.428853316232562, 2116605.273791604675353 ], [ 3669899.946375909727067, 2116602.023858722299337 ], [ 3669894.870931844692677, 2116600.169309362303466 ], [ 3669891.900034196674824, 2116599.588423490524292 ], [ 3669880.129806044977158, 2116598.687030161730945 ], [ 3669868.353746190667152, 2116597.716131146065891 ], [ 3669858.543410744983703, 2116596.53905170224607 ], [ 3669848.800988251809031, 2116594.865319937467575 ], [ 3669835.863204238004982, 2116591.419432281516492 ], [ 3669822.988274851348251, 2116587.767174008768052 ], [ 3669809.603606106713414, 2116584.393705052323639 ], [ 3669796.081575149204582, 2116581.524029975757003 ], [ 3669792.366590915247798, 2116581.073937171138823 ], [ 3669788.607646534685045, 2116580.927811785601079 ], [ 3669781.085926285479218, 2116580.937436313834041 ], [ 3669776.115900452248752, 2116580.645786063745618 ], [ 3669771.847377463709563, 2116579.967147580813617 ], [ 3669767.563995027914643, 2116579.229868966154754 ], [ 3669764.727933842688799, 2116578.926844707690179 ], [ 3669760.243411999661475, 2116578.659434798173606 ], [ 3669756.365432967431843, 2116578.426916618831456 ], [ 3669755.768865287769586, 2116578.390982161276042 ], [ 3669755.51367295673117, 2116577.42325530666858 ], [ 3669754.655214283615351, 2116576.582915500737727 ], [ 3669753.63305398914963, 2116576.408599284477532 ], [ 3669752.625920884311199, 2116576.523968736641109 ], [ 3669750.833595085889101, 2116576.643034142907709 ], [ 3669749.066894905641675, 2116576.940647721290588 ], [ 3669747.89463298022747, 2116577.47214925615117 ], [ 3669746.304378665518016, 2116578.644237860571593 ], [ 3669744.660559594631195, 2116579.661146137397736 ], [ 3669743.264545794576406, 2116580.053283439949155 ], [ 3669741.858717742841691, 2116580.446840518154204 ], [ 3669740.721124256961048, 2116580.914846684318036 ], [ 3669739.736572790890932, 2116581.639252895954996 ], [ 3669738.39271992770955, 2116583.559530044905841 ], [ 3669737.129558347631246, 2116585.482204224914312 ], [ 3669736.240321015473455, 2116586.608247599564493 ], [ 3669735.361142255365849, 2116587.7331333886832 ], [ 3669734.931354230735451, 2116589.627214572858065 ], [ 3669734.742206499911845, 2116591.158119118772447 ], [ 3669734.74306992162019, 2116591.168058202601969 ], [ 3669732.535633033141494, 2116592.538490957580507 ], [ 3669729.038428640924394, 2116594.712184490635991 ], [ 3669725.543102199211717, 2116596.325024327263236 ], [ 3669721.878433509729803, 2116597.613081231713295 ], [ 3669719.525266411714256, 2116598.69707330968231 ], [ 3669717.475154831074178, 2116600.022965918295085 ], [ 3669715.593006447423249, 2116601.543210695497692 ], [ 3669712.126098740380257, 2116605.106910089030862 ], [ 3669709.494910736568272, 2116608.671571413055062 ], [ 3669707.660834338515997, 2116612.601877391338348 ], [ 3669707.391265841200948, 2116615.182067772839218 ], [ 3669707.539872252847999, 2116617.823025883641094 ], [ 3669707.326096433214843, 2116619.535943008493632 ], [ 3669706.251264312304556, 2116623.164085340686142 ], [ 3669704.736392105929554, 2116626.593323498498648 ], [ 3669703.244260548613966, 2116628.547376167960465 ], [ 3669696.622575370129198, 2116635.214201600756496 ], [ 3669689.999975735321641, 2116641.871401424519718 ], [ 3669686.819308007135987, 2116645.137690757401288 ], [ 3669683.627594165038317, 2116648.3944132309407 ], [ 3669678.632840512320399, 2116652.803741416428238 ], [ 3669673.418198621831834, 2116657.00330279674381 ], [ 3669670.167536850553006, 2116660.045850839931518 ], [ 3669666.756294436752796, 2116664.13479770347476 ], [ 3669663.572742194868624, 2116668.412968419492245 ], [ 3669657.151383367367089, 2116676.92443897202611 ], [ 3669655.330255329143256, 2116679.030037481337786 ], [ 3669653.262750960886478, 2116680.968655626289546 ], [ 3669651.370149807073176, 2116681.788642484694719 ], [ 3669649.381977414246649, 2116682.086859858129174 ], [ 3669645.338351525366306, 2116681.907832278870046 ], [ 3669642.04021925246343, 2116681.618446899577975 ], [ 3669639.932295956183225, 2116681.541949655860662 ], [ 3669629.046999588608742, 2116674.401008339598775 ], [ 3669624.969112650956959, 2116661.532098012976348 ], [ 3669619.423003788106143, 2116648.802211292088032 ], [ 3669613.622214926406741, 2116633.140486309304833 ], [ 3669604.1149952406995, 2116609.003206747584045 ], [ 3669600.310157794971019, 2116565.172012724913657 ], [ 3669605.305782259441912, 2116554.390679193660617 ], [ 3669615.457179845310748, 2116551.958576983306557 ], [ 3669635.633395037613809, 2116545.63357968069613 ], [ 3669656.517167462501675, 2116530.40618009865284 ], [ 3669667.005862738005817, 2116514.687616936862469 ], [ 3669675.170277131255716, 2116486.465783396735787 ], [ 3669675.085934150032699, 2116468.671066112816334 ], [ 3669672.432601447682828, 2116438.105709525756538 ], [ 3669671.216279502958059, 2116409.708257554098964 ], [ 3669657.133268963545561, 2116366.848488087765872 ], [ 3669654.977590181864798, 2116342.016272648703307 ], [ 3669640.284224000759423, 2116343.404936401173472 ], [ 3669619.854419930838048, 2116346.808330169413239 ], [ 3669606.639613319188356, 2116348.057288670912385 ], [ 3669592.425734467804432, 2116347.196361823938787 ], [ 3669588.639106958638877, 2116345.340413224883378 ], [ 3669584.561222339514643, 2116332.471628119703382 ], [ 3669578.497017894871533, 2116313.889422353357077 ], [ 3669570.014344985131174, 2116301.437001219950616 ], [ 3669567.151125479023904, 2116285.508074962999672 ], [ 3669565.64015687070787, 2116275.642407391685992 ], [ 3669565.882295392453671, 2116270.890616755466908 ], [ 3669574.131852705962956, 2116246.548024610150605 ], [ 3669582.137898097746074, 2116219.283066157251596 ], [ 3669582.68620579643175, 2116210.054531074594706 ], [ 3669582.083699724636972, 2116201.605791873298585 ], [ 3669572.84012811165303, 2116180.389233398251235 ], [ 3669562.498596183024347, 2116163.694029591977596 ], [ 3669548.975992103107274, 2116144.344372950494289 ], [ 3669537.68336763465777, 2116133.630185107234865 ], [ 3669521.351612462196499, 2116116.028506880160421 ], [ 3669518.187153237406164, 2116107.301118511240929 ], [ 3669517.020174247212708, 2116100.238307865336537 ], [ 3669516.639041355345398, 2116093.642309980466962 ], [ 3669517.473401797004044, 2116088.403638338670135 ], [ 3669529.420427275821567, 2116072.547792335040867 ], [ 3669533.763194704428315, 2116066.427083469927311 ], [ 3669538.050383450463414, 2116052.587539322208613 ], [ 3669538.250799604225904, 2116037.841517098248005 ], [ 3669536.09442271431908, 2116012.999381057918072 ], [ 3669541.597021209076047, 2116002.721751135773957 ], [ 3669548.499612620100379, 2115994.996601551771164 ], [ 3669557.695792521815747, 2115988.86755904648453 ], [ 3669570.21296164020896, 2115983.987865564413369 ], [ 3669585.086752839386463, 2115980.388191988691688 ], [ 3669614.917524062097073, 2115965.787373562343419 ], [ 3669636.307795388158411, 2115956.392497236840427 ], [ 3669654.381800576113164, 2115942.903368794359267 ], [ 3669685.300346392672509, 2115923.781366617884487 ], [ 3669708.867298030294478, 2115905.35443459963426 ], [ 3669721.597031247802079, 2115878.241225806996226 ], [ 3669719.432436029426754, 2115866.266637675464153 ], [ 3669718.843659186270088, 2115860.181233514100313 ], [ 3669717.760091045405716, 2115853.150549218989909 ], [ 3669716.186222131829709, 2115846.156298612244427 ], [ 3669713.803176254965365, 2115838.076243615243584 ], [ 3669710.970062621869147, 2115830.149072722531855 ], [ 3669708.771247126162052, 2115825.237084588035941 ], [ 3669704.047206728253514, 2115822.264067877084017 ], [ 3669665.657873247284442, 2115820.30096545163542 ], [ 3669621.982356804423034, 2115822.191771249752492 ], [ 3669622.615784423891455, 2115816.540612928569317 ], [ 3669623.842512911185622, 2115791.823029682971537 ], [ 3669626.047625041101128, 2115752.475971897132695 ], [ 3669628.203993566799909, 2115753.576753688976169 ], [ 3669657.027087219525129, 2115757.562521553132683 ], [ 3669679.582700042519718, 2115758.412765488028526 ], [ 3669667.534789274912328, 2115749.114378326572478 ], [ 3669656.331426021642983, 2115732.281096428632736 ], [ 3669652.496895702090114, 2115714.006226865109056 ], [ 3669655.571522344835103, 2115706.260519842151552 ], [ 3669671.640607488807291, 2115692.814067251048982 ], [ 3669687.993117637932301, 2115691.268640290945768 ], [ 3669697.709864670410752, 2115708.242141195572913 ], [ 3669711.757937638089061, 2115723.31565677607432 ], [ 3669728.431447589304298, 2115725.46746981004253 ], [ 3669738.90194987738505, 2115725.223571873735636 ], [ 3669754.997746348846704, 2115720.720374589785933 ], [ 3669770.698091858997941, 2115728.928179884329438 ], [ 3669782.580275312066078, 2115744.951873852405697 ], [ 3669808.928362553939223, 2115788.282152347266674 ], [ 3669813.136700763367116, 2115779.799836682155728 ], [ 3669817.493711975868791, 2115771.403458491899073 ], [ 3669821.499759684316814, 2115762.098533897195011 ], [ 3669825.476715755648911, 2115752.806482637301087 ], [ 3669828.318660525605083, 2115747.378485950641334 ], [ 3669831.413631976116449, 2115742.076854260638356 ], [ 3669832.303990613669157, 2115739.688534911256284 ], [ 3669832.799323845654726, 2115738.549856586381793 ], [ 3669833.585892641916871, 2115737.634163893759251 ], [ 3669836.652282364200801, 2115735.370810503140092 ], [ 3669839.708634681534022, 2115733.108107453212142 ], [ 3669842.034714028704911, 2115729.391895713284612 ], [ 3669844.945614094845951, 2115725.800773431546986 ], [ 3669855.12616795161739, 2115722.200739607214928 ], [ 3669857.172764466144145, 2115720.477656138129532 ], [ 3669901.379287558607757, 2115683.891093402169645 ], [ 3669911.12543543195352, 2115674.003877026028931 ], [ 3669919.020588484592736, 2115665.182979038450867 ], [ 3669925.653922265395522, 2115656.561647566501051 ], [ 3669936.967272041365504, 2115633.402164283208549 ], [ 3669954.363671348895878, 2115594.931114794686437 ], [ 3669976.101873086299747, 2115538.377526792697608 ], [ 3669989.591098514851183, 2115506.17616991372779 ], [ 3669997.055334325879812, 2115491.345418113283813 ], [ 3670002.128476738929749, 2115479.946400735527277 ], [ 3670003.287013275548816, 2115474.718088655732572 ], [ 3669998.931129946373403, 2115469.678915521129966 ], [ 3669998.705226170364767, 2115469.049235189333558 ], [ 3669997.971075172536075, 2115468.016467943787575 ], [ 3669995.775321523658931, 2115464.877842360176146 ], [ 3669994.847844544332474, 2115463.242476147133857 ], [ 3669993.915146964602172, 2115460.15491858869791 ], [ 3669993.59175249747932, 2115455.386533970013261 ], [ 3669993.752764861565083, 2115450.743092798627913 ], [ 3669994.311811259482056, 2115439.780320818535984 ], [ 3669995.122457750607282, 2115428.813796880654991 ], [ 3669995.976569917052984, 2115422.411571103613824 ], [ 3669997.640025115571916, 2115412.91743152635172 ], [ 3669998.75177115527913, 2115405.457137810997665 ], [ 3669998.812616214156151, 2115400.916946742217988 ], [ 3669998.370776301249862, 2115395.825559525750577 ], [ 3669997.655955207068473, 2115390.293333230074495 ], [ 3669993.977358073461801, 2115385.7411292148754 ], [ 3669989.865096443798393, 2115378.896638135425746 ], [ 3669980.148833866696805, 2115368.515824369154871 ], [ 3669978.306067850440741, 2115360.144945612177253 ], [ 3669976.216483476571739, 2115349.412305080797523 ], [ 3669974.155012436211109, 2115338.657378871925175 ], [ 3669973.146939966827631, 2115333.192445429507643 ], [ 3669972.178847246337682, 2115327.723832027520984 ], [ 3669970.23265721462667, 2115316.787451880052686 ], [ 3669968.904725051950663, 2115311.232598761562258 ], [ 3669967.536632270552218, 2115305.681556662544608 ], [ 3669967.165428738575429, 2115302.681210356298834 ], [ 3669967.053193363361061, 2115299.64615335687995 ], [ 3669966.679259858094156, 2115293.60042523033917 ], [ 3669965.189055501949042, 2115287.21947914082557 ], [ 3669963.381488226354122, 2115280.898314290679991 ], [ 3669962.43786495225504, 2115276.639578295871615 ], [ 3669962.030033354647458, 2115271.128025216516107 ], [ 3669961.840192744508386, 2115265.575928397476673 ], [ 3669961.273994083981961, 2115261.952794964890927 ], [ 3669959.057592050172389, 2115253.937010958790779 ], [ 3669956.801274298690259, 2115245.925300078000873 ], [ 3669955.374634308274835, 2115240.279788701795042 ], [ 3669953.987048805225641, 2115234.620265406556427 ], [ 3669953.275939942337573, 2115230.13913656026125 ], [ 3669953.237164248712361, 2115229.928082881495357 ], [ 3669969.511923961341381, 2115203.841045657172799 ], [ 3669966.759302882477641, 2115203.669249415397644 ], [ 3669959.962573445402086, 2115202.868761693127453 ], [ 3669936.830685220193118, 2115198.462797231040895 ], [ 3669929.076033826451749, 2115197.532510096207261 ], [ 3669924.606168318074197, 2115197.43396431254223 ], [ 3669915.025686125271022, 2115198.209017486311495 ], [ 3669914.505259601399302, 2115190.207879976369441 ], [ 3669914.053434987552464, 2115185.002008250914514 ], [ 3669911.631099964492023, 2115177.357266014441848 ], [ 3669904.922818533610553, 2115170.992693701758981 ], [ 3669880.96421264950186, 2115158.384758205618709 ], [ 3669871.291324522811919, 2115151.839754115790129 ], [ 3669869.145403342787176, 2115141.954200638458133 ], [ 3669866.9548299764283, 2115133.074397151358426 ], [ 3669866.155770140700042, 2115124.564598191529512 ], [ 3669867.246075273025781, 2115115.54542397428304 ], [ 3669871.722746785730124, 2115103.421012996230274 ], [ 3669875.947781245224178, 2115083.876936313696206 ], [ 3669879.508767290972173, 2115076.868227027822286 ], [ 3669883.742734870873392, 2115071.348396629095078 ], [ 3669886.157221774104983, 2115061.57336519099772 ], [ 3669897.374040885362774, 2115055.864940334111452 ], [ 3669900.683108534663916, 2115053.147812430746853 ], [ 3669902.961191312409937, 2115049.807160195894539 ], [ 3669907.461713623721153, 2115039.002736925147474 ], [ 3669908.576066745910794, 2115033.507733079604805 ], [ 3669908.666316652670503, 2115022.018252493813634 ], [ 3669908.481011557858437, 2115015.473901475779712 ], [ 3669907.494067186489701, 2115011.760176475159824 ], [ 3669904.971231675241143, 2115007.059511637780815 ], [ 3669894.971201243810356, 2114988.378878527786583 ], [ 3669894.093661864288151, 2114986.738592426292598 ], [ 3669889.460614382755011, 2114975.825738549232483 ], [ 3669888.454039174132049, 2114974.43823730526492 ], [ 3669886.757298568729311, 2114973.686955918092281 ], [ 3669877.19078493444249, 2114971.605397199746221 ], [ 3669873.012870151083916, 2114969.185438690707088 ], [ 3669857.273646148853004, 2114952.25899262400344 ], [ 3669843.750228300690651, 2114940.673491692170501 ], [ 3669837.936784607823938, 2114935.65276990737766 ], [ 3669832.914284821134061, 2114930.346854461356997 ], [ 3669827.370756024494767, 2114922.054861232638359 ], [ 3669820.432462696451694, 2114908.484509306494147 ], [ 3669816.738751457538456, 2114903.984602406155318 ], [ 3669802.961756686680019, 2114891.912310494575649 ], [ 3669764.613575296010822, 2114860.362165208905935 ], [ 3669759.427051527425647, 2114856.764837268739939 ], [ 3669752.750712209381163, 2114853.639214106835425 ], [ 3669737.412499857600778, 2114848.526382649317384 ], [ 3669732.31975974701345, 2114847.865633837878704 ], [ 3669729.218003718648106, 2114845.894587982445955 ], [ 3669725.573111933190376, 2114843.464013855904341 ], [ 3669717.854588805697858, 2114834.24557841476053 ], [ 3669709.387769137509167, 2114822.672706335783005 ], [ 3669707.738195992074907, 2114819.562826621346176 ], [ 3669707.718379479832947, 2114815.507079876959324 ], [ 3669711.338358286768198, 2114794.557798333000392 ], [ 3669710.608895234763622, 2114785.920981749426574 ], [ 3669708.337607141118497, 2114777.620093314908445 ], [ 3669705.070044713094831, 2114770.024839124642313 ], [ 3669699.024180414155126, 2114760.236649415455759 ], [ 3669697.503617741167545, 2114758.266850982792675 ], [ 3669694.861413510050625, 2114756.482823305763304 ], [ 3669684.231302751228213, 2114752.358102911151946 ], [ 3669674.346855823416263, 2114746.149162539280951 ], [ 3669663.68998441612348, 2114740.323878008872271 ], [ 3669646.907011576928198, 2114732.142037522513419 ], [ 3669643.012550069950521, 2114730.666776151396334 ], [ 3669635.476828499231488, 2114729.705856659449637 ], [ 3669624.031664391979575, 2114729.184514871332794 ], [ 3669613.822993254754692, 2114728.175343363545835 ], [ 3669606.486043268814683, 2114728.458318415097892 ], [ 3669580.346563373692334, 2114734.424870723858476 ], [ 3669565.913055488839746, 2114736.139535086695105 ], [ 3669560.56628874829039, 2114736.494424872566015 ], [ 3669554.338882355485111, 2114735.640524723567069 ], [ 3669548.287525988183916, 2114733.21678538620472 ], [ 3669533.389881944749504, 2114726.219345643185079 ], [ 3669525.976626409683377, 2114724.115126688033342 ], [ 3669518.808708237949759, 2114723.099213342182338 ], [ 3669511.955873015802354, 2114723.275922254193574 ], [ 3669507.184913421049714, 2114723.887349548749626 ], [ 3669502.288087067659944, 2114716.520877351984382 ], [ 3669501.836274476256222, 2114711.314798716921359 ], [ 3669494.826791276223958, 2114701.47940028551966 ], [ 3669484.554309177678078, 2114694.576836388092488 ], [ 3669471.966403226368129, 2114691.392407138831913 ], [ 3669463.739661836996675, 2114687.795703046023846 ], [ 3669452.971593539230525, 2114685.313792015425861 ], [ 3669445.585683299228549, 2114671.140179878100753 ], [ 3669428.002498374320567, 2114650.931397889740765 ], [ 3669416.136242404580116, 2114645.929434238933027 ], [ 3669394.330306722316891, 2114647.990238056518137 ], [ 3669371.695889459457248, 2114640.50648913346231 ], [ 3669351.947956102434546, 2114625.751095141284168 ], [ 3669343.915547512937337, 2114614.262721651233733 ], [ 3669345.534329584334046, 2114572.118815961293876 ], [ 3669329.758505549281836, 2114572.734645198099315 ], [ 3669313.876200070139021, 2114561.988522299565375 ], [ 3669307.481589914299548, 2114538.972869154065847 ], [ 3669297.359736603219062, 2114533.805864902213216 ], [ 3669289.628867756575346, 2114525.788359802216291 ], [ 3669288.154114823788404, 2114518.929105903487653 ], [ 3669276.513669546227902, 2114516.529999881517142 ], [ 3669262.783716055564582, 2114520.451976152136922 ], [ 3669247.95570037746802, 2114521.853378111962229 ], [ 3669235.97020170558244, 2114525.610613964498043 ], [ 3669218.034006227739155, 2114524.972884147427976 ], [ 3669186.375733477529138, 2114514.842544997110963 ], [ 3669153.964571658521891, 2114496.03547393810004 ], [ 3669140.954065333120525, 2114481.226866265758872 ], [ 3669108.919443971011788, 2114466.758203963283449 ], [ 3669073.402254337910563, 2114462.824889639392495 ], [ 3669030.49082573549822, 2114458.132363672368228 ], [ 3668988.029075385536999, 2114441.733455151785165 ], [ 3668969.2035714793019, 2114427.474559815600514 ], [ 3668934.889067335985601, 2114420.51132497144863 ], [ 3668900.825615569483489, 2114416.440578000620008 ], [ 3668874.281826354563236, 2114414.575316434726119 ], [ 3668845.15476060193032, 2114399.831998356617987 ], [ 3668820.514427842572331, 2114386.122710191644728 ], [ 3668807.503831691108644, 2114371.314315306022763 ], [ 3668789.881068247370422, 2114354.025640209205449 ], [ 3668764.487436998169869, 2114331.6394485947676 ], [ 3668750.023408142384142, 2114316.968205022625625 ], [ 3668729.242017964366823, 2114297.06207843311131 ], [ 3668711.870218504220247, 2114282.665894262492657 ], [ 3668695.450305773876607, 2114262.347911690827459 ], [ 3668689.457233869470656, 2114243.959627264644951 ], [ 3668677.021953387185931, 2114218.89061348233372 ], [ 3668664.963030641898513, 2114198.160151118412614 ], [ 3668653.00097172986716, 2114179.388774600345641 ], [ 3668648.7588996803388, 2114171.041567201726139 ], [ 3668648.156451780349016, 2114164.100194132886827 ], [ 3668651.215403237845749, 2114153.750624821987003 ], [ 3668654.199127239175141, 2114142.533461792394519 ], [ 3668658.453566242009401, 2114130.758786263410002 ], [ 3668658.933578358963132, 2114121.090388786047697 ], [ 3668654.955186414998025, 2114115.78015938680619 ], [ 3668651.735848821233958, 2114109.085960518568754 ], [ 3668651.45666006533429, 2114100.801860449835658 ], [ 3668647.015911999158561, 2114090.922205948270857 ], [ 3668643.740354016423225, 2114065.928825680166483 ], [ 3668645.450444995425642, 2114047.804761724546552 ], [ 3668650.416809683665633, 2114029.372683461755514 ], [ 3668658.630284245125949, 2114010.643887518905103 ], [ 3668661.968584930058569, 2113992.36551864258945 ], [ 3668662.191004352178425, 2113976.014773496426642 ], [ 3668671.702985276468098, 2113934.301481422502548 ], [ 3668694.230339852161705, 2113891.358698119409382 ], [ 3668699.197660139761865, 2113872.93610305339098 ], [ 3668700.907638287171721, 2113854.812120951712132 ], [ 3668700.76012334227562, 2113851.207531061489135 ], [ 3668702.285833781585097, 2113836.370332806371152 ], [ 3668718.336944695562124, 2113800.262421297840774 ], [ 3668757.335128583479673, 2113779.877355387434363 ], [ 3668768.979961216915399, 2113762.077812080271542 ], [ 3668786.468266461975873, 2113742.533077850937843 ], [ 3668802.707786675542593, 2113736.226714056450874 ], [ 3668819.314855212811381, 2113720.344306361861527 ], [ 3668827.126553546637297, 2113713.641755349934101 ], [ 3668840.781993639655411, 2113705.194474737159908 ], [ 3668849.517858813516796, 2113709.139609816484153 ], [ 3668870.659790508914739, 2113717.876711949706078 ], [ 3668897.542837341781706, 2113723.685433391015977 ], [ 3668920.858260318171233, 2113729.831396759487689 ], [ 3668949.132072280161083, 2113712.34091938380152 ], [ 3668951.410345731303096, 2113688.337314033415169 ], [ 3668947.221285291016102, 2113672.443752411752939 ], [ 3668936.958926456514746, 2113653.17704563960433 ], [ 3668924.330577725078911, 2113636.007221676409245 ], [ 3668912.461607795208693, 2113626.890280267223716 ], [ 3668885.812953973188996, 2113610.745161025319248 ], [ 3668866.194954054430127, 2113602.270781984552741 ], [ 3668789.208076238632202, 2113591.754708223510534 ], [ 3668784.328255199827254, 2113589.11566601973027 ], [ 3668781.282146760262549, 2113581.373333690688014 ], [ 3668774.09518706984818, 2113575.417368180584162 ], [ 3668764.773322837427258, 2113566.81961967702955 ], [ 3668760.258689258247614, 2113558.715359378606081 ], [ 3668760.550907333381474, 2113551.104751315433532 ], [ 3668760.190572824329138, 2113535.972746608313173 ], [ 3668759.57852837163955, 2113528.921413360629231 ], [ 3668755.227051377296448, 2113522.697424354963005 ], [ 3668750.793866868596524, 2113515.533422232605517 ], [ 3668741.390483440831304, 2113505.99552702717483 ], [ 3668736.239917499944568, 2113496.055615453980863 ], [ 3668727.903952771332115, 2113487.838717865757644 ], [ 3668719.714205069001764, 2113475.816197079140693 ], [ 3668714.60457746591419, 2113466.346479525789618 ], [ 3668713.013506224378943, 2113448.013237892184407 ], [ 3668715.35920028295368, 2113442.104157433845103 ], [ 3668717.354775776155293, 2113437.650102664716542 ], [ 3668720.213967209216207, 2113432.166433794889599 ], [ 3668723.87496573291719, 2113429.613493707031012 ], [ 3668726.648369759321213, 2113430.915537520311773 ], [ 3668729.589918184094131, 2113431.739569084718823 ], [ 3668735.545767261646688, 2113432.829702782910317 ], [ 3668739.354062646627426, 2113433.892359875142574 ], [ 3668747.227665549144149, 2113438.397605821490288 ], [ 3668749.978366000577807, 2113439.460032658651471 ], [ 3668751.650357371196151, 2113439.692783109843731 ], [ 3668761.627731809392571, 2113439.661284212954342 ], [ 3668771.576983459759504, 2113439.191854471340775 ], [ 3668772.488761905580759, 2113439.135719620622694 ], [ 3668773.411976079456508, 2113439.098665458615869 ], [ 3668773.68422529194504, 2113439.102996568661183 ], [ 3668774.360531215555966, 2113439.119225296191871 ], [ 3668775.037257987540215, 2113439.145163571462035 ], [ 3668779.569548548664898, 2113439.728834885172546 ], [ 3668783.991246559191495, 2113441.013894910458475 ], [ 3668786.787647137418389, 2113442.252358477562666 ], [ 3668790.22266495320946, 2113444.351955249905586 ], [ 3668791.146607802249491, 2113445.01615030458197 ], [ 3668792.061193593777716, 2113445.691065019462258 ], [ 3668802.929759306833148, 2113453.610028995200992 ], [ 3668813.801209649071097, 2113461.558761133812368 ], [ 3668814.499457969330251, 2113462.294309518299997 ], [ 3668815.143019681796432, 2113463.095044364221394 ], [ 3668820.95883551845327, 2113469.187358116731048 ], [ 3668827.044367257971317, 2113475.023814929649234 ], [ 3668831.503308965358883, 2113478.359247229062021 ], [ 3668834.260701580438763, 2113479.961946091614664 ], [ 3668837.651583465281874, 2113481.434606547933072 ], [ 3668842.874433644115925, 2113483.014796928502619 ], [ 3668848.137524302117527, 2113484.130238268524408 ], [ 3668858.726964495144784, 2113485.81433839071542 ], [ 3668859.400830673519522, 2113485.920897423289716 ], [ 3668860.07394843455404, 2113486.017599416896701 ], [ 3668863.457619947846979, 2113486.24880759883672 ], [ 3668866.874408368952572, 2113486.166355081368238 ], [ 3668873.706079219467938, 2113485.861229572445154 ], [ 3668878.180366672109812, 2113486.239850216545165 ], [ 3668880.663322654087096, 2113486.886787032242864 ], [ 3668881.439762988127768, 2113487.244269230868667 ], [ 3668895.135430855210871, 2113493.854080562479794 ], [ 3668898.884585975203663, 2113496.555375632829964 ], [ 3668900.213724865112454, 2113497.968640435021371 ], [ 3668902.179799608886242, 2113498.180947311222553 ], [ 3668901.923375806305557, 2113497.835062611382455 ], [ 3668895.409559536725283, 2113456.971380399074405 ], [ 3668882.139120711013675, 2113428.406258218921721 ], [ 3668866.549813222140074, 2113386.939075112342834 ], [ 3668862.135042101144791, 2113336.066948743537068 ], [ 3668854.605762323364615, 2113304.573087132535875 ], [ 3668848.265833777841181, 2113272.96737452596426 ], [ 3668849.266992884222418, 2113243.053140341769904 ], [ 3668856.642583012580872, 2113189.873724470380694 ], [ 3668868.347309887874871, 2113158.947895906865597 ], [ 3668867.996610923204571, 2113141.089276934042573 ], [ 3668863.769831909798086, 2113120.018626045435667 ], [ 3668869.425654646940529, 2113088.472306965384632 ], [ 3668891.936832653358579, 2113057.717633185908198 ], [ 3668910.321252625435591, 2113036.734593249857426 ], [ 3668915.565481914207339, 2113034.265407111961395 ], [ 3668916.464082453865558, 2113033.829875042662024 ], [ 3668917.412836242467165, 2113033.389588182326406 ], [ 3668918.360727351158857, 2113032.939362399280071 ], [ 3668926.399324052967131, 2113029.134096514433622 ], [ 3668929.635893480852246, 2113028.017040310427547 ], [ 3668933.079461676068604, 2113027.430860104039311 ], [ 3668940.256162715610117, 2113026.922827505506575 ], [ 3668944.96622474770993, 2113026.307427754160017 ], [ 3668947.523602766916156, 2113025.605192136950791 ], [ 3668966.232067609671503, 2113018.837513868231326 ], [ 3668984.900227858684957, 2113011.723451550118625 ], [ 3668998.655745473690331, 2113006.256208926439285 ], [ 3669012.407002110034227, 2113000.738966407254338 ], [ 3669021.578570541925728, 2112997.107216919772327 ], [ 3669027.126367929391563, 2112995.120412185322493 ], [ 3669032.665628700051457, 2112993.384734536521137 ], [ 3669043.632202827837318, 2112990.014034077059478 ], [ 3669050.739948438946158, 2112987.318554892204702 ], [ 3669054.087188127450645, 2112985.619782977737486 ], [ 3669057.336702761240304, 2112983.609707666095346 ], [ 3669063.725358225870878, 2112979.359180090017617 ], [ 3669068.076180651783943, 2112976.924458088818938 ], [ 3669079.495575419161469, 2112971.577431296929717 ], [ 3669090.925174876116216, 2112966.229530036915094 ], [ 3669098.321826860308647, 2112962.685481884516776 ], [ 3669114.128920570015907, 2112954.980429704301059 ], [ 3669129.935303534381092, 2112947.26511968486011 ], [ 3669144.282456981483847, 2112939.639494748320431 ], [ 3669178.053602865897119, 2112928.098524525761604 ], [ 3669194.190374913625419, 2112920.609550063498318 ], [ 3669200.347754776943475, 2112906.41508635180071 ], [ 3669195.571715539786965, 2112875.556142501998693 ], [ 3669208.359222873114049, 2112829.469279672950506 ], [ 3669226.244938659016043, 2112805.861775062512606 ], [ 3669250.321836008224636, 2112793.149584605824202 ], [ 3669278.778611211106181, 2112794.635572835803032 ], [ 3669309.495995860546827, 2112797.994358396157622 ], [ 3669336.320512399077415, 2112804.852602214086801 ], [ 3669371.739488118328154, 2112814.029653892852366 ], [ 3669418.463287660852075, 2112832.575393059290946 ], [ 3669462.73111111856997, 2112871.183097969740629 ], [ 3669499.445054032374173, 2112907.373640752397478 ], [ 3669540.179189863614738, 2112953.62103615142405 ], [ 3669546.69256999483332, 2112956.136337962467223 ], [ 3669559.576900216750801, 2112971.617671536281705 ], [ 3669574.220487131737173, 2112995.282320993021131 ], [ 3669583.301429323852062, 2113015.297577056102455 ], [ 3669596.365432754158974, 2113032.849578959867358 ], [ 3669635.250626174733043, 2113069.87859143409878 ], [ 3669644.331323944032192, 2113089.894087855704129 ], [ 3669650.11099917627871, 2113108.134221637621522 ], [ 3669659.192219910677522, 2113128.149734118487686 ], [ 3669668.542638089042157, 2113151.270900774747133 ], [ 3669684.458957633469254, 2113165.422012954950333 ], [ 3669714.405552471987903, 2113171.985447030514479 ], [ 3669751.995190258603543, 2113203.600310841575265 ], [ 3669751.703752247150987, 2113206.392776930704713 ], [ 3669751.803531439043581, 2113209.979966215789318 ], [ 3669752.216552108991891, 2113213.577424801886082 ], [ 3669753.792224311735481, 2113220.711752702482045 ], [ 3669755.244132589083165, 2113225.373107678256929 ], [ 3669757.418430777732283, 2113231.62959102820605 ], [ 3669759.862101512029767, 2113237.739565375261009 ], [ 3669761.816484475973994, 2113241.692795605864376 ], [ 3669765.014773047529161, 2113246.750161379575729 ], [ 3669768.193604784086347, 2113250.887896397616714 ], [ 3669771.513397789560258, 2113254.791753235273063 ], [ 3669778.576430520042777, 2113262.028292475268245 ], [ 3669783.595658316276968, 2113266.483301533386111 ], [ 3669790.694653874263167, 2113272.043628604151309 ], [ 3669804.548074101097882, 2113281.744677980430424 ], [ 3669818.612121507525444, 2113290.974724603351206 ], [ 3669821.62144608842209, 2113292.693918943405151 ], [ 3669824.76253538671881, 2113294.190331310033798 ], [ 3669830.599446828477085, 2113296.918462621979415 ], [ 3669851.396588593255728, 2113321.427366340067238 ], [ 3669878.956671149469912, 2113391.133865276351571 ], [ 3669891.42965747974813, 2113440.867268721573055 ], [ 3669894.210527341347188, 2113477.090426384471357 ], [ 3669887.710699248127639, 2113513.830202447716147 ], [ 3669886.687240343540907, 2113541.89679932128638 ], [ 3669888.416133968159556, 2113541.905445688404143 ], [ 3669915.531235679984093, 2113540.217803216073662 ], [ 3669933.202260740101337, 2113541.172691052779555 ], [ 3669950.797857933677733, 2113541.259940691292286 ], [ 3669971.311341714113951, 2113544.570096361916512 ], [ 3669997.554177957121283, 2113542.965352094732225 ], [ 3670022.924832550808787, 2113541.442659283056855 ], [ 3670032.670117508154362, 2113542.271517371758819 ], [ 3670048.521342647261918, 2113542.523478704504669 ], [ 3670068.733849418349564, 2113542.363277754746377 ], [ 3670074.212068060413003, 2113542.209827743005008 ], [ 3670075.359375570435077, 2113542.843795108608902 ], [ 3670088.049020476639271, 2113542.616413767449558 ], [ 3670113.77370783733204, 2113546.026345786638558 ], [ 3670145.49632551567629, 2113536.737539834808558 ], [ 3670159.167031961493194, 2113563.135873960796744 ], [ 3670150.711243160068989, 2113567.701565946917981 ], [ 3670140.558211770374328, 2113596.350919734686613 ], [ 3670143.431443996727467, 2113614.953571773134172 ], [ 3670155.152696264907718, 2113618.88506851810962 ], [ 3670172.604315292090178, 2113615.973967955447733 ], [ 3670193.213620564900339, 2113620.318110197782516 ], [ 3670207.400201197247952, 2113608.909353921189904 ], [ 3670217.428909061476588, 2113607.961777325719595 ], [ 3670240.163289536256343, 2113622.173386609181762 ], [ 3670259.62247606460005, 2113627.888504992239177 ], [ 3670277.724407651927322, 2113632.46951761469245 ], [ 3670294.510949551593512, 2113651.020047882571816 ], [ 3670351.314075303263962, 2113664.527110011316836 ], [ 3670399.67284825630486, 2113682.618946206755936 ], [ 3670499.778686076868325, 2113699.588652820326388 ], [ 3670593.935815945267677, 2113720.887720528524369 ], [ 3670624.573798151686788, 2113724.284236886538565 ], [ 3670651.781235408503562, 2113731.782066950574517 ], [ 3670712.959537949413061, 2113737.332642698660493 ], [ 3670751.552839036099613, 2113745.016923889517784 ], [ 3670783.124481376260519, 2113744.548826868645847 ], [ 3670806.142358661163598, 2113747.40326739102602 ], [ 3670829.475835953373462, 2113754.014786257408559 ], [ 3670864.895883350167423, 2113783.387739386875182 ], [ 3670902.399183888919652, 2113807.524866168387234 ], [ 3670918.153258957900107, 2113852.940742822363973 ], [ 3670935.38908698502928, 2113896.284110010135919 ], [ 3670983.801037350669503, 2113934.948866709135473 ], [ 3670989.17870302638039, 2113906.981070804875344 ], [ 3670994.210463705006987, 2113877.573653178289533 ], [ 3670999.360438400879502, 2113849.416961185634136 ], [ 3670997.195332226343453, 2113824.466139660216868 ], [ 3670999.976905219256878, 2113812.882810160517693 ], [ 3671016.99599622702226, 2113804.983811669051647 ], [ 3671034.397966274060309, 2113786.99020719435066 ], [ 3671054.316870706155896, 2113768.758828245103359 ], [ 3671071.610429706517607, 2113749.513439489062876 ], [ 3671088.520844711456448, 2113740.362310631200671 ], [ 3671105.323468192480505, 2113729.969147691503167 ], [ 3671117.8874706113711, 2113699.859937397763133 ], [ 3671133.823526787571609, 2113679.480546664446592 ], [ 3671157.1736966134049, 2113657.148435709998012 ], [ 3671169.128354721236974, 2113634.640497111249715 ], [ 3671193.087177370674908, 2113604.6971798944287 ], [ 3671199.810832035727799, 2113580.168841303791851 ], [ 3671199.823078218847513, 2113579.975781537592411 ], [ 3671159.323427887167782, 2113469.296666615642607 ], [ 3671131.774425822775811, 2113402.613903867080808 ], [ 3671096.415824317838997, 2113355.493245741352439 ], [ 3671064.962369621731341, 2113306.370833701454103 ], [ 3671011.76157626695931, 2113267.296881637535989 ], [ 3670993.566539680585265, 2113227.520922519266605 ], [ 3670978.289175341837108, 2113201.17413981212303 ], [ 3670946.722626849077642, 2113156.089436813257635 ], [ 3670926.264283399563283, 2113135.842455775476992 ], [ 3670900.225466451607645, 2113117.554590499028563 ], [ 3670891.018743595574051, 2113102.675959871150553 ], [ 3670864.01429044874385, 2113081.61494220700115 ], [ 3670863.036328410729766, 2113080.675163707695901 ], [ 3670847.132189455907792, 2113065.327254691161215 ], [ 3670813.223393025808036, 2113022.728191271889955 ], [ 3670774.597296525258571, 2112992.035214155912399 ], [ 3670758.197433362249285, 2112977.124619749840349 ], [ 3670752.104343654587865, 2112969.115072237327695 ], [ 3670743.124644005205482, 2112948.494539693929255 ], [ 3670725.44468973018229, 2112893.993793394416571 ], [ 3670723.919206657446921, 2112839.039111249148846 ], [ 3670729.059578589163721, 2112819.588636276312172 ], [ 3670739.122528278268874, 2112802.900213385000825 ], [ 3670765.129502297379076, 2112737.830441055353731 ], [ 3670770.23898206744343, 2112718.022899886127561 ], [ 3670770.611861823592335, 2112693.303359673824161 ], [ 3670779.124172335024923, 2112662.805690663866699 ], [ 3670788.158930781297386, 2112650.862318830564618 ], [ 3670796.957590182311833, 2112632.138483880087733 ], [ 3670801.699145428370684, 2112595.556024970021099 ], [ 3670796.321311209816486, 2112537.749117627739906 ], [ 3670782.451289986260235, 2112502.20317508559674 ], [ 3670772.689731997903436, 2112489.170479393564165 ], [ 3670762.859571883454919, 2112454.685395665932447 ], [ 3670748.845579329412431, 2112421.657087515108287 ], [ 3670706.934659114573151, 2112357.283846572507173 ], [ 3670688.679850203450769, 2112300.332954266574234 ], [ 3670670.205958283971995, 2112265.582674099132419 ], [ 3670632.157127977348864, 2112220.880557856522501 ], [ 3670614.245608967728913, 2112209.328813231550157 ], [ 3670547.297980173956603, 2112175.591482158750296 ], [ 3670531.381008328869939, 2112162.068207600153983 ], [ 3670509.296995539218187, 2112156.280421153176576 ], [ 3670489.823184252716601, 2112147.380896642804146 ], [ 3670472.394183274358511, 2112145.451116922311485 ], [ 3670440.641727281734347, 2112127.703617963939905 ], [ 3670425.310459932312369, 2112112.69254894554615 ], [ 3670403.753915378823876, 2112083.963868272490799 ], [ 3670376.907341131940484, 2112027.464264489710331 ], [ 3670355.998555718921125, 2111993.665409128647298 ], [ 3670349.433187478221953, 2111976.033016534522176 ], [ 3670323.22080091573298, 2111951.681198203936219 ], [ 3670290.071351798251271, 2111926.191626810468733 ], [ 3670256.119263945147395, 2111907.930860424414277 ], [ 3670241.424510505050421, 2111896.075414350721985 ], [ 3670229.865620394237339, 2111878.924561687745154 ], [ 3670224.163764598313719, 2111863.003897819668055 ], [ 3670136.617005386389792, 2111759.224282506853342 ], [ 3670117.301596025936306, 2111723.131084647960961 ], [ 3670079.406169151887298, 2111680.198129982687533 ], [ 3670056.709124910645187, 2111646.568309313617647 ], [ 3670032.843098412733525, 2111591.22007040027529 ], [ 3669986.070474210660905, 2111533.026729461736977 ], [ 3669970.659144926816225, 2111500.491916009224951 ], [ 3669963.457604515831918, 2111479.704236789606512 ], [ 3669961.918712523300201, 2111461.967336166650057 ], [ 3669957.347756233997643, 2111442.363228748552501 ], [ 3669958.716080768033862, 2111425.052805509418249 ], [ 3669957.054061111994088, 2111405.895658965222538 ], [ 3669950.295549929141998, 2111373.615107928868383 ], [ 3669955.663093224167824, 2111348.423819308169186 ], [ 3669957.793249836191535, 2111323.177731691859663 ], [ 3669947.840069249272346, 2111287.27208845410496 ], [ 3669927.217461014166474, 2111260.949873241595924 ], [ 3669905.339998758863658, 2111245.124985519330949 ], [ 3669861.367169376462698, 2111235.685193659737706 ], [ 3669820.559204606804997, 2111233.820687001105398 ], [ 3669793.480447240639478, 2111228.505117150954902 ], [ 3669721.969942227005959, 2111191.974562300369143 ], [ 3669703.371226696297526, 2111176.560888110660017 ], [ 3669642.486499798018485, 2111134.007663775235415 ], [ 3669627.669446963816881, 2111120.741380153689533 ], [ 3669557.932486586272717, 2111030.016258033923805 ], [ 3669556.757353845983744, 2111031.406510152388364 ], [ 3669556.167816264554858, 2111030.453401694074273 ], [ 3669522.321296771988273, 2110985.434871070086956 ], [ 3669509.239031834062189, 2110949.79539672890678 ], [ 3669504.657357410062104, 2110913.352295435965061 ], [ 3669495.586356127168983, 2110874.498397474177182 ], [ 3669481.339650823734701, 2110841.803739188238978 ], [ 3669430.663196448236704, 2110767.169903239235282 ], [ 3669427.508913072291762, 2110761.178842476103455 ], [ 3669418.109486896544695, 2110766.874321030452847 ], [ 3669399.251688850112259, 2110782.652931950986385 ], [ 3669374.846096619497985, 2110815.577016025781631 ], [ 3669352.831620639190078, 2110845.650382924824953 ], [ 3669329.718786857556552, 2110873.203207645565271 ], [ 3669314.500625300221145, 2110890.387499335687608 ], [ 3669289.342352148145437, 2110914.634706824086607 ], [ 3669278.184707902837545, 2110927.93592509906739 ], [ 3669265.507977312896401, 2110944.005235869903117 ], [ 3669255.071834444068372, 2110955.488872344605625 ], [ 3669248.275519848801196, 2110968.378261378966272 ], [ 3669238.667308751028031, 2110989.406313630752265 ], [ 3669230.42751232162118, 2111005.931505925953388 ], [ 3669212.429096550680697, 2111041.748957274481654 ], [ 3669200.204109779559076, 2111063.024252447299659 ], [ 3669181.615054090507329, 2111083.897212225943804 ], [ 3669177.977702647913247, 2111077.500190063845366 ], [ 3669122.825351818464696, 2111066.542652836069465 ], [ 3669069.286538514308631, 2111074.296710833441466 ], [ 3669035.397821825463325, 2111058.62582723936066 ], [ 3669022.086945103947073, 2111030.220573820639402 ], [ 3669007.005581892095506, 2110856.391794956289232 ], [ 3668993.241181659512222, 2110822.64001015946269 ], [ 3668982.300093566998839, 2110809.042016447521746 ], [ 3668969.707052906509489, 2110808.264093985315412 ], [ 3668966.576780493371189, 2110806.421072388067842 ], [ 3668955.766716718673706, 2110807.070000483188778 ], [ 3668946.846731122583151, 2110807.91301248036325 ], [ 3668913.038719224743545, 2110815.581051639746875 ], [ 3668888.354258488398045, 2110807.476756519638002 ], [ 3668871.231438845861703, 2110800.149472982622683 ], [ 3668860.055030780378729, 2110792.259677283465862 ], [ 3668848.23721109284088, 2110776.976415737997741 ], [ 3668848.312552216462791, 2110760.568274650722742 ], [ 3668851.2328772097826, 2110742.401086524128914 ], [ 3668849.051769484765828, 2110717.261048272252083 ], [ 3668835.052950404584408, 2110676.837534769438207 ], [ 3668821.695347659289837, 2110643.808121800422668 ], [ 3668796.77677235705778, 2110598.452482540626079 ], [ 3668776.884164947550744, 2110576.477336344309151 ], [ 3668734.103432719130069, 2110567.101610342971981 ], [ 3668700.883827383629978, 2110564.277302360162139 ], [ 3668638.444689952768385, 2110570.178239101078361 ], [ 3668605.995171928778291, 2110576.226792098488659 ], [ 3668582.469442758709192, 2110581.087529298849404 ], [ 3668545.10135304229334, 2110607.960978047922254 ], [ 3668536.517474565654993, 2110613.84124377835542 ], [ 3668529.889468077104539, 2110618.004216350149363 ], [ 3668519.659182531759143, 2110623.829521297942847 ], [ 3668509.105445451568812, 2110629.174844676628709 ], [ 3668499.690632544457912, 2110633.14000250864774 ], [ 3668492.484951324295253, 2110635.634365910664201 ], [ 3668470.386951974593103, 2110641.990466597490013 ], [ 3668455.820033413358033, 2110646.352840930223465 ], [ 3668454.789301105774939, 2110646.66035025799647 ], [ 3668454.435649070423096, 2110646.763912102673203 ], [ 3668453.774224985856563, 2110646.916178843937814 ], [ 3668450.406853372231126, 2110647.685748101212084 ], [ 3668444.353301513474435, 2110648.487872216850519 ], [ 3668441.328480764757842, 2110648.563744698651135 ], [ 3668438.29877483099699, 2110648.349077045917511 ], [ 3668428.886739977635443, 2110647.004726465325803 ], [ 3668414.771206357516348, 2110644.381603444460779 ], [ 3668400.671838522423059, 2110641.476664446294308 ], [ 3668378.653369516134262, 2110636.795461559202522 ], [ 3668374.334188522771001, 2110635.905773504637182 ], [ 3668367.629624965600669, 2110643.627690670080483 ], [ 3668312.105561938136816, 2110648.875428093597293 ], [ 3668288.562857576645911, 2110635.793130883015692 ], [ 3668280.978186418768018, 2110619.607588532846421 ], [ 3668276.205150688998401, 2110618.838720692321658 ], [ 3668276.133487037848681, 2110618.825452352873981 ], [ 3668275.035668941680342, 2110618.708836308214813 ], [ 3668271.875794850755483, 2110618.386731266975403 ], [ 3668265.491690575145185, 2110617.817769546527416 ], [ 3668259.10604374948889, 2110617.22879984183237 ], [ 3668257.380129585042596, 2110616.951371126808226 ], [ 3668255.099474041257054, 2110616.435790738090873 ], [ 3668253.908368377014995, 2110616.287802839651704 ], [ 3668252.550481460057199, 2110616.306073660496622 ], [ 3668248.202670968603343, 2110616.686919638887048 ], [ 3668243.8438924937509, 2110617.058689409866929 ], [ 3668242.45222678501159, 2110616.994831687305123 ], [ 3668231.794593767262995, 2110594.8357047974132 ], [ 3668225.666279803961515, 2110577.132274894975126 ], [ 3668225.84512635320425, 2110572.470414505340159 ], [ 3668221.270804324653, 2110573.077787738293409 ], [ 3668190.55383866187185, 2110578.36618671938777 ], [ 3668170.746023130603135, 2110585.009381534531713 ], [ 3668139.824003154411912, 2110587.932038777973503 ], [ 3668098.711258726660162, 2110597.781823510304093 ], [ 3668057.435668095014989, 2110619.574596643447876 ], [ 3668026.350570166483521, 2110634.440126441884786 ], [ 3667982.901858441997319, 2110658.823866446036845 ], [ 3667952.698231973685324, 2110670.028265123255551 ], [ 3667939.718375731259584, 2110672.448071245104074 ], [ 3667908.343370324932039, 2110656.329258248209953 ], [ 3667875.615937176160514, 2110652.266307251527905 ], [ 3667848.732645133975893, 2110646.457974381744862 ], [ 3667817.049587547779083, 2110626.79022054746747 ], [ 3667805.584719474427402, 2110605.21154079772532 ], [ 3667770.128543257247657, 2110583.514894767198712 ], [ 3667731.412152741104364, 2110565.704952648840845 ], [ 3667684.268090971279889, 2110547.498757290653884 ], [ 3667620.768735825549811, 2110505.468976077623665 ], [ 3667597.87727212253958, 2110484.888324054889381 ], [ 3667560.847724840044975, 2110453.39712778525427 ], [ 3667535.069392894860357, 2110440.0875279083848 ], [ 3667516.149597547482699, 2110434.877667944412678 ], [ 3667485.213135153986514, 2110422.930928455665708 ], [ 3667462.923679428175092, 2110409.291560941375792 ], [ 3667438.287617766298354, 2110388.875827150419354 ], [ 3667415.276612884830683, 2110377.05452770832926 ], [ 3667393.662684536073357, 2110372.298475250601768 ], [ 3667379.920734961517155, 2110372.585691228508949 ], [ 3667366.167946170084178, 2110372.864014346152544 ], [ 3667361.097340762615204, 2110372.692055810242891 ], [ 3667356.698475649580359, 2110372.136160255409777 ], [ 3667349.103186103049666, 2110370.489982956089079 ], [ 3667326.541575585491955, 2110363.957254893146455 ], [ 3667318.033851337619126, 2110361.545773476362228 ], [ 3667305.353590686339885, 2110357.585209874436259 ], [ 3667298.954054383561015, 2110356.02595748892054 ], [ 3667292.459254809655249, 2110355.107582391239703 ], [ 3667288.511289622634649, 2110354.989862602669746 ], [ 3667281.577001399826258, 2110355.505151639692485 ], [ 3667271.147072986233979, 2110357.172472404316068 ], [ 3667260.761885305866599, 2110358.65527736581862 ], [ 3667246.525744821876287, 2110360.211216029711068 ], [ 3667239.406578232068568, 2110360.804022192955017 ], [ 3667232.265375969465822, 2110360.908094866201282 ], [ 3667221.892873017117381, 2110360.566304806619883 ], [ 3667211.510575583670288, 2110360.225428311619908 ], [ 3667195.493520428426564, 2110357.591001345776021 ], [ 3667143.923732941504568, 2110351.093996232375503 ], [ 3667117.605350605212152, 2110351.831929174251854 ], [ 3667091.632416537031531, 2110346.414697796106339 ], [ 3667034.829093461856246, 2110340.412504579871893 ], [ 3667010.525499081239104, 2110333.962291517760605 ], [ 3666983.033590689301491, 2110331.312471431214362 ], [ 3666956.263696231879294, 2110326.845006749499589 ], [ 3666930.516407093033195, 2110324.030474921688437 ], [ 3666914.364245337434113, 2110320.30875865323469 ], [ 3666906.212892382405698, 2110317.580276785418391 ], [ 3666885.548719928134233, 2110312.535537343472242 ], [ 3666872.152959999628365, 2110309.200733968056738 ], [ 3666872.152959999628365, 2113714.730385360307992 ], [ 3666873.096706230659038, 2113714.003781286999583 ], [ 3666877.877366153523326, 2113703.107648933306336 ], [ 3666882.748490764759481, 2113702.354201230220497 ], [ 3666892.292009280063212, 2113701.501784314401448 ], [ 3666901.962985462509096, 2113700.958188615739346 ], [ 3666911.665593817830086, 2113701.01246243994683 ], [ 3666919.950986753683537, 2113701.791860482655466 ], [ 3666928.133193070534617, 2113703.122037762310356 ], [ 3666933.525433694943786, 2113704.335257411003113 ], [ 3666941.199113351292908, 2113706.304553855676204 ], [ 3666948.863581038080156, 2113708.284849684685469 ], [ 3666957.759720278903842, 2113710.64953176677227 ], [ 3666966.735574840568006, 2113712.656045655719936 ], [ 3666976.892618225421757, 2113713.999923750758171 ], [ 3666987.072450194507837, 2113715.141124437563121 ], [ 3666998.502723988611251, 2113716.534766355529428 ], [ 3667009.916861306875944, 2113718.090469092130661 ], [ 3667018.230388100259006, 2113719.889136787038296 ], [ 3667026.48793384572491, 2113721.973597369156778 ], [ 3667036.214484865311533, 2113724.159458015114069 ], [ 3667046.043701802380383, 2113726.135392933152616 ], [ 3667050.351711493451148, 2113726.68994679953903 ], [ 3667054.671110155526549, 2113726.912743215449154 ], [ 3667063.329114428255707, 2113726.765177530236542 ], [ 3667074.724571480881423, 2113726.248942565172911 ], [ 3667086.103668698109686, 2113725.543455567210913 ], [ 3667097.579224755521864, 2113724.558699136599898 ], [ 3667109.036840671673417, 2113723.365090914070606 ], [ 3667112.539169700816274, 2113722.873789735138416 ], [ 3667115.943483892828226, 2113721.950848906300962 ], [ 3667118.131114731542766, 2113720.93240767903626 ], [ 3667119.234281466342509, 2113720.067015666514635 ], [ 3667120.107692812569439, 2113718.992274835240096 ], [ 3667121.59996339911595, 2113716.577352825552225 ], [ 3667122.772065043915063, 2113715.113913893233985 ], [ 3667125.698423597496003, 2113712.513085270300508 ], [ 3667128.936796447262168, 2113710.373570270370692 ], [ 3667130.991220543626696, 2113709.678380304016173 ], [ 3667133.179257543757558, 2113709.591731799766421 ], [ 3667134.565640220418572, 2113709.901563450694084 ], [ 3667140.698208029381931, 2113712.216821663081646 ], [ 3667146.734876806847751, 2113714.821945877745748 ], [ 3667153.68253112398088, 2113717.941966956481338 ], [ 3667160.529940934851766, 2113721.181484203785658 ], [ 3667164.96021820884198, 2113723.607791733928025 ], [ 3667173.439777160529047, 2113728.947389048524201 ], [ 3667181.74956961395219, 2113734.533000855240971 ], [ 3667189.420773382298648, 2113739.608316825702786 ], [ 3667196.856436227448285, 2113744.986284718848765 ], [ 3667205.549246739596128, 2113751.968964417465031 ], [ 3667214.23205610178411, 2113758.951884931419045 ], [ 3667228.071019480004907, 2113772.199801063165069 ], [ 3667241.90906869713217, 2113785.438088688068092 ], [ 3667247.609532848000526, 2113790.780003737658262 ], [ 3667253.381151626817882, 2113796.014689281117171 ], [ 3667265.003122887574136, 2113806.346543242223561 ], [ 3667272.715708691626787, 2113813.291239821352065 ], [ 3667282.089904917404056, 2113822.32288140617311 ], [ 3667291.532760445494205, 2113831.218065297231078 ], [ 3667291.896474489476532, 2113831.514569835737348 ], [ 3667289.589086641091853, 2113835.079685370437801 ], [ 3667281.443279097788036, 2113846.209068684838712 ], [ 3667292.998222854919732, 2113859.360573589336127 ], [ 3667315.782936441712081, 2113866.918133936822414 ], [ 3667334.072013494558632, 2113882.670237035956234 ], [ 3667348.54359813220799, 2113899.430774074047804 ], [ 3667345.450651290826499, 2113908.787285867147148 ], [ 3667323.725198587868363, 2113913.430911002680659 ], [ 3667296.333620025310665, 2113912.7837218567729 ], [ 3667271.612409856636077, 2113905.409291502088308 ], [ 3667259.913543484173715, 2113898.098246314562857 ], [ 3667244.373971675988287, 2113884.028845770750195 ], [ 3667215.579714179504663, 2113882.219204213004559 ], [ 3667196.63601550180465, 2113881.420182835310698 ], [ 3667176.122595934662968, 2113877.532739356625825 ], [ 3667165.682323994114995, 2113877.224971393123269 ], [ 3667148.252565138041973, 2113878.87292888853699 ], [ 3667141.207394985482097, 2113880.186468507163227 ], [ 3667140.185975558590144, 2113898.412014802917838 ], [ 3667139.308357782196254, 2113910.796408687252551 ], [ 3667144.407895587384701, 2113924.558106600306928 ], [ 3667148.666890793479979, 2113936.133404720574617 ], [ 3667129.021910312585533, 2113934.753524397499859 ], [ 3667110.078381158877164, 2113933.955020252615213 ], [ 3667083.475998739246279, 2113927.405817265622318 ], [ 3667066.190204302314669, 2113923.21312793623656 ], [ 3667044.585320509038866, 2113914.249095615465194 ], [ 3667034.711598477326334, 2113905.470876663923264 ], [ 3667026.607316493988037, 2113894.582977848127484 ], [ 3667013.58501610159874, 2113894.519439740572125 ], [ 3667002.945262186229229, 2113899.410078268032521 ], [ 3666986.416565570048988, 2113896.440762933343649 ], [ 3666968.062643514480442, 2113894.938963992055506 ], [ 3666955.406946412287652, 2113891.603507703635842 ], [ 3666941.428113031666726, 2113895.51469346974045 ], [ 3666929.553035878110677, 2113901.169992345385253 ], [ 3666929.55505267996341, 2113901.134675193578005 ], [ 3666930.063907037489116, 2113892.057312132790685 ], [ 3666936.88606492895633, 2113888.175139904022217 ], [ 3666931.824555295519531, 2113876.386602863669395 ], [ 3666928.918332190718502, 2113873.629777234047651 ], [ 3666922.405104177072644, 2113871.114197657443583 ], [ 3666909.558174420148134, 2113868.154432228766382 ], [ 3666896.621464302763343, 2113864.158874005079269 ], [ 3666883.325432498939335, 2113856.022692184895277 ], [ 3666878.174704126548022, 2113845.02952850330621 ], [ 3666876.325279846787453, 2113835.810773908160627 ], [ 3666876.377514414954931, 2113824.325191958807409 ], [ 3666878.780478863976896, 2113815.748400758951902 ], [ 3666879.963395662605762, 2113805.199638100340962 ], [ 3666875.942913189530373, 2113795.143062611110508 ], [ 3666878.166271059773862, 2113784.495602439623326 ], [ 3666880.838758559431881, 2113779.024152034893632 ], [ 3666880.209816546645015, 2113771.778110729064792 ], [ 3666874.377675826661289, 2113765.023614945821464 ], [ 3666872.152959999628365, 2113761.902067185379565 ], [ 3666872.152959999628365, 2118770.762540000490844 ], [ 3669229.245450416114181, 2118770.762540000490844 ], [ 3669210.765091170556843, 2118744.331291527487338 ] ] ] } },
{ "type": "Feature", "properties": { "SITE_NAME": "Turons de la Plana Ausetana", "ODESIGNATE": "Plan Especial de Protección (PEIN)", "NUT2": 51, "SITE_CODE_": "ES510212", "DESIG_ABBR": "ES43", "SITE_CDDA": "389215_CDDA", "Sup_ha": 674.91718983600003 }, "geometry": { "type": "Polygon", "coordinates": [ [ [ 3672688.61905252141878, 2116889.383650603238493 ], [ 3672707.188040000386536, 2116891.912411780562252 ], [ 3672707.188040000386536, 2116740.350493720732629 ], [ 3672704.235948828514665, 2116740.830211162567139 ], [ 3672695.895042798481882, 2116740.686247313860804 ], [ 3672685.977994803339243, 2116738.046562138944864 ], [ 3672674.329786043614149, 2116734.838995893485844 ], [ 3672662.279160047415644, 2116734.884890033863485 ], [ 3672650.235249018762261, 2116738.256505443714559 ], [ 3672639.230295365676284, 2116741.880558556877077 ], [ 3672632.685506939888, 2116745.374199056532234 ], [ 3672610.247999036218971, 2116766.958591113332659 ], [ 3672604.373284838628024, 2116765.639855205081403 ], [ 3672603.44311074540019, 2116765.367439962457865 ], [ 3672602.621721186675131, 2116764.953965904191136 ], [ 3672601.739015161991119, 2116764.295964609831572 ], [ 3672598.049938931129873, 2116760.777535293251276 ], [ 3672594.981060561258346, 2116758.372080982662737 ], [ 3672588.731702476274222, 2116764.342106067575514 ], [ 3672584.41415269812569, 2116770.059827316552401 ], [ 3672579.623864784836769, 2116776.944103555288166 ], [ 3672576.863610460422933, 2116780.530922240577638 ], [ 3672571.534974008332938, 2116787.826411373913288 ], [ 3672568.016002113930881, 2116794.039610514882952 ], [ 3672565.762910559773445, 2116797.788857600651681 ], [ 3672561.124894881621003, 2116805.149538732599467 ], [ 3672558.127228311263025, 2116810.642026752233505 ], [ 3672555.612696822732687, 2116814.275774075649679 ], [ 3672551.500168200116605, 2116820.03374475473538 ], [ 3672546.725699529051781, 2116825.473994613625109 ], [ 3672542.272159284446388, 2116830.322900337632746 ], [ 3672538.673576022963971, 2116836.202863245271146 ], [ 3672535.498791806399822, 2116840.930604356341064 ], [ 3672533.007785968016833, 2116843.790459191426635 ], [ 3672529.350413300096989, 2116845.508380193728954 ], [ 3672525.563130291178823, 2116845.966722648590803 ], [ 3672521.863401996903121, 2116846.155648437328637 ], [ 3672518.909990960266441, 2116846.124232680071145 ], [ 3672513.155841704457998, 2116845.154675271827728 ], [ 3672509.781232214067131, 2116844.792191226966679 ], [ 3672505.790016979910433, 2116844.638002304360271 ], [ 3672500.340319621842355, 2116845.203050009440631 ], [ 3672500.600342242978513, 2116846.460799181833863 ], [ 3672502.189198567532003, 2116855.948550750035793 ], [ 3672503.566970949992537, 2116862.18979144282639 ], [ 3672505.292130979709327, 2116866.284201771020889 ], [ 3672508.647056636400521, 2116872.339235438033938 ], [ 3672511.451243326999247, 2116877.494635269977152 ], [ 3672513.549048967659473, 2116882.054754654876888 ], [ 3672515.099330150987953, 2116886.456897197291255 ], [ 3672516.314872200600803, 2116891.641793326009065 ], [ 3672517.453392265364528, 2116897.104347799438983 ], [ 3672519.109064516145736, 2116902.488144986331463 ], [ 3672521.886514714919031, 2116909.078099159523845 ], [ 3672522.613641357515007, 2116909.099752873182297 ], [ 3672531.322579078376293, 2116907.916572487913072 ], [ 3672534.567439268343151, 2116908.291511231102049 ], [ 3672539.673023229464889, 2116909.21171802887693 ], [ 3672548.974144254811108, 2116914.274012991692871 ], [ 3672562.666695517953485, 2116919.452625964768231 ], [ 3672570.393654265906662, 2116922.038831194862723 ], [ 3672575.527675769757479, 2116923.637756387703121 ], [ 3672585.396539285778999, 2116926.302199262659997 ], [ 3672592.926646531559527, 2116927.8952427925542 ], [ 3672600.439841397572309, 2116927.436505706049502 ], [ 3672607.581783439964056, 2116925.369011697825044 ], [ 3672614.626203576102853, 2116921.948682306800038 ], [ 3672621.130385285243392, 2116917.868031376041472 ], [ 3672627.378329303581268, 2116911.998126651160419 ], [ 3672633.838910870719701, 2116905.677856516093016 ], [ 3672639.924744786228985, 2116900.143822635523975 ], [ 3672646.216326244175434, 2116894.891053458675742 ], [ 3672654.184061996173114, 2116891.203318959102035 ], [ 3672663.517982811667025, 2116889.790524843148887 ], [ 3672672.139256350696087, 2116889.106759518384933 ], [ 3672680.533559069037437, 2116888.70464994572103 ], [ 3672688.61905252141878, 2116889.383650603238493 ] ] ] } }
]
}
