{
"type": "FeatureCollection",
"name": "Creixell",
"crs": { "type": "name", "properties": { "name": "urn:ogc:def:crs:EPSG::3035" } },
"features": [
{ "type": "Feature", "properties": { "SITE_NAME": "Massís de Bonastre", "ODESIGNATE": "Plan Especial de Protección (PEIN)", "NUT2": 51, "SITE_CODE_": "ES510248", "DESIG_ABBR": "ES43", "SITE_CDDA": "389225_CDDA", "Sup_ha": 2688.5082686699998 }, "geometry": { "type": "Polygon", "coordinates": [ [ [ 3603823.310066744685173, 2051490.669740307144821 ], [ 3603815.990473904646933, 2051553.823665791191161 ], [ 3603812.186685403808951, 2051575.599754232680425 ], [ 3603812.922230749391019, 2051607.457312004407868 ], [ 3603813.195263808127493, 2051634.090616547968239 ], [ 3603815.324427289888263, 2051649.249866878380999 ], [ 3603811.229161218740046, 2051648.830824334174395 ], [ 3603777.562790046446025, 2051639.92466879170388 ], [ 3603671.435485907364637, 2051614.930113613372669 ], [ 3603657.612433009315282, 2051605.347136524040252 ], [ 3603653.74356531072408, 2051602.892963890917599 ], [ 3603648.624121912289411, 2051595.300737681565806 ], [ 3603647.328856642358005, 2051589.766125346533954 ], [ 3603648.104057393968105, 2051579.99765464104712 ], [ 3603648.979564251378179, 2051567.435238433536142 ], [ 3603648.600130506791174, 2051563.055141865974292 ], [ 3603633.491616687737405, 2051562.11743273655884 ], [ 3603625.038990006782115, 2051555.114802844123915 ], [ 3603619.707200359553099, 2051536.937262725783512 ], [ 3603616.199342634063214, 2051516.21150863613002 ], [ 3603610.9387037740089, 2051510.596056783339009 ], [ 3603589.859970697201788, 2051495.968607846647501 ], [ 3603580.865520229563117, 2051498.521991898305714 ], [ 3603561.421425006818026, 2051498.690545069053769 ], [ 3603549.152071570977569, 2051483.210093063535169 ], [ 3603554.205376639496535, 2051474.57417695526965 ], [ 3603563.440941338427365, 2051466.900230576051399 ], [ 3603572.739747973158956, 2051440.191435162676498 ], [ 3603607.52823737449944, 2051416.13066914328374 ], [ 3603611.958065710496157, 2051408.205472741508856 ], [ 3603607.520201516803354, 2051396.39188866619952 ], [ 3603598.958947094622999, 2051384.301861122716218 ], [ 3603598.980332960374653, 2051353.043066527228802 ], [ 3603592.746183616109192, 2051332.238003594335169 ], [ 3603597.518109612166882, 2051324.31016578222625 ], [ 3603610.672395148780197, 2051314.548175547737628 ], [ 3603632.631032596342266, 2051315.851631664903834 ], [ 3603650.785751915536821, 2051316.487582783214748 ], [ 3603665.068424256052822, 2051315.801271710777655 ], [ 3603672.847345856949687, 2051303.169255038257688 ], [ 3603672.320671138353646, 2051281.397044905461371 ], [ 3603671.521557720378041, 2051278.759880418889225 ], [ 3603267.486361341550946, 2051135.297945811646059 ], [ 3602875.550026759970933, 2051032.075537051539868 ], [ 3602452.719469490461051, 2050956.650962047511712 ], [ 3601939.490015198942274, 2050798.818051228066906 ], [ 3601686.878249087836593, 2050685.071740546729416 ], [ 3601686.726172886788845, 2050685.99447070248425 ], [ 3601691.88990072812885, 2050745.589860201813281 ], [ 3601703.730212070979178, 2050777.505297988420352 ], [ 3601745.085454730316997, 2050830.63048346247524 ], [ 3601743.68129400536418, 2050860.809840952511877 ], [ 3601654.210338082164526, 2050903.427926449570805 ], [ 3601621.486751238349825, 2050932.600477326894179 ], [ 3601605.089982884936035, 2050964.215564494254068 ], [ 3601602.677537884563208, 2050994.491405537584797 ], [ 3601607.645129859447479, 2051103.198783958796412 ], [ 3601583.545753073412925, 2051134.029528707498685 ], [ 3601533.253646137192845, 2051181.409193809842691 ], [ 3601514.869018614292145, 2051213.214715082431212 ], [ 3601511.947104833554476, 2051243.539010360371321 ], [ 3601517.026495749130845, 2051273.09782780893147 ], [ 3601519.608574224635959, 2051302.89578510937281 ], [ 3601508.715578952338547, 2051333.983636882156134 ], [ 3601511.796881487127393, 2051363.733788735698909 ], [ 3601534.356978132855147, 2051391.618261011783034 ], [ 3601563.227860254701227, 2051417.960098899668083 ], [ 3601579.818036272656173, 2051420.294357660692185 ], [ 3601586.860616737045348, 2051421.833187341457233 ], [ 3601593.722146194893867, 2051423.839926851447672 ], [ 3601600.296584128402174, 2051427.647477664286271 ], [ 3601605.914480607025325, 2051433.318628079956397 ], [ 3601610.194976618513465, 2051438.897697275271639 ], [ 3601615.200516429264098, 2051445.288435724563897 ], [ 3601619.872811774257571, 2051452.833375093527138 ], [ 3601623.129708440043032, 2051460.312956427922472 ], [ 3601625.594415717758238, 2051467.36770944064483 ], [ 3601626.136223638430238, 2051476.179265901679173 ], [ 3601625.102367368526757, 2051483.078688704641536 ], [ 3601623.915908140596002, 2051489.261186506599188 ], [ 3601621.769110886380076, 2051495.285472494317219 ], [ 3601619.306798948906362, 2051499.417280169669539 ], [ 3601603.406175258569419, 2051512.346875626128167 ], [ 3601600.51167771499604, 2051515.558451008284464 ], [ 3601596.909024094231427, 2051523.264778510900214 ], [ 3601595.077558019198477, 2051532.00261979456991 ], [ 3601594.797892256639898, 2051540.281768276588991 ], [ 3601596.196508038789034, 2051548.980883579468355 ], [ 3601597.757101143244654, 2051555.25128902355209 ], [ 3601601.303583472967148, 2051562.122483334504068 ], [ 3601605.313632280565798, 2051567.837671520886943 ], [ 3601609.830037442967296, 2051571.951925460947677 ], [ 3601622.923812496475875, 2051578.700138566549867 ], [ 3601661.478842325508595, 2051590.791782428510487 ], [ 3601673.398869183380157, 2051596.430490424390882 ], [ 3601684.168353987857699, 2051602.970627001253888 ], [ 3601689.271371422335505, 2051607.930049250368029 ], [ 3601693.858217368368059, 2051614.952059598872438 ], [ 3601699.756958778016269, 2051633.045369573170319 ], [ 3601701.219541675876826, 2051644.923358363332227 ], [ 3601698.46553518762812, 2051670.444982397602871 ], [ 3601692.361121331341565, 2051689.146467012586072 ], [ 3601689.374115051236004, 2051699.307510804152116 ], [ 3601678.917819080874324, 2051725.436285980045795 ], [ 3601669.349197337403893, 2051748.445713226217777 ], [ 3601592.015182351693511, 2051874.980010858504102 ], [ 3601575.539521322585642, 2051901.264621427981183 ], [ 3601564.454274353571236, 2051919.902956873644143 ], [ 3601561.477053619455546, 2051930.062646282836795 ], [ 3601561.133331330958754, 2051938.878828026354313 ], [ 3601562.69819308212027, 2051945.779507916187868 ], [ 3601565.401869288180023, 2051951.990133412415162 ], [ 3601568.741895562503487, 2051957.1788036134094 ], [ 3601573.260436097159982, 2051962.013806898379698 ], [ 3601580.653226388152689, 2051966.66404422512278 ], [ 3601587.137546239886433, 2051969.318045565392822 ], [ 3601593.709581069182605, 2051970.311009182361886 ], [ 3601619.490977221634239, 2051967.842165973503143 ], [ 3601627.489053402561694, 2051968.087863354710862 ], [ 3601632.887995577417314, 2051968.672557928366587 ], [ 3601639.265264669433236, 2051970.555406768340617 ], [ 3601642.610856948420405, 2051972.087795773521066 ], [ 3601649.120025174692273, 2051975.841487166006118 ], [ 3601652.88464276958257, 2051978.296191230183467 ], [ 3601665.927443023771048, 2051972.909822241868824 ], [ 3601682.026013897266239, 2051973.882229366805404 ], [ 3601693.344018725212663, 2051977.224873985629529 ], [ 3601699.881602911744267, 2051980.83531130454503 ], [ 3601710.380156408064067, 2051995.873997776769102 ], [ 3601722.055050440132618, 2052016.118197242030874 ], [ 3601755.392521721310914, 2052083.061354003380984 ], [ 3601777.556104954797775, 2052175.641218602191657 ], [ 3601786.420987541787326, 2052220.761414472712204 ], [ 3601800.700810300651938, 2052252.233371406327933 ], [ 3601818.190795642323792, 2052263.688152976334095 ], [ 3601846.715870758518577, 2052269.169062428176403 ], [ 3601864.357002589851618, 2052282.252414649585262 ], [ 3601872.733936551027, 2052302.792252573883161 ], [ 3601869.946032231673598, 2052327.686264204559848 ], [ 3601861.961466042324901, 2052349.792940114159137 ], [ 3601829.721582252532244, 2052388.373478588182479 ], [ 3601806.196134493686259, 2052410.946808799402788 ], [ 3601799.374716407619417, 2052433.342755959602073 ], [ 3601793.189620209857821, 2052489.34846988809295 ], [ 3601800.441657499410212, 2052592.089616078417748 ], [ 3601799.243141281418502, 2052617.192232136847451 ], [ 3601788.759949627798051, 2052631.96659998758696 ], [ 3601748.338065567892045, 2052660.625131614040583 ], [ 3601731.752048038411885, 2052684.937428244855255 ], [ 3601721.407631540670991, 2052709.333315107505769 ], [ 3601715.070624365471303, 2052731.97313555656001 ], [ 3601716.985173001885414, 2052762.085668165003881 ], [ 3601728.982692101970315, 2052796.740879132179543 ], [ 3601736.467334065120667, 2052811.166954839834943 ], [ 3601762.345674564596266, 2052838.293302458943799 ], [ 3601795.519474448636174, 2052865.112080043880269 ], [ 3601967.256144493352622, 2052905.26229129685089 ], [ 3601981.621458406094462, 2052910.176428074482828 ], [ 3601990.817560982424766, 2052923.086454278789461 ], [ 3601992.1573785264045, 2052930.189890469424427 ], [ 3602001.277476733550429, 2052930.818171529099345 ], [ 3602005.221173725556582, 2052920.886180169414729 ], [ 3602007.174084953498095, 2052910.183506385190412 ], [ 3602015.918724385090172, 2052911.259145477088168 ], [ 3602022.408332659862936, 2052930.707703035091981 ], [ 3602031.636616121511906, 2052937.475629630265757 ], [ 3602051.900080541148782, 2052938.399457373889163 ], [ 3602063.830722229555249, 2052942.995951087912545 ], [ 3602074.97697363095358, 2052953.536246448522434 ], [ 3602065.50628096377477, 2052975.46458927844651 ], [ 3602059.086175750941038, 2053013.415778392925858 ], [ 3602074.482690653763711, 2053018.611618415685371 ], [ 3602099.970594204962254, 2053033.096653674961999 ], [ 3602122.24429226340726, 2053058.144915381912142 ], [ 3602144.797812477685511, 2053104.198213302763179 ], [ 3602178.342918199487031, 2053208.748941292520612 ], [ 3602194.264170359820127, 2053279.964365671388805 ], [ 3602181.255221971310675, 2053300.459052610676736 ], [ 3602180.911213889252394, 2053300.754680227488279 ], [ 3602181.043119699228555, 2053305.216748780105263 ], [ 3602181.434883164707571, 2053319.150169132277369 ], [ 3602183.577813843730837, 2053332.255062088370323 ], [ 3602188.487780655734241, 2053344.86467197118327 ], [ 3602195.803315227851272, 2053355.942076243227348 ], [ 3602203.254081590566784, 2053366.726239046780393 ], [ 3602209.764462143182755, 2053379.092242253012955 ], [ 3602215.091622814536095, 2053391.982520833378658 ], [ 3602218.768783282954246, 2053405.591509812977165 ], [ 3602222.277985452208668, 2053419.236567737068981 ], [ 3602226.359671009238809, 2053432.866942383116111 ], [ 3602231.061611155513674, 2053446.327599553624168 ], [ 3602238.37525378819555, 2053460.059157381765544 ], [ 3602247.827215881086886, 2053472.664759332081303 ], [ 3602257.063248712103814, 2053483.127526296535507 ], [ 3602267.24556386237964, 2053492.538303947541863 ], [ 3602276.629075173288584, 2053498.660456069279462 ], [ 3602285.995745358522981, 2053504.703916325233877 ], [ 3602295.481019030325115, 2053514.902774482965469 ], [ 3602305.414044117555022, 2053524.577773315599188 ], [ 3602313.875957558397204, 2053530.056924920761958 ], [ 3602322.433345614466816, 2053535.366895365295932 ], [ 3602333.469016137067229, 2053542.072044155793265 ], [ 3602344.514471868984401, 2053548.77617912995629 ], [ 3602355.139437415171415, 2053556.322051100665703 ], [ 3602366.585421610157937, 2053562.185939873335883 ], [ 3602379.580525122582912, 2053564.42735729040578 ], [ 3602392.650476748123765, 2053565.899979647481814 ], [ 3602405.672962265089154, 2053567.758009865880013 ], [ 3602418.705680525861681, 2053569.614651475800201 ], [ 3602429.234961732290685, 2053570.018765879329294 ], [ 3602439.719003043137491, 2053570.707581905415282 ], [ 3602459.519357603043318, 2053575.582040837965906 ], [ 3602461.47165674995631, 2053576.108000517822802 ], [ 3602458.287497339770198, 2053586.586606153985485 ], [ 3602431.517134421970695, 2053597.161891956115142 ], [ 3602401.669939487241209, 2053601.521753346780315 ], [ 3602371.713684269227087, 2053604.389992059674114 ], [ 3602280.51355243101716, 2053598.099366900278255 ], [ 3602250.428224644158036, 2053599.477931322297081 ], [ 3602220.763226857408881, 2053605.823770627845079 ], [ 3602216.569710436277092, 2053609.730765006504953 ], [ 3602254.775580400135368, 2053649.638318018056452 ], [ 3602311.80427750851959, 2053720.793967896839604 ], [ 3602345.437129054218531, 2053777.664451234042645 ], [ 3602355.511584476567805, 2053806.745565039571375 ], [ 3602331.064202232286334, 2053832.621835811063647 ], [ 3602301.158369534183294, 2053841.995235555106774 ], [ 3602292.24420609138906, 2053872.894243637099862 ], [ 3602306.898553665727377, 2053931.582179990131408 ], [ 3602343.374835767783225, 2053974.660174412885681 ], [ 3602442.683144622016698, 2054068.808767474489287 ], [ 3602474.818666135892272, 2054096.778946206439286 ], [ 3602506.453529439400882, 2054113.279879737645388 ], [ 3602531.753996395040303, 2054120.371685959165916 ], [ 3602561.306069025304168, 2054147.587915953248739 ], [ 3602562.475845883134753, 2054207.567102671135217 ], [ 3602582.614178863354027, 2054265.730254729744047 ], [ 3602588.060986635275185, 2054288.315084999892861 ], [ 3603840.719585, 2054288.315084999892861 ], [ 3603840.719585, 2051479.87638995796442 ], [ 3603823.310066744685173, 2051490.669740307144821 ] ] ] } },
{ "type": "Feature", "properties": { "SITE_NAME": "Platja de Torredembarra i Creixell", "ODESIGNATE": "Plan Especial de Protección (PEIN)", "NUT2": 51, "SITE_CODE_": "ES510153", "DESIG_ABBR": "ES43", "SITE_CDDA": "389152_CDDA", "Sup_ha": 60.552486739599999 }, "geometry": { "type": "Polygon", "coordinates": [ [ [ 3601871.008474556729198, 2047552.237261587753892 ], [ 3601955.501369058620185, 2047364.88506249524653 ], [ 3601978.735010255128145, 2047312.171904824208468 ], [ 3601942.865703527349979, 2047299.17368761729449 ], [ 3601967.646912924014032, 2047240.361249936046079 ], [ 3601980.950530651956797, 2047208.670694618485868 ], [ 3601981.004133090376854, 2047208.54294463340193 ], [ 3601973.396547785494477, 2047206.471916223876178 ], [ 3601951.603906828910112, 2047201.277674870099872 ], [ 3601929.819573839660734, 2047196.062705039978027 ], [ 3601907.037065246142447, 2047190.021858094725758 ], [ 3601884.361705910880119, 2047183.590206717373803 ], [ 3601869.413030866067857, 2047178.802407757844776 ], [ 3601846.694976791273803, 2047170.83264554082416 ], [ 3601823.993609465193003, 2047162.821206239517778 ], [ 3601802.578023468609899, 2047155.46778418822214 ], [ 3601781.145859392359853, 2047148.156132011441514 ], [ 3601768.87369981687516, 2047143.802962657995522 ], [ 3601756.50100914016366, 2047139.800085154129192 ], [ 3601748.071500518359244, 2047137.833073374815285 ], [ 3601734.62296062707901, 2047135.365192718105391 ], [ 3601704.526228241622448, 2047121.74266837304458 ], [ 3601681.602152304258198, 2047111.509412900079042 ], [ 3601658.611040591262281, 2047101.432754850946367 ], [ 3601647.190372951794416, 2047096.677585021592677 ], [ 3601612.609982650727034, 2047083.153953549219295 ], [ 3601605.130990653298795, 2047079.834125766996294 ], [ 3601597.777753761503845, 2047076.221847971901298 ], [ 3601583.087786646094173, 2047068.955741786630824 ], [ 3601573.013357331044972, 2047064.742812916636467 ], [ 3601565.934406084939837, 2047062.43624500092119 ], [ 3601558.75479412637651, 2047060.479788629105315 ], [ 3601544.273221632931381, 2047056.89909870387055 ], [ 3601534.737482708413154, 2047054.136805 ], [ 3601514.201131687499583, 2047047.400308210402727 ], [ 3601493.753320821095258, 2047040.405149773694575 ], [ 3601471.948258160613477, 2047032.508396058576182 ], [ 3601450.117454430088401, 2047024.664204978849739 ], [ 3601430.66519220219925, 2047017.88411564216949 ], [ 3601411.180696788243949, 2047011.197290069889277 ], [ 3601389.063907362986356, 2047003.770988548407331 ], [ 3601366.931292618624866, 2046996.396416507661343 ], [ 3601345.939947316423059, 2046989.172868008958176 ], [ 3601325.045224496163428, 2046981.669758319156244 ], [ 3601316.763578766491264, 2046978.386734895873815 ], [ 3601308.640885850414634, 2046974.728024979820475 ], [ 3601292.718189600855112, 2046966.718740119133145 ], [ 3601287.222354441415519, 2046963.619611360132694 ], [ 3601281.867401651572436, 2046960.286835954291746 ], [ 3601271.22969357483089, 2046953.524036087561399 ], [ 3601263.904260918498039, 2046949.418433539103717 ], [ 3601253.148305230308324, 2046944.429619907634333 ], [ 3601242.348399135749787, 2046939.515032043214887 ], [ 3601231.45105136744678, 2046933.708446572069079 ], [ 3601220.639031509403139, 2046927.723486549220979 ], [ 3601213.222406613640487, 2046924.077351079089567 ], [ 3601206.832835470326245, 2046921.474457266042009 ], [ 3601200.312719180714339, 2046919.224603487877175 ], [ 3601187.095758111216128, 2046915.242576769087464 ], [ 3601182.344137062784284, 2046914.04822792019695 ], [ 3601173.391364740673453, 2046911.797867560060695 ], [ 3601159.586522380355746, 2046908.703339354600757 ], [ 3601150.510430667549372, 2046906.247511880705133 ], [ 3601146.17768789594993, 2046904.599488568259403 ], [ 3601142.010360466316342, 2046902.534878554753959 ], [ 3601133.857560358475894, 2046897.947732693748549 ], [ 3601128.291925518773496, 2046895.205919989384711 ], [ 3601124.982029155362397, 2046893.970507262740284 ], [ 3601117.820609748363495, 2046891.992420306196436 ], [ 3601110.531284290831536, 2046890.397087166784331 ], [ 3601095.88985854992643, 2046887.412729933159426 ], [ 3601086.291419379878789, 2046884.856775538763031 ], [ 3601070.025297741405666, 2046879.394148377235979 ], [ 3601053.968985680025071, 2046873.330526233650744 ], [ 3601048.106671384070069, 2046870.767369941808283 ], [ 3601042.345211285166442, 2046867.974162915954366 ], [ 3601030.881979633122683, 2046862.261915141250938 ], [ 3601023.082083127461374, 2046858.842750818701461 ], [ 3601017.238846924155951, 2046856.848577656084672 ], [ 3601011.246656010858715, 2046855.229145505465567 ], [ 3600999.206304467283189, 2046852.155936641152948 ], [ 3600991.427496861666441, 2046849.445786156924441 ], [ 3600974.083988933824003, 2046841.893122832290828 ], [ 3600956.858693460468203, 2046834.078801160911098 ], [ 3600937.915478356182575, 2046825.267367646098137 ], [ 3600918.212346393615007, 2046815.707410731120035 ], [ 3600913.82733491808176, 2046813.223045799182728 ], [ 3600909.645420601591468, 2046810.408828882500529 ], [ 3600901.446379915811121, 2046804.474123543361202 ], [ 3600895.761709763202816, 2046800.822414960712194 ], [ 3600888.121875328943133, 2046796.576754403300583 ], [ 3600880.310744363814592, 2046792.677970180287957 ], [ 3600874.966288059484214, 2046790.39568783971481 ], [ 3600867.620361167937517, 2046787.914523050189018 ], [ 3600856.945402979850769, 2046785.141205827472731 ], [ 3600846.205634710844606, 2046782.664580117445439 ], [ 3600824.771719134878367, 2046777.656796716619283 ], [ 3600801.359229207970202, 2046771.43658686382696 ], [ 3600778.090702276676893, 2046764.551557774655521 ], [ 3600773.031555019319057, 2046762.772641642717645 ], [ 3600768.090736309066415, 2046760.732145725516602 ], [ 3600758.503596041351557, 2046755.981995619833469 ], [ 3600752.304619402159005, 2046752.439576974371448 ], [ 3600744.202176201622933, 2046747.387038838583976 ], [ 3600740.498669052030891, 2046744.747282651951537 ], [ 3600736.986027054488659, 2046741.869037060299888 ], [ 3600729.999759096652269, 2046736.098629625048488 ], [ 3600724.996216815430671, 2046732.75220832368359 ], [ 3600710.699531549122185, 2046724.677587455837056 ], [ 3600696.377190369646996, 2046716.655411524232477 ], [ 3600676.404891364276409, 2046705.498927533626556 ], [ 3600656.387819612398744, 2046694.406925882678479 ], [ 3600637.128298939671367, 2046684.15368804265745 ], [ 3600617.677381875924766, 2046674.249243581667542 ], [ 3600602.958869417663664, 2046666.886033217189834 ], [ 3600574.019790006335825, 2046652.442263424163684 ], [ 3600559.780860053375363, 2046645.383698842255399 ], [ 3600551.441714716143906, 2046641.435352595057338 ], [ 3600542.983319785445929, 2046637.738858185941353 ], [ 3600525.806702655274421, 2046630.951517707435414 ], [ 3600504.19849580898881, 2046623.466976569732651 ], [ 3600482.562397796660662, 2046616.125299863982946 ], [ 3600474.111819905228913, 2046612.868672736454755 ], [ 3600465.752310839481652, 2046609.383007215103135 ], [ 3600448.972765502985567, 2046602.527669604402035 ], [ 3600437.523136579431593, 2046598.717100114328787 ], [ 3600421.456691444851458, 2046594.397179089020938 ], [ 3600405.368978906422853, 2046590.179598400602117 ], [ 3600384.236435178667307, 2046584.582382117398083 ], [ 3600363.177207827568054, 2046578.667711609974504 ], [ 3600355.43612168636173, 2046576.04413561266847 ], [ 3600347.834106317721307, 2046573.04684624937363 ], [ 3600332.769441367127001, 2046566.688186476938426 ], [ 3600318.915898372419178, 2046561.054832311812788 ], [ 3600305.188964141532779, 2046555.1389661047142 ], [ 3600288.630768196191639, 2046547.35121054504998 ], [ 3600272.117441268172115, 2046539.498961035395041 ], [ 3600254.028578255791217, 2046531.016487715533003 ], [ 3600235.880039321724325, 2046522.65995171898976 ], [ 3600229.256139533128589, 2046519.909436448477209 ], [ 3600222.497417353093624, 2046517.462155011482537 ], [ 3600208.88139090873301, 2046512.827622991288081 ], [ 3600199.941635700874031, 2046509.387556712143123 ], [ 3600158.464571016374975, 2046491.708480464294553 ], [ 3600121.698282196652144, 2046475.971817639889196 ], [ 3600116.263992450665683, 2046474.048686604946852 ], [ 3600110.653937626630068, 2046472.653268021764234 ], [ 3600099.212164004798979, 2046470.444223238620907 ], [ 3600091.718927073292434, 2046468.588163929758593 ], [ 3600087.574092943221331, 2046467.132547086803243 ], [ 3600069.815117862541229, 2046459.900340931955725 ], [ 3600017.73003866802901, 2046438.590698400279507 ], [ 3600011.423591497819871, 2046436.250411821994931 ], [ 3600005.01233543548733, 2046434.210612933849916 ], [ 3599992.089704074896872, 2046430.370932249352336 ], [ 3599983.606846424750984, 2046427.438024234725162 ], [ 3599967.645184630528092, 2046420.955156669719145 ], [ 3599951.978874784894288, 2046413.81306675914675 ], [ 3599934.220825662836432, 2046405.078777387971058 ], [ 3599916.480856968555599, 2046396.322642748942599 ], [ 3599900.816723264753819, 2046388.739747441140935 ], [ 3599885.101194007322192, 2046381.261857280042022 ], [ 3599879.72193719400093, 2046379.043158454820514 ], [ 3599874.177329300902784, 2046377.24084202083759 ], [ 3599862.9101079008542, 2046374.023729321081191 ], [ 3599855.560762067325413, 2046371.503069224767387 ], [ 3599851.51740723894909, 2046369.707089408300817 ], [ 3599846.633125215768814, 2046367.040364759741351 ], [ 3599841.898844991344959, 2046364.128899541683495 ], [ 3599832.382956941146404, 2046358.340622060000896 ], [ 3599823.706474907696247, 2046353.753781550098211 ], [ 3599814.885086583904922, 2046349.471240195212886 ], [ 3599810.59665297716856, 2046347.869079983094707 ], [ 3599806.118832979351282, 2046346.755746748996899 ], [ 3599796.979199062567204, 2046345.07741657551378 ], [ 3599791.009940727148205, 2046343.606224882183596 ], [ 3599787.752588500268757, 2046342.396041050786152 ], [ 3599784.607182251289487, 2046340.734446664340794 ], [ 3599781.634124766103923, 2046338.735879986546934 ], [ 3599775.869209438096732, 2046334.390932267764583 ], [ 3599771.867764902301133, 2046331.799885884858668 ], [ 3599769.428911530412734, 2046330.621470347046852 ], [ 3599742.404053670354187, 2046320.601604492170736 ], [ 3599729.616045246832073, 2046315.176824101246893 ], [ 3599717.016025528311729, 2046309.363478467101231 ], [ 3599712.98210967425257, 2046307.096045009791851 ], [ 3599709.130526846740395, 2046304.490592077141628 ], [ 3599701.507704449817538, 2046299.161927478155121 ], [ 3599696.113848733715713, 2046296.193515319377184 ], [ 3599681.484145225957036, 2046290.204035458154976 ], [ 3599666.811357136350125, 2046284.298825544072315 ], [ 3599653.304027756676078, 2046278.592542466009036 ], [ 3599639.900292180944234, 2046272.685902005294338 ], [ 3599631.18932126974687, 2046268.282655593939126 ], [ 3599618.52903516124934, 2046261.193225051742047 ], [ 3599605.958322993479669, 2046253.975030585657805 ], [ 3599588.531019430141896, 2046243.827197615988553 ], [ 3599571.042320629116148, 2046233.78531885612756 ], [ 3599560.487491671927273, 2046228.326961977640167 ], [ 3599528.102935361675918, 2046213.292563459137455 ], [ 3599512.614545237272978, 2046205.412615770474076 ], [ 3599497.282649822067469, 2046197.247224824270234 ], [ 3599486.26832576841116, 2046190.671095746802166 ], [ 3599475.386675101239234, 2046183.882032319437712 ], [ 3599467.959236613940448, 2046179.646385512081906 ], [ 3599452.350780404638499, 2046171.427331760991365 ], [ 3599436.681043179705739, 2046163.314314211253077 ], [ 3599419.985025673173368, 2046154.748836782760918 ], [ 3599403.272415428422391, 2046146.225029547698796 ], [ 3599388.502664372324944, 2046138.967242190847173 ], [ 3599373.550661540590227, 2046132.047363392077386 ], [ 3599365.323539256118238, 2046128.579200425883755 ], [ 3599356.956735036335886, 2046125.475076951319352 ], [ 3599339.943783904891461, 2046119.994402368320152 ], [ 3599325.457727086730301, 2046116.244675937574357 ], [ 3599310.862791546620429, 2046112.865793434204534 ], [ 3599301.23098985850811, 2046110.273381979670376 ], [ 3599287.129706198815256, 2046105.965901032788679 ], [ 3599273.197826011106372, 2046101.171587391523644 ], [ 3599264.114057879894972, 2046097.465115134604275 ], [ 3599247.071595379151404, 2046089.784145093057305 ], [ 3599230.047426735982299, 2046082.081395043758675 ], [ 3599210.513522366061807, 2046073.427357533946633 ], [ 3599190.95386136835441, 2046064.825784723740071 ], [ 3599172.85920708719641, 2046057.205676382407546 ], [ 3599162.212748493533581, 2046052.921126169152558 ], [ 3599162.141184321604669, 2046053.077969994163141 ], [ 3599140.765674908645451, 2046099.912455270532519 ], [ 3599139.078080848790705, 2046103.413212277460843 ], [ 3599138.451101575046778, 2046104.82510576210916 ], [ 3599283.512844335287809, 2046170.823963423259556 ], [ 3599251.799697272013873, 2046239.560401668073609 ], [ 3599250.867508441675454, 2046241.54553193366155 ], [ 3599248.776735584717244, 2046245.956396921770647 ], [ 3599270.847891572862864, 2046255.431909212144092 ], [ 3599940.102149673271924, 2046562.626716228201985 ], [ 3600182.484664307907224, 2046677.806413972983137 ], [ 3600280.367966764140874, 2046724.320592311443761 ], [ 3600281.07677841372788, 2046722.780530062504113 ], [ 3600287.031784150749445, 2046709.471560498699546 ], [ 3600319.064590603578836, 2046628.952436406398192 ], [ 3600321.478600234724581, 2046622.85039856354706 ], [ 3600379.443447219207883, 2046648.784492144361138 ], [ 3600416.424727068282664, 2046666.534224808448926 ], [ 3600412.713357919827104, 2046672.297301586717367 ], [ 3600406.349310103338212, 2046682.080315046012402 ], [ 3600371.648247343022376, 2046743.525246501201764 ], [ 3600383.234913851134479, 2046749.259247194509953 ], [ 3600376.168997402302921, 2046763.437066866084933 ], [ 3600373.817390747368336, 2046768.459727365756407 ], [ 3600529.089673605747521, 2046841.492378102615476 ], [ 3600545.812639807350934, 2046849.35805160086602 ], [ 3600813.993378859944642, 2046972.643252327339724 ], [ 3600946.583244764246047, 2047033.59361276240088 ], [ 3601041.829987330362201, 2047077.380246145417914 ], [ 3601095.555242654401809, 2047104.339462379692122 ], [ 3601098.32772498531267, 2047098.462124674813822 ], [ 3601100.136241832748055, 2047094.559896346414462 ], [ 3601101.989412197843194, 2047090.483298343140632 ], [ 3601111.515244852285832, 2047069.586709116119891 ], [ 3601129.854082245379686, 2047029.332963162101805 ], [ 3601284.596191197633743, 2047100.641261498909444 ], [ 3601243.812959824223071, 2047172.799136532936245 ], [ 3601181.456458978820592, 2047283.127116245683283 ], [ 3601548.458040048368275, 2047428.768951164325699 ], [ 3601869.718395716510713, 2047556.241648448165506 ], [ 3601870.995525027159601, 2047552.222665199544281 ], [ 3601871.008474556729198, 2047552.237261587753892 ] ] ] } },
{ "type": "Feature", "properties": { "SITE_NAME": "Tamarit-Punta de la Móra-Costes del Tarragonès", "ODESIGNATE": "Plan Especial de Protección (PEIN)", "NUT2": 51, "SITE_CODE_": "ES514022", "DESIG_ABBR": "ES43", "SITE_CDDA": "555562410_CDDA", "Sup_ha": 1077.1918262300001 }, "geometry": { "type": "Polygon", "coordinates": [ [ [ 3598948.839471213053912, 2045950.369681648677215 ], [ 3598961.970205128658563, 2045957.774374202825129 ], [ 3598975.249991486780345, 2045964.924397118389606 ], [ 3598995.363035528920591, 2045974.9149603783153 ], [ 3599015.49171856418252, 2045984.853932404424995 ], [ 3599034.89898289879784, 2045994.952102053910494 ], [ 3599054.229126662015915, 2046005.207936982158571 ], [ 3599069.967935025691986, 2046013.884953635046259 ], [ 3599085.671870924066752, 2046022.625521278707311 ], [ 3599098.466114233713597, 2046029.401420755311847 ], [ 3599111.564446600154042, 2046035.61758075421676 ], [ 3599116.824291305616498, 2046037.737518136855215 ], [ 3599126.233729410450906, 2046040.902044418966398 ], [ 3599140.547006283421069, 2046045.098900308134034 ], [ 3599147.659861822146922, 2046047.33172832778655 ], [ 3599154.648759338539094, 2046049.876887819496915 ], [ 3599162.212748493533581, 2046052.921126169152558 ], [ 3599172.85920708719641, 2046057.205676382407546 ], [ 3599190.95386136835441, 2046064.825784723740071 ], [ 3599210.513522366061807, 2046073.427357533946633 ], [ 3599230.047426735982299, 2046082.081395043758675 ], [ 3599247.071595379151404, 2046089.784145093057305 ], [ 3599264.114057879894972, 2046097.465115134604275 ], [ 3599273.197826011106372, 2046101.171587391523644 ], [ 3599287.129706198815256, 2046105.965901032788679 ], [ 3599301.23098985850811, 2046110.273381979670376 ], [ 3599310.862791546620429, 2046112.865793434204534 ], [ 3599325.457727086730301, 2046116.244675937574357 ], [ 3599339.943783904891461, 2046119.994402368320152 ], [ 3599356.956735036335886, 2046125.475076951319352 ], [ 3599365.323539256118238, 2046128.579200425883755 ], [ 3599373.550661540590227, 2046132.047363392077386 ], [ 3599388.502664372324944, 2046138.967242190847173 ], [ 3599403.272415428422391, 2046146.225029547698796 ], [ 3599419.985025673173368, 2046154.748836782760918 ], [ 3599436.681043179705739, 2046163.314314211253077 ], [ 3599452.350780404638499, 2046171.427331760991365 ], [ 3599467.959236613940448, 2046179.646385512081906 ], [ 3599475.386675101239234, 2046183.882032319437712 ], [ 3599486.26832576841116, 2046190.671095746802166 ], [ 3599497.282649822067469, 2046197.247224824270234 ], [ 3599512.614545237272978, 2046205.412615770474076 ], [ 3599528.102935361675918, 2046213.292563459137455 ], [ 3599560.487491671927273, 2046228.326961977640167 ], [ 3599571.042320629116148, 2046233.78531885612756 ], [ 3599588.531019430141896, 2046243.827197615988553 ], [ 3599605.958322993479669, 2046253.975030585657805 ], [ 3599618.52903516124934, 2046261.193225051742047 ], [ 3599631.18932126974687, 2046268.282655593939126 ], [ 3599639.900292180944234, 2046272.685902005294338 ], [ 3599653.304027756676078, 2046278.592542466009036 ], [ 3599666.811357136350125, 2046284.298825544072315 ], [ 3599681.484145225957036, 2046290.204035458154976 ], [ 3599696.113848733715713, 2046296.193515319377184 ], [ 3599701.507704449817538, 2046299.161927478155121 ], [ 3599709.130526846740395, 2046304.490592077141628 ], [ 3599712.98210967425257, 2046307.096045009791851 ], [ 3599717.016025528311729, 2046309.363478467101231 ], [ 3599729.616045246832073, 2046315.176824101246893 ], [ 3599742.404053670354187, 2046320.601604492170736 ], [ 3599769.428911530412734, 2046330.621470347046852 ], [ 3599771.867764902301133, 2046331.799885884858668 ], [ 3599775.869209438096732, 2046334.390932267764583 ], [ 3599781.634124766103923, 2046338.735879986546934 ], [ 3599784.607182251289487, 2046340.734446664340794 ], [ 3599787.752588500268757, 2046342.396041050786152 ], [ 3599791.009940727148205, 2046343.606224882183596 ], [ 3599796.979199062567204, 2046345.07741657551378 ], [ 3599806.118832979351282, 2046346.755746748996899 ], [ 3599810.59665297716856, 2046347.869079983094707 ], [ 3599814.885086583904922, 2046349.471240195212886 ], [ 3599823.706474907696247, 2046353.753781550098211 ], [ 3599832.382956941146404, 2046358.340622060000896 ], [ 3599841.898844991344959, 2046364.128899541683495 ], [ 3599846.633125215768814, 2046367.040364759741351 ], [ 3599851.51740723894909, 2046369.707089408300817 ], [ 3599855.560762067325413, 2046371.503069224767387 ], [ 3599862.9101079008542, 2046374.023729321081191 ], [ 3599874.177329300902784, 2046377.24084202083759 ], [ 3599879.72193719400093, 2046379.043158454820514 ], [ 3599885.101194007322192, 2046381.261857280042022 ], [ 3599900.816723264753819, 2046388.739747441140935 ], [ 3599916.480856968555599, 2046396.322642748942599 ], [ 3599934.220825662836432, 2046405.078777387971058 ], [ 3599951.978874784894288, 2046413.81306675914675 ], [ 3599967.645184630528092, 2046420.955156669719145 ], [ 3599983.606846424750984, 2046427.438024234725162 ], [ 3599992.089704074896872, 2046430.370932249352336 ], [ 3600005.01233543548733, 2046434.210612933849916 ], [ 3600011.423591497819871, 2046436.250411821994931 ], [ 3600017.73003866802901, 2046438.590698400279507 ], [ 3600069.815117862541229, 2046459.900340931955725 ], [ 3600087.574092943221331, 2046467.132547086803243 ], [ 3600091.718927073292434, 2046468.588163929758593 ], [ 3600099.212164004798979, 2046470.444223238620907 ], [ 3600110.653937626630068, 2046472.653268021764234 ], [ 3600116.263992450665683, 2046474.048686604946852 ], [ 3600121.698282196652144, 2046475.971817639889196 ], [ 3600158.464571016374975, 2046491.708480464294553 ], [ 3600199.941635700874031, 2046509.387556712143123 ], [ 3600208.88139090873301, 2046512.827622991288081 ], [ 3600222.497417353093624, 2046517.462155011482537 ], [ 3600229.256139533128589, 2046519.909436448477209 ], [ 3600235.880039321724325, 2046522.65995171898976 ], [ 3600254.028578255791217, 2046531.016487715533003 ], [ 3600272.117441268172115, 2046539.498961035395041 ], [ 3600288.630768196191639, 2046547.35121054504998 ], [ 3600305.188964141532779, 2046555.1389661047142 ], [ 3600318.915898372419178, 2046561.054832311812788 ], [ 3600332.769441367127001, 2046566.688186476938426 ], [ 3600347.834106317721307, 2046573.04684624937363 ], [ 3600355.43612168636173, 2046576.04413561266847 ], [ 3600363.177207827568054, 2046578.667711609974504 ], [ 3600384.236435178667307, 2046584.582382117398083 ], [ 3600405.368978906422853, 2046590.179598400602117 ], [ 3600421.456691444851458, 2046594.397179089020938 ], [ 3600437.523136579431593, 2046598.717100114328787 ], [ 3600448.972765502985567, 2046602.527669604402035 ], [ 3600465.752310839481652, 2046609.383007215103135 ], [ 3600474.111819905228913, 2046612.868672736454755 ], [ 3600482.562397796660662, 2046616.125299863982946 ], [ 3600504.19849580898881, 2046623.466976569732651 ], [ 3600525.806702655274421, 2046630.951517707435414 ], [ 3600542.983319785445929, 2046637.738858185941353 ], [ 3600551.441714716143906, 2046641.435352595057338 ], [ 3600559.780860053375363, 2046645.383698842255399 ], [ 3600574.019790006335825, 2046652.442263424163684 ], [ 3600602.958869417663664, 2046666.886033217189834 ], [ 3600617.677381875924766, 2046674.249243581667542 ], [ 3600637.128298939671367, 2046684.15368804265745 ], [ 3600656.387819612398744, 2046694.406925882678479 ], [ 3600676.404891364276409, 2046705.498927533626556 ], [ 3600696.377190369646996, 2046716.655411524232477 ], [ 3600710.699531549122185, 2046724.677587455837056 ], [ 3600724.996216815430671, 2046732.75220832368359 ], [ 3600729.999759096652269, 2046736.098629625048488 ], [ 3600736.986027054488659, 2046741.869037060299888 ], [ 3600740.498669052030891, 2046744.747282651951537 ], [ 3600744.202176201622933, 2046747.387038838583976 ], [ 3600752.304619402159005, 2046752.439576974371448 ], [ 3600758.503596041351557, 2046755.981995619833469 ], [ 3600768.090736309066415, 2046760.732145725516602 ], [ 3600773.031555019319057, 2046762.772641642717645 ], [ 3600778.090702276676893, 2046764.551557774655521 ], [ 3600801.359229207970202, 2046771.43658686382696 ], [ 3600824.771719134878367, 2046777.656796716619283 ], [ 3600846.205634710844606, 2046782.664580117445439 ], [ 3600856.945402979850769, 2046785.141205827472731 ], [ 3600867.620361167937517, 2046787.914523050189018 ], [ 3600874.966288059484214, 2046790.39568783971481 ], [ 3600880.310744363814592, 2046792.677970180287957 ], [ 3600888.121875328943133, 2046796.576754403300583 ], [ 3600895.761709763202816, 2046800.822414960712194 ], [ 3600901.446379915811121, 2046804.474123543361202 ], [ 3600909.645420601591468, 2046810.408828882500529 ], [ 3600913.82733491808176, 2046813.223045799182728 ], [ 3600918.212346393615007, 2046815.707410731120035 ], [ 3600937.915478356182575, 2046825.267367646098137 ], [ 3600956.858693460468203, 2046834.078801160911098 ], [ 3600974.083988933824003, 2046841.893122832290828 ], [ 3600991.427496861666441, 2046849.445786156924441 ], [ 3600999.206304467283189, 2046852.155936641152948 ], [ 3601011.246656010858715, 2046855.229145505465567 ], [ 3601017.238846924155951, 2046856.848577656084672 ], [ 3601023.082083127461374, 2046858.842750818701461 ], [ 3601030.881979633122683, 2046862.261915141250938 ], [ 3601042.345211285166442, 2046867.974162915954366 ], [ 3601048.106671384070069, 2046870.767369941808283 ], [ 3601053.968985680025071, 2046873.330526233650744 ], [ 3601070.025297741405666, 2046879.394148377235979 ], [ 3601086.291419379878789, 2046884.856775538763031 ], [ 3601095.88985854992643, 2046887.412729933159426 ], [ 3601110.531284290831536, 2046890.397087166784331 ], [ 3601117.820609748363495, 2046891.992420306196436 ], [ 3601124.982029155362397, 2046893.970507262740284 ], [ 3601128.291925518773496, 2046895.205919989384711 ], [ 3601133.857560358475894, 2046897.947732693748549 ], [ 3601142.010360466316342, 2046902.534878554753959 ], [ 3601146.17768789594993, 2046904.599488568259403 ], [ 3601150.510430667549372, 2046906.247511880705133 ], [ 3601159.586522380355746, 2046908.703339354600757 ], [ 3601173.391364740673453, 2046911.797867560060695 ], [ 3601182.344137062784284, 2046914.04822792019695 ], [ 3601182.384620605967939, 2046913.95904796035029 ], [ 3601185.789129859302193, 2046907.215381644433364 ], [ 3601187.958093191031367, 2046902.562425748445094 ], [ 3601543.863740760367364, 2045946.493414999451488 ], [ 3598942.168484363239259, 2045946.493414999451488 ], [ 3598948.839471213053912, 2045950.369681648677215 ] ] ] } }
]
}
