{
"type": "FeatureCollection",
"name": "Palol_de_Revardit",
"crs": { "type": "name", "properties": { "name": "urn:ogc:def:crs:EPSG::3035" } },
"features": [
{ "type": "Feature", "properties": { "SITE_NAME": "Muntanyes de Rocacorba", "ODESIGNATE": "Plan Especial de Protección (PEIN)", "NUT2": 51, "SITE_CODE_": "ES510144", "DESIG_ABBR": "ES43", "SITE_CDDA": "389143_CDDA", "Sup_ha": 3205.5722685699998 }, "geometry": { "type": "Polygon", "coordinates": [ [ [ 3720456.261071139015257, 2135600.989862416405231 ], [ 3720484.766680229455233, 2135581.292202116455883 ], [ 3720514.090649518184364, 2135571.035384339280427 ], [ 3720544.663521403912455, 2135575.188181572128087 ], [ 3720639.526175655424595, 2135623.917890565935522 ], [ 3720670.271323259454221, 2135630.058281383477151 ], [ 3720699.939912546426058, 2135623.776363654062152 ], [ 3720728.574718429241329, 2135605.569623565301299 ], [ 3720774.338887168094516, 2135564.221543855965137 ], [ 3720792.234318315051496, 2135532.493293753825128 ], [ 3720775.164799844846129, 2135504.035875648725778 ], [ 3720688.578361727762967, 2135452.027100800536573 ], [ 3720652.269539978355169, 2135422.364234235137701 ], [ 3720633.460622743703425, 2135397.074789030477405 ], [ 3720621.88543112995103, 2135368.103414084762335 ], [ 3720610.223890884313732, 2135309.085854190401733 ], [ 3720600.147661074064672, 2135279.974313510581851 ], [ 3720577.644071817863733, 2135258.537154181860387 ], [ 3720546.51125697279349, 2135247.925426562316716 ], [ 3720516.799620293080807, 2135253.710107008460909 ], [ 3720459.357401614077389, 2135288.136158584617078 ], [ 3720433.383339999709278, 2135311.700024929363281 ], [ 3720433.383339999709278, 2135628.695669341366738 ], [ 3720456.261071139015257, 2135600.989862416405231 ] ] ] } },
{ "type": "Feature", "properties": { "SITE_NAME": "Riberes del Baix Ter", "ODESIGNATE": "Plan Especial de Protección (PEIN)", "NUT2": 51, "SITE_CODE_": "ES512058", "DESIG_ABBR": "ES43", "SITE_CDDA": "349667_CDDA", "Sup_ha": 1160.3563527900001 }, "geometry": { "type": "Polygon", "coordinates": [ [ [ 3727462.999781566672027, 2131000.278548748232424 ], [ 3727429.867904572281986, 2131014.041653184220195 ], [ 3727373.13502777274698, 2131027.874769674614072 ], [ 3727353.43312753085047, 2131023.313714508898556 ], [ 3727310.506437677890062, 2131023.055351229850203 ], [ 3727289.592932884115726, 2131029.275834371335804 ], [ 3727270.430802836082876, 2131031.065556673333049 ], [ 3727251.645216424949467, 2131037.087421987671405 ], [ 3727213.707675688900054, 2131044.898075641598552 ], [ 3727202.03926128288731, 2131058.790047439746559 ], [ 3727077.576802902389318, 2131083.217179986648262 ], [ 3727020.110864408314228, 2131088.584482605569065 ], [ 3726983.201463729608804, 2131083.496629729866982 ], [ 3726965.627470311708748, 2131078.736732916906476 ], [ 3726903.538970070425421, 2131080.268483002670109 ], [ 3726885.964979160577059, 2131075.508702220860869 ], [ 3726850.450895389541984, 2131061.75587444100529 ], [ 3726815.486242475453764, 2131054.353273748420179 ], [ 3726795.407818401232362, 2131045.559790379367769 ], [ 3726779.41198283713311, 2131034.251703524496406 ], [ 3726744.080986648797989, 2131022.615680824499577 ], [ 3726708.382910134736449, 2131006.736371978651732 ], [ 3726688.680692060384899, 2131002.175525459460914 ], [ 3726667.024050214793533, 2130999.930898637976497 ], [ 3726649.450204675085843, 2130995.171023962553591 ], [ 3726612.174581972882152, 2130985.850650220178068 ], [ 3726594.234059466980398, 2130976.857693023979664 ], [ 3726576.843435196205974, 2130974.214695445261896 ], [ 3726576.735471721272916, 2130974.213199724908918 ], [ 3726572.213789597619325, 2130971.242076533846557 ], [ 3726560.923565822653472, 2130966.870146785862744 ], [ 3726510.817492973990738, 2130955.271066101267934 ], [ 3726455.765755731612444, 2130949.560225076507777 ], [ 3726401.330287036951631, 2130938.36558567173779 ], [ 3726367.833161111921072, 2130929.55616669729352 ], [ 3726324.278112884610891, 2130905.406797876115888 ], [ 3726269.003723421599716, 2130884.522975214757025 ], [ 3726238.724745265673846, 2130866.676639998797327 ], [ 3726060.577902207151055, 2130866.676639998797327 ], [ 3726060.901542072184384, 2130867.062443658709526 ], [ 3726108.449717192910612, 2130899.521132538095117 ], [ 3726161.838965285569429, 2130923.836960650514811 ], [ 3726209.106946260668337, 2130953.065655879210681 ], [ 3726237.192242139484733, 2130962.380568261258304 ], [ 3726275.914930556900799, 2130968.531108170747757 ], [ 3726328.895117837470025, 2130975.520358326844871 ], [ 3726411.845492747146636, 2130988.392751860897988 ], [ 3726467.177238536532968, 2130997.333039707038552 ], [ 3726517.619485112372786, 2131000.21843534335494 ], [ 3726525.295503050088882, 2131003.897024837788194 ], [ 3726525.187758307438344, 2131003.964100974146277 ], [ 3726536.656286007259041, 2131005.70687512261793 ], [ 3726558.11951303249225, 2131005.836064897477627 ], [ 3726577.831330120563507, 2131010.39590525906533 ], [ 3726595.222052353434265, 2131013.038878039922565 ], [ 3726638.148584926500916, 2131013.296682687010616 ], [ 3726694.952938672155142, 2131025.060536100529134 ], [ 3726732.412829473614693, 2131036.507694343104959 ], [ 3726754.059372721239924, 2131038.753284604754299 ], [ 3726770.055291476659477, 2131050.061859044246376 ], [ 3726787.995431724004447, 2131059.054488323628902 ], [ 3726823.153557901736349, 2131068.573258659802377 ], [ 3726854.778089327272028, 2131086.956628642510623 ], [ 3726890.475972211454064, 2131102.826011713128537 ], [ 3726911.939294415991753, 2131102.955072456039488 ], [ 3726946.913736597169191, 2131110.356990632601082 ], [ 3726989.839929787907749, 2131110.615025664679706 ], [ 3727109.018460579682142, 2131099.483991623856127 ], [ 3727128.353805804625154, 2131099.811682735569775 ], [ 3727147.322496033739299, 2131095.906415021046996 ], [ 3727187.947910598479211, 2131094.24579452816397 ], [ 3727206.916593615897, 2131090.340551839210093 ], [ 3727277.619420330040157, 2131064.534007154405117 ], [ 3727340.919559237547219, 2131052.22072720201686 ], [ 3727357.393718104809523, 2131044.280930808745325 ], [ 3727374.784548400435597, 2131046.924263836815953 ], [ 3727417.35463934019208, 2131042.948660947848111 ], [ 3727438.451302129775286, 2131038.844778058119118 ], [ 3727467.413460000883788, 2131028.720020469743758 ], [ 3727467.413460000883788, 2130997.953786636237055 ], [ 3727462.999781566672027, 2131000.278548748232424 ] ] ] } },
{ "type": "Feature", "properties": { "SITE_NAME": "Rieres de Xuclà i Riudelleques", "ODESIGNATE": "Plan Especial de Protección (PEIN)", "NUT2": 51, "SITE_CODE_": "ES512060", "DESIG_ABBR": "ES43", "SITE_CDDA": "555546234_CDDA", "Sup_ha": 51.580432071399997 }, "geometry": { "type": "Polygon", "coordinates": [ [ [ 3720437.572630919516087, 2134607.537858340889215 ], [ 3720439.278860696591437, 2134605.735214265994728 ], [ 3720450.592767179943621, 2134592.544134426862001 ], [ 3720458.265834944322705, 2134583.75877835508436 ], [ 3720462.12898673908785, 2134582.968107458204031 ], [ 3720465.572157259099185, 2134582.005429478362203 ], [ 3720473.92421891214326, 2134579.020513672381639 ], [ 3720476.180628382600844, 2134578.088684772141278 ], [ 3720479.96746935416013, 2134575.889763030223548 ], [ 3720483.318376764189452, 2134573.072172690182924 ], [ 3720484.118958416860551, 2134572.233302919194102 ], [ 3720488.3127805525437, 2134567.633318160660565 ], [ 3720491.550647064577788, 2134563.194873243570328 ], [ 3720495.576571270357817, 2134556.18081481475383 ], [ 3720507.4868646832183, 2134550.500887689180672 ], [ 3720521.365682179108262, 2134545.238223798573017 ], [ 3720529.943752812221646, 2134543.69296420738101 ], [ 3720530.990612043999135, 2134543.481504518538713 ], [ 3720536.285745583008975, 2134542.29519866919145 ], [ 3720542.956625301390886, 2134539.770630438812077 ], [ 3720547.54206532984972, 2134537.247956910170615 ], [ 3720551.821447906084359, 2134534.283437383361161 ], [ 3720568.915913389064372, 2134519.626945621799678 ], [ 3720603.070420589763671, 2134490.328841344919056 ], [ 3720620.160028300713748, 2134475.676821927074343 ], [ 3720621.068202994763851, 2134474.859448787756264 ], [ 3720645.106748327147216, 2134452.148498380556703 ], [ 3720668.493855824228376, 2134431.556529032066464 ], [ 3720670.189301290549338, 2134430.616364678833634 ], [ 3720677.111067225690931, 2134428.865991162136197 ], [ 3720686.873585743829608, 2134427.495359097607434 ], [ 3720701.569162187166512, 2134426.197364886291325 ], [ 3720701.829607903026044, 2134426.17294792085886 ], [ 3720717.147465885151178, 2134424.66011581895873 ], [ 3720720.149477418046445, 2134424.179743923712522 ], [ 3720738.883082903921604, 2134420.012908368371427 ], [ 3720742.546138072386384, 2134418.901632382534444 ], [ 3720751.422619286458939, 2134415.456586464308202 ], [ 3720755.771688918583095, 2134413.266958638560027 ], [ 3720763.773888539522886, 2134408.220733834430575 ], [ 3720766.508736737072468, 2134406.229012609925121 ], [ 3720782.940608792472631, 2134392.493527890183032 ], [ 3720798.990247243084013, 2134378.895210950635374 ], [ 3720820.3208820335567, 2134361.046786356717348 ], [ 3720841.082773431669921, 2134344.114965016022325 ], [ 3720856.462929482571781, 2134333.694753221701831 ], [ 3720873.517548061907291, 2134323.745248414110392 ], [ 3720873.752286376431584, 2134323.606570573523641 ], [ 3720888.775342324282974, 2134314.624421725980937 ], [ 3720903.616145643871278, 2134306.564990405458957 ], [ 3720941.008466737810522, 2134288.467880309093744 ], [ 3720941.251216483768076, 2134288.326675750780851 ], [ 3720944.794710257090628, 2134286.26711129071191 ], [ 3720945.764611325692385, 2134285.451686180196702 ], [ 3720988.957901915069669, 2134251.83935343567282 ], [ 3721001.973655912559479, 2134242.269343455322087 ], [ 3721014.818207381293178, 2134234.647962864954025 ], [ 3721021.923825573176146, 2134231.639673084951937 ], [ 3721032.869662615470588, 2134229.20932509098202 ], [ 3721055.630633476190269, 2134227.637630126439035 ], [ 3721079.788911714218557, 2134226.586784022394568 ], [ 3721095.680638993624598, 2134226.582644142676145 ], [ 3721097.514895927160978, 2134226.51530477963388 ], [ 3721113.817074600607157, 2134225.320887812413275 ], [ 3721117.916865660343319, 2134224.678664654493332 ], [ 3721134.972021133638918, 2134220.549011050723493 ], [ 3721135.696491441689432, 2134220.362502972595394 ], [ 3721152.310306117869914, 2134215.815386296715587 ], [ 3721169.941604698076844, 2134211.523846373893321 ], [ 3721170.218180058058351, 2134211.454762534238398 ], [ 3721188.170659185387194, 2134206.870379477739334 ], [ 3721191.440225309692323, 2134205.793970757164061 ], [ 3721200.691974133718759, 2134202.033599331974983 ], [ 3721204.302673880942166, 2134200.217824148014188 ], [ 3721212.923100972082466, 2134194.983663755469024 ], [ 3721213.530788253992796, 2134194.603168327361345 ], [ 3721229.631662250962108, 2134184.192243139259517 ], [ 3721246.904459430836141, 2134175.1950913220644 ], [ 3721263.338861631695181, 2134168.070338029414415 ], [ 3721263.975105294026434, 2134167.948727638926357 ], [ 3721266.368888895958662, 2134168.068735863082111 ], [ 3721278.526615565642715, 2134169.791892977431417 ], [ 3721283.588838799856603, 2134169.993572067469358 ], [ 3721292.214214697480202, 2134169.467331575229764 ], [ 3721297.469736671540886, 2134168.583181412890553 ], [ 3721317.389816359616816, 2134163.021913760341704 ], [ 3721337.232287466526031, 2134157.380224624183029 ], [ 3721350.733101241290569, 2134153.513647058978677 ], [ 3721361.114991541486233, 2134151.98243438731879 ], [ 3721367.306616333313286, 2134152.649697737768292 ], [ 3721376.445252105593681, 2134154.73711123270914 ], [ 3721397.86399862030521, 2134160.049914379604161 ], [ 3721399.580693031195551, 2134160.412415057886392 ], [ 3721418.171685876790434, 2134163.662769365124404 ], [ 3721419.028783724177629, 2134163.797121298499405 ], [ 3721437.653600571677089, 2134166.393036274705082 ], [ 3721440.891067116055638, 2134166.632481440901756 ], [ 3721450.929724700283259, 2134166.725440872833133 ], [ 3721455.010421718470752, 2134166.430979676079005 ], [ 3721465.057934344746172, 2134164.880440471693873 ], [ 3721468.526054889895022, 2134164.091995934955776 ], [ 3721488.359583113342524, 2134158.089616665616632 ], [ 3721490.504698182456195, 2134157.333654287736863 ], [ 3721512.369409657083452, 2134148.506781487725675 ], [ 3721515.038689812645316, 2134147.243616664782166 ], [ 3721535.577442624140531, 2134136.016134219244123 ], [ 3721538.23739816993475, 2134134.33978873398155 ], [ 3721551.243022310547531, 2134124.968964395578951 ], [ 3721553.294464228674769, 2134123.322509685531259 ], [ 3721564.840026411227882, 2134113.026454264763743 ], [ 3721566.450253326445818, 2134111.456421257928014 ], [ 3721576.776380780152977, 2134100.452777489554137 ], [ 3721578.137178761418909, 2134098.877535624429584 ], [ 3721596.815541494637728, 2134075.361648595891893 ], [ 3721598.597660496365279, 2134072.8098737411201 ], [ 3721605.17600826267153, 2134062.026375584304333 ], [ 3721606.771161972079426, 2134058.954725024756044 ], [ 3721611.918421550188214, 2134047.112859774380922 ], [ 3721612.46303516253829, 2134045.752912556752563 ], [ 3721620.98954008705914, 2134022.51352830696851 ], [ 3721626.775098970159888, 2134010.775327614042908 ], [ 3721629.364452082663774, 2134007.296784729231149 ], [ 3721633.84309965511784, 2134003.347407575696707 ], [ 3721667.543723929673433, 2133982.260025938041508 ], [ 3721703.279206403531134, 2133960.683453135658056 ], [ 3721703.663964630104601, 2133960.446447555907071 ], [ 3721723.165852672886103, 2133948.191734789870679 ], [ 3721725.76171803753823, 2133946.552860248833895 ], [ 3721726.280190999619663, 2133946.211840209551156 ], [ 3721726.852229642681777, 2133945.832788076717407 ], [ 3721748.096301550511271, 2133931.759867371991277 ], [ 3721750.135894494596869, 2133930.255435629282147 ], [ 3721759.511986788362265, 2133922.586475781165063 ], [ 3721761.572613567579538, 2133920.702460023574531 ], [ 3721770.038394879549742, 2133912.05670896358788 ], [ 3721771.194387066178024, 2133910.793669587001204 ], [ 3721787.040817528031766, 2133892.250969857908785 ], [ 3721787.431242326740175, 2133891.783006156794727 ], [ 3721803.550598928704858, 2133871.97254101280123 ], [ 3721804.22713327081874, 2133871.102945444639772 ], [ 3721819.398835873231292, 2133850.700389105826616 ], [ 3721821.588327342644334, 2133847.186301111709327 ], [ 3721827.199073754716665, 2133836.273033665493131 ], [ 3721828.046440662816167, 2133834.448879006318748 ], [ 3721831.979286247864366, 2133825.00924902735278 ], [ 3721833.899024113081396, 2133821.996171150356531 ], [ 3721838.301066894084215, 2133817.444932830519974 ], [ 3721844.19562151003629, 2133812.692083682864904 ], [ 3721859.135482846293598, 2133802.801243260502815 ], [ 3721870.937593780923635, 2133796.976768877357244 ], [ 3721884.577795028686523, 2133791.131621126551181 ], [ 3721887.764292710926384, 2133789.49071342125535 ], [ 3721896.699963093735278, 2133784.056712172925472 ], [ 3721900.052573015913367, 2133781.621420509181917 ], [ 3721908.028964535798877, 2133774.764675026293844 ], [ 3721910.208606112748384, 2133772.651221960783005 ], [ 3721917.200033542700112, 2133765.004676619544625 ], [ 3721919.498025320470333, 2133762.087065070867538 ], [ 3721931.082373428158462, 2133744.915109098888934 ], [ 3721932.639666667208076, 2133742.2728062691167 ], [ 3721938.975437629967928, 2133729.849175265990198 ], [ 3721940.350934792775661, 2133726.609574505593628 ], [ 3721943.26289674686268, 2133718.142573774792254 ], [ 3721944.198103935457766, 2133714.596967085730284 ], [ 3721945.842032809276134, 2133705.787842559628189 ], [ 3721945.958631902933121, 2133705.111428468488157 ], [ 3721948.349180409684777, 2133690.004438860341907 ], [ 3721950.670625998172909, 2133683.869059298653156 ], [ 3721961.695063637569547, 2133666.409913072362542 ], [ 3721974.71620865771547, 2133649.038220094516873 ], [ 3721989.277763336896896, 2133633.841548159718513 ], [ 3722005.155619288794696, 2133617.883759852033108 ], [ 3722007.809344942681491, 2133614.742908747401088 ], [ 3722016.529810732696205, 2133602.527029944583774 ], [ 3722018.383111253846437, 2133599.500729546882212 ], [ 3722032.961004060693085, 2133571.429955644067377 ], [ 3722033.43240892002359, 2133570.473311323206872 ], [ 3722046.784641114063561, 2133541.855679613538086 ], [ 3722046.888491209596395, 2133541.630333384498954 ], [ 3722056.626920640002936, 2133520.208734717220068 ], [ 3722065.804879213683307, 2133500.008015628904104 ], [ 3722066.424107391387224, 2133498.813151286449283 ], [ 3722074.461362681351602, 2133483.306493767537177 ], [ 3722083.146865523420274, 2133466.616025855764747 ], [ 3722084.750964595470577, 2133462.791440334636718 ], [ 3722088.043137690518051, 2133452.665889005176723 ], [ 3722089.26010799407959, 2133445.529879191890359 ], [ 3722089.639731555245817, 2133429.105229930952191 ], [ 3722089.530460123904049, 2133426.135803498793393 ], [ 3722087.926163423806429, 2133409.596211895346642 ], [ 3722087.778218085877597, 2133408.382264027372003 ], [ 3722084.972921196371317, 2133389.31440448295325 ], [ 3722082.769005218986422, 2133371.851998389698565 ], [ 3722082.85547779686749, 2133359.422178578563035 ], [ 3722083.915867230854928, 2133345.808170643635094 ], [ 3722086.128900219686329, 2133327.198518063873053 ], [ 3722087.694884295109659, 2133320.089742067269981 ], [ 3722090.081351554021239, 2133313.559747046791017 ], [ 3722099.490986436139792, 2133295.538436889648438 ], [ 3722110.25969550665468, 2133277.066868506371975 ], [ 3722118.65508054336533, 2133263.669840016402304 ], [ 3722118.951899899169803, 2133263.183533443138003 ], [ 3722127.260573712177575, 2133249.23342314735055 ], [ 3722129.596467370633036, 2133244.057549419812858 ], [ 3722132.768603032454848, 2133234.173856387846172 ], [ 3722133.905769472941756, 2133228.241224767174572 ], [ 3722134.947881004307419, 2133212.917521081864834 ], [ 3722136.446312927640975, 2133199.764589709229767 ], [ 3722139.056303333025426, 2133190.773978694807738 ], [ 3722142.84753683488816, 2133182.596708698198199 ], [ 3722149.882686105091125, 2133173.146580263972282 ], [ 3722159.189567905385047, 2133163.885476964060217 ], [ 3722176.056548815220594, 2133149.63841257058084 ], [ 3722191.988930318504572, 2133136.20192387746647 ], [ 3722193.681909741368145, 2133134.754876673687249 ], [ 3722194.456570137292147, 2133134.052942086942494 ], [ 3722195.273446534294635, 2133133.306582251098007 ], [ 3722210.13463568687439, 2133119.723195588216186 ], [ 3722224.202661622781307, 2133106.7351766647771 ], [ 3722230.971954757347703, 2133102.211705054156482 ], [ 3722246.048388835042715, 2133095.313593992963433 ], [ 3722247.490355166140944, 2133094.597206814214587 ], [ 3722255.603156519588083, 2133090.24235983658582 ], [ 3722259.253424694761634, 2133087.857438924722373 ], [ 3722266.420472930185497, 2133082.238631954882294 ], [ 3722270.859672729857266, 2133077.760326643940061 ], [ 3722278.246597655117512, 2133068.163625463843346 ], [ 3722280.659788146149367, 2133064.371736021712422 ], [ 3722288.706012292765081, 2133048.817170531488955 ], [ 3722296.644324435386807, 2133035.850919562391937 ], [ 3722306.677502898033708, 2133024.409285412169993 ], [ 3722317.330652427859604, 2133013.651060189120471 ], [ 3722327.388436118140817, 2133006.582880000118166 ], [ 3722327.981914543546736, 2133006.152968473732471 ], [ 3722339.7110177683644, 2132997.392256697174162 ], [ 3722344.00099369790405, 2132993.327532068826258 ], [ 3722352.312680378556252, 2132983.364046922884881 ], [ 3722354.314729848410934, 2132980.604727758094668 ], [ 3722364.543529910966754, 2132964.291206866502762 ], [ 3722365.759155672043562, 2132962.121193855069578 ], [ 3722374.352250404655933, 2132944.828393822535872 ], [ 3722375.756570000201464, 2132941.382723513990641 ], [ 3722381.005000400356948, 2132925.150923267006874 ], [ 3722385.553170014638454, 2132911.39821582660079 ], [ 3722389.694333142135292, 2132904.377769961021841 ], [ 3722394.83420767635107, 2132899.392517738975585 ], [ 3722401.231365316547453, 2132896.003860987257212 ], [ 3722417.316479293629527, 2132890.374097941443324 ], [ 3722418.436389062553644, 2132889.952105254866183 ], [ 3722435.893335328903049, 2132882.900342995300889 ], [ 3722438.895545464940369, 2132881.450961149297655 ], [ 3722465.170640277210623, 2132866.562223785556853 ], [ 3722467.420711719430983, 2132865.125329566653818 ], [ 3722492.409683685284108, 2132847.251441122032702 ], [ 3722495.262347663287073, 2132844.876652608625591 ], [ 3722502.446857660543174, 2132837.943951738998294 ], [ 3722505.202024617232382, 2132834.80596889462322 ], [ 3722513.921776283998042, 2132823.041168940719217 ], [ 3722516.326514543034136, 2132819.081950535066426 ], [ 3722522.774255263619125, 2132805.856440586503595 ], [ 3722524.595757442992181, 2132800.812320119235665 ], [ 3722526.996041026897728, 2132790.970907227136195 ], [ 3722527.645627081394196, 2132786.800950568169355 ], [ 3722528.606687559746206, 2132773.048225695732981 ], [ 3722530.644796052481979, 2132762.158498566132039 ], [ 3722534.76721794065088, 2132751.854285132139921 ], [ 3722540.637989981565624, 2132741.437005538493395 ], [ 3722555.192897886969149, 2132721.634895876981318 ], [ 3722570.719133842270821, 2132700.793354872614145 ], [ 3722588.851030040532351, 2132676.796951703727245 ], [ 3722607.058285891078413, 2132652.715132880490273 ], [ 3722607.465809447690845, 2132652.160555524285883 ], [ 3722620.013006998226047, 2132634.588061785325408 ], [ 3722622.0102952378802, 2132631.281669966876507 ], [ 3722626.796601055189967, 2132621.778012102469802 ], [ 3722628.691955655813217, 2132616.723988866433501 ], [ 3722631.311092913150787, 2132606.501345190219581 ], [ 3722632.088294548913836, 2132599.916409283876419 ], [ 3722631.967975881416351, 2132592.484457264188677 ], [ 3722631.421652068849653, 2132587.69431215710938 ], [ 3722629.150445259641856, 2132577.091673377901316 ], [ 3722627.466673233080655, 2132567.874903845600784 ], [ 3722625.679953588638455, 2132539.908091817982495 ], [ 3722624.378091364633292, 2132510.490988220088184 ], [ 3722623.472366263158619, 2132487.941288100089878 ], [ 3722623.846595920622349, 2132479.087577579542994 ], [ 3722625.469783035106957, 2132470.6475735809654 ], [ 3722641.515516637358814, 2132416.187682585790753 ], [ 3722641.717614413239062, 2132415.635662885382771 ], [ 3722642.414714691694826, 2132411.725120848044753 ], [ 3722642.455100468359888, 2132411.344783861190081 ], [ 3722645.509877525735646, 2132382.470790000632405 ], [ 3722648.573804051615298, 2132353.202769137453288 ], [ 3722648.708225949201733, 2132350.84741393243894 ], [ 3722648.970633521676064, 2132322.953412597533315 ], [ 3722648.812479293905199, 2132319.914206653833389 ], [ 3722645.65077842772007, 2132292.140177456196398 ], [ 3722645.425692046992481, 2132290.595170099753886 ], [ 3722639.716902596410364, 2132258.570061204023659 ], [ 3722634.198988056741655, 2132227.110629209782928 ], [ 3722630.722442772239447, 2132198.32374454755336 ], [ 3722627.240713122300804, 2132168.826502861455083 ], [ 3722626.91901761200279, 2132166.816189296077937 ], [ 3722620.616525426041335, 2132135.687425991520286 ], [ 3722617.685703027993441, 2132121.216991463676095 ], [ 3722616.220370996277779, 2132108.019847075454891 ], [ 3722616.251451617572457, 2132082.829583937302232 ], [ 3722617.284836928825825, 2132056.488207813352346 ], [ 3722618.658162325620651, 2132035.223592176102102 ], [ 3722618.6973797371611, 2132034.401445649564266 ], [ 3722619.372987440787256, 2132012.900364683475345 ], [ 3722619.19105567689985, 2132009.021876772399992 ], [ 3722616.060276358854026, 2131984.15973703796044 ], [ 3722615.756902001332492, 2131982.315577637404203 ], [ 3722610.73695370182395, 2131957.651207592338324 ], [ 3722607.655964951962233, 2131942.122397352941334 ], [ 3722607.53177572786808, 2131941.534174082800746 ], [ 3722604.064373063389212, 2131926.040001984219998 ], [ 3722603.008217790629715, 2131922.551034887321293 ], [ 3722598.733842140529305, 2131911.46019855607301 ], [ 3722596.886465107556432, 2131907.668527512811124 ], [ 3722587.768726839218289, 2131892.422665380407125 ], [ 3722584.462509437464178, 2131886.453360333107412 ], [ 3722582.941190424375236, 2131882.451997085474432 ], [ 3722580.680720264092088, 2131866.462509167846292 ], [ 3722581.638275344856083, 2131849.589920517988503 ], [ 3722588.244759171735495, 2131822.145123177673668 ], [ 3722595.314770137891173, 2131792.612981040030718 ], [ 3722595.996795977465808, 2131787.201921218074858 ], [ 3722596.419916109647602, 2131760.114376435056329 ], [ 3722596.415876427665353, 2131759.134918309748173 ], [ 3722596.120042718946934, 2131746.718748597428203 ], [ 3722596.826127205975354, 2131737.210556332021952 ], [ 3722598.422045627608895, 2131731.9245550991036 ], [ 3722604.381117586046457, 2131719.516124496236444 ], [ 3722605.10257800668478, 2131717.864619146566838 ], [ 3722607.943529419135302, 2131710.666805385611951 ], [ 3722609.229212826117873, 2131706.265558244660497 ], [ 3722610.686415209434927, 2131698.786421516910195 ], [ 3722611.110805179923773, 2131695.349673538468778 ], [ 3722612.308159420266747, 2131672.898213949985802 ], [ 3722612.331404838245362, 2131672.350125415250659 ], [ 3722613.032890400849283, 2131649.875039131380618 ], [ 3722613.044307643547654, 2131649.307939524762332 ], [ 3722613.207950759679079, 2131629.788127535954118 ], [ 3722613.48723868560046, 2131611.961287839338183 ], [ 3722614.565947345457971, 2131604.834174348507077 ], [ 3722618.772679256275296, 2131591.000877482816577 ], [ 3722619.243853240273893, 2131589.217144163325429 ], [ 3722622.800145839806646, 2131573.417640931904316 ], [ 3722623.35800520889461, 2131569.533572326879948 ], [ 3722626.166835130192339, 2131525.573685520794243 ], [ 3722626.21374026266858, 2131523.559386809356511 ], [ 3722625.454383905511349, 2131479.682487695477903 ], [ 3722625.355235900729895, 2131477.854924938641489 ], [ 3722623.423104950226843, 2131456.704778692685068 ], [ 3722621.721716193016618, 2131435.92937038699165 ], [ 3722619.012773394584656, 2131382.494078760035336 ], [ 3722618.432398659642786, 2131378.273904784582555 ], [ 3722607.954394956119359, 2131332.041254606097937 ], [ 3722610.565343155525625, 2131325.856900999788195 ], [ 3722612.015245988499373, 2131321.204199423082173 ], [ 3722614.970066536217928, 2131306.953297755680978 ], [ 3722615.489306718111038, 2131301.903242592699826 ], [ 3722615.494947677478194, 2131276.738362795207649 ], [ 3722615.489963745232671, 2131276.233406831976026 ], [ 3722615.013227523304522, 2131252.524943832308054 ], [ 3722616.370137204416096, 2131238.24969941098243 ], [ 3722617.510786845348775, 2131233.007987278979272 ], [ 3722619.040143232326955, 2131228.970113921910524 ], [ 3722620.769383614417166, 2131227.422099485062063 ], [ 3722624.649793303571641, 2131224.966077908407897 ], [ 3722638.597000923007727, 2131218.558084724936634 ], [ 3722643.054554598405957, 2131217.508961154147983 ], [ 3722646.876602136064321, 2131217.302761125843972 ], [ 3722648.52832201262936, 2131217.584156343713403 ], [ 3722657.047420507762581, 2131221.188009143806994 ], [ 3722674.591691979207098, 2131231.273489195853472 ], [ 3722676.458158845081925, 2131232.243975288700312 ], [ 3722686.051752595696598, 2131236.726500673219562 ], [ 3722690.437462252564728, 2131238.29574835114181 ], [ 3722700.252841150853783, 2131240.803938194178045 ], [ 3722707.287268711719662, 2131241.571663972921669 ], [ 3722720.553119849879295, 2131241.140612803399563 ], [ 3722729.615888231433928, 2131240.991419975180179 ], [ 3722736.493620396126062, 2131243.268489126116037 ], [ 3722747.389100305270404, 2131246.912157003767788 ], [ 3722754.594015936367214, 2131248.194499151781201 ], [ 3722767.185234485659748, 2131248.569891983643174 ], [ 3722773.346853850409389, 2131247.993860792834312 ], [ 3722785.671574290841818, 2131245.289273924194276 ], [ 3722792.356594921089709, 2131242.792077585123479 ], [ 3722801.993658726569265, 2131237.543707871809602 ], [ 3722805.997342430520803, 2131234.838422439992428 ], [ 3722818.475853373296559, 2131224.546735248528421 ], [ 3722826.842384492047131, 2131218.598636460024863 ], [ 3722830.013390672858804, 2131221.30131661798805 ], [ 3722842.194923591800034, 2131232.196385027840734 ], [ 3722843.02687273081392, 2131232.907899488694966 ], [ 3722849.194436050020158, 2131237.951535016298294 ], [ 3722849.500673295930028, 2131238.197686246596277 ], [ 3722855.793623552192003, 2131243.179393521510065 ], [ 3722858.367021763697267, 2131244.964068371802568 ], [ 3722866.125188743695617, 2131249.648600035347044 ], [ 3722870.295375048182905, 2131251.662853793241084 ], [ 3722878.673440509941429, 2131254.786558790598065 ], [ 3722881.105973306111991, 2131255.554541224613786 ], [ 3722885.408425307832658, 2131256.282107071019709 ], [ 3722887.334038401488215, 2131256.363609488122165 ], [ 3722895.051291296258569, 2131256.393393995240331 ], [ 3722897.495560934301466, 2131256.284015750978142 ], [ 3722901.79960719961673, 2131255.501355671323836 ], [ 3722905.408365623094141, 2131254.215428760275245 ], [ 3722912.866262377239764, 2131250.903821974992752 ], [ 3722918.443387959618121, 2131247.507167655043304 ], [ 3722934.508373077958822, 2131234.614824016578496 ], [ 3722937.454189214855433, 2131231.835871241986752 ], [ 3722944.180733029730618, 2131224.384769363794476 ], [ 3722946.434095640201122, 2131221.492194531485438 ], [ 3722951.740284521132708, 2131213.550369516480714 ], [ 3722952.030058205127716, 2131213.055279271211475 ], [ 3722953.778672439977527, 2131210.019725379999727 ], [ 3722964.626161853782833, 2131187.601068932097405 ], [ 3722964.794164445251226, 2131187.246402084361762 ], [ 3722975.076459368690848, 2131165.067702518776059 ], [ 3722984.631607559043914, 2131145.638507408089936 ], [ 3722988.985396863892674, 2131138.388614791911095 ], [ 3722992.935584593564272, 2131133.673603270202875 ], [ 3722993.890476162545383, 2131133.036998524796218 ], [ 3723002.666427807416767, 2131130.418663135264069 ], [ 3723002.977348521817476, 2131130.32390811573714 ], [ 3723015.195582095999271, 2131126.506888552568853 ], [ 3723021.495878423564136, 2131123.535500471014529 ], [ 3723040.263264338020235, 2131111.279113815631717 ], [ 3723047.510090361814946, 2131106.713553751818836 ], [ 3723051.559353766497225, 2131105.164992168545723 ], [ 3723059.847699882462621, 2131104.759154349099845 ], [ 3723064.356309576891363, 2131105.287908343598247 ], [ 3723069.928644391242415, 2131107.865518923848867 ], [ 3723072.603203161153942, 2131109.100086453836411 ], [ 3723073.32255343394354, 2131115.53011613432318 ], [ 3723073.577403036877513, 2131117.254980251193047 ], [ 3723075.995245548896492, 2131130.402570454403758 ], [ 3723077.605862665455788, 2131135.714291680604219 ], [ 3723080.719126402866095, 2131142.936598270200193 ], [ 3723081.813166805543005, 2131145.160209645982832 ], [ 3723085.726138347759843, 2131152.197509508579969 ], [ 3723089.183393769897521, 2131156.967989248223603 ], [ 3723096.794294149614871, 2131165.192368139512837 ], [ 3723102.698362801689655, 2131169.881071900948882 ], [ 3723111.704345147591084, 2131175.019739890471101 ], [ 3723113.67383512435481, 2131176.030316928401589 ], [ 3723117.778181951958686, 2131177.4914043052122 ], [ 3723122.080557539127767, 2131178.219202541746199 ], [ 3723122.398808442056179, 2131178.243035751394928 ], [ 3723126.309696272481233, 2131178.508283641189337 ], [ 3723130.360858661588281, 2131178.456875459291041 ], [ 3723134.665264585055411, 2131177.673979855142534 ], [ 3723137.22505570249632, 2131176.826153784058988 ], [ 3723143.547211381606758, 2131174.351814785506576 ], [ 3723145.095262328162789, 2131173.685678336769342 ], [ 3723148.882595350500196, 2131171.486722849309444 ], [ 3723152.233553600031883, 2131168.669784961268306 ], [ 3723152.508097839076072, 2131168.390794461593032 ], [ 3723157.130812845658511, 2131163.621428236365318 ], [ 3723161.636780987493694, 2131157.231940602883697 ], [ 3723167.499641326256096, 2131145.352862836793065 ], [ 3723173.048016055021435, 2131133.949767131358385 ], [ 3723186.164776023942977, 2131108.71065372414887 ], [ 3723190.117082662880421, 2131101.061153951101005 ], [ 3723191.149949612095952, 2131099.15274838777259 ], [ 3723191.617940248455852, 2131099.007985660340637 ], [ 3723221.379128586035222, 2131091.858696667477489 ], [ 3723250.175442975014448, 2131086.521818469278514 ], [ 3723266.753221482504159, 2131086.099226614460349 ], [ 3723267.420122446492314, 2131086.073285127058625 ], [ 3723276.603962757624686, 2131085.595284279435873 ], [ 3723282.175872558262199, 2131084.673396788071841 ], [ 3723290.836090522352606, 2131082.220947617664933 ], [ 3723294.70502005610615, 2131080.775209072977304 ], [ 3723309.578005210496485, 2131073.788463624194264 ], [ 3723324.404270950704813, 2131066.809408136643469 ], [ 3723339.264133726712316, 2131059.828764705918729 ], [ 3723354.109289673157036, 2131052.851252348162234 ], [ 3723355.975688433740288, 2131051.877476709894836 ], [ 3723368.436899189371616, 2131044.70228981692344 ], [ 3723371.68021564045921, 2131042.482904851436615 ], [ 3723388.608313721604645, 2131028.859537348151207 ], [ 3723390.246078500058502, 2131027.421219340525568 ], [ 3723406.046786633320153, 2131012.29013891890645 ], [ 3723407.738228610251099, 2131010.504776518791914 ], [ 3723418.396808968856931, 2130998.098561052232981 ], [ 3723420.164952995255589, 2130995.782629244029522 ], [ 3723433.374136979691684, 2130976.235548719298095 ], [ 3723446.893534963950515, 2130959.276731134857982 ], [ 3723453.668890460394323, 2130953.250946349464357 ], [ 3723466.740014491137117, 2130944.24574516993016 ], [ 3723480.449467964470387, 2130936.985868073999882 ], [ 3723486.094873324036598, 2130935.09984125290066 ], [ 3723489.906334016937762, 2130935.024717278778553 ], [ 3723505.575777218677104, 2130939.659541076049209 ], [ 3723522.04290121095255, 2130947.866176577750593 ], [ 3723535.611662994138896, 2130958.183266018051654 ], [ 3723535.904917724896222, 2130958.403141662478447 ], [ 3723551.472279898822308, 2130969.880784364417195 ], [ 3723556.496617417316884, 2130972.7477184724994 ], [ 3723569.14879740588367, 2130978.126730642281473 ], [ 3723572.715151625219733, 2130979.334263607859612 ], [ 3723585.940606295596808, 2130982.72621779050678 ], [ 3723588.722765085287392, 2130983.27412664052099 ], [ 3723600.241679592523724, 2130984.871944624464959 ], [ 3723604.168089468497783, 2130985.106066676788032 ], [ 3723621.724262938834727, 2130984.777315326035023 ], [ 3723626.624372598249465, 2130984.203105077147484 ], [ 3723643.705465058330446, 2130980.483148897998035 ], [ 3723647.717491982970387, 2130979.253099562134594 ], [ 3723659.291554395575076, 2130974.624975608661771 ], [ 3723663.660554636269808, 2130972.364294766914099 ], [ 3723679.366749413311481, 2130962.190803888253868 ], [ 3723683.578979549463838, 2130958.770076506771147 ], [ 3723690.359308219514787, 2130951.935608489438891 ], [ 3723692.984049395658076, 2130948.824475696310401 ], [ 3723698.840154114644974, 2130940.623477987013757 ], [ 3723701.029859633650631, 2130936.927090624347329 ], [ 3723705.5973842558451, 2130927.454132243990898 ], [ 3723707.288835188373923, 2130922.837313106749207 ], [ 3723710.96969071496278, 2130908.588821980170906 ], [ 3723711.537730038166046, 2130905.690744108520448 ], [ 3723713.502392330672592, 2130891.16186186671257 ], [ 3723713.710315461270511, 2130886.926806444767863 ], [ 3723713.023831048514694, 2130868.040475818794221 ], [ 3723712.971596594899893, 2130866.676639998797327 ], [ 3723662.782798840198666, 2130866.676639998797327 ], [ 3723662.920628194697201, 2130870.27861353289336 ], [ 3723663.528833310119808, 2130886.992866281419992 ], [ 3723662.047538129612803, 2130897.946357596665621 ], [ 3723659.354187595192343, 2130908.372137018479407 ], [ 3723656.796304069459438, 2130913.677290760912001 ], [ 3723653.3796664965339, 2130918.46121909096837 ], [ 3723649.959273125045002, 2130921.909014679025859 ], [ 3723638.618421931285411, 2130929.254899619147182 ], [ 3723631.294543845113367, 2130932.18330555036664 ], [ 3723618.693672273308039, 2130934.927785150241107 ], [ 3723605.587778023444116, 2130935.173386997543275 ], [ 3723597.428464202675968, 2130934.041417378932238 ], [ 3723587.407909589353949, 2130931.471409772057086 ], [ 3723579.174431595951319, 2130927.970709344372153 ], [ 3723566.09637345559895, 2130918.328553632833064 ], [ 3723550.814124737866223, 2130906.708309832029045 ], [ 3723546.86102423351258, 2130904.250988868996501 ], [ 3723526.346200922504067, 2130894.026936893817037 ], [ 3723522.296113320160657, 2130892.433477486949414 ], [ 3723500.807081968523562, 2130886.077125643379986 ], [ 3723493.191898460965604, 2130885.052756897173822 ], [ 3723481.639793511014432, 2130885.280954136047512 ], [ 3723474.133660378865898, 2130886.5787821598351 ], [ 3723462.848041285760701, 2130890.34846371319145 ], [ 3723459.017092751339078, 2130891.989226581528783 ], [ 3723442.15554812271148, 2130900.918378901202232 ], [ 3723439.636533011682332, 2130902.445982037112117 ], [ 3723424.059128666296601, 2130913.178291813470423 ], [ 3723421.596499387640506, 2130915.10990312602371 ], [ 3723412.030213586054742, 2130923.617379155009985 ], [ 3723409.061243276577443, 2130926.750581653323025 ], [ 3723393.572584242559969, 2130946.18001117464155 ], [ 3723392.396352190990001, 2130947.78090947587043 ], [ 3723379.447439532727003, 2130966.942346844822168 ], [ 3723370.542396422475576, 2130977.307766356505454 ], [ 3723356.418840656057, 2130990.832752679940313 ], [ 3723341.875735986977816, 2131002.536759281065315 ], [ 3723332.035569143015891, 2131008.202811302617192 ], [ 3723318.148841007612646, 2131014.729933565482497 ], [ 3723303.275957537814975, 2131021.716741068754345 ], [ 3723288.449664178770036, 2131028.695693303830922 ], [ 3723275.470383665524423, 2131034.792823589406908 ], [ 3723271.538878695107996, 2131035.906196651048958 ], [ 3723265.524050327017903, 2131036.219334669411182 ], [ 3723249.949992372654378, 2131036.616300924681127 ], [ 3723247.287684605456889, 2131036.719597646966577 ], [ 3723245.582541204988956, 2131036.785492716357112 ], [ 3723243.338328560814261, 2131037.147579004988074 ], [ 3723241.2630336266011, 2131037.481989336200058 ], [ 3723211.919168956577778, 2131042.920170346274972 ], [ 3723210.620263615157455, 2131043.196228695102036 ], [ 3723179.424215716775507, 2131050.690459538716823 ], [ 3723177.858964893035591, 2131051.120034891646355 ], [ 3723170.522091895341873, 2131053.388738395180553 ], [ 3723167.224983052816242, 2131054.66640227753669 ], [ 3723163.437642539851367, 2131056.865347101353109 ], [ 3723162.0690399101004, 2131057.897921578958631 ], [ 3723156.468638924881816, 2131062.428668960928917 ], [ 3723154.486602183897048, 2131064.213171153329313 ], [ 3723151.673359370324761, 2131067.563008016906679 ], [ 3723150.139312412589788, 2131070.042673228308558 ], [ 3723145.902532739099115, 2131077.872047170065343 ], [ 3723145.677791313733906, 2131078.297197894193232 ], [ 3723141.643066450953484, 2131086.106545977294445 ], [ 3723128.400583821814507, 2131111.587296551093459 ], [ 3723128.101934828329831, 2131112.180564052425325 ], [ 3723124.957695509772748, 2131118.643338999710977 ], [ 3723124.810114580672234, 2131118.300873724743724 ], [ 3723123.055413251742721, 2131108.759138361550868 ], [ 3723121.635918649379164, 2131096.074058917351067 ], [ 3723119.333566569257528, 2131088.079646014608443 ], [ 3723115.970455235335976, 2131081.111115182749927 ], [ 3723113.911974391900003, 2131077.613924082368612 ], [ 3723111.107963207177818, 2131074.300183907151222 ], [ 3723108.305133670568466, 2131071.910841970238835 ], [ 3723104.735365577042103, 2131069.29911978635937 ], [ 3723100.478865830227733, 2131066.794180072378367 ], [ 3723091.329102504998446, 2131062.571298590861261 ], [ 3723082.07393846521154, 2131058.290186557918787 ], [ 3723077.969742872752249, 2131056.82876786775887 ], [ 3723074.562564375810325, 2131056.252684158738703 ], [ 3723073.662133943289518, 2131056.141521424520761 ], [ 3723064.022524564061314, 2131054.953316737897694 ], [ 3723059.860609258059412, 2131054.812263246160001 ], [ 3723045.459249822422862, 2131055.517378645949066 ], [ 3723037.664538215380162, 2131057.156133922748268 ], [ 3723027.50665797945112, 2131061.040949220769107 ], [ 3723023.049135980196297, 2131063.270119233988225 ], [ 3723013.50873622437939, 2131069.281107919290662 ], [ 3723013.160478305071592, 2131069.50421363953501 ], [ 3722997.164884536527097, 2131079.950387578457594 ], [ 3722988.457739499397576, 2131082.670443322043866 ], [ 3722976.194039312191308, 2131086.329703887924552 ], [ 3722969.385259152390063, 2131089.526166623458266 ], [ 3722962.234576602466404, 2131094.291838251054287 ], [ 3722956.868033668957651, 2131099.100021694786847 ], [ 3722949.310284524224699, 2131108.121074025053531 ], [ 3722947.020918191876262, 2131111.334107124246657 ], [ 3722941.106013267301023, 2131121.183294937945902 ], [ 3722940.097989060916007, 2131123.032919812016189 ], [ 3722929.950848871376365, 2131143.666233216412365 ], [ 3722929.702451843768358, 2131144.186456918716431 ], [ 3722919.381123562343419, 2131166.448967198375612 ], [ 3722909.401876500342041, 2131187.121597748249769 ], [ 3722905.77322110068053, 2131192.552989613264799 ], [ 3722901.63934601796791, 2131197.131382929161191 ], [ 3722890.756439144723117, 2131205.865069844760001 ], [ 3722890.382080815732479, 2131205.725028979592025 ], [ 3722885.957183468155563, 2131203.053443673532456 ], [ 3722881.048158331774175, 2131199.167419568635523 ], [ 3722875.457033825106919, 2131194.595210773870349 ], [ 3722863.4632015558891, 2131183.867752567864954 ], [ 3722863.017380378674716, 2131183.478718612343073 ], [ 3722850.338090955279768, 2131172.672857399098575 ], [ 3722848.354832190554589, 2131171.148599677719176 ], [ 3722844.573398201260716, 2131168.997972635086626 ], [ 3722841.862742017023265, 2131167.943144861608744 ], [ 3722837.946045856457204, 2131166.676389592234045 ], [ 3722836.552313359454274, 2131166.269946696702391 ], [ 3722832.250072349328548, 2131165.542444337159395 ], [ 3722827.880513030104339, 2131165.57046652212739 ], [ 3722826.004837770946324, 2131165.817059857305139 ], [ 3722821.538257996551692, 2131166.574963707011193 ], [ 3722815.26790519664064, 2131168.501806801185012 ], [ 3722806.567730803973973, 2131172.470790891908109 ], [ 3722802.399855067022145, 2131174.874016726855189 ], [ 3722788.805025797337294, 2131184.53943118173629 ], [ 3722787.365303389728069, 2131185.642559194937348 ], [ 3722776.058848617598414, 2131194.967423037160188 ], [ 3722771.720150909386575, 2131197.330637988634408 ], [ 3722765.962091920897365, 2131198.59452560916543 ], [ 3722760.186254384927452, 2131198.422299961559474 ], [ 3722752.684367515612394, 2131195.913171349558979 ], [ 3722741.73496559355408, 2131192.288640483748168 ], [ 3722733.437995943240821, 2131191.023271273821592 ], [ 3722719.911394444294274, 2131191.245813945308328 ], [ 3722719.507757476530969, 2131191.255570511799306 ], [ 3722709.616214590147138, 2131191.577120907604694 ], [ 3722705.527382890693843, 2131190.532124171964824 ], [ 3722699.005798030644655, 2131187.484772328287363 ], [ 3722681.062374456319958, 2131177.169821813236922 ], [ 3722678.356063516810536, 2131175.825730683282018 ], [ 3722665.768676706124097, 2131170.500978775322437 ], [ 3722660.228396737482399, 2131168.881610485725105 ], [ 3722652.939953093416989, 2131167.639503667131066 ], [ 3722647.360395948402584, 2131167.319343247450888 ], [ 3722638.488731448538601, 2131167.79790248349309 ], [ 3722634.063607282470912, 2131168.433039226569235 ], [ 3722624.953770007938147, 2131170.577107330784202 ], [ 3722620.181826638057828, 2131172.216752792708576 ], [ 3722602.388926695100963, 2131180.391445484012365 ], [ 3722599.414930957369506, 2131182.006537162698805 ], [ 3722592.320995449088514, 2131186.496473890729249 ], [ 3722588.970989117398858, 2131189.02838537376374 ], [ 3722582.961225909180939, 2131194.408805445767939 ], [ 3722578.566078162752092, 2131199.560570662841201 ], [ 3722575.548049011267722, 2131204.250505702570081 ], [ 3722573.17840350465849, 2131208.950482237152755 ], [ 3722569.957122015301138, 2131217.456179952248931 ], [ 3722568.907046147622168, 2131220.997618812136352 ], [ 3722567.055810214951634, 2131229.505505208857358 ], [ 3722566.597758489195257, 2131232.447132084518671 ], [ 3722564.963826886378229, 2131249.629609411582351 ], [ 3722564.857163559179753, 2131252.482417489867657 ], [ 3722565.357760149519891, 2131277.367186241783202 ], [ 3722565.352631234563887, 2131299.730183597654104 ], [ 3722563.413067091722041, 2131309.085425137076527 ], [ 3722559.065667442511767, 2131319.537689781747758 ], [ 3722558.69503512326628, 2131320.428942502476275 ], [ 3722557.526986758224666, 2131323.619021461810917 ], [ 3722556.762476445175707, 2131327.906928088515997 ], [ 3722556.756972203031182, 2131332.256402073428035 ], [ 3722557.327315114438534, 2131335.582741297781467 ], [ 3722557.491591001860797, 2131336.539268523454666 ], [ 3722569.047411494888365, 2131387.53095177654177 ], [ 3722571.667830066289753, 2131439.215260777622461 ], [ 3722571.718688847497106, 2131439.983596646226943 ], [ 3722573.461133405100554, 2131461.258751328103244 ], [ 3722573.481335154734552, 2131461.490585058927536 ], [ 3722575.340470944531262, 2131481.845221795141697 ], [ 3722576.066700536292046, 2131523.798194652888924 ], [ 3722573.447657539043576, 2131564.789062104187906 ], [ 3722570.526460699271411, 2131577.767336699180305 ], [ 3722566.060633287765086, 2131592.453205827623606 ], [ 3722565.261670049279928, 2131595.980873963795602 ], [ 3722563.659921701066196, 2131606.559250872582197 ], [ 3722563.382885518018156, 2131609.894284536130726 ], [ 3722563.073576207272708, 2131629.668586208950728 ], [ 3722562.911743578035384, 2131648.995074077043682 ], [ 3722562.2271489771083, 2131670.912656466010958 ], [ 3722561.136668954510242, 2131691.358001313637942 ], [ 3722560.451513145118952, 2131694.874715896323323 ], [ 3722558.787422509863973, 2131699.090551065281034 ], [ 3722552.377768051344901, 2131712.43765436951071 ], [ 3722550.975822976790369, 2131716.046061722561717 ], [ 3722548.02577768964693, 2131725.81883180886507 ], [ 3722547.028986069373786, 2131731.181410726159811 ], [ 3722546.029336596373469, 2131744.638737306930125 ], [ 3722545.967890990432352, 2131747.071746086701751 ], [ 3722546.281522140372545, 2131760.215758568607271 ], [ 3722545.908749483060092, 2131784.072767652571201 ], [ 3722539.485557353124022, 2131810.903865396976471 ], [ 3722532.361028140410781, 2131840.501235323958099 ], [ 3722531.708350578323007, 2131844.922215599566698 ], [ 3722530.4844582779333, 2131866.484541774727404 ], [ 3722530.688570159953088, 2131871.364290857687593 ], [ 3722533.679628063924611, 2131892.522558933123946 ], [ 3722535.050052982289344, 2131897.848354510497302 ], [ 3722538.180296729318798, 2131906.081003145314753 ], [ 3722539.659343124367297, 2131909.267176781315356 ], [ 3722544.017279061023146, 2131917.134386413730681 ], [ 3722544.425049593672156, 2131917.843622752930969 ], [ 3722552.666403235401958, 2131931.623998030088842 ], [ 3722555.522173401433975, 2131939.034305873326957 ], [ 3722558.524657644331455, 2131952.450753377750516 ], [ 3722561.582917610183358, 2131967.864827376324683 ], [ 3722566.428682220634073, 2131991.672646591905504 ], [ 3722569.199542614165694, 2132013.675285366363823 ], [ 3722568.598132313694805, 2132032.817540524527431 ], [ 3722567.230926156975329, 2132053.985149412415922 ], [ 3722567.198337996844202, 2132054.613062793854624 ], [ 3722566.134301306679845, 2132081.740439191460609 ], [ 3722566.115199689753354, 2132082.683809380047023 ], [ 3722566.081842443905771, 2132109.734874830581248 ], [ 3722566.233491389546543, 2132112.503416013903916 ], [ 3722567.974006828851998, 2132128.178573847282678 ], [ 3722568.315327815245837, 2132130.360769516322762 ], [ 3722571.465183973778039, 2132145.912542589940131 ], [ 3722577.565064198337495, 2132176.041125325486064 ], [ 3722580.935332667548209, 2132204.592210900969803 ], [ 3722584.498871755320579, 2132234.102222769521177 ], [ 3722584.693070280831307, 2132235.411308873444796 ], [ 3722590.336772692855448, 2132267.590511195361614 ], [ 3722595.920904369093478, 2132298.914349256083369 ], [ 3722598.821798445191234, 2132324.398351009935141 ], [ 3722598.584698283113539, 2132349.586610296741128 ], [ 3722595.64359991485253, 2132377.678105602972209 ], [ 3722592.817125331610441, 2132404.660808728076518 ], [ 3722577.034140860661864, 2132458.075835414230824 ], [ 3722576.459345639217645, 2132460.43803780619055 ], [ 3722574.258378701284528, 2132471.883550279773772 ], [ 3722573.832308341749012, 2132475.534514058381319 ], [ 3722573.336756235919893, 2132487.251655645668507 ], [ 3722573.334681616630405, 2132489.297900316305459 ], [ 3722574.28755269292742, 2132513.022913130931556 ], [ 3722575.602641516365111, 2132542.732669849414378 ], [ 3722575.629127209540457, 2132543.217170469928533 ], [ 3722577.523296604864299, 2132572.872998586390167 ], [ 3722577.875963826663792, 2132575.745313613209873 ], [ 3722579.887595606036484, 2132586.757196136750281 ], [ 3722580.033909963443875, 2132587.494627172127366 ], [ 3722581.877089247573167, 2132596.0977902719751 ], [ 3722581.904044845607132, 2132597.765566732734442 ], [ 3722580.789086655713618, 2132602.116735570132732 ], [ 3722578.095933920703828, 2132607.464400140102953 ], [ 3722566.875132915563881, 2132623.179068269208074 ], [ 3722548.871701295953244, 2132646.991809282917529 ], [ 3722530.580231169238687, 2132671.19975583255291 ], [ 3722514.857802956365049, 2132692.30571299418807 ], [ 3722499.352764065377414, 2132713.400113980285823 ], [ 3722497.703604979906231, 2132715.953553767874837 ], [ 3722490.266121737658978, 2132729.151117827743292 ], [ 3722488.827165049500763, 2132732.153704401105642 ], [ 3722483.1731250253506, 2132746.286219798028469 ], [ 3722481.809805268421769, 2132750.976592247374356 ], [ 3722479.055767976678908, 2132765.689823990687728 ], [ 3722478.691152629442513, 2132768.536757793277502 ], [ 3722477.777484328486025, 2132781.611783904023468 ], [ 3722476.518020889721811, 2132786.776656286790967 ], [ 3722472.27166441641748, 2132795.486085062846541 ], [ 3722466.184962272644043, 2132803.69844074267894 ], [ 3722461.847611182834953, 2132807.883864862378687 ], [ 3722439.459685420617461, 2132823.897589223925024 ], [ 3722415.801153100561351, 2132837.303647624328732 ], [ 3722400.448224173858762, 2132843.505745210219175 ], [ 3722383.125262632034719, 2132849.568629105575383 ], [ 3722379.634087160695344, 2132851.093706622719765 ], [ 3722368.358330140821636, 2132857.066878755576909 ], [ 3722362.578124584630132, 2132861.269004192203283 ], [ 3722352.404905485920608, 2132871.136043237522244 ], [ 3722348.23563093226403, 2132876.432268831878901 ], [ 3722340.999893019907176, 2132888.699220418464392 ], [ 3722338.786924026440829, 2132893.572701036930084 ], [ 3722333.31627370044589, 2132910.116321449168026 ], [ 3722328.615609284490347, 2132924.653514972887933 ], [ 3722321.407052559778094, 2132939.160121182445437 ], [ 3722312.746954333037138, 2132952.971605992410332 ], [ 3722307.435303950682282, 2132959.339277134276927 ], [ 3722298.384672891814262, 2132966.099013135768473 ], [ 3722286.78018013946712, 2132974.254350899718702 ], [ 3722283.346352427732199, 2132977.154683873057365 ], [ 3722270.566146267112345, 2132990.060461829882115 ], [ 3722269.521332355216146, 2132991.181637649424374 ], [ 3722257.560009442735463, 2133004.822440429590642 ], [ 3722255.01170312659815, 2133008.283508128952235 ], [ 3722245.474398456979543, 2133023.861384803429246 ], [ 3722244.58503483235836, 2133025.439204388298094 ], [ 3722237.15888215880841, 2133039.795265735592693 ], [ 3722233.086152627132833, 2133045.086027272511274 ], [ 3722230.142841840628535, 2133047.393345986492932 ], [ 3722224.668336072470993, 2133050.332246520556509 ], [ 3722208.477338016964495, 2133057.740540265105665 ], [ 3722204.94078379124403, 2133059.714821393135935 ], [ 3722194.830513351131231, 2133066.470273757819086 ], [ 3722191.720244574360549, 2133068.920627138577402 ], [ 3722176.22695378633216, 2133083.224399488884956 ], [ 3722161.426657877396792, 2133096.763009775429964 ], [ 3722160.655769530683756, 2133097.467648799531162 ], [ 3722159.811448160093278, 2133098.180236421059817 ], [ 3722143.805128507781774, 2133111.679163925815374 ], [ 3722126.13438365329057, 2133126.605142802000046 ], [ 3722124.613468804396689, 2133127.999606711324304 ], [ 3722113.246311382390559, 2133139.310950072482228 ], [ 3722110.799946195445955, 2133142.134117837995291 ], [ 3722101.093279811553657, 2133155.173420264385641 ], [ 3722098.446252757683396, 2133159.618206375278533 ], [ 3722092.761170479934663, 2133171.880604413338006 ], [ 3722091.429397235624492, 2133175.436089786235243 ], [ 3722087.698606145568192, 2133188.287134809419513 ], [ 3722086.869267739821225, 2133192.420623318292201 ], [ 3722085.067189022433013, 2133208.237107231281698 ], [ 3722084.96436281921342, 2133209.365756104234606 ], [ 3722084.090302055235952, 2133222.222340002190322 ], [ 3722082.721118786837906, 2133226.487759136129171 ], [ 3722076.02222598111257, 2133237.735896459780633 ], [ 3722067.564379207324237, 2133251.232577249407768 ], [ 3722067.147737227380276, 2133251.921466354746372 ], [ 3722055.881001692265272, 2133271.247664732858539 ], [ 3722055.314051301218569, 2133272.274226729758084 ], [ 3722044.870880539529026, 2133292.274732198566198 ], [ 3722043.544924115762115, 2133295.277736686170101 ], [ 3722040.019924604799598, 2133304.924191495403647 ], [ 3722039.085646520834416, 2133308.129162227734923 ], [ 3722036.895493227988482, 2133318.071196372620761 ], [ 3722036.486234083771706, 2133320.491564931347966 ], [ 3722034.068042696453631, 2133340.823644344694912 ], [ 3722033.968930794391781, 2133341.829871763475239 ], [ 3722032.800937077496201, 2133356.825721473433077 ], [ 3722032.726469662040472, 2133358.583662452176213 ], [ 3722032.622617930173874, 2133373.540479740127921 ], [ 3722032.816964814439416, 2133376.818531067110598 ], [ 3722035.258678102865815, 2133396.164953457191586 ], [ 3722035.327543094754219, 2133396.668687460012734 ], [ 3722038.080722846556455, 2133415.382616019807756 ], [ 3722039.48255974939093, 2133429.832604973111302 ], [ 3722039.22151770349592, 2133441.116350789554417 ], [ 3722037.704901878256351, 2133445.780955173075199 ], [ 3722029.984124978072941, 2133460.617819033563137 ], [ 3722021.358379801735282, 2133477.333035174757242 ], [ 3722020.829116895794868, 2133478.246903805993497 ], [ 3722020.729985018726438, 2133478.518022865988314 ], [ 3722010.974387805443257, 2133499.932471656240523 ], [ 3722001.289637646637857, 2133521.236236276105046 ], [ 3721988.21529524680227, 2133549.258447862230241 ], [ 3721974.702842241153121, 2133575.277889942750335 ], [ 3721968.213844656478614, 2133584.367375265806913 ], [ 3721953.623724089935422, 2133599.030799992848188 ], [ 3721953.290814030915499, 2133599.371814736165106 ], [ 3721937.506783009506762, 2133615.844464981462806 ], [ 3721935.532274427823722, 2133618.171012477949262 ], [ 3721920.988845891784877, 2133637.57330265128985 ], [ 3721919.844415288418531, 2133639.234930477570742 ], [ 3721906.923656747676432, 2133659.697752316482365 ], [ 3721904.667490473482758, 2133664.221985477954149 ], [ 3721900.537360300309956, 2133675.137057044543326 ], [ 3721899.226177473552525, 2133680.077218953985721 ], [ 3721896.488066948484629, 2133697.380452252924442 ], [ 3721895.244451030157506, 2133704.046134473290294 ], [ 3721893.504058058839291, 2133709.106481937691569 ], [ 3721888.667558304034173, 2133718.589451309293509 ], [ 3721878.983861081767827, 2133732.944537195377052 ], [ 3721874.275249074678868, 2133738.093905140645802 ], [ 3721869.028481418266892, 2133742.604247613810003 ], [ 3721863.404612379148602, 2133746.024078791029751 ], [ 3721850.791229099500924, 2133751.42905761860311 ], [ 3721849.557288208045065, 2133751.99740135576576 ], [ 3721835.707409627735615, 2133758.832818657159805 ], [ 3721832.932432561647147, 2133760.427387232892215 ], [ 3721815.664209256879985, 2133771.859671149402857 ], [ 3721813.746680228505284, 2133773.262699329294264 ], [ 3721805.707658349536359, 2133779.744679500348866 ], [ 3721803.400625783018768, 2133781.852397569920868 ], [ 3721796.135780671611428, 2133789.364104363135993 ], [ 3721792.990462186746299, 2133793.350101901218295 ], [ 3721788.530991305131465, 2133800.348796143196523 ], [ 3721786.52586156129837, 2133804.189835473895073 ], [ 3721782.143988838419318, 2133814.706878927536309 ], [ 3721777.942915732972324, 2133822.878392778802663 ], [ 3721764.340137617662549, 2133841.171441094949841 ], [ 3721748.760968166403472, 2133860.317521003540605 ], [ 3721733.669074274599552, 2133877.977091039996594 ], [ 3721726.78040093369782, 2133885.012030525133014 ], [ 3721719.46843889169395, 2133890.992469646502286 ], [ 3721699.229468200355768, 2133904.403799457475543 ], [ 3721698.711784231476486, 2133904.746603922452778 ], [ 3721698.131552490405738, 2133905.111688826233149 ], [ 3721677.327951950021088, 2133918.18448968604207 ], [ 3721641.613213494420052, 2133939.748267921619117 ], [ 3721641.26949892565608, 2133939.959679819177836 ], [ 3721605.636455246247351, 2133962.255871552973986 ], [ 3721602.31723746098578, 2133964.731757558882236 ], [ 3721594.298944761045277, 2133971.803068440873176 ], [ 3721590.741151424590498, 2133975.668149976991117 ], [ 3721585.201993370428681, 2133983.108426218852401 ], [ 3721582.813307970762253, 2133987.013610363937914 ], [ 3721575.421408546157181, 2134002.010700386948884 ], [ 3721574.371006500441581, 2134004.462037366814911 ], [ 3721565.637464443221688, 2134028.266994312871248 ], [ 3721561.473059445619583, 2134037.846578857861459 ], [ 3721556.610131809487939, 2134045.817941960413009 ], [ 3721539.549525703303516, 2134067.296565677970648 ], [ 3721530.706642470322549, 2134076.720037823077291 ], [ 3721520.983970258850604, 2134085.390718131326139 ], [ 3721510.324968677945435, 2134093.07075159996748 ], [ 3721492.466093882918358, 2134102.833417222835124 ], [ 3721473.027842867188156, 2134110.68059495696798 ], [ 3721455.990668187383562, 2134115.836779932491481 ], [ 3721449.733589943964034, 2134116.802468562498689 ], [ 3721443.373435056302696, 2134116.743486913386732 ], [ 3721426.788305117748678, 2134114.432030878961086 ], [ 3721409.489636357408017, 2134111.407734629698098 ], [ 3721388.696460316888988, 2134106.250030053779483 ], [ 3721388.243691516574472, 2134106.142253608442843 ], [ 3721377.445480988826603, 2134103.67608199827373 ], [ 3721374.549648601096123, 2134103.1910037137568 ], [ 3721363.702431112062186, 2134102.021585397422314 ], [ 3721357.326767439488322, 2134102.146828474011272 ], [ 3721342.102357185445726, 2134104.3921530963853 ], [ 3721338.829485055990517, 2134105.099106877110898 ], [ 3721323.762418513186276, 2134109.414509150199592 ], [ 3721304.024845990817994, 2134115.026230852585286 ], [ 3721286.861319595016539, 2134119.817565905861557 ], [ 3721283.451951144263148, 2134120.025762668810785 ], [ 3721272.684909707400948, 2134118.499585941899568 ], [ 3721270.417804447002709, 2134118.282963242847472 ], [ 3721263.863062120042741, 2134117.954145701602101 ], [ 3721257.86451058415696, 2134118.371718634851277 ], [ 3721251.504191689193249, 2134119.587771838530898 ], [ 3721246.188895200844854, 2134121.226154942531139 ], [ 3721226.358668353408575, 2134129.822791375219822 ], [ 3721224.73062038468197, 2134130.598579060286283 ], [ 3721205.602987920399755, 2134140.562380968593061 ], [ 3721203.549925130326301, 2134141.75732572702691 ], [ 3721186.751612218562514, 2134152.618824349716306 ], [ 3721180.170490045100451, 2134156.614756336435676 ], [ 3721174.395451061893255, 2134158.962259653955698 ], [ 3721158.252306590788066, 2134163.0847979770042 ], [ 3721140.410170875489712, 2134167.427338873036206 ], [ 3721139.715249301865697, 2134167.60717069497332 ], [ 3721123.1156484647654, 2134172.15002319868654 ], [ 3721108.448724498972297, 2134175.701421044766903 ], [ 3721095.137733892071992, 2134176.676620326936245 ], [ 3721079.62052019033581, 2134176.680991983041167 ], [ 3721078.532749790232629, 2134176.704601102042943 ], [ 3721053.509547972120345, 2134177.793052260763943 ], [ 3721052.868052056990564, 2134177.829079055693001 ], [ 3721027.900295363273472, 2134179.553371605463326 ], [ 3721024.165935636498034, 2134180.093757203780115 ], [ 3721009.117240007035434, 2134183.434846656396985 ], [ 3721004.7337127760984, 2134184.836524030193686 ], [ 3720993.92130332486704, 2134189.414340392686427 ], [ 3720990.868948831688613, 2134190.957201156299561 ], [ 3720975.476125780493021, 2134200.090690728742629 ], [ 3720973.395510472822934, 2134201.468022061511874 ], [ 3720959.080244099255651, 2134211.993431473150849 ], [ 3720958.500351356808096, 2134212.432936361059546 ], [ 3720917.195966121274978, 2134244.669747269712389 ], [ 3720881.443972933106124, 2134261.972794709727168 ], [ 3720880.389398807194084, 2134262.514185555279255 ], [ 3720864.567067490890622, 2134271.10661033121869 ], [ 3720863.656456045340747, 2134271.625926 ], [ 3720848.300333156716079, 2134280.807461922522634 ], [ 3720830.625719324219972, 2134291.118732645176351 ], [ 3720829.181014248169959, 2134292.02760234195739 ], [ 3720812.162959176115692, 2134303.557441869750619 ], [ 3720810.360995247028768, 2134304.898609800264239 ], [ 3720788.604444337077439, 2134322.641973196528852 ], [ 3720788.358179745264351, 2134322.845421565696597 ], [ 3720766.7261295132339, 2134340.946571287699044 ], [ 3720750.681575356982648, 2134354.540625276044011 ], [ 3720735.744483913294971, 2134367.025885053910315 ], [ 3720731.245846604462713, 2134369.862911937758327 ], [ 3720726.43930962914601, 2134371.728404767811298 ], [ 3720711.066171368584037, 2134375.147506053559482 ], [ 3720697.393198168836534, 2134376.497981271706522 ], [ 3720682.181768273003399, 2134377.841449883300811 ], [ 3720680.893071797210723, 2134377.988814611453563 ], [ 3720669.131944213993847, 2134379.640042599290609 ], [ 3720666.44879612326622, 2134380.165985113941133 ], [ 3720655.007056376896799, 2134383.05951587902382 ], [ 3720648.933222470805049, 2134385.46454316098243 ], [ 3720641.956899818498641, 2134389.332980120088905 ], [ 3720637.499139895662665, 2134392.475949359126389 ], [ 3720611.720743231475353, 2134415.173601471353322 ], [ 3720611.064310408663005, 2134415.772213352844119 ], [ 3720587.147350042592734, 2134438.368646459653974 ], [ 3720570.516189308837056, 2134452.627131167799234 ], [ 3720536.362155990675092, 2134481.925257590133697 ], [ 3720521.703990678302944, 2134494.492424652911723 ], [ 3720520.863285814411938, 2134494.680943089537323 ], [ 3720510.510621464811265, 2134496.54541621170938 ], [ 3720506.023699744138867, 2134497.789060977287591 ], [ 3720488.979678007774055, 2134504.252183666452765 ], [ 3720487.056460028048605, 2134505.073762918822467 ], [ 3720470.566941543947905, 2134512.937695526517928 ], [ 3720465.551270690746605, 2134516.09733899962157 ], [ 3720461.890162342693657, 2134519.054538608528674 ], [ 3720457.259013974107802, 2134523.948055257089436 ], [ 3720454.427345781121403, 2134527.879339477047324 ], [ 3720453.019861607812345, 2134530.062356701120734 ], [ 3720450.484739963430911, 2134534.479070720262825 ], [ 3720443.293738873675466, 2134535.95096003357321 ], [ 3720435.952216783538461, 2134538.691596807911992 ], [ 3720433.383339999709278, 2134540.137186106294394 ], [ 3720433.383339999709278, 2134611.54900785535574 ], [ 3720437.572630919516087, 2134607.537858340889215 ] ] ] } }
]
}
