{
"type": "FeatureCollection",
"name": "Santa_Perpètua_de_Mogoda",
"crs": { "type": "name", "properties": { "name": "urn:ogc:def:crs:EPSG::3035" } },
"features": [
{ "type": "Feature", "properties": { "SITE_NAME": "Gallecs", "ODESIGNATE": "Plan Especial de Protección (PEIN)", "NUT2": 51, "SITE_CODE_": "ES510273", "DESIG_ABBR": "ES43", "SITE_CDDA": "555546023_CDDA", "Sup_ha": 702.08025464599996 }, "geometry": { "type": "MultiPolygon", "coordinates": [ [ [ [ 3668942.159142310731113, 2082200.30763112870045 ], [ 3668926.389101832639426, 2082157.72685025818646 ], [ 3668908.982908879872411, 2082110.793501958018169 ], [ 3668884.998244550544769, 2082118.81672526197508 ], [ 3668871.046862720977515, 2082122.01168036670424 ], [ 3668838.450440694577992, 2082125.088828361593187 ], [ 3668812.269049888942391, 2082125.181605827528983 ], [ 3668789.216750713996589, 2082123.602120580151677 ], [ 3668774.185674604494125, 2082120.138134862994775 ], [ 3668728.795378815382719, 2082119.414992377627641 ], [ 3668670.072823924012482, 2082115.944620782742277 ], [ 3668655.12887018173933, 2082117.856189977610484 ], [ 3668580.920010439120233, 2082115.847912590252236 ], [ 3668586.908840630203485, 2082144.32815414108336 ], [ 3668596.597760612610728, 2082233.054754281416535 ], [ 3668606.534119875635952, 2082336.280890381429344 ], [ 3668590.918655335903168, 2082336.252970021683723 ], [ 3668537.863259084988385, 2082334.250596097903326 ], [ 3668478.071818932890892, 2082335.889049825957045 ], [ 3668439.761394263710827, 2082335.499601799296215 ], [ 3668356.297030276153237, 2082360.406446848530322 ], [ 3668143.098485860507935, 2082380.535394019214436 ], [ 3668135.34253126848489, 2082383.896915753837675 ], [ 3668122.582245634868741, 2082384.851245713420212 ], [ 3668097.412062860094011, 2082389.356125345220789 ], [ 3668079.013218330219388, 2082387.712923283455893 ], [ 3668055.195576893165708, 2082380.196372417267412 ], [ 3668015.448562151752412, 2082371.930180251831189 ], [ 3668001.140998884104192, 2082401.57581885997206 ], [ 3668010.263326508924365, 2082406.598814852768555 ], [ 3667997.918933037202805, 2082461.849895289400592 ], [ 3667994.006695718504488, 2082482.125671423273161 ], [ 3667994.471074104774743, 2082507.872774791670963 ], [ 3668000.85119985928759, 2082530.682148328516632 ], [ 3668010.57513262424618, 2082542.659487654687837 ], [ 3668025.430056868586689, 2082554.277230753796175 ], [ 3668055.820530576631427, 2082575.771458527073264 ], [ 3668081.653446056880057, 2082597.270249182125553 ], [ 3668095.011368932202458, 2082609.63051551557146 ], [ 3668107.089927085209638, 2082620.008488848106936 ], [ 3668115.125774019397795, 2082629.065059117041528 ], [ 3668121.606011885218322, 2082638.769596095429733 ], [ 3668135.064775084611028, 2082673.255370506085455 ], [ 3668136.439820367842913, 2082689.150853908853605 ], [ 3668141.585551607422531, 2082713.704586887964979 ], [ 3668142.992817198857665, 2082741.616079309023917 ], [ 3668138.834927157964557, 2082775.061007500160486 ], [ 3668139.615945518482476, 2082791.450883546145633 ], [ 3668142.355204428546131, 2082804.838811995927244 ], [ 3668153.353316694498062, 2082818.448584930505604 ], [ 3668174.079671813640743, 2082833.894201486138627 ], [ 3668193.238001942634583, 2082845.043200048618019 ], [ 3668204.090467799920589, 2082848.963779017562047 ], [ 3668230.511936134193093, 2082864.748527708696201 ], [ 3668248.082239913288504, 2082875.734226604225114 ], [ 3668274.05674773035571, 2082887.805001770611852 ], [ 3668286.88595882570371, 2082891.288540776353329 ], [ 3668317.804805301595479, 2082899.386800604639575 ], [ 3668331.766197091434151, 2082905.768160099629313 ], [ 3668348.755476243793964, 2082919.501026341458783 ], [ 3668363.573801254387945, 2082927.053529652534053 ], [ 3668378.358779479749501, 2082932.042976361932233 ], [ 3668419.506686044391245, 2082946.311793265631422 ], [ 3668451.462391138076782, 2082960.57209572987631 ], [ 3668486.396893098484725, 2082973.612096005119383 ], [ 3668536.503010817803442, 2082993.921415721066296 ], [ 3668560.477200578898191, 2083005.579866040265188 ], [ 3668580.786269322969019, 2083016.783212373265997 ], [ 3668623.984214019961655, 2083038.746193725382909 ], [ 3668638.086253993213177, 2083037.289552319096401 ], [ 3668669.771941663697362, 2083032.420452399877831 ], [ 3668680.589012330397964, 2083025.013962159631774 ], [ 3668700.069241194054484, 2083014.411015827674419 ], [ 3668712.841589655727148, 2083006.319297646405175 ], [ 3668734.060886208433658, 2082988.165335729252547 ], [ 3668735.81471127923578, 2082982.240847470005974 ], [ 3668743.09330077143386, 2082979.049749101744965 ], [ 3668745.24748073797673, 2082974.840096774976701 ], [ 3668759.617796492762864, 2082964.844735025893897 ], [ 3668770.899367203004658, 2082959.898598928702995 ], [ 3668785.112840565852821, 2082949.542491194792092 ], [ 3668794.07271193061024, 2082936.677430160576478 ], [ 3668797.53754708589986, 2082924.331436263862997 ], [ 3668803.185963005293161, 2082911.028111885301769 ], [ 3668812.915651880204678, 2082870.672160857589915 ], [ 3668815.651319316588342, 2082854.263347026659176 ], [ 3668815.782759096007794, 2082841.230360482586548 ], [ 3668813.811711428221315, 2082835.907788771903142 ], [ 3668811.740953606553376, 2082832.347108462359756 ], [ 3668810.682824477087706, 2082825.936893871519715 ], [ 3668812.325480693019927, 2082805.625029505928978 ], [ 3668815.587598793208599, 2082783.657817255938426 ], [ 3668818.394346518442035, 2082766.616127266315743 ], [ 3668819.261801423504949, 2082756.268236060626805 ], [ 3668819.901389397215098, 2082746.191970088984817 ], [ 3668821.112803478259593, 2082739.81775931827724 ], [ 3668824.464065176900476, 2082718.718506551580504 ], [ 3668829.678250809665769, 2082696.191493986174464 ], [ 3668831.72486579278484, 2082675.891668568132445 ], [ 3668832.428527193143964, 2082671.217840451514348 ], [ 3668835.801200373563915, 2082646.160570107400417 ], [ 3668838.746337892487645, 2082613.831743753049523 ], [ 3668844.486878438852727, 2082574.228116273181513 ], [ 3668850.877570169046521, 2082531.658617502776906 ], [ 3668852.053831888828427, 2082523.134284323779866 ], [ 3668857.114250032696873, 2082509.435684759169817 ], [ 3668866.658592364750803, 2082494.011751320678741 ], [ 3668879.743182587437332, 2082478.754452180350199 ], [ 3668909.91387197189033, 2082446.760365984402597 ], [ 3668917.461184764746577, 2082435.030514056561515 ], [ 3668925.660457080695778, 2082418.030813029268757 ], [ 3668929.554341377224773, 2082397.831996567780152 ], [ 3668931.837784870993346, 2082367.168468628078699 ], [ 3668932.716162426862866, 2082324.919042157474905 ], [ 3668934.873444423079491, 2082302.404999790713191 ], [ 3668941.929759968072176, 2082270.439966595033184 ], [ 3668945.671744531020522, 2082229.272433785488829 ], [ 3668942.159142310731113, 2082200.30763112870045 ] ] ], [ [ [ 3670095.245454473420978, 2083785.823387934826314 ], [ 3670082.740692759864032, 2083785.088976809056476 ], [ 3670068.475940085947514, 2083781.133449749788269 ], [ 3670051.037797302938998, 2083776.446307804435492 ], [ 3670034.610215885099024, 2083783.445911356015131 ], [ 3670033.798756099306047, 2083781.107138969004154 ], [ 3670001.789233084302396, 2083694.932716798502952 ], [ 3669993.705086793750525, 2083677.166377618676051 ], [ 3669970.670601959340274, 2083602.541234277188778 ], [ 3669966.655498288571835, 2083587.550563909579068 ], [ 3669966.09295244095847, 2083584.51707213697955 ], [ 3669965.714631582610309, 2083582.46142490231432 ], [ 3669965.372934541199356, 2083578.510781919118017 ], [ 3669965.061115585267544, 2083570.275518734008074 ], [ 3669965.051427585538477, 2083566.691565210465342 ], [ 3669965.01741985604167, 2083557.03636950487271 ], [ 3669965.229856260120869, 2083546.759621999226511 ], [ 3669965.820743695367128, 2083538.538702326128259 ], [ 3669966.393526257947087, 2083526.635347531642765 ], [ 3669967.08561049355194, 2083516.114464503247291 ], [ 3669967.165854797698557, 2083499.677117986604571 ], [ 3669967.936095962300897, 2083484.269896749639884 ], [ 3669967.895513232797384, 2083481.485357615398243 ], [ 3669967.557206423953176, 2083478.729275188641623 ], [ 3669966.963240719866008, 2083476.495081884087995 ], [ 3669966.162359149660915, 2083474.18087416770868 ], [ 3669964.549433949403465, 2083471.744180291192606 ], [ 3669963.022162303328514, 2083470.295007481705397 ], [ 3669961.105984116438776, 2083468.982320066308603 ], [ 3669959.487815401516855, 2083467.926126374397427 ], [ 3669957.801437583286315, 2083467.03686259011738 ], [ 3669955.927802864462137, 2083466.551403083140031 ], [ 3669952.922315830364823, 2083466.4488995464053 ], [ 3669948.856225350406021, 2083466.28055243846029 ], [ 3669944.081818835809827, 2083466.050744805019349 ], [ 3669936.806457734201103, 2083465.780894067836925 ], [ 3669930.412209890317172, 2083465.42765919235535 ], [ 3669921.417170276399702, 2083464.95235949405469 ], [ 3669906.046678292565048, 2083464.342846938641742 ], [ 3669893.949889570940286, 2083463.939319641096517 ], [ 3669884.160038139671087, 2083463.685779280262068 ], [ 3669874.443591758143157, 2083463.425698252394795 ], [ 3669861.191358507145196, 2083463.351979693863541 ], [ 3669846.905297612305731, 2083463.30254291719757 ], [ 3669833.432786360848695, 2083463.249374905601144 ], [ 3669826.886371904984117, 2083463.278760180808604 ], [ 3669817.690076123923063, 2083463.043202799279243 ], [ 3669809.760524754412472, 2083462.908683176618069 ], [ 3669796.056927087251097, 2083463.056525666965172 ], [ 3669776.532960907556117, 2083462.857549395412207 ], [ 3669761.848484617657959, 2083463.222819737857208 ], [ 3669731.29773899493739, 2083466.106345191597939 ], [ 3669713.616877522785217, 2083467.434668906964362 ], [ 3669694.267564807087183, 2083469.261011974653229 ], [ 3669669.206646834965795, 2083472.307168601313606 ], [ 3669649.581703310832381, 2083472.52615845343098 ], [ 3669633.737361525185406, 2083472.932668189518154 ], [ 3669623.394506301730871, 2083473.636804515495896 ], [ 3669611.787669424433261, 2083475.548959201900288 ], [ 3669598.55105141736567, 2083477.615061662625521 ], [ 3669588.029831752646714, 2083479.424875925295055 ], [ 3669581.264256614726037, 2083480.335897515993565 ], [ 3669574.428255700040609, 2083480.436472196131945 ], [ 3669567.499136551748961, 2083479.457127746194601 ], [ 3669557.442592029925436, 2083477.139587128767744 ], [ 3669550.939670779742301, 2083474.759104430209845 ], [ 3669544.118471775203943, 2083471.863544804044068 ], [ 3669524.493696441873908, 2083458.013687250204384 ], [ 3669517.926430322695524, 2083454.347194304922596 ], [ 3669509.860683268867433, 2083452.14591613272205 ], [ 3669493.714059005491436, 2083448.801801330875605 ], [ 3669488.648415836505592, 2083448.384360150666907 ], [ 3669474.838004310615361, 2083451.468586967326701 ], [ 3669458.103589797392488, 2083454.930130079155788 ], [ 3669446.171591335441917, 2083457.131775456247851 ], [ 3669428.976572170853615, 2083458.396525494055822 ], [ 3669421.109565675724298, 2083459.139109108829871 ], [ 3669413.43673975719139, 2083460.042410620255396 ], [ 3669406.596133438870311, 2083460.150513743516058 ], [ 3669400.276776539161801, 2083460.030095842899755 ], [ 3669382.579980585258454, 2083457.578150391345844 ], [ 3669371.233119488228112, 2083455.602172436658293 ], [ 3669363.942784501239657, 2083454.677078816108406 ], [ 3669348.94346910668537, 2083452.149863391648978 ], [ 3669324.41576062142849, 2083447.833531657001004 ], [ 3669308.452951138373464, 2083436.25576806627214 ], [ 3669302.216228956822306, 2083439.17451909603551 ], [ 3669291.029037558939308, 2083441.126790893031284 ], [ 3669283.777827501762658, 2083440.20675180410035 ], [ 3669256.736748699098825, 2083430.204263326711953 ], [ 3669225.540120994672179, 2083417.555463748052716 ], [ 3669200.418324590660632, 2083408.455491267843172 ], [ 3669193.455785083584487, 2083402.68575367401354 ], [ 3669192.29939496377483, 2083385.074609373928979 ], [ 3669181.146115487907082, 2083378.931351423962042 ], [ 3669179.086319728754461, 2083380.879915931262076 ], [ 3669178.123796933796257, 2083381.678433797322214 ], [ 3669175.419013181235641, 2083384.197780897840858 ], [ 3669172.080188049003482, 2083386.897911218926311 ], [ 3669169.561102593317628, 2083388.455293279374018 ], [ 3669166.451798549853265, 2083390.271400714525953 ], [ 3669164.168332516215742, 2083391.603146634530276 ], [ 3669161.669312165118754, 2083392.803293061442673 ], [ 3669159.022805953864008, 2083394.068235677434132 ], [ 3669156.405278402846307, 2083395.076260382309556 ], [ 3669153.596264608204365, 2083395.927156359190121 ], [ 3669147.945037335157394, 2083397.400912238983437 ], [ 3669143.413672033231705, 2083398.455473067006096 ], [ 3669138.285171459428966, 2083398.727449520956725 ], [ 3669133.815270004794002, 2083397.843198810005561 ], [ 3669131.651730369776487, 2083397.146994731156155 ], [ 3669116.370287971571088, 2083391.333032587310299 ], [ 3669102.02501141699031, 2083385.793342183576897 ], [ 3669091.801299473270774, 2083381.497085944749415 ], [ 3669083.134165624622256, 2083378.324296673759818 ], [ 3669073.444389489013702, 2083374.724285380681977 ], [ 3669064.486406402196735, 2083371.557965492364019 ], [ 3669057.101985776796937, 2083368.445275730453432 ], [ 3669047.664202154614031, 2083364.800752686103806 ], [ 3669037.109482674393803, 2083360.899026418104768 ], [ 3669030.270179494749755, 2083358.277470876229927 ], [ 3669024.694102445151657, 2083356.15669996640645 ], [ 3669022.001800363417715, 2083355.147166099632159 ], [ 3669003.378367577679455, 2083347.244392541470006 ], [ 3668974.375809138640761, 2083332.989788811653852 ], [ 3668943.186522335745394, 2083316.671817780705169 ], [ 3668942.885614445433021, 2083316.517286182846874 ], [ 3668927.125445543322712, 2083307.555747103644535 ], [ 3668913.378638024441898, 2083299.371572402538732 ], [ 3668870.012366374023259, 2083273.900678339414299 ], [ 3668838.078428385779262, 2083253.786962415091693 ], [ 3668830.436686139553785, 2083249.399980011628941 ], [ 3668822.486812473274767, 2083245.182650730246678 ], [ 3668810.144899921957403, 2083239.83969699870795 ], [ 3668799.482205734588206, 2083235.815379824722186 ], [ 3668789.205829760059714, 2083231.753960213856772 ], [ 3668770.489734633825719, 2083224.619283428182825 ], [ 3668755.188333299942315, 2083218.710485271178186 ], [ 3668739.450697481166571, 2083212.262092525372282 ], [ 3668726.758121614810079, 2083207.268133549485356 ], [ 3668712.648158746305853, 2083201.6337016208563 ], [ 3668699.37648261571303, 2083196.694280440919101 ], [ 3668690.241663764230907, 2083192.332035213941708 ], [ 3668677.356132253073156, 2083187.356347181135789 ], [ 3668663.858130169566721, 2083182.050979541614652 ], [ 3668652.357189009897411, 2083177.331355863250792 ], [ 3668644.397148701827973, 2083173.051512701204047 ], [ 3668633.776476227678359, 2083168.478604185162112 ], [ 3668621.830902393907309, 2083164.151964086573571 ], [ 3668612.51946240849793, 2083159.999803152633831 ], [ 3668602.120149166323245, 2083156.393297939794138 ], [ 3668592.049676916096359, 2083152.837357538053766 ], [ 3668581.334242768120021, 2083149.571837445022538 ], [ 3668575.286631183233112, 2083148.033826584462076 ], [ 3668562.727080166339874, 2083144.575212724972516 ], [ 3668552.763367149978876, 2083141.952847208129242 ], [ 3668538.153779397252947, 2083137.219728422118351 ], [ 3668515.350872565526515, 2083130.083793672034517 ], [ 3668507.347257040441036, 2083127.550070443656296 ], [ 3668489.729793750680983, 2083121.712459252215922 ], [ 3668484.720680608414114, 2083120.204210169846192 ], [ 3668470.824374956078827, 2083116.365876550087705 ], [ 3668456.932652751915157, 2083111.928566816495731 ], [ 3668445.441020985599607, 2083107.077020687051117 ], [ 3668433.404836831148714, 2083100.666497897356749 ], [ 3668423.381397312972695, 2083095.033232135465369 ], [ 3668411.151781226508319, 2083088.641156860627234 ], [ 3668396.709705614484847, 2083079.167849207762629 ], [ 3668382.041201708838344, 2083069.329213349381462 ], [ 3668369.719011799432337, 2083060.998984900536016 ], [ 3668355.117900210432708, 2083050.919376568170264 ], [ 3668345.593082495965064, 2083043.937119474634528 ], [ 3668336.518422376830131, 2083038.02105455682613 ], [ 3668323.560433876700699, 2083029.955755079863593 ], [ 3668309.661089268047363, 2083021.477769839111716 ], [ 3668297.693764744792134, 2083014.401254578027874 ], [ 3668285.624081084504724, 2083007.607045978307724 ], [ 3668270.907824506983161, 2082999.666286807507277 ], [ 3668257.707977330312133, 2082992.859837373485789 ], [ 3668243.716928055044264, 2082986.600589885376394 ], [ 3668231.393894671928138, 2082981.378430330427364 ], [ 3668216.648303564172238, 2082975.12229077424854 ], [ 3668214.155221907887608, 2082974.164622358279303 ], [ 3668210.591173875611275, 2082973.036215125117451 ], [ 3668208.732988921925426, 2082972.233914579031989 ], [ 3668205.678998001851141, 2082971.345829056808725 ], [ 3668202.432887026108801, 2082970.434957223944366 ], [ 3668198.696536500006914, 2082969.764744365587831 ], [ 3668196.013538951054215, 2082969.118110478157178 ], [ 3668192.789568612817675, 2082968.599352824967355 ], [ 3668187.980870684143156, 2082968.105510882334784 ], [ 3668184.412382000591606, 2082967.925159368664026 ], [ 3668181.040027745068073, 2082967.887666754657403 ], [ 3668177.928906408138573, 2082968.106876919278875 ], [ 3668174.52746048849076, 2082968.858438041061163 ], [ 3668172.535452169366181, 2082969.251444036606699 ], [ 3668169.866678424645215, 2082970.074146657017991 ], [ 3668165.32886015670374, 2082971.709106463938951 ], [ 3668161.048734423238784, 2082974.212174850516021 ], [ 3668158.370068063959479, 2082976.416173956124112 ], [ 3668154.509222417138517, 2082979.777272357605398 ], [ 3668149.764499908778816, 2082984.121990710496902 ], [ 3668144.225658222101629, 2082989.211618854897097 ], [ 3668138.708713493309915, 2082994.557955831754953 ], [ 3668133.999582785647362, 2082998.971495202509686 ], [ 3668130.775965641718358, 2083002.027826761594042 ], [ 3668128.257119863759726, 2083004.200878076255322 ], [ 3668125.529207735322416, 2083006.48686189041473 ], [ 3668122.332978263963014, 2083009.307699233293533 ], [ 3668119.845091393217444, 2083010.90111137740314 ], [ 3668114.708233170211315, 2083013.626286107348278 ], [ 3668108.547367267776281, 2083016.53468973794952 ], [ 3668104.132286231964827, 2083018.588746824301779 ], [ 3668098.52105951262638, 2083020.84188074641861 ], [ 3668093.947477766312659, 2083022.694579483009875 ], [ 3668086.058645869605243, 2083025.034320648759604 ], [ 3668078.740555403754115, 2083026.586923465831205 ], [ 3668074.718902994412929, 2083027.585238364990801 ], [ 3668069.096389184705913, 2083028.14573163818568 ], [ 3668060.943120447918773, 2083028.094493617303669 ], [ 3668053.929749654140323, 2083027.608245033305138 ], [ 3668047.861777096986771, 2083026.917446905747056 ], [ 3668041.02006878843531, 2083025.658778119366616 ], [ 3668030.451337695121765, 2083023.774328379426152 ], [ 3668026.041226119734347, 2083022.659071402624249 ], [ 3668016.976296729873866, 2083019.37902356707491 ], [ 3668007.645446509122849, 2083016.58347240020521 ], [ 3667999.295921621844172, 2083014.093849007738754 ], [ 3667985.837963868863881, 2083010.016112864017487 ], [ 3667980.776182155124843, 2083008.79158948501572 ], [ 3667975.596593427471817, 2083007.94826330174692 ], [ 3667970.30016071209684, 2083007.386708055622876 ], [ 3667964.995513723697513, 2083007.196467320201918 ], [ 3667961.626927856821567, 2083007.47894852142781 ], [ 3667958.714443209581077, 2083007.999145784880966 ], [ 3667956.077330613508821, 2083008.199072695104405 ], [ 3667952.603440050967038, 2083009.066283130086958 ], [ 3667948.626784960739315, 2083010.585685818688944 ], [ 3667942.154154868330806, 2083013.647842907812446 ], [ 3667933.316649534739554, 2083018.841388817410916 ], [ 3667925.7690544500947, 2083023.691419773036614 ], [ 3667922.270679633133113, 2083026.685183846624568 ], [ 3667918.68920862255618, 2083030.578988152323291 ], [ 3667915.094668189994991, 2083034.553956584539264 ], [ 3667908.792629990726709, 2083040.998514525825158 ], [ 3667903.757043807767332, 2083046.01116882218048 ], [ 3667897.503691538237035, 2083052.44096192996949 ], [ 3667895.810136328451335, 2083054.633841145550832 ], [ 3667892.195472627412528, 2083062.337045763852075 ], [ 3667889.678254935890436, 2083069.081015900475904 ], [ 3667887.896593743935227, 2083076.114542415132746 ], [ 3667884.827180325984955, 2083084.867583614308387 ], [ 3667882.393492684699595, 2083095.382282956270501 ], [ 3667879.762172238435596, 2083104.872651148354635 ], [ 3667878.575485468842089, 2083112.642162214731798 ], [ 3667876.125464336015284, 2083124.228225644677877 ], [ 3667874.646931613795459, 2083137.834487228421494 ], [ 3667872.942174412775785, 2083148.821851255604997 ], [ 3667871.786412088666111, 2083160.021154392044991 ], [ 3667872.120696408674121, 2083170.023934649769217 ], [ 3667872.440662217792124, 2083182.932641925755888 ], [ 3667872.558231780305505, 2083188.999780057463795 ], [ 3667877.551439975854009, 2083191.006643265718594 ], [ 3667881.412488694302738, 2083196.529805531492457 ], [ 3667884.123679582029581, 2083203.422849425114691 ], [ 3667884.544200910255313, 2083205.708928361069411 ], [ 3667887.167199607007205, 2083223.114431329071522 ], [ 3667888.295782356522977, 2083249.991716362070292 ], [ 3667886.640792631078511, 2083281.407155542634428 ], [ 3667877.664342153351754, 2083402.531470549991354 ], [ 3667869.381693237926811, 2083467.420560313854367 ], [ 3667868.031313893385231, 2083489.928461484843865 ], [ 3667865.921221983619034, 2083521.319985734298825 ], [ 3667864.927719650790095, 2083537.73017824604176 ], [ 3667863.877601616084576, 2083547.906861673574895 ], [ 3667864.49521666020155, 2083555.046825089259073 ], [ 3667867.836105782538652, 2083565.768939059460536 ], [ 3667873.009247893467546, 2083575.35788751160726 ], [ 3667879.576907955575734, 2083584.335335538722575 ], [ 3667889.4134755814448, 2083592.044621451990679 ], [ 3667897.047046748455614, 2083596.602377853356302 ], [ 3667904.201809647958726, 2083601.205624372232705 ], [ 3667909.627994749695063, 2083604.618001701775938 ], [ 3667914.475761484354734, 2083608.393605454126373 ], [ 3667921.918748741503805, 2083616.328753571026027 ], [ 3667928.090382694732398, 2083626.303533774102107 ], [ 3667934.591615499462932, 2083640.086341340327635 ], [ 3667940.61386746307835, 2083653.914163710083812 ], [ 3667942.204156578052789, 2083666.721069765742868 ], [ 3667945.205353885889053, 2083684.673272834392264 ], [ 3667946.497512927278876, 2083705.186367589980364 ], [ 3667944.505373973399401, 2083721.21066870377399 ], [ 3667938.467576180584729, 2083732.056140585336834 ], [ 3667936.371510650031269, 2083734.304150501498953 ], [ 3667934.132668218109757, 2083736.223445288371295 ], [ 3667931.750693922396749, 2083737.814990386599675 ], [ 3667929.378810285590589, 2083739.519461374729872 ], [ 3667926.656077364459634, 2083741.143136634258553 ], [ 3667924.47194912424311, 2083742.374262819532305 ], [ 3667921.937283576000482, 2083743.524642641656101 ], [ 3667918.143548280466348, 2083744.680097513366491 ], [ 3667915.401558710727841, 2083744.977046048268676 ], [ 3667915.323511225637048, 2083744.94706706982106 ], [ 3667903.114386044908315, 2083747.221286983694881 ], [ 3667887.933814011979848, 2083754.262171198381111 ], [ 3667876.302094466052949, 2083763.210641363635659 ], [ 3667867.370626932010055, 2083770.782725170720369 ], [ 3667859.143387515563518, 2083779.970553806750104 ], [ 3667853.441611314192414, 2083792.284528623567894 ], [ 3667851.366597036831081, 2083800.891463042004034 ], [ 3667850.554565792903304, 2083811.06112605589442 ], [ 3667834.577982121147215, 2083956.600082522956654 ], [ 3667831.632275890558958, 2084055.668976105283946 ], [ 3667832.359783078078181, 2084057.028933416120708 ], [ 3667815.469121143687516, 2084246.124922579620034 ], [ 3667813.827617137692869, 2084270.22306982637383 ], [ 3667814.628707374446094, 2084286.108910060720518 ], [ 3667816.689619135577232, 2084303.3018145468086 ], [ 3667822.205247822217643, 2084327.293785104528069 ], [ 3667826.889091601129621, 2084341.6733618080616 ], [ 3667829.850513931363821, 2084353.617625920800492 ], [ 3667831.982683018315583, 2084367.415573540143669 ], [ 3667837.782646749168634, 2084391.380781256128103 ], [ 3667844.774747540708631, 2084409.247900145128369 ], [ 3667860.529321512207389, 2084442.249448666814715 ], [ 3667881.344657116569579, 2084477.711171649163589 ], [ 3667896.060634674970061, 2084492.728402639506385 ], [ 3667903.931566196028143, 2084500.316411340143532 ], [ 3667913.091686211526394, 2084509.146881213178858 ], [ 3667923.20695098862052, 2084517.805736018577591 ], [ 3667940.63448004052043, 2084532.984714057296515 ], [ 3667952.523769184947014, 2084544.680917072575539 ], [ 3667961.319163262378424, 2084557.870686623733491 ], [ 3667970.320638110861182, 2084573.444866450736299 ], [ 3667974.617479082196951, 2084585.857842023484409 ], [ 3667977.178468865342438, 2084596.832530003041029 ], [ 3667977.892024933826178, 2084614.391065262490883 ], [ 3667978.192893876694143, 2084627.181270400993526 ], [ 3667976.723683963995427, 2084638.135902424808592 ], [ 3667975.701385472901165, 2084654.256058250321075 ], [ 3667971.378998972475529, 2084669.485900550615042 ], [ 3667966.726132038980722, 2084685.548410834744573 ], [ 3667965.767940293531865, 2084688.44273952068761 ], [ 3667974.494450090453029, 2084700.8382092572283 ], [ 3667984.523191067390144, 2084714.312438552733511 ], [ 3667993.649483919143677, 2084726.669982832856476 ], [ 3667999.602931960020214, 2084735.88202918949537 ], [ 3668005.680375764146447, 2084746.524706831900403 ], [ 3668011.383058139588684, 2084756.561729955719784 ], [ 3668015.906761139631271, 2084764.146601734682918 ], [ 3668023.26283053541556, 2084774.668292616494 ], [ 3668030.034253215417266, 2084785.886122890282422 ], [ 3668037.79262662306428, 2084797.331634630681947 ], [ 3668046.619790652301162, 2084809.95764275174588 ], [ 3668051.545510001014918, 2084818.465778127778322 ], [ 3668060.053254943341017, 2084831.122220551362261 ], [ 3668067.392118877731264, 2084845.170975157991052 ], [ 3668074.146620268933475, 2084859.915722195291892 ], [ 3668081.743414090480655, 2084880.669727793661878 ], [ 3668089.075366129167378, 2084902.08988075889647 ], [ 3668092.485766361933202, 2084911.702612983528525 ], [ 3668100.769911359995604, 2084940.403631019871682 ], [ 3668104.774776232428849, 2084953.164736582897604 ], [ 3668109.470509968698025, 2084985.088870396837592 ], [ 3668115.132252112962306, 2085009.550970393931493 ], [ 3668118.078311793506145, 2085024.975769798504189 ], [ 3668120.055162596981972, 2085036.646640265826136 ], [ 3668121.332388048991561, 2085042.162804018938914 ], [ 3668124.680350495968014, 2085042.547467414056882 ], [ 3668131.895201941486448, 2085043.565723151899874 ], [ 3668131.780979333911091, 2085062.585315964417532 ], [ 3668132.51475251885131, 2085078.822249537799507 ], [ 3668134.029689663089812, 2085096.702072447631508 ], [ 3668135.42646277230233, 2085112.844733168371022 ], [ 3668136.977553354110569, 2085128.803148542065173 ], [ 3668138.403441844042391, 2085145.282266174443066 ], [ 3668138.556544883176684, 2085154.930795695632696 ], [ 3668138.265907250344753, 2085167.333710608072579 ], [ 3668138.229482050053775, 2085174.796256759436801 ], [ 3668138.484327139798552, 2085185.622197278542444 ], [ 3668138.993536109104753, 2085190.439800000283867 ], [ 3670112.37070000031963, 2085190.439800000283867 ], [ 3670112.37070000031963, 2083785.26683312933892 ], [ 3670095.245454473420978, 2083785.823387934826314 ] ] ] ] } },
{ "type": "Feature", "properties": { "SITE_NAME": "Riu Congost", "ODESIGNATE": "Plan Especial de Protección (PEIN)", "NUT2": 51, "SITE_CODE_": "ES511014", "DESIG_ABBR": "ES43", "SITE_CDDA": "555546236_CDDA", "Sup_ha": 358.40142096699998 }, "geometry": { "type": "Polygon", "coordinates": [ [ [ 3670038.05291588511318, 2080481.465655650245026 ], [ 3670033.36207712162286, 2080473.399456573883072 ], [ 3669885.325102596078068, 2080558.174477346008644 ], [ 3670112.37070000031963, 2080872.667808969737962 ], [ 3670112.37070000031963, 2080568.241004208102822 ], [ 3670038.05291588511318, 2080481.465655650245026 ] ] ] } }
]
}
