{
"type": "FeatureCollection",
"name": "Sant_Vicenç_de_Montalt",
"crs": { "type": "name", "properties": { "name": "urn:ogc:def:crs:EPSG::3035" } },
"features": [
{ "type": "Feature", "properties": { "SITE_NAME": "Costes del Maresme", "ODESIGNATE": "Plan Especial de Protección (PEIN)", "NUT2": 51, "SITE_CODE_": "ES511010", "DESIG_ABBR": "ES43", "SITE_CDDA": "349119_CDDA", "Sup_ha": 2921.3429223500002 }, "geometry": { "type": "Polygon", "coordinates": [ [ [ 3696288.006706207524985, 2081911.765160576906055 ], [ 3696308.584978352766484, 2081917.52317305537872 ], [ 3696408.259372987784445, 2081257.199434999609366 ], [ 3694940.053879392333329, 2081257.199434999609366 ], [ 3696288.006706207524985, 2081911.765160576906055 ] ] ] } },
{ "type": "Feature", "properties": { "SITE_NAME": "Serres del Montnegre i el Corredor", "ODESIGNATE": "Plan Especial de Protección (PEIN)", "NUT2": 51, "SITE_CODE_": "ES510203", "DESIG_ABBR": "ES43", "SITE_CDDA": "389206_CDDA", "Sup_ha": 14786.5049683 }, "geometry": { "type": "Polygon", "coordinates": [ [ [ 3695100.409786642994732, 2087817.281708292430267 ], [ 3695105.355648471973836, 2087782.645047025056556 ], [ 3695123.95182442991063, 2087737.172206492861733 ], [ 3695137.136544627603143, 2087698.206562158884481 ], [ 3695147.758512798231095, 2087666.772914874600247 ], [ 3695160.667170661501586, 2087629.97652936517261 ], [ 3695167.292946494184434, 2087600.209885886171833 ], [ 3695170.031897532287985, 2087573.371984078316018 ], [ 3695171.047133222687989, 2087543.841600072802976 ], [ 3695159.516042497009039, 2087491.161448783474043 ], [ 3695163.181093758903444, 2087458.257218990940601 ], [ 3695218.465058258268982, 2087390.512362328357995 ], [ 3695221.458502660039812, 2087354.726845361758024 ], [ 3695327.664952869527042, 2087179.004162402590737 ], [ 3695337.42891744710505, 2087087.94979892205447 ], [ 3695358.336776774376631, 2087055.941352855879813 ], [ 3695399.229638691060245, 2087022.057230832055211 ], [ 3695416.140413210727274, 2086990.423997686943039 ], [ 3695369.572091958951205, 2086970.257324777310714 ], [ 3695338.822449583560228, 2086964.129557762760669 ], [ 3695217.111742072738707, 2086954.521543698385358 ], [ 3695155.870141444727778, 2086945.246994265122339 ], [ 3695093.641695208847523, 2086924.547579854028299 ], [ 3695001.393330157268792, 2086906.165224131895229 ], [ 3694970.944007685873657, 2086903.514960297150537 ], [ 3694911.118331765756011, 2086910.632895146496594 ], [ 3694849.104560778941959, 2086892.417249418096617 ], [ 3694789.836649241857231, 2086905.993096481775865 ], [ 3694758.787009836640209, 2086896.388622182421386 ], [ 3694695.442989570554346, 2086862.774394806707278 ], [ 3694664.650627304799855, 2086856.150377057958394 ], [ 3694604.052703194320202, 2086854.32736197207123 ], [ 3694572.488034435547888, 2086838.76223808247596 ], [ 3694563.179474162869155, 2086830.121466108364984 ], [ 3694505.494712348561734, 2086745.398854859406129 ], [ 3694498.423759101890028, 2086716.016746420646086 ], [ 3694502.843843582551926, 2086685.555736049311236 ], [ 3694500.269538252614439, 2086655.751511923735961 ], [ 3694480.208835055585951, 2086627.588734168792143 ], [ 3694474.729426006786525, 2086623.055011661956087 ], [ 3694384.763479393906891, 2086704.332717243814841 ], [ 3694533.90537628158927, 2086906.50248612742871 ], [ 3694306.319307251833379, 2087097.437995944637805 ], [ 3694312.00116413552314, 2086987.587108058389276 ], [ 3694299.298144124448299, 2086965.423666168237105 ], [ 3694269.340667662210763, 2086947.124115430284292 ], [ 3694229.979968456085771, 2086947.544239276787266 ], [ 3694163.003042713738978, 2086952.570385387400165 ], [ 3694084.184874553699046, 2086961.853105724323541 ], [ 3693947.562974948901683, 2086966.908280080650002 ], [ 3693796.830863860901445, 2086949.252024852670729 ], [ 3693764.462420249823481, 2086942.192316358909011 ], [ 3693764.099240861833096, 2086942.143356181681156 ], [ 3693767.141060726717114, 2086952.941072155022994 ], [ 3693768.744451152160764, 2086958.453826606506482 ], [ 3693712.296087985858321, 2086956.448133188532665 ], [ 3693615.173371410463005, 2086929.011258620768785 ], [ 3693544.580743052996695, 2086906.595445132115856 ], [ 3693563.321354097221047, 2086890.313388762995601 ], [ 3693575.851464367471635, 2086872.110639482969418 ], [ 3693533.219993680715561, 2086881.121440558694303 ], [ 3693480.935855968855321, 2086881.523975514806807 ], [ 3693453.399924554396421, 2086861.574954496696591 ], [ 3693385.872945967596024, 2086877.931165996706113 ], [ 3693376.989456032868475, 2086876.762161894934252 ], [ 3693364.410130054689944, 2086859.415146284271032 ], [ 3693306.494991268031299, 2086839.815081335604191 ], [ 3693291.022535258438438, 2086839.264759182929993 ], [ 3693273.59448309848085, 2086843.405112229287624 ], [ 3693266.638719001319259, 2086847.062954998807982 ], [ 3693243.324752593412995, 2086849.752794775180519 ], [ 3693229.07767004147172, 2086856.098422992276028 ], [ 3693186.747003897558898, 2086856.568217134801671 ], [ 3693124.955763444304466, 2086843.842081491602585 ], [ 3693075.912911680527031, 2086820.905341102043167 ], [ 3693053.57243499904871, 2086808.00213003414683 ], [ 3693053.57243499904871, 2087864.518465000903234 ], [ 3695112.825253212358803, 2087864.518465000903234 ], [ 3695100.409786642994732, 2087817.281708292430267 ] ] ] } }
]
}
