{
"type": "FeatureCollection",
"name": "Sant_Sadurní_d'Anoia",
"crs": { "type": "name", "properties": { "name": "urn:ogc:def:crs:EPSG::3035" } },
"features": [
{ "type": "Feature", "properties": { "SITE_NAME": "Muntanyes de l`Ordal", "ODESIGNATE": "Plan Especial de Protección (PEIN)", "NUT2": 51, "SITE_CODE_": "ES510142", "DESIG_ABBR": "ES43", "SITE_CDDA": "389141_CDDA", "Sup_ha": 7426.1209702200003 }, "geometry": { "type": "MultiPolygon", "coordinates": [ [ [ [ 3635568.571249939501286, 2070784.460024252766743 ], [ 3635603.586111028678715, 2070799.159214976709336 ], [ 3635632.867402506992221, 2070788.363114919047803 ], [ 3635659.653967301826924, 2070748.757876825053245 ], [ 3635662.566988152917475, 2070742.729785 ], [ 3635534.43281091703102, 2070742.729785 ], [ 3635568.571249939501286, 2070784.460024252766743 ] ] ], [ [ [ 3635781.985002796165645, 2070765.672585249645635 ], [ 3635806.498237866442651, 2070821.934718527598307 ], [ 3635818.816714928019792, 2070867.03217581496574 ], [ 3635816.310567738488317, 2070864.289894932415336 ], [ 3635796.179705792106688, 2070852.812717640539631 ], [ 3635776.208052024245262, 2070850.855167903471738 ], [ 3635762.523114612791687, 2070855.311363888438791 ], [ 3635747.163979592267424, 2070870.092762427171692 ], [ 3635736.307865944225341, 2070900.350764397066087 ], [ 3635726.130699766799808, 2070938.797369637293741 ], [ 3635719.783813623711467, 2070992.16399722895585 ], [ 3635717.636589655652642, 2071019.701196909416467 ], [ 3635714.76199808344245, 2071061.289942991686985 ], [ 3635708.825886954553425, 2071112.07324156537652 ], [ 3635695.010569224134088, 2071145.146678946912289 ], [ 3635666.716266947798431, 2071180.828990461304784 ], [ 3635644.659672589041293, 2071214.686200068332255 ], [ 3635611.410921291913837, 2071267.365423778537661 ], [ 3635572.474187951534986, 2071328.207581771537662 ], [ 3635548.10933508630842, 2071380.072592582320794 ], [ 3635531.020158853381872, 2071427.439483281690627 ], [ 3635513.567881096620113, 2071470.383872707374394 ], [ 3635503.116544333752245, 2071490.42771371291019 ], [ 3635490.150460702367127, 2071525.974918047431856 ], [ 3635475.072320227045566, 2071566.790861709741876 ], [ 3635462.73457737872377, 2071602.267950643785298 ], [ 3635445.864008531905711, 2071652.158899991074577 ], [ 3635436.327735621482134, 2071690.554691991303116 ], [ 3635432.179148904047906, 2071724.642424318939447 ], [ 3635428.781334510538727, 2071775.185016613453627 ], [ 3635419.835500807035714, 2071820.516049881931394 ], [ 3635416.888210167642683, 2071838.58447462762706 ], [ 3635412.404169681947678, 2071846.001705096801743 ], [ 3635403.958379992749542, 2071851.872955596074462 ], [ 3635395.086632526014, 2071852.706751093268394 ], [ 3635382.144360122270882, 2071850.731975993141532 ], [ 3635367.238543071318418, 2071848.302951576653868 ], [ 3635348.436789829283953, 2071844.962904614629224 ], [ 3635331.048882599454373, 2071843.410735335666686 ], [ 3635312.729205340147018, 2071845.75368843995966 ], [ 3635302.905882202554494, 2071850.483770863851532 ], [ 3635288.750597363337874, 2071864.509997006971389 ], [ 3635276.559390552341938, 2071879.000275023980066 ], [ 3635267.644551918841898, 2071894.450965753523633 ], [ 3635259.999061052687466, 2071909.791052255546674 ], [ 3635253.456944475416094, 2071923.10301054851152 ], [ 3635244.012578473426402, 2071939.886440003989264 ], [ 3635237.89219477167353, 2071950.624612881103531 ], [ 3635225.913046957924962, 2071960.006587245734408 ], [ 3635209.63078900706023, 2071977.37986441492103 ], [ 3635209.548623938113451, 2071977.477815478574485 ], [ 3635196.098318425938487, 2071989.87437162688002 ], [ 3635188.492617920041084, 2071997.067889784695581 ], [ 3635182.088747373782098, 2072003.485774408793077 ], [ 3635177.580343123525381, 2072009.693782405229285 ], [ 3635170.861824630759656, 2072019.336904563941061 ], [ 3635163.059314052574337, 2072031.006183829391375 ], [ 3635155.885565631557256, 2072042.60581190395169 ], [ 3635150.552310244180262, 2072057.896228780271485 ], [ 3635147.136587707791477, 2072066.48402018006891 ], [ 3635145.520595538429916, 2072076.553500268608332 ], [ 3635149.354010826908052, 2072120.809977758210152 ], [ 3635153.596241045743227, 2072141.059238050598651 ], [ 3635158.014220633078367, 2072172.880254061892629 ], [ 3635162.905294401571155, 2072200.509762939764187 ], [ 3635170.613496480043977, 2072239.960685966769233 ], [ 3635170.384810687974095, 2072251.741286459378898 ], [ 3635169.818366581108421, 2072260.669026640010998 ], [ 3635168.885898966342211, 2072272.806804639287293 ], [ 3635169.15911755617708, 2072284.219215196324512 ], [ 3635170.641680948901922, 2072302.497297221096233 ], [ 3635171.022604341618717, 2072315.151217198465019 ], [ 3635174.547678051516414, 2072335.148644238011912 ], [ 3635178.613556708209217, 2072353.832050645723939 ], [ 3635183.634692634921521, 2072384.473877473501489 ], [ 3635186.43198778340593, 2072403.278373798588291 ], [ 3635188.181821066420525, 2072417.08419195166789 ], [ 3635189.45579113997519, 2072432.838434249628335 ], [ 3635193.31290036952123, 2072448.997617865446955 ], [ 3635196.346932038199157, 2072455.069370371522382 ], [ 3635260.094913088250905, 2072479.27580453036353 ], [ 3635260.117320376913995, 2072479.304062788141891 ], [ 3635297.861398023553193, 2072502.377375311218202 ], [ 3635328.90636516129598, 2072511.945442771539092 ], [ 3635358.27245876705274, 2072502.131966446526349 ], [ 3635389.949218505993485, 2072484.10615586489439 ], [ 3635413.909401055425406, 2072446.772252171533182 ], [ 3635427.158507571555674, 2072390.425072279525921 ], [ 3635429.572187593206763, 2072360.147838019067422 ], [ 3635425.408060994464904, 2072300.448346480960026 ], [ 3635439.685399346984923, 2072264.345641168067232 ], [ 3635493.448614287190139, 2072318.518190459115431 ], [ 3635525.182007482741028, 2072336.033318855101243 ], [ 3635555.495541578158736, 2072337.157546790549532 ], [ 3635614.573869870975614, 2072321.524513491662219 ], [ 3635644.457150881178677, 2072317.68170061474666 ], [ 3635764.894161914940923, 2072312.741626674076542 ], [ 3635824.488822225481272, 2072303.069199964404106 ], [ 3635855.318806288763881, 2072310.154091055737808 ], [ 3635887.912582483142614, 2072337.603612635750324 ], [ 3635919.688993466086686, 2072355.616131958086044 ], [ 3635980.961608266457915, 2072365.315584949683398 ], [ 3636010.888064202852547, 2072361.969710330478847 ], [ 3636038.792472937144339, 2072335.278684499906376 ], [ 3636068.288698763586581, 2072326.965787446824834 ], [ 3636133.647572584915906, 2072383.842220501741394 ], [ 3636193.845587636344135, 2072381.134515065001324 ], [ 3636255.204341906122863, 2072391.827525494387373 ], [ 3636285.432028780691326, 2072391.959051246056333 ], [ 3636344.596728826873004, 2072377.320478101028129 ], [ 3636404.836884647142142, 2072375.099339870968834 ], [ 3636434.461455828975886, 2072368.266590300016105 ], [ 3636452.281696295831352, 2072353.061415057163686 ], [ 3636492.572993987239897, 2072289.136073299217969 ], [ 3636517.014508886262774, 2072274.79358300473541 ], [ 3636546.381773645058274, 2072264.990718891844153 ], [ 3636589.71665043849498, 2072244.806150938849896 ], [ 3636594.045341568998992, 2072238.034635752439499 ], [ 3636591.796074555721134, 2072219.158249832922593 ], [ 3636574.683192984201014, 2072190.897477117599919 ], [ 3636531.149860193021595, 2072145.406864601187408 ], [ 3636487.592785594053566, 2072097.785440918058157 ], [ 3636456.388366489671171, 2072074.279864247189835 ], [ 3636438.413538177963346, 2072058.160466556437314 ], [ 3636409.549549995455891, 2072018.887496928218752 ], [ 3636395.583271926268935, 2071997.29882868216373 ], [ 3636375.861254218034446, 2071967.984271922381595 ], [ 3636357.030060602817684, 2071941.860068953363225 ], [ 3636344.608235221356153, 2071923.219548337627202 ], [ 3636336.516463057138026, 2071910.617595289833844 ], [ 3636328.364564813673496, 2071889.758236623834819 ], [ 3636326.204453815706074, 2071881.680315349018201 ], [ 3636331.718147493898869, 2071879.754136926494539 ], [ 3636336.474281621165574, 2071853.260839405702427 ], [ 3636331.312018800061196, 2071793.65654166857712 ], [ 3636335.723889193963259, 2071763.189591352129355 ], [ 3636347.62806709902361, 2071732.01043982966803 ], [ 3636402.612306751310825, 2071651.654861580813304 ], [ 3636430.431996123865247, 2071623.980842186370865 ], [ 3636450.69798890221864, 2071614.22187702730298 ], [ 3636500.390095623210073, 2071687.441673059249297 ], [ 3636515.042670505587012, 2071746.143822877900675 ], [ 3636531.609551068395376, 2071774.616595069412142 ], [ 3636567.044808315113187, 2071805.803102689329535 ], [ 3636598.175112935248762, 2071816.355190375586972 ], [ 3636689.534215000458062, 2071835.916229952825233 ], [ 3636689.534215000458062, 2070742.729785 ], [ 3635767.579472076147795, 2070742.729785 ], [ 3635781.985002796165645, 2070765.672585249645635 ] ] ] ] } },
{ "type": "Feature", "properties": { "SITE_NAME": "Valls de l`Anoia", "ODESIGNATE": "Plan Especial de Protección (PEIN)", "NUT2": 51, "SITE_CODE_": "ES510267", "DESIG_ABBR": "ES43", "SITE_CDDA": "389244_CDDA", "Sup_ha": 4112.1380933399996 }, "geometry": { "type": "MultiPolygon", "coordinates": [ [ [ [ 3633068.337905376218259, 2078831.332153015304357 ], [ 3633040.181927003432065, 2078837.952115000225604 ], [ 3633065.078210370149463, 2078837.952115000225604 ], [ 3633068.337905376218259, 2078831.332153015304357 ] ] ], [ [ [ 3632913.799121436662972, 2078827.476395419798791 ], [ 3632899.714454296045005, 2078816.736947578145191 ], [ 3632890.297622724436224, 2078801.516486707609147 ], [ 3632878.037923196330667, 2078788.590009026229382 ], [ 3632861.1264877775684, 2078756.974620103370398 ], [ 3632829.192150377202779, 2078738.878616969566792 ], [ 3632814.278734216466546, 2078707.073310770560056 ], [ 3632797.523671558126807, 2078700.614368718117476 ], [ 3632777.44552893191576, 2078702.52488641673699 ], [ 3632759.767921208869666, 2078697.155534620396793 ], [ 3632742.360343356151134, 2078694.785324036376551 ], [ 3632703.768780128099024, 2078693.419319052714854 ], [ 3632615.576586517505348, 2078668.597175660077482 ], [ 3632519.395374309271574, 2078554.254587373463437 ], [ 3632482.900979266967624, 2078549.447291180724278 ], [ 3632472.744798390660435, 2078528.333566665649414 ], [ 3632625.886720675043762, 2078406.1188424306456 ], [ 3632645.105873128864914, 2078307.688705273205414 ], [ 3632750.222299834247679, 2078239.725601806072518 ], [ 3632790.322462552692741, 2078062.027959493687376 ], [ 3632704.518890604376793, 2077904.591499023837969 ], [ 3632521.66684802249074, 2077908.191019403981045 ], [ 3632529.515814523678273, 2077650.074395914562047 ], [ 3632534.140272532589734, 2077594.323718467960134 ], [ 3632543.973219038452953, 2077578.093100765021518 ], [ 3632544.062284772284329, 2077558.673065033275634 ], [ 3632526.749796221964061, 2077522.658780358964577 ], [ 3632515.806854470167309, 2077491.928240031003952 ], [ 3632514.322569640818983, 2077467.950186583446339 ], [ 3632515.99984432850033, 2077439.544291612226516 ], [ 3632520.884484476409853, 2077420.839613044634461 ], [ 3632528.613323186058551, 2077407.754035176476464 ], [ 3632543.381223634816706, 2077393.848251432180405 ], [ 3632547.339864109642804, 2077378.166556487092748 ], [ 3632544.755012694746256, 2077361.945700960233808 ], [ 3632535.150386767927557, 2077339.912156777223572 ], [ 3632537.310953927692026, 2077323.820364180952311 ], [ 3632549.025674829259515, 2077302.11209889058955 ], [ 3632560.339110994711518, 2077241.608778446912766 ], [ 3632559.732057699002326, 2077234.605127713875845 ], [ 3632551.333695455919951, 2077219.517956984695047 ], [ 3632546.138085019774735, 2077200.591131177730858 ], [ 3632550.043717654887587, 2077163.739600193686783 ], [ 3632547.550085725262761, 2077148.682052075164393 ], [ 3632536.70367837883532, 2077132.656391323311254 ], [ 3632500.398525718599558, 2077123.159989162581041 ], [ 3632490.619543362408876, 2077105.850839649327099 ], [ 3632490.372388522140682, 2077089.407489949138835 ], [ 3632497.419260612688959, 2077075.194750201189891 ], [ 3632503.319249724503607, 2077054.490357249975204 ], [ 3632516.230856417678297, 2077039.729784182272851 ], [ 3632523.278421608731151, 2077025.527135444572195 ], [ 3632519.628959491383284, 2076949.379678083350882 ], [ 3632525.407386424951255, 2076934.12568532419391 ], [ 3632544.462339646182954, 2076928.776899533346295 ], [ 3632560.604577517136931, 2076917.24455366586335 ], [ 3632554.249914047308266, 2076898.427665988914669 ], [ 3632534.583471714518964, 2076869.418704885756597 ], [ 3632534.823315802495927, 2076851.736742868553847 ], [ 3632545.958918480202556, 2076830.083960438612849 ], [ 3632549.238482595421374, 2076813.305035292636603 ], [ 3632544.0248355823569, 2076787.31783569115214 ], [ 3632534.683483727741987, 2076768.204306305386126 ], [ 3632514.901766313239932, 2076758.317564231343567 ], [ 3632507.672810886520892, 2076743.119522908702493 ], [ 3632505.750818347558379, 2076720.946082056965679 ], [ 3632510.551491535734385, 2076708.129162873141468 ], [ 3632528.512883235700428, 2076697.014612410450354 ], [ 3632542.82776817958802, 2076677.993794006528333 ], [ 3632546.180173099972308, 2076655.318613165058196 ], [ 3632555.272337220609188, 2076637.395490779308602 ], [ 3632560.493549531325698, 2076615.714133732020855 ], [ 3632571.411567503586411, 2076605.259860423859209 ], [ 3632578.05460621509701, 2076586.388151764636859 ], [ 3632574.42548503074795, 2076564.96825641207397 ], [ 3632570.263844522181898, 2076512.538136231712997 ], [ 3632587.91435875184834, 2076477.854933704482391 ], [ 3632590.276174593251199, 2076454.903342639096081 ], [ 3632581.179230759851635, 2076387.598071908345446 ], [ 3632581.280553761869669, 2076313.467922653071582 ], [ 3631956.374853927642107, 2075845.287765813292935 ], [ 3631088.18260888196528, 2076340.279311043443158 ], [ 3630637.766149776056409, 2076620.322030815528706 ], [ 3630354.576375907752663, 2076920.768522322876379 ], [ 3630577.122641939669847, 2077341.15384595002979 ], [ 3630247.9979218095541, 2077425.264361708657816 ], [ 3629955.03985042963177, 2077662.470563431270421 ], [ 3629888.947677143849432, 2077725.736830244306475 ], [ 3629812.375522232148796, 2077767.213893817039207 ], [ 3629753.477222722023726, 2077781.376669510733336 ], [ 3629697.532344044186175, 2077791.731753006810322 ], [ 3629607.996586598455906, 2077794.858837036648765 ], [ 3629480.521897987928241, 2077770.337086617480963 ], [ 3629423.953151504509151, 2077825.765488195465878 ], [ 3629411.710102745331824, 2077861.238411211874336 ], [ 3629410.830963575281203, 2077900.115865496685728 ], [ 3629411.50327814090997, 2077917.51061147893779 ], [ 3629418.665077247191221, 2077932.624546387 ], [ 3629422.982722795568407, 2077943.852458326146007 ], [ 3629414.863667825236917, 2077956.264834146481007 ], [ 3629400.797951784916222, 2077967.58057226636447 ], [ 3629389.548604300711304, 2077972.808668231824413 ], [ 3629377.941557534504682, 2077973.91393505432643 ], [ 3629360.816837928257883, 2077978.870209566317499 ], [ 3629349.177128526382148, 2077989.123571672942489 ], [ 3629339.257061088923365, 2078000.04453762806952 ], [ 3629327.24996409798041, 2078006.176678056828678 ], [ 3629318.387174924369901, 2078000.369524310575798 ], [ 3629313.241037427447736, 2077989.220617529004812 ], [ 3629302.69123877864331, 2077973.597577566746622 ], [ 3629297.997000968549401, 2077975.21664957376197 ], [ 3629289.49750521639362, 2077975.685573059367016 ], [ 3629275.331691552419215, 2077976.202934680040926 ], [ 3629270.244692287873477, 2077980.373864389490336 ], [ 3629262.995760663412511, 2077988.185663988348097 ], [ 3629250.617367473430932, 2078009.317319000605494 ], [ 3629247.258471907116473, 2078018.7822191035375 ], [ 3629245.414645379874855, 2078026.440155300078914 ], [ 3629245.515125464182347, 2078037.238336686510593 ], [ 3629246.158570545725524, 2078044.659422371303663 ], [ 3629244.243285890202969, 2078051.492779481224716 ], [ 3629236.34258500020951, 2078058.922484219074249 ], [ 3629236.34258500020951, 2078837.952115000225604 ], [ 3630595.893906379584223, 2078837.952115000225604 ], [ 3630646.9047672576271, 2078691.082657516933978 ], [ 3630719.751381085254252, 2078731.068425873294473 ], [ 3630806.593080513644964, 2078612.399053701432422 ], [ 3630951.711476869881153, 2078493.702435154467821 ], [ 3631002.300928885117173, 2078533.047077499562874 ], [ 3630903.878540594130754, 2078614.177964240079746 ], [ 3630950.387149034999311, 2078670.471807657042518 ], [ 3630839.389433797914535, 2078766.599706545239314 ], [ 3630882.484999232459813, 2078837.952115000225604 ], [ 3632920.291446183808148, 2078837.952115000225604 ], [ 3632913.799121436662972, 2078827.476395419798791 ] ], [ [ 3631455.5363893462345, 2076654.488197586964816 ], [ 3631618.552070119418204, 2076774.212745189666748 ], [ 3631658.036889798007905, 2076941.575216979719698 ], [ 3631514.099552025087178, 2076913.87472722819075 ], [ 3631342.446540038101375, 2076822.572574402671307 ], [ 3631367.361498632468283, 2076789.841045835521072 ], [ 3631455.5363893462345, 2076654.488197586964816 ] ] ] ] } }
]
}
