{
"type": "FeatureCollection",
"name": "Algimia_de_Alfara",
"crs": { "type": "name", "properties": { "name": "urn:ogc:def:crs:EPSG::3035" } },
"features": [
{ "type": "Feature", "properties": { "ENP_GRAL": 1.0, "ENP_GRAL_NAME": "Otros Parques", "color": "#38A800" }, "geometry": { "type": "MultiPolygon", "coordinates": [ [ [ [ 3423056.565854818560183, 1913031.41447514644824 ], [ 3423065.862085660919547, 1913037.667594135738909 ], [ 3423069.947469159029424, 1913041.261791459983215 ], [ 3423075.570780815556645, 1913048.604257602477446 ], [ 3423079.751177805010229, 1913055.492121462943032 ], [ 3423085.052425707690418, 1913068.155756298452616 ], [ 3423090.331314709503204, 1913082.245794113958254 ], [ 3423094.226116430014372, 1913091.482118095038459 ], [ 3423098.815767655149102, 1913100.480992221040651 ], [ 3423110.984096539206803, 1913116.585690637817606 ], [ 3423114.52120522595942, 1913121.099127881461754 ], [ 3423118.98045042809099, 1913129.8473991448991 ], [ 3423121.25488427747041, 1913136.832461931742728 ], [ 3423122.452066647354513, 1913151.081453456543386 ], [ 3423123.082376915030181, 1913167.76637400011532 ], [ 3423123.586765990592539, 1913175.855103574227542 ], [ 3423125.864978153258562, 1913184.82736350200139 ], [ 3423130.111561963800341, 1913193.449804202886298 ], [ 3423141.031316652428359, 1913206.423652128782123 ], [ 3423151.503183331340551, 1913218.150754183065146 ], [ 3423157.820954753551632, 1913226.234620406059548 ], [ 3423163.334645735099912, 1913235.946537881856784 ], [ 3423169.768940757960081, 1913256.09920580801554 ], [ 3423172.057568273507059, 1913264.61565318191424 ], [ 3423175.524592089466751, 1913273.38883018004708 ], [ 3423178.629949286114424, 1913278.852449146797881 ], [ 3423185.114567695651203, 1913286.504756644601002 ], [ 3423190.415315362624824, 1913289.350436815759167 ], [ 3423192.986710797529668, 1913293.732979678083211 ], [ 3423199.505057093687356, 1913299.83579344721511 ], [ 3423215.021388629451394, 1913309.618154506431893 ], [ 3423232.175517251249403, 1913319.539952009450644 ], [ 3423242.903047077357769, 1913325.977191112237051 ], [ 3423251.923548120539635, 1913330.520754701690748 ], [ 3423265.633574626874179, 1913336.004456063732505 ], [ 3423275.831890005152673, 1913339.493086277740076 ], [ 3423286.214155147783458, 1913341.679510496556759 ], [ 3423296.858562188223004, 1913341.693043658975512 ], [ 3423301.213000259362161, 1913341.195906103588641 ], [ 3423311.810664161108434, 1913336.39391508162953 ], [ 3423320.177481370046735, 1913331.299645404331386 ], [ 3423326.67762194480747, 1913325.377756056142971 ], [ 3423332.458858231082559, 1913316.92256300104782 ], [ 3423338.436324063222855, 1913305.346722250571474 ], [ 3423345.992382715456188, 1913292.154504653299227 ], [ 3423350.42568507604301, 1913282.219659597845748 ], [ 3423353.017621249891818, 1913278.163122747791931 ], [ 3423361.141985942609608, 1913270.657488568220288 ], [ 3423370.003672607243061, 1913268.356154905166477 ], [ 3423375.167312145233154, 1913267.178632349008694 ], [ 3423400.684684874489903, 1913254.055987016530707 ], [ 3423404.25794917345047, 1913249.249976408667862 ], [ 3423407.552524781320244, 1913240.948781270068139 ], [ 3423409.963874478358775, 1913230.626144783105701 ], [ 3423409.207483092788607, 1913225.626854421338066 ], [ 3423405.692710227798671, 1913221.715196393895894 ], [ 3423400.832810706458986, 1913219.875249735079706 ], [ 3423396.491186619270593, 1913219.996876889606938 ], [ 3423367.619201968424022, 1913221.471912328852341 ], [ 3423358.808709031436592, 1913217.821480733575299 ], [ 3423350.11628195643425, 1913212.183636783156544 ], [ 3423346.532098782714456, 1913208.152327402727678 ], [ 3423344.263396140187979, 1913204.082453651586547 ], [ 3423342.737700128927827, 1913198.122220919001848 ], [ 3423341.592226677574217, 1913177.467337573412806 ], [ 3423341.208691602572799, 1913166.361519000260159 ], [ 3423338.003151877783239, 1913147.494461213471368 ], [ 3423334.873680116608739, 1913132.388602097984403 ], [ 3423332.039028297178447, 1913120.946562827099115 ], [ 3423327.639693172648549, 1913111.340661142021418 ], [ 3423321.416141543537378, 1913102.686036106431857 ], [ 3423315.71681613381952, 1913095.638720186892897 ], [ 3423315.316592114511877, 1913091.033960100030527 ], [ 3423316.291120909154415, 1913080.164887102786452 ], [ 3423316.070651114918292, 1913071.090123462025076 ], [ 3423317.233049489092082, 1913061.299542753724381 ], [ 3423319.550724098458886, 1913057.440305046271533 ], [ 3423323.828083182685077, 1913054.221580550773069 ], [ 3423337.861758024431765, 1913048.703086369438097 ], [ 3423348.075755447614938, 1913045.226714947493747 ], [ 3423358.396540536545217, 1913043.811197642702609 ], [ 3423380.416882069315761, 1913043.836757730692625 ], [ 3423391.003445546142757, 1913044.00130332284607 ], [ 3423401.027515368536115, 1913042.181313633685932 ], [ 3423409.812545843422413, 1913036.44192456942983 ], [ 3423416.203621983528137, 1913030.407186383148655 ], [ 3423422.404385179281235, 1913022.557769561652094 ], [ 3423427.202054396271706, 1913012.612524655181915 ], [ 3423430.934273238759488, 1913002.875870928633958 ], [ 3423432.305784080177546, 1912997.833164070732892 ], [ 3423427.006269316188991, 1912969.08520628628321 ], [ 3423422.532972746528685, 1912965.677135923411697 ], [ 3423412.212358010001481, 1912960.876991969300434 ], [ 3423403.222195903770626, 1912955.874235692201182 ], [ 3423398.469097456894815, 1912954.329198790015653 ], [ 3423388.160582382231951, 1912953.532934673130512 ], [ 3423373.320815036538988, 1912953.535830966662616 ], [ 3423357.913592381868511, 1912954.400630962103605 ], [ 3423349.105325476266444, 1912955.149142985930666 ], [ 3423344.007588283158839, 1912954.983671453082934 ], [ 3423333.127608359325677, 1912950.509291760390624 ], [ 3423325.789968464523554, 1912946.329673797357827 ], [ 3423317.833123786374927, 1912942.939898428041488 ], [ 3423308.772230762988329, 1912938.070084793725982 ], [ 3423296.450221937149763, 1912933.211585458833724 ], [ 3423290.906808341853321, 1912931.61727556400001 ], [ 3423280.860349556896836, 1912930.807420135708526 ], [ 3423272.222783631179482, 1912931.214656841708347 ], [ 3423257.814049501903355, 1912934.646691157016903 ], [ 3423246.516225214116275, 1912937.820226629730314 ], [ 3423237.184670771472156, 1912939.060008462285623 ], [ 3423233.183107507415116, 1912937.772670364007354 ], [ 3423230.141413853503764, 1912935.204450038727373 ], [ 3423228.312491846736521, 1912931.545177229912952 ], [ 3423229.350592279806733, 1912912.906013909494504 ], [ 3423229.927934783976525, 1912907.723745388211682 ], [ 3423228.557305655442178, 1912898.37753908499144 ], [ 3423224.948002320714295, 1912894.380713952938095 ], [ 3423211.006945333443582, 1912890.681317124050111 ], [ 3423201.768161493819207, 1912889.181245166109875 ], [ 3423193.367472624406219, 1912889.215840430697426 ], [ 3423189.146850066259503, 1912891.294935949612409 ], [ 3423180.670170336030424, 1912898.102761455113068 ], [ 3423173.418825215194374, 1912906.975744847441092 ], [ 3423170.428401698358357, 1912909.25244961772114 ], [ 3423146.315671801101416, 1912897.721069964114577 ], [ 3423138.048953195102513, 1912897.30944224097766 ], [ 3423128.778739497065544, 1912899.598469220334664 ], [ 3423124.171934502664953, 1912900.107590388972312 ], [ 3423104.968668916262686, 1912896.885935642523691 ], [ 3423095.635197291150689, 1912894.907207711599767 ], [ 3423085.772091779392213, 1912890.827646762132645 ], [ 3423080.849522485397756, 1912888.453427584143355 ], [ 3423075.568404524121433, 1912887.239012676523998 ], [ 3423066.691594889387488, 1912887.807436190545559 ], [ 3423062.309270576108247, 1912889.499917068285868 ], [ 3423050.406299998983741, 1912897.300613269442692 ], [ 3423050.406299998983741, 1913028.873996544396505 ], [ 3423056.565854818560183, 1913031.41447514644824 ] ] ], [ [ [ 3423067.247042633127421, 1912798.929173316806555 ], [ 3423081.04625493241474, 1912800.210406474070624 ], [ 3423094.019669552799314, 1912796.241633627563715 ], [ 3423110.517064663115889, 1912789.896822170587257 ], [ 3423119.444097789004445, 1912784.809578602667898 ], [ 3423130.535257519222796, 1912781.156129012582824 ], [ 3423145.944815123919398, 1912780.371613542083651 ], [ 3423167.050827680155635, 1912778.633168412139639 ], [ 3423180.568105922080576, 1912778.165549003053457 ], [ 3423199.780410741455853, 1912776.734152043703943 ], [ 3423217.092056952882558, 1912775.631138503551483 ], [ 3423234.40370346326381, 1912774.528132118750364 ], [ 3423255.499712438322604, 1912772.791407597251236 ], [ 3423276.866205502301455, 1912772.795303604798391 ], [ 3423303.910785148851573, 1912771.858561460860074 ], [ 3423320.994724093005061, 1912770.924897610209882 ], [ 3423330.5194146130234, 1912770.601212071720511 ], [ 3423346.068964391946793, 1912769.147540519945323 ], [ 3423366.477153262589127, 1912766.254660207545385 ], [ 3423386.068965281359851, 1912762.882982501760125 ], [ 3423395.369057737290859, 1912760.982557479757816 ], [ 3423403.650271670427173, 1912757.103393240366131 ], [ 3423408.237640778068453, 1912755.487621101317927 ], [ 3423416.702376110479236, 1912755.472727050073445 ], [ 3423425.309863787144423, 1912756.18051924626343 ], [ 3423430.545838419813663, 1912755.011110284831375 ], [ 3423434.777029539924115, 1912752.607391110621393 ], [ 3423438.266831964720041, 1912748.703266225755215 ], [ 3423439.70742689166218, 1912745.021205236436799 ], [ 3423439.611225988250226, 1912740.476452409755439 ], [ 3423437.867662554606795, 1912736.44982767640613 ], [ 3423431.127680800389498, 1912728.396299288608134 ], [ 3423418.032729917671531, 1912718.692618948407471 ], [ 3423408.194446633569896, 1912711.763339999131858 ], [ 3423400.367600437253714, 1912707.443635805044323 ], [ 3423383.880855325609446, 1912701.032442105468363 ], [ 3423373.654407321475446, 1912697.427368241827935 ], [ 3423363.269911206327379, 1912691.104171663057059 ], [ 3423362.932990544941276, 1912690.898240211885422 ], [ 3423362.192070623859763, 1912690.44715795153752 ], [ 3423348.298805935308337, 1912679.858140552882105 ], [ 3423340.464416209608316, 1912673.592257425189018 ], [ 3423332.8780597881414, 1912666.437246350105852 ], [ 3423326.700130791403353, 1912659.187652530148625 ], [ 3423325.948800967074931, 1912655.136038945289329 ], [ 3423330.651772027369589, 1912648.768506960943341 ], [ 3423338.279725918546319, 1912642.516597510781139 ], [ 3423353.492911961860955, 1912631.765580341918394 ], [ 3423362.776316679082811, 1912625.700625302270055 ], [ 3423366.846923575270921, 1912622.001956506865099 ], [ 3423372.149399873334914, 1912614.847899965941906 ], [ 3423393.697425156831741, 1912593.904314402956516 ], [ 3423409.385465206578374, 1912591.77163568767719 ], [ 3423418.568635128438473, 1912591.081483298912644 ], [ 3423430.852183794602752, 1912588.691492023179308 ], [ 3423444.907334344927222, 1912585.20770689798519 ], [ 3423453.196074184961617, 1912583.406038817251101 ], [ 3423462.734323082491755, 1912580.355831721331924 ], [ 3423471.88831677287817, 1912579.085234839702025 ], [ 3423481.572270202916116, 1912578.674393504625186 ], [ 3423493.224082419183105, 1912576.077507318928838 ], [ 3423502.86861980240792, 1912572.1417411477305 ], [ 3423510.470166719518602, 1912566.308013746980578 ], [ 3423513.775240546092391, 1912561.476262215757743 ], [ 3423515.589813537430018, 1912557.126173776807263 ], [ 3423516.609275664202869, 1912547.985126169398427 ], [ 3423513.687642047647387, 1912538.010739869903773 ], [ 3423509.950830343645066, 1912528.808548462577164 ], [ 3423504.840544300153852, 1912519.4024590884801 ], [ 3423500.05513567943126, 1912512.545284479157999 ], [ 3423496.243993871845305, 1912508.753887329250574 ], [ 3423487.166186122689396, 1912503.382341020507738 ], [ 3423473.829181612003595, 1912496.635290764737874 ], [ 3423458.807932142168283, 1912490.170269768917933 ], [ 3423449.661836235783994, 1912485.667844292707741 ], [ 3423440.689529706258327, 1912479.340232968796045 ], [ 3423432.734781552571803, 1912470.925162560306489 ], [ 3423422.172212872188538, 1912456.781456732889637 ], [ 3423415.852018537931144, 1912447.961405431618914 ], [ 3423408.258913838304579, 1912438.799634797964245 ], [ 3423403.49687798274681, 1912431.242214875295758 ], [ 3423396.739882377907634, 1912422.031251737615094 ], [ 3423392.668446470517665, 1912414.86270965822041 ], [ 3423392.818894750904292, 1912411.316079545998946 ], [ 3423395.183802806772292, 1912407.499440045794472 ], [ 3423399.095872977282852, 1912405.59315697196871 ], [ 3423402.724086550530046, 1912405.197408402571455 ], [ 3423407.212621352635324, 1912406.413423721212894 ], [ 3423416.064885457977653, 1912411.903452926781029 ], [ 3423422.444032842293382, 1912417.111371051054448 ], [ 3423440.424340299330652, 1912427.510465351166204 ], [ 3423453.542562232352793, 1912434.092341114068404 ], [ 3423480.282858358696103, 1912445.39572573103942 ], [ 3423490.252693866379559, 1912449.63913955190219 ], [ 3423500.894911080598831, 1912451.994062190875411 ], [ 3423511.701587974093854, 1912451.940224655438215 ], [ 3423517.532371510285884, 1912453.74870876269415 ], [ 3423528.052582256495953, 1912458.394396875752136 ], [ 3423536.45587473642081, 1912461.124229460489005 ], [ 3423547.119393587578088, 1912463.616959769511595 ], [ 3423571.712976635433733, 1912475.300024505937472 ], [ 3423588.027245461940765, 1912483.546353694284335 ], [ 3423598.395988315343857, 1912488.459583903197199 ], [ 3423607.405889244750142, 1912493.32790932781063 ], [ 3423622.135275665204972, 1912502.364428178872913 ], [ 3423629.738933718763292, 1912506.7518113006372 ], [ 3423638.837412118911743, 1912514.612233068794012 ], [ 3423648.509612689726055, 1912521.781257690628991 ], [ 3423659.727687769569457, 1912527.712669470114633 ], [ 3423669.766406916081905, 1912532.529815259156749 ], [ 3423680.861583800055087, 1912535.969312125118449 ], [ 3423690.769684115890414, 1912537.720686003100127 ], [ 3423696.338056802283973, 1912536.858922695741057 ], [ 3423703.756456488743424, 1912532.52900388254784 ], [ 3423707.740976811386645, 1912528.864985229214653 ], [ 3423713.391585315577686, 1912521.138212652178481 ], [ 3423714.523435396607965, 1912517.104270368115976 ], [ 3423713.269307627342641, 1912505.236228432739154 ], [ 3423710.969539960846305, 1912501.554903298150748 ], [ 3423703.435474926605821, 1912495.652396496850997 ], [ 3423694.784596065990627, 1912488.776505125686526 ], [ 3423682.297516005113721, 1912475.853169430280104 ], [ 3423663.391428095288575, 1912455.437963591422886 ], [ 3423656.524605579208583, 1912448.202803367050365 ], [ 3423647.734293221030384, 1912441.410805936902761 ], [ 3423639.6976139517501, 1912434.038652988150716 ], [ 3423634.395057576708496, 1912428.105468171648681 ], [ 3423608.25141344498843, 1912414.62349101039581 ], [ 3423602.378838618751615, 1912406.525619134539738 ], [ 3423600.52113792207092, 1912401.044826203025877 ], [ 3423599.703792326152325, 1912391.33361482154578 ], [ 3423601.031271240673959, 1912371.546368974726647 ], [ 3423602.146955515258014, 1912360.340905175311491 ], [ 3423602.556753308977932, 1912351.070001306477934 ], [ 3423601.587110071908683, 1912328.862294051563367 ], [ 3423600.212669219821692, 1912312.423309068894014 ], [ 3423598.974068467505276, 1912303.206437790533528 ], [ 3423596.604461532551795, 1912298.356242844369262 ], [ 3423585.797519290819764, 1912288.985816967207938 ], [ 3423577.663656034041196, 1912282.689325776183978 ], [ 3423571.836621078662574, 1912276.521176853915676 ], [ 3423573.205038822256029, 1912273.355757259530947 ], [ 3423576.837586840614676, 1912272.20263048261404 ], [ 3423581.072948626242578, 1912272.966632179217413 ], [ 3423588.47337803710252, 1912276.177208688575774 ], [ 3423597.307840027846396, 1912278.673420840408653 ], [ 3423602.357869888655841, 1912279.381735699716955 ], [ 3423617.046538763679564, 1912276.639585012337193 ], [ 3423632.191035254858434, 1912271.924134605331346 ], [ 3423645.629673300776631, 1912268.594270046101883 ], [ 3423653.233212408609688, 1912266.241351029137149 ], [ 3423668.884127059020102, 1912253.923937412444502 ], [ 3423680.190960372798145, 1912243.544751096284017 ], [ 3423687.342221076600254, 1912238.149766486836597 ], [ 3423691.608875098172575, 1912239.049803866073489 ], [ 3423692.574118642602116, 1912242.581135611515492 ], [ 3423696.785770691931248, 1912264.98264692327939 ], [ 3423698.410766289569438, 1912274.265982270240784 ], [ 3423698.983734954148531, 1912284.825315516674891 ], [ 3423701.682883820962161, 1912301.546984176849946 ], [ 3423702.859167713671923, 1912306.828967046458274 ], [ 3423702.403070000931621, 1912316.652584523428231 ], [ 3423697.159676340874285, 1912331.646805362543091 ], [ 3423697.396558641456068, 1912335.723992653656751 ], [ 3423700.845813636668026, 1912344.056096098385751 ], [ 3423703.274702598340809, 1912348.765090684173629 ], [ 3423709.590449419338256, 1912355.527468553977087 ], [ 3423717.522605802863836, 1912362.553979240125045 ], [ 3423724.969520365819335, 1912369.924088821047917 ], [ 3423732.410653055645525, 1912376.276044517988339 ], [ 3423738.54307689005509, 1912379.830227604135871 ], [ 3423742.549307765439153, 1912381.409458872163668 ], [ 3423765.789171054027975, 1912381.564263993408531 ], [ 3423776.257301426958293, 1912381.032298778183758 ], [ 3423786.414789169095457, 1912379.089355247560889 ], [ 3423790.576480928808451, 1912376.434998515527695 ], [ 3423792.170392296276987, 1912373.019935007439926 ], [ 3423793.846318258903921, 1912362.346293538343161 ], [ 3423797.104671594221145, 1912350.277678482001647 ], [ 3423799.00423417892307, 1912340.585716960253194 ], [ 3423801.204790110699832, 1912337.149903359822929 ], [ 3423805.077039651107043, 1912334.987888616044074 ], [ 3423808.824849835131317, 1912334.38053832272999 ], [ 3423817.678421271033585, 1912334.774900767952204 ], [ 3423821.991581700276583, 1912335.778050996363163 ], [ 3423829.715804217848927, 1912340.942411082098261 ], [ 3423849.771147033665329, 1912357.371259614359587 ], [ 3423856.460628285072744, 1912362.809780848911032 ], [ 3423860.054601647891104, 1912362.520810898859054 ], [ 3423864.098987393546849, 1912360.027370505733415 ], [ 3423871.471472374629229, 1912355.009070822270587 ], [ 3423875.953063603956252, 1912354.087046117754653 ], [ 3423880.15388672798872, 1912354.433060705661774 ], [ 3423898.080895505845547, 1912362.853424407541752 ], [ 3423907.440751269925386, 1912368.208080081036314 ], [ 3423916.948850537184626, 1912372.488524144981056 ], [ 3423929.056041196454316, 1912379.956203178269789 ], [ 3423933.286094846203923, 1912383.041888680076227 ], [ 3423957.261502416804433, 1912390.288097839336842 ], [ 3423961.579090909101069, 1912388.636768180178478 ], [ 3423968.976952254772186, 1912382.342860016273335 ], [ 3423972.227564653381705, 1912378.599966956069693 ], [ 3423985.212911264039576, 1912369.342370480066165 ], [ 3423989.69328523427248, 1912367.038292363518849 ], [ 3423996.329903612378985, 1912361.013117319205776 ], [ 3423997.080129830166698, 1912357.466895014746115 ], [ 3423995.570048431865871, 1912354.420311849797145 ], [ 3423985.290512703359127, 1912347.332745172316208 ], [ 3423978.613609025720507, 1912342.759770649252459 ], [ 3423970.497454868629575, 1912335.007270759670064 ], [ 3423962.40919734351337, 1912326.321894980268553 ], [ 3423955.159184510353953, 1912319.433402688242495 ], [ 3423943.359173441305757, 1912310.148482153657824 ], [ 3423939.255607245955616, 1912306.698546796571463 ], [ 3423934.065539749804884, 1912300.050384626723826 ], [ 3423930.368379216175526, 1912290.710406786995009 ], [ 3423928.525074602104723, 1912284.864066579379141 ], [ 3423923.820559976156801, 1912276.237632205011323 ], [ 3423919.458848386071622, 1912266.938192395959049 ], [ 3423913.833881324157119, 1912258.798854998778552 ], [ 3423905.827428300864995, 1912252.864425321109593 ], [ 3423901.093575085513294, 1912247.320442483993247 ], [ 3423898.791032428853214, 1912242.378400040091947 ], [ 3423897.528540476690978, 1912234.578098995843902 ], [ 3423899.028579637408257, 1912231.017325176857412 ], [ 3423905.587624764069915, 1912225.408750637667254 ], [ 3423913.071509353816509, 1912220.714897582773119 ], [ 3423920.653267817571759, 1912215.015811847522855 ], [ 3423926.564922949764878, 1912208.314896548865363 ], [ 3423928.057848054915667, 1912203.988456493476406 ], [ 3423928.743443493265659, 1912198.586358355591074 ], [ 3423927.46118600666523, 1912188.89250100357458 ], [ 3423923.350362128112465, 1912179.964861648157239 ], [ 3423918.74542785435915, 1912172.502321613719687 ], [ 3423911.497201629448682, 1912164.382519937353209 ], [ 3423903.805616643745452, 1912156.811195373069495 ], [ 3423896.979649331886321, 1912150.820374245056883 ], [ 3423876.831319742836058, 1912136.475582020590082 ], [ 3423872.662445186171681, 1912133.652191707398742 ], [ 3423868.765081269200891, 1912129.501775180222467 ], [ 3423863.651442598551512, 1912121.186017133994028 ], [ 3423863.051741571165621, 1912116.866887268144637 ], [ 3423866.724008292425424, 1912113.679001460317522 ], [ 3423871.457747142761946, 1912112.35162443225272 ], [ 3423880.129431135486811, 1912113.472704204265028 ], [ 3423888.782034290954471, 1912116.826829530065879 ], [ 3423904.421712389215827, 1912120.272264485480264 ], [ 3423931.12497044634074, 1912123.812711420934647 ], [ 3423942.171431128866971, 1912125.171770569402725 ], [ 3423955.594536849297583, 1912129.725038328673691 ], [ 3423969.789591532200575, 1912136.368917868938297 ], [ 3423977.95721170771867, 1912140.853645176161081 ], [ 3423982.712660170625895, 1912142.610265793045983 ], [ 3423992.164286457002163, 1912142.732912133214995 ], [ 3424001.294846156146377, 1912141.900291029596701 ], [ 3424010.988102380186319, 1912141.811051330761984 ], [ 3424035.693768251221627, 1912147.280272042378783 ], [ 3424040.030055347830057, 1912146.796307986835018 ], [ 3424044.358665133826435, 1912146.394452795619145 ], [ 3424053.73947128560394, 1912146.387705620378256 ], [ 3424063.958094257861376, 1912147.128727752016857 ], [ 3424070.063996911980212, 1912151.232162691885605 ], [ 3424088.596478164196014, 1912169.308508202899247 ], [ 3424093.759275815915316, 1912174.538513527018949 ], [ 3424102.207212891429663, 1912180.893470498267561 ], [ 3424109.136076468508691, 1912184.66740501113236 ], [ 3424119.467300882562995, 1912189.14305584365502 ], [ 3424126.401805454399437, 1912191.513603177852929 ], [ 3424153.422604247462004, 1912187.806641070405021 ], [ 3424157.733596636913717, 1912180.61700735334307 ], [ 3424160.263836640864611, 1912171.647034014342353 ], [ 3424160.909503610339016, 1912167.88626168272458 ], [ 3424151.909147545695305, 1912141.877278624800965 ], [ 3424143.328605308197439, 1912139.77232952369377 ], [ 3424134.416676537599415, 1912140.376499115955085 ], [ 3424127.697524291463196, 1912141.55203046835959 ], [ 3424119.436623251531273, 1912144.71102812862955 ], [ 3424111.774788759183139, 1912148.324690512614325 ], [ 3424103.997721183579415, 1912151.130348752485588 ], [ 3424096.331910425797105, 1912151.969861658522859 ], [ 3424088.774079270660877, 1912149.774412271566689 ], [ 3424086.105919299647212, 1912147.385781022487208 ], [ 3424084.910423775203526, 1912143.812289136229083 ], [ 3424088.030700149480253, 1912137.659501169109717 ], [ 3424084.930495714303106, 1912131.508911538170651 ], [ 3424067.999595012515783, 1912118.57278895820491 ], [ 3424062.044564982876182, 1912114.393641620874405 ], [ 3424056.756867263931781, 1912109.40653579053469 ], [ 3424043.429579401854426, 1912093.364682363346219 ], [ 3424036.130711970850825, 1912083.870987801346928 ], [ 3424030.006161592900753, 1912076.703240306116641 ], [ 3424024.05661468859762, 1912070.727011784212664 ], [ 3424017.418310171924531, 1912065.552340634400025 ], [ 3424003.413293664343655, 1912057.383368922397494 ], [ 3423996.581972311250865, 1912053.583019859390333 ], [ 3423984.018662068061531, 1912044.87994733126834 ], [ 3423971.616641769185662, 1912035.645359106594697 ], [ 3423959.009137585293502, 1912026.919519933173433 ], [ 3423953.185908732470125, 1912022.60731965280138 ], [ 3423948.007216747384518, 1912015.442554189590737 ], [ 3423943.362055589910597, 1912006.412675676401705 ], [ 3423935.550140442326665, 1911996.692192431073636 ], [ 3423929.789437186904252, 1911990.230290417559445 ], [ 3423933.172193109057844, 1911991.853494995739311 ], [ 3423940.228545106481761, 1911995.989501342177391 ], [ 3423946.561252583283931, 1912001.487769998144358 ], [ 3423950.313047440722585, 1912003.654601732967421 ], [ 3423958.721294488757849, 1912005.56639062659815 ], [ 3423967.744912880007178, 1912006.204780541593209 ], [ 3423975.464179664850235, 1912005.70936642610468 ], [ 3423983.564240850042552, 1912004.39352949638851 ], [ 3423991.05878266133368, 1912002.190131535520777 ], [ 3424002.112237975001335, 1911997.312376953428611 ], [ 3424009.509617557749152, 1911993.63199618505314 ], [ 3424017.500943135470152, 1911988.802687376039103 ], [ 3424021.517822273075581, 1911988.291587692219764 ], [ 3424029.51635411195457, 1911991.099387602414936 ], [ 3424042.106368962675333, 1911995.328023293055594 ], [ 3424051.415696173906326, 1911998.067714571021497 ], [ 3424077.003727475181222, 1912003.066366977058351 ], [ 3424087.714364266954362, 1912005.208196996711195 ], [ 3424096.541504158172756, 1912006.283117508050054 ], [ 3424105.772931907791644, 1912006.230775266187266 ], [ 3424114.324298448394984, 1912005.333824601024389 ], [ 3424122.686799945775419, 1912002.894319982733577 ], [ 3424129.605110462754965, 1911998.093435490038246 ], [ 3424136.949204874690622, 1911987.984437506413087 ], [ 3424141.838451800402254, 1911980.132960801944137 ], [ 3424145.210763731040061, 1911973.181335978908464 ], [ 3424149.175495109520853, 1911960.752336576813832 ], [ 3424153.546177884563804, 1911942.887477788608521 ], [ 3424155.680341598112136, 1911934.770786151755601 ], [ 3424156.433996637351811, 1911923.262940646614879 ], [ 3424156.344554071314633, 1911913.72258158097975 ], [ 3424156.880456767976284, 1911905.197438184870407 ], [ 3424159.766673904843628, 1911896.621862368891016 ], [ 3424162.458193971775472, 1911893.598231365671381 ], [ 3424169.259956954978406, 1911890.925737671088427 ], [ 3424180.938913026358932, 1911887.719211801886559 ], [ 3424196.048420609906316, 1911882.909032511990517 ], [ 3424204.790278607048094, 1911879.901537882862613 ], [ 3424213.565629195421934, 1911878.745136814657599 ], [ 3424217.01742703653872, 1911879.438592013437301 ], [ 3424220.309003361966461, 1911881.652121505932882 ], [ 3424237.081739397719502, 1911893.504846746567637 ], [ 3424249.930831708945334, 1911902.281207355670631 ], [ 3424260.484523070044816, 1911908.909230489749461 ], [ 3424264.715019812807441, 1911911.147189146373421 ], [ 3424273.904573790729046, 1911920.183084805961698 ], [ 3424283.435887112282217, 1911930.241415024967864 ], [ 3424290.511988018173724, 1911936.533458937192336 ], [ 3424300.09673756826669, 1911942.223877061391249 ], [ 3424306.605877229012549, 1911946.633164362981915 ], [ 3424313.287626614328474, 1911949.863270580535755 ], [ 3424322.254066174849868, 1911952.75133288721554 ], [ 3424333.353603304829448, 1911953.274219980230555 ], [ 3424341.571968908421695, 1911952.523783682379872 ], [ 3424353.467000451870263, 1911950.249782156897709 ], [ 3424373.167192213237286, 1911944.761895193951204 ], [ 3424400.987125941552222, 1911937.561359698651358 ], [ 3424412.591478667221963, 1911934.659899851307273 ], [ 3424422.636995343957096, 1911932.715746000176296 ], [ 3424426.289154560305178, 1911933.194046426797286 ], [ 3424429.34763401420787, 1911935.739225485827774 ], [ 3424427.923260292969644, 1911942.405141084687784 ], [ 3424420.567593303509057, 1911958.590177445439622 ], [ 3424416.977417441084981, 1911965.84067751490511 ], [ 3424413.961410260759294, 1911973.711455762153491 ], [ 3424412.236689271871001, 1911982.435609363252297 ], [ 3424413.423998036421835, 1911990.995018224930391 ], [ 3424416.027709026355296, 1911998.792603788664564 ], [ 3424419.129584646783769, 1912005.477688050130382 ], [ 3424422.796560213901103, 1912011.351658810628578 ], [ 3424428.526722800452262, 1912017.747968361945823 ], [ 3424435.791602585464716, 1912021.001641273265705 ], [ 3424443.165522694587708, 1912022.471174410311505 ], [ 3424451.613743199501187, 1912023.135257889283821 ], [ 3424468.913101861253381, 1912021.691902687540278 ], [ 3424495.167565201874822, 1912018.809847929049283 ], [ 3424507.550580107141286, 1912017.321838589617983 ], [ 3424520.331839072518051, 1912016.826629590708762 ], [ 3424529.645618733949959, 1912016.911940170451999 ], [ 3424546.718256861902773, 1912018.654711725423113 ], [ 3424556.796861914917827, 1912020.064969216939062 ], [ 3424561.700775302946568, 1912021.403271476970986 ], [ 3424568.097795248031616, 1912025.548827355261892 ], [ 3424570.544683859683573, 1912029.195430618012324 ], [ 3424571.841029052622616, 1912033.549253094242886 ], [ 3424572.915380437858403, 1912041.905581688275561 ], [ 3424570.92179902177304, 1912062.116901022382081 ], [ 3424569.926176245324314, 1912070.103478798875585 ], [ 3424564.717573217116296, 1912080.217998527456075 ], [ 3424559.969597680494189, 1912086.623036959441379 ], [ 3424553.151047961786389, 1912093.505900410935283 ], [ 3424545.839521328452975, 1912098.392720184987411 ], [ 3424536.61770561337471, 1912101.843766763573512 ], [ 3424528.414522423408926, 1912102.430095218354836 ], [ 3424520.105742821004242, 1912101.682118791621178 ], [ 3424514.918064750730991, 1912101.85440978477709 ], [ 3424502.326140959747136, 1912105.334904581075534 ], [ 3424494.240364225581288, 1912108.050796341150999 ], [ 3424487.198352460749447, 1912109.764647888485342 ], [ 3424461.269994426518679, 1912112.652683517429978 ], [ 3424448.050107961520553, 1912113.857043094234541 ], [ 3424440.298316922970116, 1912115.124582835705951 ], [ 3424431.884848202578723, 1912117.824821105459705 ], [ 3424408.516522672027349, 1912127.377707474399358 ], [ 3424400.539800169877708, 1912130.600055156508461 ], [ 3424384.181995338294655, 1912135.356859238119796 ], [ 3424375.653255659155548, 1912137.511258494807407 ], [ 3424368.83333136793226, 1912140.459319284884259 ], [ 3424362.370135999750346, 1912145.638035993790254 ], [ 3424357.859114256687462, 1912151.801644063089043 ], [ 3424352.374598583206534, 1912164.000648357206956 ], [ 3424349.641216297168285, 1912171.40035545360297 ], [ 3424348.113016270566732, 1912179.688031842699274 ], [ 3424347.837026335764676, 1912185.959807804552838 ], [ 3424349.207280879374593, 1912192.490846186177805 ], [ 3424353.864565532654524, 1912199.308944741729647 ], [ 3424360.681013959925622, 1912203.929126309463754 ], [ 3424372.05541031435132, 1912207.988003879785538 ], [ 3424384.128199292346835, 1912210.981474942294881 ], [ 3424399.63822802528739, 1912213.853534885682166 ], [ 3424415.207466460764408, 1912216.322167566977441 ], [ 3424428.399282215163112, 1912217.816568905953318 ], [ 3424440.893575019203126, 1912218.418732616584748 ], [ 3424448.438000845722854, 1912219.284564021974802 ], [ 3424453.453158304095268, 1912220.553771986858919 ], [ 3424461.32791586080566, 1912224.724342979490757 ], [ 3424468.51732973055914, 1912230.24066274263896 ], [ 3424476.563966463785619, 1912237.611328539438546 ], [ 3424485.995502203237265, 1912245.456448412965983 ], [ 3424495.81244143564254, 1912252.641721689375117 ], [ 3424502.512116128113121, 1912256.706424991833046 ], [ 3424509.32418459886685, 1912259.924813109915704 ], [ 3424521.015550389885902, 1912263.799476809799671 ], [ 3424528.647216827142984, 1912265.750544984592125 ], [ 3424536.581992326769978, 1912267.035465319408104 ], [ 3424544.085085981059819, 1912267.37344674533233 ], [ 3424556.84109490737319, 1912266.650361829437315 ], [ 3424567.944682703353465, 1912265.628887659171596 ], [ 3424575.524834326002747, 1912264.238637792179361 ], [ 3424582.401412749662995, 1912262.048073241021484 ], [ 3424588.98684028768912, 1912257.787310963263735 ], [ 3424593.844909227453172, 1912252.221490623429418 ], [ 3424602.070512470323592, 1912237.515210865065455 ], [ 3424607.554546671453863, 1912226.163915031589568 ], [ 3424612.794914877507836, 1912213.178343124687672 ], [ 3424615.620126402471215, 1912204.602923513855785 ], [ 3424617.760068156290799, 1912200.188400344224647 ], [ 3424623.270963189657778, 1912193.655732108745724 ], [ 3424631.234258187469095, 1912189.36601107288152 ], [ 3424639.865174455102533, 1912187.083562601590529 ], [ 3424648.181577291805297, 1912185.85259911720641 ], [ 3424658.72446995973587, 1912185.147014183457941 ], [ 3424674.752735951449722, 1912186.055628346279263 ], [ 3424677.856118302792311, 1912186.403727657161653 ], [ 3424678.053512016776949, 1912186.431221919832751 ], [ 3424682.863419139292091, 1912186.967961768386886 ], [ 3424693.624361610971391, 1912189.172113583888859 ], [ 3424702.519959481898695, 1912191.930719415191561 ], [ 3424710.672682045958936, 1912195.46965811913833 ], [ 3424718.51514661218971, 1912200.806040652794763 ], [ 3424724.464630124624819, 1912206.388706241501495 ], [ 3424730.055275297723711, 1912212.60658767586574 ], [ 3424736.694539542775601, 1912218.376580826705322 ], [ 3424742.794459465425462, 1912222.571887452155352 ], [ 3424750.493767481297255, 1912226.267359102377668 ], [ 3424759.751173838041723, 1912228.410540664801374 ], [ 3424775.258293259888887, 1912227.731459795031697 ], [ 3424790.942045412957668, 1912226.225689702667296 ], [ 3424819.014507493935525, 1912224.381301464745775 ], [ 3424826.329069142695516, 1912223.83268987829797 ], [ 3424838.004111470654607, 1912224.723568182904273 ], [ 3424845.178273755591363, 1912225.954154375242069 ], [ 3424855.839064260013402, 1912229.21439172513783 ], [ 3424869.505937101319432, 1912235.53320697019808 ], [ 3424880.951455400325358, 1912240.377404616214335 ], [ 3424887.804551381617785, 1912242.94319776725024 ], [ 3424897.018214953131974, 1912244.478225853992626 ], [ 3424904.294980231672525, 1912244.864248704398051 ], [ 3424913.238108737394214, 1912244.133922132197767 ], [ 3424925.18921206984669, 1912239.015215889317915 ], [ 3424932.76324746478349, 1912234.901816408615559 ], [ 3424939.60513277631253, 1912229.478185571264476 ], [ 3424942.336824040394276, 1912226.124996555736288 ], [ 3424944.921581299975514, 1912218.619080087635666 ], [ 3424946.234271893277764, 1912206.392134779598564 ], [ 3424946.976169616449624, 1912189.901800419436768 ], [ 3424947.136394534260035, 1912177.191652374342084 ], [ 3424946.844491588883102, 1912168.442006456200033 ], [ 3424945.701734515838325, 1912160.692364139016718 ], [ 3424943.397703355178237, 1912153.712369678309187 ], [ 3424940.137846594210714, 1912150.655914991395548 ], [ 3424930.825516601093113, 1912150.318036769516766 ], [ 3424923.428668687585741, 1912150.991289950208738 ], [ 3424911.381934731267393, 1912150.71766500081867 ], [ 3424898.023788779973984, 1912148.938170027919114 ], [ 3424889.871691808104515, 1912147.235607081791386 ], [ 3424878.969169167336076, 1912143.53149673785083 ], [ 3424871.272151591721922, 1912140.178585691377521 ], [ 3424861.380172434262931, 1912134.146008518291637 ], [ 3424855.521091025322676, 1912129.668206827715039 ], [ 3424850.089567985385656, 1912123.231967824278399 ], [ 3424846.09154665004462, 1912116.797808227594942 ], [ 3424843.012529998086393, 1912109.735660955542699 ], [ 3424840.455860739573836, 1912101.587141755735502 ], [ 3424836.116169503889978, 1912094.39287948072888 ], [ 3424831.089614995289594, 1912088.534615804208443 ], [ 3424823.752322231885046, 1912082.851302003953606 ], [ 3424813.471753159537911, 1912077.065406697336584 ], [ 3424805.719720023684204, 1912073.227394469548017 ], [ 3424797.090863132383674, 1912070.222203311510384 ], [ 3424783.92570539843291, 1912066.674913346767426 ], [ 3424770.584096867591143, 1912064.216633265838027 ], [ 3424752.681920422241092, 1912061.583567725261673 ], [ 3424744.57121795322746, 1912060.67111405194737 ], [ 3424728.92685315432027, 1912052.483815846033394 ], [ 3424709.950013669207692, 1912040.576190846273676 ], [ 3424699.195927402935922, 1912034.032101299846545 ], [ 3424677.436855640262365, 1912018.412938021821901 ], [ 3424667.567045633215457, 1912012.588567106984556 ], [ 3424657.62523132096976, 1912005.646153197158128 ], [ 3424655.024907994549721, 1912003.498501721769571 ], [ 3424654.804602676071227, 1912003.323490400798619 ], [ 3424650.502789833117276, 1911999.775533380685374 ], [ 3424647.241335730534047, 1911996.447023269254714 ], [ 3424642.347894567064941, 1911987.781597890192643 ], [ 3424643.227655305527151, 1911984.022033814107999 ], [ 3424645.9045409434475, 1911971.808752712327987 ], [ 3424647.916419262997806, 1911960.483849060256034 ], [ 3424648.653090433683246, 1911952.924070470267907 ], [ 3424650.954754358157516, 1911944.184188335668296 ], [ 3424653.389445795677602, 1911941.143056867644191 ], [ 3424662.761132996063679, 1911932.440271095605567 ], [ 3424669.079182911198586, 1911926.065036333631724 ], [ 3424672.678453244268894, 1911925.613825636217371 ], [ 3424701.086143914610147, 1911925.600203521316871 ], [ 3424714.299544207751751, 1911925.466596764745191 ], [ 3424726.352821441367269, 1911924.669649741379544 ], [ 3424735.313374358229339, 1911923.593239417299628 ], [ 3424746.862933446653187, 1911920.60015231766738 ], [ 3424760.180677743628621, 1911915.837996596470475 ], [ 3424770.615180132910609, 1911912.537172742886469 ], [ 3424777.880501971114427, 1911910.755838522454724 ], [ 3424791.668413771316409, 1911910.263734807027504 ], [ 3424809.503455982543528, 1911910.567269660532475 ], [ 3424826.393340591341257, 1911910.413540713023394 ], [ 3424843.843847214244306, 1911909.681639155140147 ], [ 3424856.704987216740847, 1911908.719117094529793 ], [ 3424865.252326831221581, 1911907.469748487928882 ], [ 3424877.1091025066562, 1911904.687716530635953 ], [ 3424889.279529463034123, 1911900.91469849133864 ], [ 3424905.920887830201536, 1911896.413402534788474 ], [ 3424921.561270203441381, 1911892.92725441372022 ], [ 3424934.136118927970529, 1911890.71105967881158 ], [ 3424949.684302143286914, 1911887.220279229572043 ], [ 3424961.021287873387337, 1911884.363748694304377 ], [ 3424986.704261746723205, 1911879.569786051986739 ], [ 3425000.796341886743903, 1911876.97854212904349 ], [ 3425013.555795451626182, 1911875.296517313458025 ], [ 3425023.397403778973967, 1911874.395566371735185 ], [ 3425036.622409265022725, 1911872.373372351750731 ], [ 3425046.699089190457016, 1911870.171812444692478 ], [ 3425059.260459844954312, 1911866.626023084390908 ], [ 3425068.258417548146099, 1911863.303527789888903 ], [ 3425075.202340840362012, 1911859.780018646270037 ], [ 3425082.253454898484051, 1911853.413238923065364 ], [ 3425084.108620762825012, 1911849.258455079048872 ], [ 3425082.183231582399458, 1911846.220765399746597 ], [ 3425078.690589232370257, 1911844.414085533935577 ], [ 3425070.63537138979882, 1911843.008045463822782 ], [ 3425055.118566872552037, 1911846.897220690036193 ], [ 3425035.364993130322546, 1911852.434028543531895 ], [ 3425027.358178606256843, 1911854.349527069134638 ], [ 3425016.168244536966085, 1911854.749700806103647 ], [ 3425003.50088750012219, 1911854.014858340611681 ], [ 3424992.138909201137722, 1911855.008885107701644 ], [ 3424970.233768797945231, 1911855.659050640650094 ], [ 3424959.934664173983037, 1911855.839479546993971 ], [ 3424952.354257410392165, 1911854.545585604151711 ], [ 3424944.353347511496395, 1911851.394976009847596 ], [ 3424937.105703487526625, 1911847.139525790465996 ], [ 3424931.016776518896222, 1911841.247113824589178 ], [ 3424923.97018560487777, 1911829.713405999820679 ], [ 3424918.701822988688946, 1911818.961555904941633 ], [ 3424914.102754643186927, 1911808.460806471528485 ], [ 3424905.300174432341009, 1911792.165916134603322 ], [ 3424900.81399832572788, 1911784.289979744469747 ], [ 3424894.288696400355548, 1911774.86855279840529 ], [ 3424888.582749302498996, 1911768.104922998929396 ], [ 3424878.451572901569307, 1911759.942996170604602 ], [ 3424868.98928369069472, 1911753.404594398336485 ], [ 3424855.741195821668953, 1911745.855268988059834 ], [ 3424846.371627664659172, 1911740.895585596561432 ], [ 3424837.873231616336852, 1911738.272231902461499 ], [ 3424829.583284294232726, 1911736.925597727764398 ], [ 3424809.188882948830724, 1911735.981021020328626 ], [ 3424797.528357223141938, 1911735.249200702179223 ], [ 3424788.959169074427336, 1911735.311486050020903 ], [ 3424780.53913080599159, 1911734.632506710011512 ], [ 3424764.894990264438093, 1911731.550634452840313 ], [ 3424757.865453076548874, 1911729.811488502891734 ], [ 3424750.512393373996019, 1911726.905497930943966 ], [ 3424739.128470008261502, 1911719.185482111526653 ], [ 3424731.971962684765458, 1911713.946141845081002 ], [ 3424724.088879556395113, 1911709.918069369159639 ], [ 3424717.248145839199424, 1911707.562093240208924 ], [ 3424708.804326650220901, 1911706.402779549127445 ], [ 3424697.08224061736837, 1911706.256322947563604 ], [ 3424679.468841480091214, 1911707.641198381548747 ], [ 3424670.470113218761981, 1911708.60280352900736 ], [ 3424666.97641877643764, 1911707.966775825247169 ], [ 3424655.718858643434942, 1911702.173013775143772 ], [ 3424648.264891881495714, 1911698.617979418253526 ], [ 3424636.633409454021603, 1911695.782585558015853 ], [ 3424627.837567385286093, 1911694.843659502221271 ], [ 3424617.057598316576332, 1911695.134920929325745 ], [ 3424616.031869539059699, 1911695.336909301811829 ], [ 3424608.540858960244805, 1911696.843238848261535 ], [ 3424602.072412393521518, 1911700.156048121163622 ], [ 3424595.307662491686642, 1911706.27317207865417 ], [ 3424590.298777237534523, 1911712.045794792706147 ], [ 3424584.702379864640534, 1911720.449300086591393 ], [ 3424579.402514122892171, 1911726.966860016575083 ], [ 3424575.713940221816301, 1911729.330067575909197 ], [ 3424574.633899682201445, 1911722.114804712822661 ], [ 3424571.474967926740646, 1911715.257764814421535 ], [ 3424567.514380515087396, 1911708.998977654380724 ], [ 3424558.733701653778553, 1911698.603164988104254 ], [ 3424555.295365483965725, 1911695.051916457246989 ], [ 3424548.088886368088424, 1911690.537359945243225 ], [ 3424543.484362137969583, 1911688.836129406001419 ], [ 3424522.385487668216228, 1911687.020773638272658 ], [ 3424514.851063079666346, 1911686.5466291916091 ], [ 3424502.463072060141712, 1911684.534134312532842 ], [ 3424494.168342238292098, 1911682.502324615139514 ], [ 3424478.642204392701387, 1911676.646270282333717 ], [ 3424467.625332369469106, 1911672.860445984173566 ], [ 3424463.848540695849806, 1911671.121548967901617 ], [ 3424461.489970505237579, 1911670.035677497275174 ], [ 3424463.998948963358998, 1911669.603026401484385 ], [ 3424468.708472528494895, 1911668.708639582851902 ], [ 3424473.417996170930564, 1911667.814253368182108 ], [ 3424474.430163159966469, 1911667.69444616092369 ], [ 3424490.675285037606955, 1911665.772519051330164 ], [ 3424504.585005172528327, 1911664.755567157641053 ], [ 3424518.118950901087373, 1911663.609715758822858 ], [ 3424527.562199708539993, 1911663.350504993228242 ], [ 3424536.58175180060789, 1911663.505293046589941 ], [ 3424544.740518618375063, 1911664.530779596418142 ], [ 3424553.526134070008993, 1911666.843663745792583 ], [ 3424573.212427981197834, 1911674.223112318431959 ], [ 3424580.531915249768645, 1911677.043790572788566 ], [ 3424587.474620940163732, 1911678.878273884300143 ], [ 3424596.921581940725446, 1911678.315750828478485 ], [ 3424600.12268086662516, 1911676.740568173583597 ], [ 3424604.028789158910513, 1911673.291676591848955 ], [ 3424608.476425181608647, 1911666.129771033069119 ], [ 3424611.649456575512886, 1911660.513146459357813 ], [ 3424612.414174852892756, 1911659.154128821799532 ], [ 3424618.686061030719429, 1911644.694471002090722 ], [ 3424621.546941735781729, 1911633.207202998688444 ], [ 3424623.073004740290344, 1911627.392066129017621 ], [ 3424626.856050037778914, 1911620.401969971368089 ], [ 3424634.489747214131057, 1911614.644003624096513 ], [ 3424645.263675144407898, 1911609.99493713490665 ], [ 3424657.712013186886907, 1911605.590149530675262 ], [ 3424675.910059355664998, 1911595.208032505121082 ], [ 3424705.15578288724646, 1911578.536820571869612 ], [ 3424713.587803921662271, 1911576.085961760021746 ], [ 3424726.441754936240613, 1911572.198527620406821 ], [ 3424734.286945324391127, 1911570.027535191504285 ], [ 3424752.470070526003838, 1911569.62697888049297 ], [ 3424760.588619528338313, 1911571.506811583414674 ], [ 3424768.275580588262528, 1911574.46780477440916 ], [ 3424776.511200003325939, 1911577.558932848274708 ], [ 3424784.684365171007812, 1911580.771508231526241 ], [ 3424792.210360123775899, 1911585.575769615825266 ], [ 3424798.76433507213369, 1911589.684993128757924 ], [ 3424805.106343682389706, 1911593.476547861238942 ], [ 3424828.357227250933647, 1911599.199908855371177 ], [ 3424836.034326269757003, 1911595.68481993325986 ], [ 3424845.840217017568648, 1911588.402913758065552 ], [ 3424854.87416067533195, 1911581.058425899827853 ], [ 3424862.236861056648195, 1911574.145165467401966 ], [ 3424869.637970043346286, 1911567.871243992820382 ], [ 3424884.93876118818298, 1911554.019046928500757 ], [ 3424892.760898403823376, 1911546.726185458013788 ], [ 3424899.752118127420545, 1911540.823594385758042 ], [ 3424908.028020006604493, 1911534.55449618306011 ], [ 3424919.672327562700957, 1911527.590456616366282 ], [ 3424931.068538433406502, 1911521.777761535951868 ], [ 3424937.626257756259292, 1911518.712431456195191 ], [ 3424944.564854798838496, 1911515.088930347235873 ], [ 3424947.539412661455572, 1911510.74667136464268 ], [ 3424950.356369244866073, 1911502.051704714307562 ], [ 3424949.88197860866785, 1911494.220603365218267 ], [ 3424950.318002593237907, 1911473.927216515410691 ], [ 3424950.27566863456741, 1911461.089648477500305 ], [ 3424951.050210654735565, 1911452.726598442299291 ], [ 3424954.758941711392254, 1911435.245264767436311 ], [ 3424956.68063732329756, 1911427.134148814715445 ], [ 3424962.121802778914571, 1911417.142251840792596 ], [ 3424967.562403842341155, 1911409.894948078552261 ], [ 3424975.222847678698599, 1911402.08433849667199 ], [ 3424986.386616555973887, 1911391.568373335525393 ], [ 3424999.669033129699528, 1911383.502692881040275 ], [ 3425009.573274683207273, 1911378.293056661495939 ], [ 3425017.019478850997984, 1911374.796406007139012 ], [ 3425024.286206220276654, 1911370.341077517252415 ], [ 3425030.405984158627689, 1911365.633783997502178 ], [ 3425040.512656595092267, 1911352.762201807228848 ], [ 3425047.888661028351635, 1911342.204294942086563 ], [ 3425055.875237385742366, 1911331.715716493781656 ], [ 3425061.482993607409298, 1911325.217397131957114 ], [ 3425067.099049584474415, 1911318.445259586209431 ], [ 3425070.853356861509383, 1911311.92423003888689 ], [ 3425072.463273133151233, 1911303.834964226698503 ], [ 3425073.144854234531522, 1911295.134254964301363 ], [ 3425074.504062492400408, 1911287.066879251273349 ], [ 3425077.930704879108816, 1911280.661243975628167 ], [ 3425083.368284050375223, 1911273.394310903036967 ], [ 3425090.649285862222314, 1911263.598998227389529 ], [ 3425096.074231177102774, 1911257.363367600366473 ], [ 3425107.974848699755967, 1911248.84294594777748 ], [ 3425117.409109901636839, 1911244.196861268486828 ], [ 3425114.676073418464512, 1911239.306135643040761 ], [ 3425114.388289188500494, 1911237.780265533132479 ], [ 3425116.056620011106133, 1911225.322449480416253 ], [ 3425117.72503833193332, 1911212.864520319039002 ], [ 3425118.879486437421292, 1911208.943115638103336 ], [ 3425120.033919670153409, 1911205.021612864919007 ], [ 3425122.820025558583438, 1911195.211890150560066 ], [ 3425123.806373028084636, 1911190.829159026499838 ], [ 3425124.792621910572052, 1911186.446444761240855 ], [ 3425125.053151200991124, 1911181.383154943585396 ], [ 3425125.313665801193565, 1911176.319767033448443 ], [ 3425125.019555491395295, 1911171.873899168567732 ], [ 3425124.725445598363876, 1911167.428031447110698 ], [ 3425123.910003571305424, 1911162.76683083944954 ], [ 3425123.094546699896455, 1911158.105532007524744 ], [ 3425121.444652009289712, 1911152.751484989421442 ], [ 3425119.794872170314193, 1911147.397519850637764 ], [ 3425115.042142482008785, 1911135.121580393752083 ], [ 3425111.063485378865153, 1911125.505955799715593 ], [ 3425108.990850570611656, 1911120.570777889573947 ], [ 3425107.328869128599763, 1911116.48000601073727 ], [ 3425105.666903234086931, 1911112.389332538237795 ], [ 3425103.27526958566159, 1911107.265392368426546 ], [ 3425101.702251933515072, 1911102.681261146673933 ], [ 3425098.07957017980516, 1911091.079870076151565 ], [ 3425093.340592540800571, 1911076.19901812216267 ], [ 3425090.116761920973659, 1911066.188753328053281 ], [ 3425086.985832138452679, 1911060.684267504839227 ], [ 3425082.785803161561489, 1911056.112461828626692 ], [ 3425074.97901904117316, 1911050.787893347674981 ], [ 3425063.872158919461071, 1911043.755062974523753 ], [ 3425050.875692107714713, 1911034.325739396037534 ], [ 3425037.913999081589282, 1911026.096251296112314 ], [ 3425027.603982638102025, 1911020.286440321709961 ], [ 3425016.542854497209191, 1911013.547450640704483 ], [ 3425004.639882704708725, 1911007.250768526922911 ], [ 3424998.868477349635214, 1911006.695483400952071 ], [ 3424991.476098564919084, 1911004.714297174476087 ], [ 3424985.97356635145843, 1911004.364036608254537 ], [ 3424966.026882046367973, 1911002.37563700391911 ], [ 3424960.680166594218463, 1911000.606976560782641 ], [ 3424949.173053220380098, 1910996.085769839351997 ], [ 3424940.450584969483316, 1910990.906724673230201 ], [ 3424924.960066705010831, 1910979.585810168646276 ], [ 3424920.798693391494453, 1910976.549092561472207 ], [ 3424903.809994390234351, 1910964.384201345499605 ], [ 3424886.639133446384221, 1910952.158996253972873 ], [ 3424877.698642543982714, 1910944.594850864028558 ], [ 3424872.465810617431998, 1910941.727502207737416 ], [ 3424862.317291570361704, 1910936.0707870463375 ], [ 3424855.174664814025164, 1910931.182245450094342 ], [ 3424850.367681214120239, 1910928.732878407696262 ], [ 3424845.560613785870373, 1910926.283626610646024 ], [ 3424843.462751635350287, 1910925.767056088196114 ], [ 3424836.617020721081644, 1910924.556976321619004 ], [ 3424831.869266272522509, 1910923.863549208268523 ], [ 3424820.71530996914953, 1910922.53223085636273 ], [ 3424814.437100013252348, 1910922.685161055997014 ], [ 3424809.669928919523954, 1910923.306688405107707 ], [ 3424804.902742600999773, 1910923.928117985604331 ], [ 3424794.477080824319273, 1910926.369639685610309 ], [ 3424789.255272196605802, 1910926.910777795827016 ], [ 3424784.033463613130152, 1910927.451916583348066 ], [ 3424773.598488403484225, 1910927.15051758242771 ], [ 3424771.83700978057459, 1910926.345570199890062 ], [ 3424761.91925406223163, 1910915.433801489649341 ], [ 3424752.001385139301419, 1910904.521951955510303 ], [ 3424746.313793573528528, 1910897.351668935269117 ], [ 3424742.365478036925197, 1910894.476050973404199 ], [ 3424738.417177797295153, 1910891.600531528238207 ], [ 3424731.233731875661761, 1910887.495766264852136 ], [ 3424726.471095321699977, 1910885.528350393520668 ], [ 3424721.708374925423414, 1910883.561049788957462 ], [ 3424701.747960010543466, 1910873.06965050031431 ], [ 3424678.114425782114267, 1910860.253399517154321 ], [ 3424641.817858994938433, 1910842.47019486152567 ], [ 3424635.502296722494066, 1910835.495546716498211 ], [ 3424634.020105925388634, 1910830.546492419438437 ], [ 3424633.963344614952803, 1910822.524132271530107 ], [ 3424651.893849300220609, 1910807.808591672917828 ], [ 3424655.692724077496678, 1910801.641522336518392 ], [ 3424658.041511489078403, 1910789.200455791782588 ], [ 3424660.660424759611487, 1910783.092476649675518 ], [ 3424665.667599184438586, 1910773.986128631280735 ], [ 3424678.912696495652199, 1910762.791961247101426 ], [ 3424696.240235663484782, 1910748.788353748852387 ], [ 3424705.955170358531177, 1910739.366376286372542 ], [ 3424709.750292881391943, 1910731.644073102157563 ], [ 3424714.91790211526677, 1910722.038474751403555 ], [ 3424727.676259798463434, 1910693.717328244121745 ], [ 3424744.401732164435089, 1910694.424565827939659 ], [ 3424763.929084756411612, 1910696.116559762507677 ], [ 3424776.804324530530721, 1910696.323501443490386 ], [ 3424788.37744953064248, 1910695.803584520472214 ], [ 3424805.40980783617124, 1910696.561382633401081 ], [ 3424911.477477346081287, 1910705.995578910922632 ], [ 3424916.641766732558608, 1910709.302629080833867 ], [ 3424920.590464937034994, 1910710.578428858425468 ], [ 3424926.191968927159905, 1910709.938752540154383 ], [ 3424930.195903250016272, 1910708.672521360218525 ], [ 3424935.42558364616707, 1910706.605200074613094 ], [ 3424944.457053511403501, 1910703.901501916116104 ], [ 3424949.507030493114144, 1910702.609206071123481 ], [ 3424968.301104648038745, 1910697.079436667496338 ], [ 3424978.320086316671222, 1910695.549590513342991 ], [ 3425000.990529565140605, 1910693.842147971736267 ], [ 3425008.121156701352447, 1910691.456643776036799 ], [ 3425013.789519117213786, 1910689.315905370516703 ], [ 3425019.36768920859322, 1910686.594351865584031 ], [ 3425024.833111377898604, 1910683.146730184555054 ], [ 3425028.521374357864261, 1910679.847654495155439 ], [ 3425032.265557524282485, 1910675.943205340765417 ], [ 3425037.787015408277512, 1910671.890294371405616 ], [ 3425042.600576389580965, 1910670.041672841645777 ], [ 3425045.862557398155332, 1910669.793619171483442 ], [ 3425048.584728377405554, 1910669.933878784067929 ], [ 3425052.465773541945964, 1910670.774028630461544 ], [ 3425056.706824517808855, 1910672.000903943553567 ], [ 3425061.094979564659297, 1910675.13992344494909 ], [ 3425066.174349470995367, 1910677.414468138711527 ], [ 3425068.160125520545989, 1910678.12891071010381 ], [ 3425070.128607971128076, 1910678.246299312449992 ], [ 3425072.344447350595146, 1910678.024327668827027 ], [ 3425076.731045282445848, 1910677.290075171040371 ], [ 3425080.352337415795773, 1910675.491997860837728 ], [ 3425084.749873782508075, 1910673.862046518363059 ], [ 3425086.436841482762247, 1910673.132688381010666 ], [ 3425088.337687498889863, 1910672.814515213482082 ], [ 3425091.397407544311136, 1910673.19623292144388 ], [ 3425093.422717767767608, 1910674.645065115299076 ], [ 3425095.447913656476885, 1910676.093815603526309 ], [ 3425097.810773052275181, 1910677.784103552345186 ], [ 3425099.329751915298402, 1910678.870703221531585 ], [ 3425101.040732605848461, 1910682.159887259360403 ], [ 3425101.401516754180193, 1910684.483248633565381 ], [ 3425101.158939061686397, 1910688.71663132077083 ], [ 3425100.786506817210466, 1910689.630361081333831 ], [ 3425100.13839716417715, 1910692.633349743206054 ], [ 3425099.567240802571177, 1910695.0276459667366 ], [ 3425099.182384410407394, 1910696.964962409576401 ], [ 3425098.752481409814209, 1910699.165296690072864 ], [ 3425098.200495059136301, 1910701.130588348954916 ], [ 3425097.340026506688446, 1910703.317833880661055 ], [ 3425096.428017330355942, 1910705.173170676454902 ], [ 3425095.805320968385786, 1910707.235558546148241 ], [ 3425094.995913268998265, 1910708.648026316193864 ], [ 3425091.562516292091459, 1910710.06876963772811 ], [ 3425086.737240344285965, 1910710.876450895797461 ], [ 3425080.944412915967405, 1910711.250174158252776 ], [ 3425076.850284772925079, 1910711.93557386752218 ], [ 3425073.487273814622313, 1910712.49849439249374 ], [ 3425070.439172591548413, 1910713.15773243480362 ], [ 3425067.413611952215433, 1910713.962125578662381 ], [ 3425064.636188149917871, 1910716.363795673241839 ], [ 3425061.364066772162914, 1910719.44428578321822 ], [ 3425045.554955645930022, 1910729.963514995994046 ], [ 3425042.317492398433387, 1910737.260655661579221 ], [ 3425041.351462023332715, 1910743.148412443231791 ], [ 3425043.905844817403704, 1910750.792714177630842 ], [ 3425049.746389740146697, 1910746.357755429577082 ], [ 3425056.33740831585601, 1910741.615357786417007 ], [ 3425063.693639901466668, 1910736.744875804055482 ], [ 3425069.07074211165309, 1910733.957797169452533 ], [ 3425071.38058649469167, 1910733.581250843591988 ], [ 3425080.624978196807206, 1910730.994601895101368 ], [ 3425092.256106121465564, 1910727.80654992046766 ], [ 3425099.861373452004045, 1910725.857409871648997 ], [ 3425116.085325743071735, 1910723.837865744018927 ], [ 3425126.689731856342405, 1910722.678234683582559 ], [ 3425134.949773207306862, 1910721.083741588052362 ], [ 3425144.981166587676853, 1910718.002038741949946 ], [ 3425153.066021964419633, 1910714.166634563589469 ], [ 3425161.999318700749427, 1910708.85724344314076 ], [ 3425171.631094752810895, 1910702.220249108504504 ], [ 3425179.567746181972325, 1910697.562003829982132 ], [ 3425187.911906714551151, 1910694.349143421975896 ], [ 3425195.990827821195126, 1910693.682886509690434 ], [ 3425204.157980443444103, 1910694.959412264171988 ], [ 3425212.565680702216923, 1910697.587986781261861 ], [ 3425220.176011422183365, 1910699.532742730807513 ], [ 3425223.886496178340167, 1910698.750234994571656 ], [ 3425226.483040974475443, 1910696.620510375127196 ], [ 3425231.180621244944632, 1910688.973062869161367 ], [ 3425235.844942635390908, 1910679.999312836676836 ], [ 3425241.557848639786243, 1910672.999207799322903 ], [ 3425248.612198510672897, 1910669.073879885254428 ], [ 3425253.115279301069677, 1910668.289880074793473 ], [ 3425261.119423373602331, 1910669.563331327866763 ], [ 3425268.553616180084646, 1910671.487229660153389 ], [ 3425278.131950641516596, 1910671.639550624648109 ], [ 3425281.197961702942848, 1910669.522062059491873 ], [ 3425284.391375075094402, 1910662.661162988748401 ], [ 3425286.804517806973308, 1910653.983511039987206 ], [ 3425289.825772377662361, 1910647.716466414742172 ], [ 3425295.457468029577285, 1910641.829772359225899 ], [ 3425302.514324710704386, 1910638.247198269935325 ], [ 3425314.468588523566723, 1910637.598252640338615 ], [ 3425322.03038871102035, 1910638.118381984997541 ], [ 3425329.383029324468225, 1910637.42247227486223 ], [ 3425333.494529347866774, 1910634.574951873393729 ], [ 3425337.912024368997663, 1910628.134755216073245 ], [ 3425341.157116346992552, 1910621.08360148104839 ], [ 3425346.418802816886455, 1910606.662346722558141 ], [ 3425347.95766541082412, 1910607.211968431482092 ], [ 3425350.469982423819602, 1910608.109205233398825 ], [ 3425352.982299422379583, 1910609.006442129611969 ], [ 3425356.050477685872465, 1910609.38373621320352 ], [ 3425360.033476963639259, 1910610.094344698823988 ], [ 3425364.048929349053651, 1910609.770249672234058 ], [ 3425368.064397024922073, 1910609.44625337398611 ], [ 3425372.542894516140223, 1910607.980271288193762 ], [ 3425377.021376874297857, 1910606.514191477792338 ], [ 3425381.343439981807023, 1910604.69602256664075 ], [ 3425385.665602339431643, 1910602.877837694715708 ], [ 3425393.319279096554965, 1910598.655482116620988 ], [ 3425400.973071027547121, 1910594.433210456278175 ], [ 3425407.278989881277084, 1910592.888389505678788 ], [ 3425413.584992717951536, 1910591.343454749323428 ], [ 3425418.617251405026764, 1910591.479896803386509 ], [ 3425420.659145510289818, 1910591.743426494067535 ], [ 3425423.990973550826311, 1910591.458186818519607 ], [ 3425433.375671052839607, 1910591.673330616438761 ], [ 3425438.773536460939795, 1910591.153176297433674 ], [ 3425448.899594796821475, 1910588.156728759407997 ], [ 3425458.757631563581526, 1910583.762188166147098 ], [ 3425481.834777746349573, 1910570.566412614425644 ], [ 3425506.102036053780466, 1910556.000937567092478 ], [ 3425527.988091415725648, 1910543.055011205608025 ], [ 3425538.817993535660207, 1910536.540500556351617 ], [ 3425558.994205257855356, 1910522.074694188544527 ], [ 3425566.925207935273647, 1910516.136198627762496 ], [ 3425575.431065991986543, 1910511.01956967683509 ], [ 3425594.091988694388419, 1910503.355737122707069 ], [ 3425621.096827195957303, 1910493.851343677379191 ], [ 3425638.290474655572325, 1910487.734708584379405 ], [ 3425661.262732066679746, 1910480.277601639973 ], [ 3425671.180003476794809, 1910477.37661253567785 ], [ 3425687.263368880841881, 1910471.637537458678707 ], [ 3425698.802827001549304, 1910467.859664188697934 ], [ 3425708.767514310311526, 1910465.525872411439195 ], [ 3425714.76745580136776, 1910464.955544730881229 ], [ 3425736.252865993417799, 1910467.23169765737839 ], [ 3425756.087189197540283, 1910470.591383235994726 ], [ 3425769.750058534555137, 1910472.370795230846852 ], [ 3425782.953244033269584, 1910473.349329464137554 ], [ 3425796.464003551751375, 1910473.560011343099177 ], [ 3425817.245650346390903, 1910471.958508454496041 ], [ 3425838.255601027980447, 1910469.602326909080148 ], [ 3425854.982549540698528, 1910467.418223798740655 ], [ 3425866.568634378258139, 1910466.427482831990346 ], [ 3425881.272522310726345, 1910463.129040808184072 ], [ 3425892.260536164510995, 1910460.119537822902203 ], [ 3425906.426765650510788, 1910455.518693931167945 ], [ 3425916.84281012089923, 1910451.444695914862677 ], [ 3425926.797345023136586, 1910445.904096338897943 ], [ 3425934.590535738971084, 1910440.321733432356268 ], [ 3425949.642437448725104, 1910426.370767266023904 ], [ 3425959.290969892404974, 1910417.027185113867745 ], [ 3425975.926498872227967, 1910402.538779407041147 ], [ 3425986.632067256141454, 1910393.522696328582242 ], [ 3425995.270194683689624, 1910387.03212312492542 ], [ 3426016.212185613811016, 1910374.355567742837593 ], [ 3426027.329618636053056, 1910368.448864498175681 ], [ 3426035.384355617687106, 1910363.307077008998021 ], [ 3426051.901788282673806, 1910349.171460442943498 ], [ 3426057.795912224333733, 1910343.927144330227748 ], [ 3426064.431438948493451, 1910340.970111634582281 ], [ 3426073.425074199214578, 1910335.721655976725742 ], [ 3426083.976016059983522, 1910326.559973795199767 ], [ 3426089.437900012824684, 1910321.216478302842006 ], [ 3426098.21862084697932, 1910310.212126791244373 ], [ 3426105.162436921615154, 1910300.796598528511822 ], [ 3426112.543371247127652, 1910292.952454024925828 ], [ 3426117.093942756764591, 1910290.576529747340828 ], [ 3426126.83574534021318, 1910287.200664312811568 ], [ 3426143.393658276647329, 1910285.498946171719581 ], [ 3426154.690188193693757, 1910284.607217862037942 ], [ 3426163.886046196799725, 1910282.62430981406942 ], [ 3426176.191293474286795, 1910278.213970431359485 ], [ 3426186.894857572391629, 1910272.063817040296271 ], [ 3426199.702644005417824, 1910261.202842536382377 ], [ 3426207.214984340593219, 1910254.466792686376721 ], [ 3426214.734732042532414, 1910249.283431081334129 ], [ 3426237.23456570180133, 1910239.373289788607508 ], [ 3426248.645737989339978, 1910234.507221453590319 ], [ 3426259.495083956979215, 1910229.09952460648492 ], [ 3426263.717059312388301, 1910226.243858232628554 ], [ 3426282.517050793394446, 1910201.999908676370978 ], [ 3426287.052338707726449, 1910194.289093544706702 ], [ 3426290.272110003978014, 1910181.38023534277454 ], [ 3426291.940274387598038, 1910173.402693361742422 ], [ 3426293.794370668008924, 1910170.549796734005213 ], [ 3426297.187626561149955, 1910169.033403501845896 ], [ 3426302.747380863875151, 1910167.134372324915603 ], [ 3426313.990299267228693, 1910165.242700712755322 ], [ 3426320.684531592298299, 1910164.62692245352082 ], [ 3426328.243314919061959, 1910162.443710273131728 ], [ 3426344.00485894177109, 1910155.941586668370292 ], [ 3426351.756794073153287, 1910152.515389074105769 ], [ 3426363.385901149827987, 1910145.06019989377819 ], [ 3426374.244884459301829, 1910136.180074761388823 ], [ 3426380.36514438316226, 1910130.363251181086525 ], [ 3426388.482462422456592, 1910120.519389787688851 ], [ 3426398.205321936868131, 1910107.400114774471149 ], [ 3426403.060096407309175, 1910100.241154155228287 ], [ 3426407.930193152744323, 1910090.890262295724824 ], [ 3426410.749286614358425, 1910083.385965593392029 ], [ 3426412.528833170887083, 1910075.732862315140665 ], [ 3426412.585751780308783, 1910062.354457970475778 ], [ 3426411.697388547006994, 1910053.230668576899916 ], [ 3426409.932318466715515, 1910045.464458590606228 ], [ 3426406.826632562093437, 1910037.90231260843575 ], [ 3426401.429944246541709, 1910029.593604899011552 ], [ 3426393.645277950912714, 1910020.635180809069425 ], [ 3426386.987772946245968, 1910014.091280525084585 ], [ 3426374.644132646732032, 1910005.098687885794789 ], [ 3426367.531828776933253, 1909999.226190304849297 ], [ 3426361.555744362995028, 1909993.012207581894472 ], [ 3426355.779971721116453, 1909983.899224641965702 ], [ 3426353.247548950836062, 1909974.071859796531498 ], [ 3426353.636013903655112, 1909963.089881769614294 ], [ 3426354.724067172035575, 1909954.846121266018599 ], [ 3426354.377369730267674, 1909947.377213364234194 ], [ 3426353.370196870528162, 1909943.378706559538841 ], [ 3426330.86642581038177, 1909927.934069894021377 ], [ 3426316.68197633093223, 1909927.967045673634857 ], [ 3426304.944885017350316, 1909928.770969830686226 ], [ 3426295.134006103966385, 1909932.94539150246419 ], [ 3426286.244617183692753, 1909937.883672887925059 ], [ 3426280.855558613315225, 1909937.282240479486063 ], [ 3426271.63305632583797, 1909913.893990855198354 ], [ 3426263.350028329063207, 1909905.129963349085301 ], [ 3426257.922129796817899, 1909902.18412705603987 ], [ 3426247.237676383927464, 1909898.311894016107544 ], [ 3426241.111326082143933, 1909896.562441122485325 ], [ 3426229.649399894289672, 1909895.080415439559147 ], [ 3426221.875938883982599, 1909895.422853281022981 ], [ 3426215.529687935486436, 1909897.362783216871321 ], [ 3426203.540940708946437, 1909907.80407169344835 ], [ 3426196.074571878649294, 1909915.75312605407089 ], [ 3426188.178594431839883, 1909921.655335664749146 ], [ 3426186.474198137409985, 1909918.076196272158995 ], [ 3426183.730016158893704, 1909908.58705748966895 ], [ 3426179.91338963015005, 1909898.540840240661055 ], [ 3426177.747447519563138, 1909896.047912602312863 ], [ 3426174.840849055442959, 1909893.628483437234536 ], [ 3426146.956457872875035, 1909888.044016327010468 ], [ 3426130.776658583432436, 1909897.743965453002602 ], [ 3426120.024065813049674, 1909905.738496779231355 ], [ 3426113.115319778211415, 1909910.274832380469888 ], [ 3426104.867574446368963, 1909914.631560608744621 ], [ 3426093.495015988592058, 1909918.764688775874674 ], [ 3426086.8184694792144, 1909919.95273806527257 ], [ 3426072.493972136639059, 1909920.654971207026392 ], [ 3426065.651965362485498, 1909921.234959280584008 ], [ 3426060.994467952288687, 1909923.184906005859375 ], [ 3426058.300353278405964, 1909925.472101850202307 ], [ 3426048.566884192172438, 1909941.731141035910696 ], [ 3426042.715016179252416, 1909952.941465406212956 ], [ 3426039.986358132213354, 1909957.101049419958144 ], [ 3426032.780108015052974, 1909963.059302136301994 ], [ 3426026.068194976076484, 1909963.10305233579129 ], [ 3426017.72680617775768, 1909958.021481847623363 ], [ 3426009.552059048786759, 1909951.983766990248114 ], [ 3426000.650011188350618, 1909947.480334166437387 ], [ 3425992.346578857861459, 1909944.279198398115113 ], [ 3425974.330159963108599, 1909938.879543885122985 ], [ 3425962.072859942913055, 1909935.613641983363777 ], [ 3425954.197881056927145, 1909932.946193560026586 ], [ 3425958.542631753720343, 1909932.713482504477724 ], [ 3425974.999826797284186, 1909933.177748221904039 ], [ 3425983.83747476618737, 1909933.797410990577191 ], [ 3425992.489676875062287, 1909933.55002126423642 ], [ 3426019.778779194224626, 1909926.268784209620208 ], [ 3426023.664750411175191, 1909920.85609860997647 ], [ 3426028.502800847403705, 1909911.29863232630305 ], [ 3426036.453302323818207, 1909899.20234773051925 ], [ 3426040.61445871880278, 1909894.056296345312148 ], [ 3426048.909287242218852, 1909886.27125426591374 ], [ 3426054.773024247959256, 1909881.486122975824401 ], [ 3426061.207767742685974, 1909874.617656044661999 ], [ 3426064.314677792601287, 1909868.507999915629625 ], [ 3426065.311169778928161, 1909859.805420960998163 ], [ 3426063.63501161057502, 1909853.921097224811092 ], [ 3426058.222599879838526, 1909846.624009330756962 ], [ 3426053.807261664886028, 1909842.671188591280952 ], [ 3426046.906087170820683, 1909839.336268227780238 ], [ 3426039.324088523164392, 1909837.507668105186895 ], [ 3426029.341566512361169, 1909836.191784472437575 ], [ 3426001.07804032927379, 1909837.067627284443006 ], [ 3425990.634148226119578, 1909837.493769914377481 ], [ 3425987.707947683054954, 1909835.864627700066194 ], [ 3425987.414968829602003, 1909832.210722816176713 ], [ 3425990.699321453459561, 1909828.422275281511247 ], [ 3426012.00450255908072, 1909814.35331634641625 ], [ 3426023.500338166952133, 1909807.021285781171173 ], [ 3426032.995854770764709, 1909800.488242308143526 ], [ 3426043.477022555656731, 1909792.054720181040466 ], [ 3426053.150986899156123, 1909783.46378699853085 ], [ 3426062.679850194603205, 1909773.807349995709956 ], [ 3426069.800630752462894, 1909767.298412769334391 ], [ 3426074.983705202117562, 1909761.729222957510501 ], [ 3426079.345606063492596, 1909755.12704890826717 ], [ 3426083.343556880950928, 1909744.47926680650562 ], [ 3426085.499685958959162, 1909726.814576903358102 ], [ 3426086.017474412918091, 1909717.647282434161752 ], [ 3426088.632727053482085, 1909714.00099660968408 ], [ 3426092.980398961808532, 1909713.263336361618713 ], [ 3426108.420608648099005, 1909715.229824758833274 ], [ 3426114.898168365005404, 1909716.557167071849108 ], [ 3426142.875056785531342, 1909715.275370216928422 ], [ 3426148.931936439592391, 1909711.668620912823826 ], [ 3426155.617737112566829, 1909705.434300352353603 ], [ 3426158.740354822017252, 1909703.811966693028808 ], [ 3426168.677261276170611, 1909702.673636592924595 ], [ 3426172.837935626972467, 1909703.743066523689777 ], [ 3426178.653108771424741, 1909704.666690059704706 ], [ 3426204.568393651861697, 1909700.581949543207884 ], [ 3426214.525552141480148, 1909698.592707035131752 ], [ 3426233.432120966725051, 1909696.175349151715636 ], [ 3426249.011533782817423, 1909694.718263471266255 ], [ 3426278.456980946939439, 1909693.271526306867599 ], [ 3426306.631917831953615, 1909691.95670138602145 ], [ 3426318.286791858263314, 1909691.408723637927324 ], [ 3426327.306079124100506, 1909690.514795529888943 ], [ 3426339.195117816329002, 1909688.202302614925429 ], [ 3426353.917815573047847, 1909685.940291452454403 ], [ 3426361.014421678613871, 1909685.559817200293764 ], [ 3426380.967042645905167, 1909686.932625269284472 ], [ 3426393.731318386271596, 1909688.358212225837633 ], [ 3426404.38610047288239, 1909689.945099430857226 ], [ 3426412.06651975447312, 1909691.81783240637742 ], [ 3426422.00437983032316, 1909696.773566862568259 ], [ 3426433.977808416355401, 1909709.077004211954772 ], [ 3426440.817790645640343, 1909716.992836641380563 ], [ 3426446.975902387406677, 1909722.873672363115475 ], [ 3426454.572115153074265, 1909728.655215207953006 ], [ 3426461.411059667356312, 1909733.029747543856502 ], [ 3426471.456092031672597, 1909736.908138200175017 ], [ 3426479.976232715882361, 1909738.297312002629042 ], [ 3426487.703256938140839, 1909738.114051199285313 ], [ 3426496.350460069254041, 1909736.525793167063966 ], [ 3426508.616755046881735, 1909723.878932489547879 ], [ 3426510.773627784568816, 1909713.811749732587487 ], [ 3426509.207422943785787, 1909703.136738350614905 ], [ 3426505.963197040837258, 1909695.991293044993654 ], [ 3426500.074091509450227, 1909687.129346661968157 ], [ 3426491.051808792166412, 1909678.186316921142861 ], [ 3426477.9711221200414, 1909666.148976173950359 ], [ 3426468.198379424400628, 1909657.674576992634684 ], [ 3426461.472038275562227, 1909650.425824539503083 ], [ 3426457.696285047568381, 1909641.623813985614106 ], [ 3426449.671379907056689, 1909613.70686311647296 ], [ 3426447.071264237165451, 1909604.032220817636698 ], [ 3426445.30346701014787, 1909594.742863009683788 ], [ 3426444.140655020717531, 1909582.345652890624478 ], [ 3426443.986222918145359, 1909572.907397768925875 ], [ 3426444.968024053610861, 1909565.680348213296384 ], [ 3426447.344014123082161, 1909559.511476712301373 ], [ 3426458.58853116678074, 1909547.419135824078694 ], [ 3426470.071420552674681, 1909537.25429507275112 ], [ 3426478.832276063039899, 1909528.019166272366419 ], [ 3426483.480730298906565, 1909521.560847189277411 ], [ 3426493.137444920837879, 1909503.105330975260586 ], [ 3426497.084498223848641, 1909495.27111950959079 ], [ 3426500.996880054473877, 1909488.915798758389428 ], [ 3426505.139705714769661, 1909483.65195773052983 ], [ 3426524.973467870149761, 1909469.728697231737897 ], [ 3426533.170061321463436, 1909464.714779456146061 ], [ 3426540.103891017846763, 1909459.619465866591781 ], [ 3426547.936302077956498, 1909452.456864293431863 ], [ 3426553.973425086122006, 1909445.907453730236739 ], [ 3426563.750439291354269, 1909432.416037095943466 ], [ 3426568.604484294075519, 1909424.793306682258844 ], [ 3426573.107277686242014, 1909415.302236198913306 ], [ 3426576.667207850608975, 1909402.356854987796396 ], [ 3426578.051333623472601, 1909394.709378826897591 ], [ 3426578.600961020216346, 1909379.331741313217208 ], [ 3426578.406959336716682, 1909367.347472570370883 ], [ 3426575.310949923004955, 1909363.577544077532366 ], [ 3426567.612117199692875, 1909363.877011581789702 ], [ 3426550.170986782293767, 1909371.214905118336901 ], [ 3426534.105849081650376, 1909377.464843404013664 ], [ 3426517.163830028381199, 1909384.547615166055039 ], [ 3426502.945081923622638, 1909389.923591178143397 ], [ 3426473.538765578065068, 1909400.000239997403696 ], [ 3426463.987319366075099, 1909403.162511304253712 ], [ 3426447.779894599225372, 1909409.870159454178065 ], [ 3426429.076985740102828, 1909418.246613787021488 ], [ 3426421.062789605464786, 1909421.686313295736909 ], [ 3426411.902166537940502, 1909426.841489424696192 ], [ 3426404.981244517024606, 1909431.430083103943616 ], [ 3426393.183166432660073, 1909437.470550407888368 ], [ 3426384.098887008149177, 1909440.564763429807499 ], [ 3426376.292180167976767, 1909441.740044253878295 ], [ 3426365.095824320800602, 1909441.313264705240726 ], [ 3426361.82740148762241, 1909439.902799922507256 ], [ 3426354.005359743721783, 1909433.059379769023508 ], [ 3426351.74135065684095, 1909428.49430396524258 ], [ 3426351.167282436974347, 1909425.190155199030414 ], [ 3426351.733515636995435, 1909420.000131411245093 ], [ 3426356.636275072582066, 1909409.614735558163375 ], [ 3426358.240278261713684, 1909403.51451258151792 ], [ 3426357.589554234873503, 1909393.30179726681672 ], [ 3426353.70532603142783, 1909378.565164516214281 ], [ 3426349.720123214647174, 1909367.497880149632692 ], [ 3426341.803512223064899, 1909349.702845915453508 ], [ 3426329.888169440440834, 1909324.485155818518251 ], [ 3426324.637988303322345, 1909313.912061342503875 ], [ 3426320.425147319678217, 1909306.353607745142654 ], [ 3426313.983399786055088, 1909297.271379747893661 ], [ 3426309.800356705673039, 1909292.52305017481558 ], [ 3426300.473058645613492, 1909285.346318416064605 ], [ 3426294.470363944768906, 1909281.709653929807246 ], [ 3426286.818660415709019, 1909278.58088969415985 ], [ 3426270.635281605646014, 1909273.661394571885467 ], [ 3426255.565585894044489, 1909269.695571880089119 ], [ 3426229.587320073507726, 1909264.145067574223503 ], [ 3426220.04890198353678, 1909262.088853874010965 ], [ 3426209.267354500479996, 1909257.001888618106022 ], [ 3426198.423009658232331, 1909251.118261797586456 ], [ 3426188.274467399343848, 1909244.805423122132197 ], [ 3426169.98678111191839, 1909231.308849503053352 ], [ 3426159.099050036631525, 1909223.051331768976524 ], [ 3426141.004407719708979, 1909207.524609729647636 ], [ 3426134.250341434497386, 1909201.602266148896888 ], [ 3426128.911766223609447, 1909196.21995889977552 ], [ 3426121.862846428528428, 1909185.059982113540173 ], [ 3426122.431815687566996, 1909181.222420872189105 ], [ 3426117.384274413343519, 1909175.790504932636395 ], [ 3426112.621256879530847, 1909168.485558750107884 ], [ 3426109.027261599432677, 1909160.853925326140597 ], [ 3426107.291455983649939, 1909151.246452548773959 ], [ 3426105.357801279518753, 1909126.35611333581619 ], [ 3426104.471670594997704, 1909113.710834640311077 ], [ 3426104.125078075099736, 1909103.558118609944358 ], [ 3426104.550164662767202, 1909094.971432216232643 ], [ 3426105.967708949930966, 1909086.75332062272355 ], [ 3426107.649197599850595, 1909082.52689616358839 ], [ 3426118.078745898790658, 1909068.916128789773211 ], [ 3426126.743618212640285, 1909059.061408268520609 ], [ 3426132.173307519871742, 1909051.806443180656061 ], [ 3426133.602691951673478, 1909047.460674916161224 ], [ 3426133.09348071878776, 1909043.984246253967285 ], [ 3426128.782669645734131, 1909039.852594077819958 ], [ 3426124.345887002069503, 1909037.921280426206067 ], [ 3426115.788716644514352, 1909037.143583732657135 ], [ 3426107.526833008043468, 1909037.678676903713495 ], [ 3426097.081945201382041, 1909040.06224619736895 ], [ 3426083.27178699336946, 1909043.422631202498451 ], [ 3426074.867220975924283, 1909046.312313041882589 ], [ 3426062.535134749487042, 1909047.932102369843051 ], [ 3426057.897053718566895, 1909048.173582925694063 ], [ 3426050.356219098903239, 1909046.479193680221215 ], [ 3426043.045105030760169, 1909042.597372252028435 ], [ 3426036.594917247071862, 1909038.107260626507923 ], [ 3426033.312272334471345, 1909037.324743444798514 ], [ 3426029.684817644767463, 1909037.790604925481603 ], [ 3426022.905305146705359, 1909041.982245268998668 ], [ 3426014.027805215679109, 1909051.842306513572112 ], [ 3426007.745045478455722, 1909058.382530263857916 ], [ 3426000.798789684660733, 1909062.743436554446816 ], [ 3425996.558572367765009, 1909063.190665438771248 ], [ 3425985.681538559962064, 1909059.845036442391574 ], [ 3425978.142758101224899, 1909056.788313594413921 ], [ 3425970.044235762674361, 1909055.429412477882579 ], [ 3425961.526676527690142, 1909054.907548947259784 ], [ 3425946.190872591920197, 1909055.314779544947669 ], [ 3425937.150742288678885, 1909055.748078488977626 ], [ 3425926.805443982593715, 1909057.136333561269566 ], [ 3425913.508321947418153, 1909060.592542902799323 ], [ 3425907.920138890855014, 1909062.244150108192116 ], [ 3425891.111604735720903, 1909070.384378852788359 ], [ 3425882.934463714249432, 1909074.477077493444085 ], [ 3425874.8338388861157, 1909076.771103941136971 ], [ 3425867.610814959742129, 1909078.040470570093021 ], [ 3425860.330883499234915, 1909076.978458820842206 ], [ 3425856.298015420790762, 1909075.030022586230189 ], [ 3425850.71586075425148, 1909070.041631309082732 ], [ 3425846.868631320074201, 1909063.854740116046742 ], [ 3425843.194069619290531, 1909056.35756696946919 ], [ 3425838.045653899200261, 1909049.187752300873399 ], [ 3425834.382961591240019, 1909043.403836192097515 ], [ 3425834.828808267600834, 1909037.83036038489081 ], [ 3425837.222030040342361, 1909032.556461647152901 ], [ 3425840.723207037430257, 1909026.955999902449548 ], [ 3425846.176635043229908, 1909017.235030165640637 ], [ 3425853.855802298523486, 1909008.887111646821722 ], [ 3425861.884327366948128, 1909001.741941054351628 ], [ 3425864.26890811836347, 1908998.376540226396173 ], [ 3425871.379330185241997, 1908971.568837123224512 ], [ 3425846.540767381899059, 1908966.35230135708116 ], [ 3425830.400363949127495, 1908944.293277811491862 ], [ 3425830.826805501244962, 1908939.903545366832986 ], [ 3425833.160729341208935, 1908920.433353093219921 ], [ 3425835.51360644493252, 1908915.620351422112435 ], [ 3425840.982230310328305, 1908905.604258224833757 ], [ 3425845.37766770971939, 1908895.091751118656248 ], [ 3425846.791739630978554, 1908884.361788867274299 ], [ 3425845.403160282410681, 1908878.298219796037301 ], [ 3425843.232246063649654, 1908873.677221441175789 ], [ 3425840.039985039271414, 1908868.631848223507404 ], [ 3425835.437626366503537, 1908862.884106653742492 ], [ 3425829.256336905062199, 1908854.757201434578747 ], [ 3425818.600754459388554, 1908841.052727605681866 ], [ 3425815.283306133933365, 1908835.200954112689942 ], [ 3425809.535310404375196, 1908822.6628967912402 ], [ 3425804.656131701543927, 1908813.167776665883139 ], [ 3425772.701837016269565, 1908772.920096199726686 ], [ 3425765.576602926943451, 1908765.717869128100574 ], [ 3425761.191998822148889, 1908762.092975511215627 ], [ 3425758.298185347113758, 1908757.513848963426426 ], [ 3425759.381241159513593, 1908756.190764040919021 ], [ 3425762.402342810295522, 1908759.478910064790398 ], [ 3425769.304973635822535, 1908766.425788272637874 ], [ 3425776.865115261636674, 1908772.172957238741219 ], [ 3425782.457290038000792, 1908777.290833529317752 ], [ 3425793.814546288922429, 1908790.080801328876987 ], [ 3425803.906119772233069, 1908801.004106787964702 ], [ 3425813.216770949307829, 1908812.592743939254433 ], [ 3425820.260451331734657, 1908822.411748462822288 ], [ 3425835.026803371030837, 1908844.852041551610455 ], [ 3425842.765260133892298, 1908856.592890375060961 ], [ 3425850.372374033555388, 1908867.356744004413486 ], [ 3425851.59683846635744, 1908869.351381838554516 ], [ 3425854.042723334860057, 1908876.398327769711614 ], [ 3425854.170869481749833, 1908882.85453351563774 ], [ 3425853.446987027768046, 1908889.453218636335805 ], [ 3425851.123025522567332, 1908897.136925408616662 ], [ 3425848.808987969532609, 1908904.819073647959158 ], [ 3425846.07329404912889, 1908912.07739137718454 ], [ 3425845.104164157994092, 1908916.245156854158267 ], [ 3425844.708134679589421, 1908922.990775090409443 ], [ 3425846.498629488050938, 1908930.137309109559283 ], [ 3425850.155685245990753, 1908934.771945704706013 ], [ 3425860.906566848047078, 1908939.924535793252289 ], [ 3425871.732854122295976, 1908944.449141464196146 ], [ 3425882.843544878531247, 1908949.955199248390272 ], [ 3425885.860139734577388, 1908953.476165786385536 ], [ 3425889.002053724136204, 1908964.351692570373416 ], [ 3425889.510746665298939, 1908974.43693123315461 ], [ 3425888.990974040701985, 1908986.409617741825059 ], [ 3425889.084501530043781, 1908994.21344515774399 ], [ 3425890.798053359612823, 1909004.399853951763362 ], [ 3425893.497855539433658, 1909008.891992167104036 ], [ 3425897.625430567190051, 1909011.712372450856492 ], [ 3425900.828039977699518, 1909012.831143733346835 ], [ 3425907.458681830205023, 1909013.638592283939943 ], [ 3425918.023368329275399, 1909011.830218980321661 ], [ 3425932.853001982904971, 1909007.966122845187783 ], [ 3425940.447191177867353, 1909006.665033533237875 ], [ 3425963.754425852559507, 1909004.964123950339854 ], [ 3425980.533574941568077, 1909004.163933919277042 ], [ 3425989.264149113092571, 1909003.570568462600932 ], [ 3426001.714180040173233, 1909001.204573980998248 ], [ 3426008.732097571715713, 1908999.465180382831022 ], [ 3426015.685646447353065, 1908996.788032975979149 ], [ 3426020.769668720662594, 1908993.919249967904761 ], [ 3426031.28683890402317, 1908984.995579740265384 ], [ 3426038.371761234942824, 1908977.40298360446468 ], [ 3426041.712058494798839, 1908977.116444280603901 ], [ 3426049.554337544366717, 1908980.818678231909871 ], [ 3426061.490389371290803, 1908983.260660325875506 ], [ 3426069.852556825615466, 1908984.091061639599502 ], [ 3426088.212534466292709, 1908984.04543794086203 ], [ 3426106.58603701274842, 1908983.170310470974073 ], [ 3426118.959616223815829, 1908982.86534206266515 ], [ 3426131.911906093358994, 1908983.603665086906403 ], [ 3426144.233390178065747, 1908985.254717521835119 ], [ 3426163.796227898448706, 1908985.754475077847019 ], [ 3426171.584894536528736, 1908985.379401776008308 ], [ 3426178.421845624223351, 1908985.748681887984276 ], [ 3426192.915538418106735, 1908991.112464141566306 ], [ 3426204.528363554738462, 1908996.252045003464445 ], [ 3426215.058624885976315, 1908999.524687442230061 ], [ 3426220.870010862592608, 1909000.882843497442082 ], [ 3426231.889364545233548, 1909000.824691653251648 ], [ 3426240.246636465191841, 1909000.314123938325793 ], [ 3426246.360619565472007, 1908998.776378674665466 ], [ 3426256.46278654364869, 1908994.250669382279739 ], [ 3426262.942710233852267, 1908990.159560776781291 ], [ 3426278.396385441534221, 1908976.565697661135346 ], [ 3426285.349786289036274, 1908970.155577302677557 ], [ 3426291.250553457066417, 1908965.868790351785719 ], [ 3426294.879618892911822, 1908965.675205712206662 ], [ 3426301.956360348500311, 1908967.588448107242584 ], [ 3426313.920061533804983, 1908959.078654210548848 ], [ 3426326.948816005140543, 1908948.655139822745696 ], [ 3426335.138197456952184, 1908941.563906336668879 ], [ 3426357.751772304065526, 1908924.330352554796264 ], [ 3426369.852179144974798, 1908922.658631939906627 ], [ 3426388.866100915707648, 1908922.766051358543336 ], [ 3426398.000960905104876, 1908923.204893835121766 ], [ 3426405.629590884782374, 1908922.846557856304571 ], [ 3426416.531201360747218, 1908921.244279386475682 ], [ 3426429.757273002993315, 1908916.609487015986815 ], [ 3426448.84847310744226, 1908908.702970924787223 ], [ 3426457.325254714116454, 1908904.903436679625884 ], [ 3426483.864285248797387, 1908889.777596599888057 ], [ 3426501.60062395920977, 1908879.494713129242882 ], [ 3426510.617095700930804, 1908873.08240060810931 ], [ 3426517.786387958563864, 1908867.47355939517729 ], [ 3426525.301265559159219, 1908860.162297767354175 ], [ 3426530.453143293969333, 1908853.801352546783164 ], [ 3426535.949246051721275, 1908843.700124534312636 ], [ 3426538.002851591911167, 1908830.411609701113775 ], [ 3426536.333187918178737, 1908824.82885358016938 ], [ 3426532.895886757411063, 1908821.085768920835108 ], [ 3426524.921457309275866, 1908816.0737540719565 ], [ 3426515.936767071951181, 1908812.673688081558794 ], [ 3426499.932548846118152, 1908810.347266883123666 ], [ 3426481.107878446578979, 1908808.250633463263512 ], [ 3426464.991120237857103, 1908806.901662898482755 ], [ 3426457.483353729825467, 1908806.008827670011669 ], [ 3426448.778756740968674, 1908803.823100154055282 ], [ 3426440.732304804958403, 1908800.77043127361685 ], [ 3426430.638311148155481, 1908795.265663004247472 ], [ 3426429.938422821927816, 1908791.084619644097984 ], [ 3426432.881394413299859, 1908787.060737031279132 ], [ 3426438.093284599483013, 1908782.919635962229222 ], [ 3426443.96348156221211, 1908778.567388219991699 ], [ 3426464.706951679196209, 1908758.776225299108773 ], [ 3426770.187813227530569, 1908698.998400019481778 ], [ 3426854.287031595595181, 1908505.237700000638142 ], [ 3423050.406299998983741, 1908505.237700000638142 ], [ 3423050.406299998983741, 1912800.323615370783955 ], [ 3423067.247042633127421, 1912798.929173316806555 ] ] ], [ [ [ 3426976.422529553063214, 1908512.058272406924516 ], [ 3426983.704594333656132, 1908522.170384121127427 ], [ 3426988.537793437018991, 1908527.899718788219616 ], [ 3426997.443898632191122, 1908534.592203658074141 ], [ 3427000.977112883236259, 1908535.090728550450876 ], [ 3427010.240407860837877, 1908534.327778701437637 ], [ 3427013.864567664451897, 1908532.662033797008917 ], [ 3427019.466010672505945, 1908529.262938480358571 ], [ 3427027.106254826765507, 1908523.151714954292402 ], [ 3427036.061783704441041, 1908516.87088470463641 ], [ 3427039.41850288817659, 1908518.720660500461236 ], [ 3427041.193685090169311, 1908522.822661657352 ], [ 3427042.128195326775312, 1908532.705419979756698 ], [ 3427046.987455465365201, 1908558.508416617522016 ], [ 3427050.088267070706934, 1908573.507315737428144 ], [ 3427052.409555452875793, 1908582.633306951960549 ], [ 3427056.83895041840151, 1908592.506347118178383 ], [ 3427061.895310811232775, 1908600.851877474458888 ], [ 3427067.528247029520571, 1908608.132354207336903 ], [ 3427075.604519426357001, 1908615.306725976523012 ], [ 3427085.97458586608991, 1908621.67357179382816 ], [ 3427092.369336744304746, 1908624.498112810775638 ], [ 3427097.798184927087277, 1908626.011296724434942 ], [ 3427105.966634660959244, 1908626.642267771530896 ], [ 3427133.149141999427229, 1908625.353141245432198 ], [ 3427146.396731578744948, 1908624.720679121790454 ], [ 3427156.730345767457038, 1908625.615060977404937 ], [ 3427159.521800091955811, 1908628.013438950525597 ], [ 3427159.771064261905849, 1908631.45259710168466 ], [ 3427151.012875809334219, 1908650.332397323101759 ], [ 3427147.66043378924951, 1908656.825984782539308 ], [ 3427143.549998820293695, 1908667.865574372233823 ], [ 3427140.078222166746855, 1908678.959645341383293 ], [ 3427136.692045317497104, 1908687.789548009634018 ], [ 3427136.56654189620167, 1908698.374315611785278 ], [ 3427136.289055935572833, 1908704.050662707537413 ], [ 3427132.063924587797374, 1908716.643052174476907 ], [ 3427127.236308351159096, 1908724.372125938069075 ], [ 3427123.06844249041751, 1908734.190425691660494 ], [ 3427121.445974635425955, 1908743.643398167332634 ], [ 3427122.643942212685943, 1908749.658083168324083 ], [ 3427125.285607391037047, 1908753.907715109176934 ], [ 3427130.847618551924825, 1908757.325706548290327 ], [ 3427145.093544757924974, 1908760.178580869687721 ], [ 3427155.643170374445617, 1908762.136458334745839 ], [ 3427165.721502085216343, 1908766.362704741768539 ], [ 3427181.342297089286149, 1908775.190585464937612 ], [ 3427196.369409435428679, 1908784.057259916560724 ], [ 3427205.929922919720411, 1908790.055087788263336 ], [ 3427208.275716562289745, 1908793.183844415470958 ], [ 3427212.986629494000226, 1908803.756417090538889 ], [ 3427215.259495827369392, 1908811.457815289963037 ], [ 3427218.245598402805626, 1908836.847901857225224 ], [ 3427219.678569606039673, 1908856.555144800571725 ], [ 3427221.098996589891613, 1908871.270098877837881 ], [ 3427224.046807715203613, 1908889.866298503475264 ], [ 3427226.479421918280423, 1908908.41753465286456 ], [ 3427228.053581846877933, 1908918.687481655506417 ], [ 3427229.206994324922562, 1908933.709445005049929 ], [ 3427230.338104667607695, 1908958.864884335082024 ], [ 3427230.702414163853973, 1908970.245409851195291 ], [ 3427232.43393518589437, 1908975.63609237014316 ], [ 3427238.244653462897986, 1908979.738818886689842 ], [ 3427244.285679367836565, 1908981.724578980123624 ], [ 3427263.816921443678439, 1908981.564297169214115 ], [ 3427277.549176953732967, 1908980.911264917813241 ], [ 3427290.26541677955538, 1908979.80267641111277 ], [ 3427303.087036937940866, 1908976.81999677955173 ], [ 3427328.783460236154497, 1908969.756090462207794 ], [ 3427340.618104730267078, 1908966.635868104640394 ], [ 3427349.45042575802654, 1908964.865471877390519 ], [ 3427364.296736967284232, 1908963.531697888625786 ], [ 3427373.36656298302114, 1908963.356065443484113 ], [ 3427390.458600386977196, 1908964.179035414010286 ], [ 3427399.795394212473184, 1908964.93742156913504 ], [ 3427417.87485185591504, 1908965.050269586965442 ], [ 3427427.218229157384485, 1908964.607014515204355 ], [ 3427439.273587316274643, 1908962.973405415657908 ], [ 3427448.342680477537215, 1908960.174651489825919 ], [ 3427458.012768113985658, 1908956.468195162247866 ], [ 3427465.584022853989154, 1908952.46725838817656 ], [ 3427473.32921763183549, 1908946.510036313906312 ], [ 3427478.250205874443054, 1908941.348277034703642 ], [ 3427488.254953891504556, 1908926.5077250439208 ], [ 3427493.859321294818074, 1908917.629605836467817 ], [ 3427501.23829931486398, 1908907.153156790649518 ], [ 3427504.350291091017425, 1908905.462140559684485 ], [ 3427508.664083344396204, 1908906.274033593712375 ], [ 3427516.209254219196737, 1908910.288397283758968 ], [ 3427526.115318714175373, 1908913.665635411627591 ], [ 3427537.877187935635448, 1908914.462272907607257 ], [ 3427543.588333483785391, 1908914.192776529118419 ], [ 3427567.542317984160036, 1908898.067754903109744 ], [ 3427572.777224416844547, 1908889.362554312217981 ], [ 3427576.571453818120062, 1908882.704389262013137 ], [ 3427580.03951793955639, 1908873.356466844677925 ], [ 3427584.192300367634743, 1908867.82877162983641 ], [ 3427588.975075194612145, 1908861.055676054907963 ], [ 3427592.386104352772236, 1908854.219378833658993 ], [ 3427593.976294692605734, 1908849.534172534942627 ], [ 3427594.474582972936332, 1908823.803384715458378 ], [ 3427594.120916236191988, 1908813.995094651356339 ], [ 3427595.655791302677244, 1908807.906525485217571 ], [ 3427597.823374830186367, 1908805.172879376914352 ], [ 3427602.549151142127812, 1908805.038081065751612 ], [ 3427618.5927520589903, 1908816.458940083393827 ], [ 3427624.685497754253447, 1908821.594188035000116 ], [ 3427635.100551367271692, 1908828.57902860827744 ], [ 3427643.679030526895076, 1908832.440821413882077 ], [ 3427651.173345061019063, 1908834.556812268914655 ], [ 3427660.3796775797382, 1908835.064776366576552 ], [ 3427668.745854278560728, 1908833.957637554965913 ], [ 3427679.209323991090059, 1908829.795668166829273 ], [ 3427687.304515215102583, 1908824.062469351338223 ], [ 3427693.783318559639156, 1908818.19611126719974 ], [ 3427705.284094117581844, 1908804.608626004541293 ], [ 3427711.748573849443346, 1908796.161782389972359 ], [ 3427715.341384297702461, 1908794.097760344389826 ], [ 3427726.548962160013616, 1908787.853981508873403 ], [ 3427738.006310084834695, 1908780.731002170592546 ], [ 3427745.872776115313172, 1908774.571977997664362 ], [ 3427754.385868509300053, 1908766.226364267989993 ], [ 3427760.56238979799673, 1908758.675222457386553 ], [ 3427764.239926774054766, 1908753.489499700721353 ], [ 3427773.092607965692878, 1908744.189128816127777 ], [ 3427785.589561437722296, 1908734.137752490583807 ], [ 3427791.181701575405896, 1908730.024074400076643 ], [ 3427809.334929335862398, 1908720.005134231643751 ], [ 3427819.074204186908901, 1908714.97561630490236 ], [ 3427837.435191136784852, 1908703.21683429251425 ], [ 3427845.937483606860042, 1908697.486217776546255 ], [ 3427854.510753426235169, 1908689.332369275158271 ], [ 3427862.419267448596656, 1908680.301073537673801 ], [ 3427870.872169122099876, 1908668.686434708535671 ], [ 3427877.219537697266787, 1908658.241474183974788 ], [ 3427882.913593456149101, 1908646.664715800900012 ], [ 3427888.445670807268471, 1908636.598195424769074 ], [ 3427889.09648163150996, 1908633.129563224967569 ], [ 3427889.867892415262759, 1908627.229296872625127 ], [ 3427889.272744154557586, 1908617.632977648871019 ], [ 3427887.134783290792257, 1908613.42015022598207 ], [ 3427883.77872253023088, 1908611.509684113087133 ], [ 3427872.976588557939976, 1908611.329247770598158 ], [ 3427864.678133355919272, 1908611.627931285649538 ], [ 3427856.553789054974914, 1908610.626128364587203 ], [ 3427847.363759536296129, 1908608.521354934666306 ], [ 3427838.172135563567281, 1908605.750850448850542 ], [ 3427826.623474391177297, 1908600.499284415738657 ], [ 3427817.678137165494263, 1908595.387205206323415 ], [ 3427809.79970879200846, 1908589.945404791040346 ], [ 3427790.814956768415868, 1908574.112979789730161 ], [ 3427779.938268120866269, 1908564.612364202272147 ], [ 3427771.974219563417137, 1908558.095137580530718 ], [ 3427747.857942383736372, 1908541.486797180725262 ], [ 3427732.682045824825764, 1908531.202086742036045 ], [ 3427723.988877729978412, 1908525.684614803874865 ], [ 3427698.348342937417328, 1908511.893984145252034 ], [ 3427685.577363001648337, 1908505.237700000638142 ], [ 3426973.384110112674534, 1908505.237700000638142 ], [ 3426976.422529553063214, 1908512.058272406924516 ] ] ] ] } },
{ "type": "Feature", "properties": { "ENP_GRAL": 6.0, "ENP_GRAL_NAME": "Otros Espacios Naturales Protegidos", "color": "#7F8F0D" }, "geometry": { "type": "Polygon", "coordinates": [ [ [ 3427699.39281528070569, 1914352.249547809828073 ], [ 3427698.970008534379303, 1914351.947211931226775 ], [ 3427698.499824394006282, 1914351.72326243086718 ], [ 3427697.996549165807664, 1914351.584503904916346 ], [ 3427697.475474613718688, 1914351.535152468364686 ], [ 3427696.952433322556317, 1914351.576707619940862 ], [ 3427696.443317641504109, 1914351.707906753756106 ], [ 3427695.963596793357283, 1914351.924763441318646 ], [ 3427695.52784685511142, 1914352.220688602887094 ], [ 3427695.149307869374752, 1914352.586690701544285 ], [ 3427694.839481554925442, 1914353.011648948770016 ], [ 3427694.607781825587153, 1914353.48265119548887 ], [ 3427694.461248764302582, 1914353.985386279877275 ], [ 3427694.404334702063352, 1914354.504578851861879 ], [ 3427694.43876894377172, 1914355.02445350238122 ], [ 3427694.563505222089589, 1914355.529214106034487 ], [ 3427694.774753484874964, 1914356.003523761872202 ], [ 3427695.066095059737563, 1914356.432970810448751 ], [ 3427695.428677679039538, 1914356.804506725398824 ], [ 3427695.851484451442957, 1914357.10684257443063 ], [ 3427696.321668605785817, 1914357.330792035907507 ], [ 3427696.824943833053112, 1914357.469550521345809 ], [ 3427697.346018371637911, 1914357.518901927862316 ], [ 3427697.869059634860605, 1914357.477346733445302 ], [ 3427698.378175280988216, 1914357.346147584030405 ], [ 3427698.857896089088172, 1914357.129290890414268 ], [ 3427699.293645987752825, 1914356.833365738624707 ], [ 3427699.672184937633574, 1914356.467363660456613 ], [ 3427699.982011227402836, 1914356.042405449552462 ], [ 3427700.213710942305624, 1914355.571403237991035 ], [ 3427700.36024400498718, 1914355.06866819341667 ], [ 3427700.417158080730587, 1914354.549475657055154 ], [ 3427700.382723865099251, 1914354.029601031448692 ], [ 3427700.257987623102963, 1914353.524840454338118 ], [ 3427700.046739400364459, 1914353.050530803622678 ], [ 3427699.755397865083069, 1914352.621083745267242 ], [ 3427699.39281528070569, 1914352.249547809828073 ] ] ] } }
]
}
