{
"type": "FeatureCollection",
"name": "Almedíjar",
"crs": { "type": "name", "properties": { "name": "urn:ogc:def:crs:EPSG::3035" } },
"features": [
{ "type": "Feature", "properties": { "ENP_GRAL": 1.0, "ENP_GRAL_NAME": "Otros Parques", "color": "#38A800" }, "geometry": { "type": "Polygon", "coordinates": [ [ [ 3430528.947543789632618, 1921182.865985948126763 ], [ 3430445.257449523545802, 1921304.843472516862676 ], [ 3430208.942911231890321, 1921608.77504812204279 ], [ 3430186.484882934950292, 1921653.905916505958885 ], [ 3430131.017380325123668, 1921826.658627988770604 ], [ 3430054.828347126953304, 1922009.944732382660732 ], [ 3430000.040618763305247, 1922167.449177854694426 ], [ 3429943.764560457784683, 1922393.819677233928815 ], [ 3429882.137683567591012, 1922585.769819211680442 ], [ 3429839.816770697012544, 1922679.635606607189402 ], [ 3429791.600477857980877, 1922866.314275654265657 ], [ 3429684.868942969478667, 1923068.846191852586344 ], [ 3429613.239032119978219, 1923216.05664231418632 ], [ 3429551.18844557274133, 1923320.291446650400758 ], [ 3429518.892821891233325, 1923347.899254329735413 ], [ 3429268.638334859162569, 1923058.827583540929481 ], [ 3429161.647413612809032, 1922913.273082328028977 ], [ 3428870.839085385203362, 1922886.290988041087985 ], [ 3428582.773191585205495, 1922713.542100330581889 ], [ 3428486.806740826927125, 1922665.03101417189464 ], [ 3428387.781907269265503, 1922596.850591648602858 ], [ 3428245.697223316412419, 1922519.735827841795981 ], [ 3428089.285924164578319, 1922441.993154952069744 ], [ 3427870.508102010935545, 1922303.05016415938735 ], [ 3427717.879506901372224, 1922171.193251410499215 ], [ 3427579.365396791137755, 1922071.281757977092639 ], [ 3427472.330253198742867, 1921984.262086148839444 ], [ 3427464.146981998346746, 1922075.441304921172559 ], [ 3427435.839912069030106, 1922154.85458050831221 ], [ 3427415.477856919635087, 1922272.291881733806804 ], [ 3427412.640464736148715, 1922384.776282517937943 ], [ 3427400.475149157457054, 1922437.268339024391025 ], [ 3427234.159397702664137, 1922799.134532598545775 ], [ 3427235.637308893259615, 1923141.981551729608327 ], [ 3427241.317056488245726, 1923217.72211387893185 ], [ 3426926.078712732996792, 1924085.888493322534487 ], [ 3426871.088241188321263, 1924137.483363954816014 ], [ 3426562.481446819845587, 1924577.695547923911363 ], [ 3426527.084419501014054, 1924644.173457000637427 ], [ 3426542.338170616421849, 1924801.060727546224371 ], [ 3426640.598160202149302, 1925648.419536385685205 ], [ 3426088.20647535007447, 1926429.216561229899526 ], [ 3425960.802638057619333, 1926943.037062113638967 ], [ 3425701.264362963847816, 1926960.292710492620245 ], [ 3425223.122468210756779, 1927016.205109733622521 ], [ 3425133.281133947428316, 1927020.161508447956294 ], [ 3425050.969459787476808, 1927000.654231879394501 ], [ 3424992.274769999552518, 1926993.476518994197249 ], [ 3424992.274769999552518, 1928731.241229999344796 ], [ 3433431.685229999478906, 1928731.241229999344796 ], [ 3433431.685229999478906, 1921010.406670000869781 ], [ 3430677.322286611888558, 1921010.406670000869781 ], [ 3430528.947543789632618, 1921182.865985948126763 ] ] ] } },
{ "type": "Feature", "properties": { "ENP_GRAL": 6.0, "ENP_GRAL_NAME": "Otros Espacios Naturales Protegidos", "color": "#7F8F0D" }, "geometry": { "type": "Polygon", "coordinates": [ [ [ 3431461.263336289674044, 1923116.028012099675834 ], [ 3431460.90071329055354, 1923115.65646694903262 ], [ 3431460.477881328202784, 1923115.354124791221693 ], [ 3431460.00768793746829, 1923115.130172141827643 ], [ 3431459.504419704899192, 1923114.991413683863357 ], [ 3431458.983368179760873, 1923114.942065521609038 ], [ 3431458.460365252569318, 1923114.98362708860077 ], [ 3431457.951302101835608, 1923115.114835549611598 ], [ 3431457.471646355930716, 1923115.331704207696021 ], [ 3431457.035972113721073, 1923115.627643617801368 ], [ 3431456.657517118379474, 1923115.99366180668585 ], [ 3431456.347780534997582, 1923116.418637495255098 ], [ 3431456.116173554211855, 1923116.889658017782494 ], [ 3431455.969733437988907, 1923117.392411649227142 ], [ 3431455.912909693550318, 1923117.911622466752306 ], [ 3431455.947428883053362, 1923118.431514521129429 ], [ 3431456.07224215567112, 1923118.93629114725627 ], [ 3431456.283557122573256, 1923119.410614963620901 ], [ 3431456.574953082948923, 1923119.840073883766308 ], [ 3431456.937576116528362, 1923120.211619006935507 ], [ 3431457.36040810495615, 1923120.51396113820374 ], [ 3431457.830601509660482, 1923120.737913752440363 ], [ 3431458.333869742229581, 1923120.876672169426456 ], [ 3431458.854921251535416, 1923120.92602028674446 ], [ 3431459.377924154046923, 1923120.884458695305511 ], [ 3431459.886987268924713, 1923120.753250211244449 ], [ 3431460.366642974317074, 1923120.536381545476615 ], [ 3431460.802317176479846, 1923120.240442145848647 ], [ 3431461.180772136896849, 1923119.874423977918923 ], [ 3431461.490508694201708, 1923119.449448317522183 ], [ 3431461.722115661483258, 1923118.97842783597298 ], [ 3431461.868555778171867, 1923118.475674246205017 ], [ 3431461.925379536114633, 1923117.956463461974636 ], [ 3431461.890860373619944, 1923117.436571441823617 ], [ 3431461.766047136392444, 1923116.93179483525455 ], [ 3431461.554732209537178, 1923116.457471024477854 ], [ 3431461.263336289674044, 1923116.028012099675834 ] ] ] } }
]
}
