{
"type": "FeatureCollection",
"name": "Benigànim",
"crs": { "type": "name", "properties": { "name": "urn:ogc:def:crs:EPSG::3035" } },
"features": [
{ "type": "Feature", "properties": { "ENP_GRAL": 6.0, "ENP_GRAL_NAME": "Otros Espacios Naturales Protegidos", "color": "#7F8F0D" }, "geometry": { "type": "MultiPolygon", "coordinates": [ [ [ [ 3409263.890053558163345, 1827076.930686161853373 ], [ 3409299.416229272261262, 1827083.108834948623553 ], [ 3409351.033978871069849, 1827035.191295401891693 ], [ 3409366.030127839185297, 1827000.432447751518339 ], [ 3409371.261908711865544, 1826968.308986404445022 ], [ 3409335.830510684289038, 1826896.586877326713875 ], [ 3409302.58062517689541, 1826845.671844093827531 ], [ 3409260.708684601821005, 1826798.209784930804744 ], [ 3409167.804717333987355, 1826709.852535882033408 ], [ 3409129.530947647988796, 1826652.717858674935997 ], [ 3409093.372400145046413, 1826609.344574995571747 ], [ 3409053.748031938448548, 1826589.735559140797704 ], [ 3408987.266213002614677, 1826580.650500492192805 ], [ 3408939.321876105852425, 1826566.460380801698193 ], [ 3408808.804631271399558, 1826491.427771950606257 ], [ 3408757.413309814874083, 1826487.893370847217739 ], [ 3408676.49237457010895, 1826497.344789322465658 ], [ 3408518.871588786132634, 1826497.398052873788401 ], [ 3408463.797085831873119, 1826509.599679421167821 ], [ 3408446.60915950872004, 1826688.886938714655116 ], [ 3408434.313714147545397, 1826754.448158813407645 ], [ 3408387.93690332537517, 1826816.615660371957347 ], [ 3408380.876705589704216, 1826826.983905334491283 ], [ 3408381.077767036855221, 1826830.64261390385218 ], [ 3408381.68018080573529, 1826841.540939664002508 ], [ 3408382.113434119150043, 1826848.858412869507447 ], [ 3408391.698834950570017, 1826845.123822271591052 ], [ 3408395.399912892840803, 1826855.969525391468778 ], [ 3408402.19903182098642, 1826871.158203864470124 ], [ 3408413.783788912463933, 1826883.341667452827096 ], [ 3408425.435770357958972, 1826895.433178339386359 ], [ 3408435.887008358724415, 1826908.974879724904895 ], [ 3408441.578038717620075, 1826922.180714252172038 ], [ 3408446.764229752589017, 1826935.874034633859992 ], [ 3408453.56506981421262, 1826952.594809148926288 ], [ 3408461.828137539792806, 1826975.917096452321857 ], [ 3408468.518689332529902, 1826996.154505790909752 ], [ 3408470.669365278445184, 1827017.753338827518746 ], [ 3408468.073622066993266, 1827021.442198271630332 ], [ 3408462.958062770776451, 1827024.351278130663559 ], [ 3408456.417660075239837, 1827025.400863412301987 ], [ 3408448.222746151965111, 1827024.155400040559471 ], [ 3408437.46910455962643, 1827023.134704452939332 ], [ 3408421.833072073757648, 1827026.274664274184033 ], [ 3408417.247763279825449, 1827028.399770417949185 ], [ 3408413.374977870844305, 1827032.513157877838239 ], [ 3408411.645012849476188, 1827037.136359647382051 ], [ 3408409.586802641861141, 1827042.469655859516934 ], [ 3408406.04643400432542, 1827047.687014845898375 ], [ 3408400.834182383026928, 1827053.142659627599642 ], [ 3408393.310899717733264, 1827054.678655894706026 ], [ 3408387.790675891563296, 1827053.63269417360425 ], [ 3408381.669936722144485, 1827050.267261962871999 ], [ 3408377.598451385274529, 1827049.383133330848068 ], [ 3408373.760979548096657, 1827051.675985364243388 ], [ 3408369.31402966985479, 1827055.229769935831428 ], [ 3408368.480836234986782, 1827059.270133707206696 ], [ 3408368.015571303665638, 1827070.003646263154224 ], [ 3408367.403587108943611, 1827090.500281465239823 ], [ 3408364.176135314628482, 1827116.211284293327481 ], [ 3408362.847734735812992, 1827120.535805648658425 ], [ 3408361.845599824097008, 1827123.807893220102414 ], [ 3408359.031917576212436, 1827128.460584375541657 ], [ 3408355.579945783596486, 1827131.606613798532635 ], [ 3408351.457091401331127, 1827131.446833740686998 ], [ 3408346.783294999506325, 1827130.945364767685533 ], [ 3408338.780640054028481, 1827126.451908409129828 ], [ 3408336.541665777564049, 1827124.919633840210736 ], [ 3408332.429471182171255, 1827122.116739300079644 ], [ 3408324.285814407747239, 1827112.737217499641702 ], [ 3408311.834178817924112, 1827095.113203820772469 ], [ 3408302.768540074583143, 1827081.058317342307419 ], [ 3408301.655115913134068, 1827068.853870164137334 ], [ 3408305.097237217705697, 1827054.529159479774535 ], [ 3408305.523590076714754, 1827040.697040954604745 ], [ 3408301.170949816703796, 1827033.750418764771894 ], [ 3408295.945656994357705, 1827030.719781709834933 ], [ 3408286.644906972534955, 1827029.094071994302794 ], [ 3408278.837947864551097, 1827033.812691380036995 ], [ 3408270.296368154231459, 1827040.831227806163952 ], [ 3408264.186608460731804, 1827046.799397706054151 ], [ 3408259.207138621248305, 1827049.998358013341203 ], [ 3408250.070525893010199, 1827052.41820984124206 ], [ 3408242.050602659583092, 1827051.980384773574769 ], [ 3408231.720410597976297, 1827049.810460526263341 ], [ 3408222.779822772368789, 1827045.301938309334219 ], [ 3408215.049433034844697, 1827040.198662709677592 ], [ 3408211.583446078933775, 1827032.932897672988474 ], [ 3408205.184478031471372, 1827019.885350726777688 ], [ 3408200.149921769741923, 1827014.655323097482324 ], [ 3408196.264661327004433, 1827013.659523166948929 ], [ 3408189.536896792240441, 1827013.490276596974581 ], [ 3408175.160918361041695, 1827017.41841272264719 ], [ 3408158.561559918802232, 1827023.289790143957362 ], [ 3408147.497916523367167, 1827030.043225316796452 ], [ 3408137.140267652925104, 1827039.007727558491752 ], [ 3408127.181150345131755, 1827048.11763116135262 ], [ 3408123.512642585206777, 1827052.832150786416605 ], [ 3408120.18948490312323, 1827060.785656661959365 ], [ 3408119.310307789593935, 1827064.46068671066314 ], [ 3408116.85702295275405, 1827074.698963205562904 ], [ 3408118.096300933975726, 1827099.101100604748353 ], [ 3408115.205961807630956, 1827124.887180996825919 ], [ 3408102.362045664805919, 1827148.44062154693529 ], [ 3408111.354831107426435, 1827147.929925375618041 ], [ 3408115.545806647278368, 1827154.883225703844801 ], [ 3408116.584733963478357, 1827161.57557202107273 ], [ 3408118.06486856425181, 1827171.138081400888041 ], [ 3408121.8350121951662, 1827184.946453809039667 ], [ 3408128.150009936187416, 1827189.045571915572509 ], [ 3408139.301437480375171, 1827194.506301565328613 ], [ 3408147.328556213062257, 1827198.431087609380484 ], [ 3408172.324493139982224, 1827208.943970718188211 ], [ 3408196.708572202827781, 1827218.05669150641188 ], [ 3408227.972815576475114, 1827224.228429437149316 ], [ 3408255.901769702788442, 1827228.748072807211429 ], [ 3408277.99404858937487, 1827230.097033271333203 ], [ 3408294.490848579443991, 1827230.83602643199265 ], [ 3408322.962056374177337, 1827237.362287627067417 ], [ 3408359.818095859140158, 1827244.648777882568538 ], [ 3408388.27957923617214, 1827252.104190085083246 ], [ 3408415.245401637628675, 1827259.818946678657085 ], [ 3408435.459563970565796, 1827263.769453927874565 ], [ 3408454.618200796656311, 1827263.631414338713512 ], [ 3408466.997687964234501, 1827260.277995632728562 ], [ 3408478.988220361527056, 1827260.679209554567933 ], [ 3408512.302335239946842, 1827266.227145322831348 ], [ 3408544.082455962896347, 1827271.587252154480666 ], [ 3408560.378770627081394, 1827273.337650422006845 ], [ 3408571.349466075655073, 1827268.626163943903521 ], [ 3408573.311808588914573, 1827264.720242149196565 ], [ 3408574.268521503545344, 1827262.806642280891538 ], [ 3408575.015075132250786, 1827254.233989887638018 ], [ 3408576.387089499272406, 1827244.569230191409588 ], [ 3408580.435761861503124, 1827235.315247808117419 ], [ 3408588.905165748205036, 1827229.085061768069863 ], [ 3408590.048283170908689, 1827246.113556354539469 ], [ 3408592.997400969732553, 1827266.621635932475328 ], [ 3408597.159930793102831, 1827289.730052208062261 ], [ 3408604.128306646365672, 1827305.092300407355651 ], [ 3408618.032893466763198, 1827315.034130357438698 ], [ 3408627.525454256217927, 1827322.273423425620422 ], [ 3408628.027783898171037, 1827326.665872984565794 ], [ 3408624.222362647764385, 1827331.151128785219043 ], [ 3408618.677344751078635, 1827334.706422669580206 ], [ 3408611.151077337097377, 1827338.339843604480848 ], [ 3408601.476941177155823, 1827336.998110973741859 ], [ 3408583.828588295727968, 1827333.134121748385951 ], [ 3408577.41983198095113, 1827331.732147839386016 ], [ 3408556.941735463216901, 1827326.263050473760813 ], [ 3408536.733885925728828, 1827319.97255321405828 ], [ 3408524.660138644278049, 1827314.332863362273201 ], [ 3408505.329551982693374, 1827315.800044199451804 ], [ 3408485.715906375087798, 1827311.588138964958489 ], [ 3408469.463789876084775, 1827309.860653910553083 ], [ 3408447.81765485368669, 1827311.149177958490327 ], [ 3408440.08963694004342, 1827309.765443664276972 ], [ 3408437.725611376110464, 1827303.979568119626492 ], [ 3408437.256562730297446, 1827293.320980161428452 ], [ 3408432.953832641709596, 1827295.761947497259825 ], [ 3408424.90204956009984, 1827301.600087431957945 ], [ 3408411.004590031690896, 1827312.807918497361243 ], [ 3408404.894025036599487, 1827320.953727969434112 ], [ 3408403.27656073262915, 1827323.662990525597706 ], [ 3408415.36595143424347, 1827322.19271361338906 ], [ 3408421.273615366313607, 1827320.996502405265346 ], [ 3408429.271201551891863, 1827316.790505379904062 ], [ 3408431.501265619881451, 1827314.362252307590097 ], [ 3408437.872020726557821, 1827322.131942014908418 ], [ 3408439.811540955677629, 1827323.9661586266011 ], [ 3408443.841735601890832, 1827321.802480802405626 ], [ 3408453.419509002938867, 1827318.48244194407016 ], [ 3408475.115506941918284, 1827317.518297489499673 ], [ 3408495.815616176929325, 1827319.270733609097078 ], [ 3408518.194309066049755, 1827323.475423665950075 ], [ 3408538.744673932902515, 1827330.14233664679341 ], [ 3408565.034309635404497, 1827335.046222682809457 ], [ 3408584.771572253201157, 1827339.267801562324166 ], [ 3408589.997242071665823, 1827340.38302065921016 ], [ 3408611.145250758621842, 1827344.52063862956129 ], [ 3408626.766157072968781, 1827346.111402457812801 ], [ 3408639.001832238398492, 1827345.262025893200189 ], [ 3408656.155558234546334, 1827339.822640554513782 ], [ 3408670.989678914658725, 1827334.376631600549445 ], [ 3408681.300095602869987, 1827332.779465924249962 ], [ 3408693.939132244326174, 1827336.207989001879469 ], [ 3408713.538237824104726, 1827342.045511246426031 ], [ 3408714.309398139826953, 1827342.431157628307119 ], [ 3408730.757299317978323, 1827350.658768226858228 ], [ 3408751.339218294713646, 1827362.492179515538737 ], [ 3408764.911768140736967, 1827369.545693339547142 ], [ 3408780.19214644562453, 1827372.493757466319948 ], [ 3408799.540660873055458, 1827372.797937911935151 ], [ 3408820.963559384457767, 1827374.026815535267815 ], [ 3408835.902179277502, 1827377.596407193690538 ], [ 3408854.573907731566578, 1827379.84830924263224 ], [ 3408872.940686347894371, 1827379.852471543475986 ], [ 3408911.981721444986761, 1827390.041531810071319 ], [ 3408927.132050977554172, 1827391.680566355353221 ], [ 3408938.204090183600783, 1827392.920381672913209 ], [ 3408953.002661242615432, 1827396.83595024398528 ], [ 3408954.248548055998981, 1827397.465098762651905 ], [ 3408975.384378815069795, 1827402.119155048858374 ], [ 3408977.491866295225918, 1827393.770999485626817 ], [ 3408980.030063778162003, 1827393.441200639586896 ], [ 3408986.613227583933622, 1827392.585971972905099 ], [ 3408998.267046008259058, 1827360.117968507809564 ], [ 3408962.183069590013474, 1827264.309166109887883 ], [ 3408927.771302533335984, 1827225.685490356525406 ], [ 3408927.39321065088734, 1827170.301064406288788 ], [ 3408934.409406389575452, 1827116.709168214118108 ], [ 3408956.582587854005396, 1827075.713450165465474 ], [ 3409050.365023854654282, 1827030.850733658997342 ], [ 3409109.386371466796845, 1827031.097548722987995 ], [ 3409263.890053558163345, 1827076.930686161853373 ] ] ], [ [ [ 3419161.410739610902965, 1826758.178086058469489 ], [ 3419161.23387837735936, 1826761.058463003952056 ], [ 3419161.062310923356563, 1826763.052624296629801 ], [ 3419161.004348615184426, 1826765.058126551331952 ], [ 3419161.156114786863327, 1826767.038717635674402 ], [ 3419161.538981522899121, 1826769.001123776659369 ], [ 3419161.966897253412753, 1826770.925795280607417 ], [ 3419162.474140036385506, 1826772.837269926210865 ], [ 3419163.053814293351024, 1826774.756855067564175 ], [ 3419163.650300062261522, 1826776.653483268572018 ], [ 3419164.320727449841797, 1826778.568050830857828 ], [ 3419164.95536668272689, 1826780.448251754743978 ], [ 3419165.533531047869474, 1826782.358008091105148 ], [ 3419166.053710399661213, 1826784.287490980466828 ], [ 3419166.515904743690044, 1826786.236700414679945 ], [ 3419166.905667757149786, 1826788.177799399709329 ], [ 3419167.179460696410388, 1826790.158351464895532 ], [ 3419167.402164209634066, 1826792.137322744121775 ], [ 3419167.652250309940428, 1826794.162139180814847 ], [ 3419167.926043490879238, 1826796.142691325861961 ], [ 3419168.219668493140489, 1826798.119944282574579 ], [ 3419168.486566271167248, 1826800.121803832007572 ], [ 3419168.685563198290765, 1826802.145039563532919 ], [ 3419168.819024375174195, 1826804.138857503421605 ], [ 3419168.863242814783007, 1826806.147521981270984 ], [ 3419168.833519791718572, 1826808.138247153256088 ], [ 3419168.734385776333511, 1826810.140519645763561 ], [ 3419168.611544875893742, 1826812.187056514201686 ], [ 3419168.421658076345921, 1826814.194346735719591 ], [ 3419168.208919322118163, 1826816.185278481338173 ], [ 3419168.038864449597895, 1826818.189269565744326 ], [ 3419167.856528728269041, 1826820.245704293251038 ], [ 3419167.591190605424345, 1826822.225226496579126 ], [ 3419167.254931346978992, 1826824.206467170733958 ], [ 3419166.900350614450872, 1826826.200836012605578 ], [ 3419166.567111873067915, 1826828.20173454284668 ], [ 3419166.249174482189119, 1826830.169847275596112 ], [ 3419165.985232742037624, 1826832.159116815542802 ], [ 3419165.866268129087985, 1826834.164689070545137 ], [ 3419165.806798805482686, 1826836.160363674163818 ], [ 3419165.788503196556121, 1826838.159268725197762 ], [ 3419165.698431567288935, 1826840.220515119843185 ], [ 3419165.446030590217561, 1826842.218045936431736 ], [ 3419165.067088511772454, 1826844.186227826401591 ], [ 3419164.614204984158278, 1826846.136470461962745 ], [ 3419164.168872378766537, 1826848.135857544606552 ], [ 3419163.700943938922137, 1826850.451487185666338 ], [ 3419163.293764843605459, 1826852.434447043575346 ], [ 3419162.892626512795687, 1826854.456722464645281 ], [ 3419162.550983464345336, 1826856.469100222690031 ], [ 3419162.220766548998654, 1826858.489657301455736 ], [ 3419161.900465596001595, 1826860.508564807241783 ], [ 3419161.483271981123835, 1826862.49319106223993 ], [ 3419161.010557639412582, 1826864.446733475429937 ], [ 3419160.495159608311951, 1826866.387216668110341 ], [ 3419159.900434777606279, 1826868.340896901208907 ], [ 3419159.269921787083149, 1826870.260210558772087 ], [ 3419158.733182160183787, 1826872.194164311513305 ], [ 3419158.294746410101652, 1826874.172244798159227 ], [ 3419157.892953865230083, 1826876.124069097451866 ], [ 3419157.396533317863941, 1826878.121876320568845 ], [ 3419156.908518562093377, 1826880.108205096097663 ], [ 3419156.539494239259511, 1826882.074738455703482 ], [ 3419156.16508466983214, 1826884.072408123407513 ], [ 3419155.760828461963683, 1826886.075043225428089 ], [ 3419155.32994428044185, 1826888.102268517483026 ], [ 3419154.937213469296694, 1826890.113066496327519 ], [ 3419154.57876086095348, 1826892.148402283899486 ], [ 3419154.144856642466038, 1826894.15597 ], [ 3419153.639375968836248, 1826896.094804484164342 ], [ 3419153.114063675049692, 1826898.036938288481906 ], [ 3419152.673264255281538, 1826900.065813574241474 ], [ 3419152.264577489811927, 1826902.038946002023295 ], [ 3419151.816227389965206, 1826904.018676999257877 ], [ 3419151.2831652010791, 1826906.042741355486214 ], [ 3419150.618932242970914, 1826908.007986766053364 ], [ 3419149.90003333427012, 1826909.881525457371026 ], [ 3419149.239774885121733, 1826911.805789362406358 ], [ 3419148.735805290285498, 1826913.754453300964087 ], [ 3419148.285090840421617, 1826915.784978719195351 ], [ 3419147.782631627749652, 1826917.743471663212404 ], [ 3419147.280172515660524, 1826919.701964672887698 ], [ 3419146.828802964650095, 1826921.662038465030491 ], [ 3419146.417096937540919, 1826923.61551378830336 ], [ 3419145.944443073589355, 1826926.032734131906182 ], [ 3419145.557099521625787, 1826928.012396967969835 ], [ 3419145.146804834250361, 1826929.975717855384573 ], [ 3419144.82499734358862, 1826931.984798533376306 ], [ 3419144.636626619379967, 1826934.001920687500387 ], [ 3419144.588588139973581, 1826936.005776893347502 ], [ 3419144.598534694872797, 1826937.989906451664865 ], [ 3419144.600075668189675, 1826939.985514563508332 ], [ 3419144.635894849896431, 1826942.005660463823006 ], [ 3419144.744145468343049, 1826944.033916719025001 ], [ 3419144.915766406804323, 1826946.011310030473396 ], [ 3419145.174265187233686, 1826948.024650713661686 ], [ 3419145.466386715415865, 1826949.992077340371907 ], [ 3419145.57341073313728, 1826950.821002956479788 ], [ 3419146.92545370105654, 1826957.833602419355884 ], [ 3419148.926011892035604, 1826952.652242430718616 ], [ 3419149.928934337571263, 1826950.046002753777429 ], [ 3419156.268521616701037, 1826931.804719993611798 ], [ 3419159.12844157172367, 1826923.083397154696286 ], [ 3419163.07718223426491, 1826909.997688255505636 ], [ 3419167.646808405872434, 1826893.804817017400637 ], [ 3419172.016758491285145, 1826873.532484121154994 ], [ 3419179.05540500022471, 1826861.636333192465827 ], [ 3419179.05540500022471, 1826755.919994884869084 ], [ 3419161.410739610902965, 1826758.178086058469489 ] ] ], [ [ [ 3419166.658122926019132, 1827016.301467939047143 ], [ 3419147.552342881914228, 1827014.994424930540845 ], [ 3419143.98975014872849, 1827014.510756656294689 ], [ 3419143.236942359246314, 1827015.964357065036893 ], [ 3419142.344293095637113, 1827017.7660041032359 ], [ 3419141.559863593429327, 1827019.610128121916205 ], [ 3419140.916421797126532, 1827021.511437959969044 ], [ 3419140.328600135631859, 1827023.443815201055259 ], [ 3419139.834452629089355, 1827025.390848858049139 ], [ 3419139.432667387649417, 1827027.342677050735801 ], [ 3419139.127675863914192, 1827029.328802932286635 ], [ 3419138.946205179207027, 1827031.324619780061767 ], [ 3419139.552488127257675, 1827037.322238245746121 ], [ 3419140.087978933472186, 1827039.218938396079466 ], [ 3419140.958442665170878, 1827040.979269762523472 ], [ 3419142.122804870828986, 1827042.599985545966774 ], [ 3419143.577191197313368, 1827043.991009074728936 ], [ 3419145.137815282680094, 1827045.213055544300005 ], [ 3419146.939197492785752, 1827046.082664933986962 ], [ 3419148.886039300821722, 1827046.575270236702636 ], [ 3419150.894781503360718, 1827046.543490601703525 ], [ 3419152.86396017530933, 1827046.387251264182851 ], [ 3419154.857501157093793, 1827046.257199408952147 ], [ 3419156.869164617266506, 1827046.245094350306317 ], [ 3419158.889332872349769, 1827046.221494356868789 ], [ 3419162.475180881563574, 1827046.214524069335312 ], [ 3419106.363386961165816, 1827218.429734132485464 ], [ 3418927.565259854309261, 1827203.279969618422911 ], [ 3418865.555822753347456, 1827376.240779196610674 ], [ 3418446.569492163136601, 1827423.394406808773056 ], [ 3418274.375738272909075, 1827521.973193526035175 ], [ 3418274.806534498464316, 1827285.005249495152384 ], [ 3418190.82906817086041, 1827270.260002200026065 ], [ 3417996.491124319843948, 1827245.51290287473239 ], [ 3417672.511734089348465, 1827476.082556545501575 ], [ 3417664.171664181631058, 1827484.695629640715197 ], [ 3417986.930059965699911, 1827676.857491778908297 ], [ 3417777.820126477628946, 1828043.299889855319634 ], [ 3417603.90531574934721, 1828076.274842142593116 ], [ 3417458.332471005618572, 1828075.300608676625416 ], [ 3417356.973980321083218, 1828084.104870230192319 ], [ 3417091.2294852565974, 1828128.333261722698808 ], [ 3417411.913440253119916, 1828679.790650563780218 ], [ 3417734.340252507012337, 1829189.629868897609413 ], [ 3417989.901479275897145, 1829694.471104990458116 ], [ 3418050.207039770204574, 1829756.006521377712488 ], [ 3418120.010445038788021, 1829850.556305000558496 ], [ 3418426.208649463951588, 1829850.556305000558496 ], [ 3418426.702118558809161, 1829847.872486837441102 ], [ 3418429.01080477796495, 1829840.794760573888198 ], [ 3418435.116839434020221, 1829834.869333407841623 ], [ 3418446.150053849443793, 1829827.125938103999943 ], [ 3418455.987911474425346, 1829821.859692627098411 ], [ 3418467.785479073412716, 1829822.860009653726593 ], [ 3418480.232804605737329, 1829828.086843510391191 ], [ 3418492.443466935772449, 1829834.552654029568657 ], [ 3418500.391478290781379, 1829840.941475885454565 ], [ 3418501.929932978004217, 1829846.451533476356417 ], [ 3418501.422823671717197, 1829850.556305000558496 ], [ 3418655.867015923373401, 1829850.556305000558496 ], [ 3418656.121580194216222, 1829850.316969481762499 ], [ 3418663.137163498904556, 1829848.191803856519982 ], [ 3418670.264066447969526, 1829847.650922604138032 ], [ 3418679.294638317544013, 1829848.446451520780101 ], [ 3418684.963208869565278, 1829847.613994173007086 ], [ 3418687.823818797711283, 1829844.789173162542284 ], [ 3418691.774053899105638, 1829837.871767475269735 ], [ 3418698.259810723364353, 1829832.49811964854598 ], [ 3418709.404802979901433, 1829828.657550416188315 ], [ 3418715.753941116388887, 1829829.143279833253473 ], [ 3418717.921023187227547, 1829835.566852563759312 ], [ 3418716.997940915636718, 1829841.536843160167336 ], [ 3418715.216791599523276, 1829850.556305000558496 ], [ 3419179.05540500022471, 1829850.556305000558496 ], [ 3419179.05540500022471, 1827739.229750300757587 ], [ 3419178.665551110170782, 1827739.329584871651605 ], [ 3419161.735659608617425, 1827744.968741174554452 ], [ 3419160.680417931638658, 1827745.315670063951984 ], [ 3419148.869658496230841, 1827750.980122102424502 ], [ 3419129.755006629042327, 1827763.182228612713516 ], [ 3419120.62249604659155, 1827770.790115158772096 ], [ 3419114.895623094402254, 1827776.339515033410862 ], [ 3419109.641421664506197, 1827779.935351665364578 ], [ 3419101.100112746469676, 1827783.846241008024663 ], [ 3419091.484549337998033, 1827785.597248520469293 ], [ 3419081.364833483006805, 1827783.803352372022346 ], [ 3419065.876391617581248, 1827774.072299859952182 ], [ 3419047.802508973516524, 1827763.067949750460684 ], [ 3419033.190410731825978, 1827752.223498030100018 ], [ 3419020.908081335015595, 1827744.892379959346727 ], [ 3419009.381092491094023, 1827739.764127993723378 ], [ 3419005.192250191699713, 1827736.791952243773267 ], [ 3418998.98113045329228, 1827731.182467213599011 ], [ 3418993.931268924381584, 1827722.607707660878077 ], [ 3418991.521070670336485, 1827712.283334583276883 ], [ 3418993.170298327226192, 1827701.243241983931512 ], [ 3418998.35181040270254, 1827692.740331666311249 ], [ 3419007.001908186357468, 1827684.507069337647408 ], [ 3419017.081881732214242, 1827677.174979305360466 ], [ 3419026.94305204320699, 1827675.897196606267244 ], [ 3419037.345551752950996, 1827675.759140292881057 ], [ 3419047.705908973235637, 1827678.722628027899191 ], [ 3419061.755968468263745, 1827676.909206096548587 ], [ 3419078.92076463252306, 1827672.269202070543543 ], [ 3419090.917199722491205, 1827664.900432605994865 ], [ 3419102.73221857054159, 1827653.439142933115363 ], [ 3419110.077035022433847, 1827640.947468964150175 ], [ 3419118.361108979210258, 1827622.523569460725412 ], [ 3419124.052757969126105, 1827598.412301392294466 ], [ 3419130.52083923202008, 1827579.22215239983052 ], [ 3419135.357510732952505, 1827573.306696974439546 ], [ 3419140.9727882463485, 1827566.435228791087866 ], [ 3419154.47997094783932, 1827552.948585454141721 ], [ 3419160.803340146783739, 1827547.310065106954426 ], [ 3419170.748711206484586, 1827538.30697608157061 ], [ 3419160.218800955452025, 1827555.683160388143733 ], [ 3419144.429792240727693, 1827583.439957602182403 ], [ 3419139.208926543593407, 1827598.370456429664046 ], [ 3419135.76093437243253, 1827608.227982151322067 ], [ 3419130.716675444506109, 1827630.396941375918686 ], [ 3419128.271166066173464, 1827642.47669860906899 ], [ 3419125.396300023421645, 1827651.099816093221307 ], [ 3419119.213082147762179, 1827658.378278178861365 ], [ 3419109.428797771222889, 1827666.840521236881614 ], [ 3419105.725908515974879, 1827671.266911822138354 ], [ 3419105.187040464021266, 1827673.120604790048674 ], [ 3419104.532856987323612, 1827679.650546637596563 ], [ 3419106.999122011475265, 1827685.641164454631507 ], [ 3419114.552852060645819, 1827693.436354772886261 ], [ 3419131.13280377490446, 1827705.505881237564608 ], [ 3419152.596060308627784, 1827717.720475967274979 ], [ 3419157.730129783973098, 1827718.902505019679666 ], [ 3419179.05540500022471, 1827723.826408434892073 ], [ 3419179.05540500022471, 1827387.710434577893466 ], [ 3419176.633847849443555, 1827384.613230477785692 ], [ 3419169.657512439414859, 1827374.221992275910452 ], [ 3419156.80509305652231, 1827364.637090384028852 ], [ 3419144.351804027799517, 1827356.92108091339469 ], [ 3419135.13370740134269, 1827352.920772457960993 ], [ 3419128.473007696215063, 1827350.20852192863822 ], [ 3419119.594459417741746, 1827346.564911806723103 ], [ 3419114.673445279709995, 1827357.29243717668578 ], [ 3419108.716856101993471, 1827363.928337417077273 ], [ 3419103.322348010726273, 1827366.47897350974381 ], [ 3419092.917771593667567, 1827366.53677881299518 ], [ 3419082.637540801428258, 1827363.96303026843816 ], [ 3419080.920867624692619, 1827363.049092662986368 ], [ 3419072.028044071048498, 1827358.319206225452945 ], [ 3419057.187072807457298, 1827349.09540128079243 ], [ 3419046.609590501990169, 1827340.946469204733148 ], [ 3419033.824543609749526, 1827329.152799483155832 ], [ 3419027.017769484780729, 1827315.628763190004975 ], [ 3419025.44843892659992, 1827300.981260901317 ], [ 3419024.728504034224898, 1827288.4201662002597 ], [ 3419024.63861918868497, 1827286.842451549135149 ], [ 3419027.253819359466434, 1827273.484564371407032 ], [ 3419031.830367980524898, 1827265.213425455382094 ], [ 3419041.524198137223721, 1827256.625173355452716 ], [ 3419055.966908039525151, 1827251.873655230272561 ], [ 3419068.43786644237116, 1827247.460162947652861 ], [ 3419078.582018006592989, 1827242.133543935837224 ], [ 3419086.074963860213757, 1827234.70780491665937 ], [ 3419097.992986569181085, 1827224.247597426874563 ], [ 3419110.621077642310411, 1827221.320008375216275 ], [ 3419120.69697495829314, 1827224.814824822824448 ], [ 3419125.906077107880265, 1827231.911526340292767 ], [ 3419129.141331796534359, 1827235.627012033481151 ], [ 3419142.799067682120949, 1827230.068673345958814 ], [ 3419155.570836368948221, 1827222.913869598414749 ], [ 3419166.160250538028777, 1827215.1242080621887 ], [ 3419176.361566164996475, 1827209.374727938324213 ], [ 3419179.05540500022471, 1827209.285656557185575 ], [ 3419179.05540500022471, 1827013.465182412881404 ], [ 3419166.658122926019132, 1827016.301467939047143 ] ], [ [ 3418853.510033395141363, 1827646.489487799117342 ], [ 3418867.889417601749301, 1827645.760277172317728 ], [ 3418878.402569774072617, 1827647.599663218017668 ], [ 3418887.378858997952193, 1827646.519376477226615 ], [ 3418900.288410453125834, 1827648.070937402546406 ], [ 3418910.918810613453388, 1827651.997593915089965 ], [ 3418918.486140516586602, 1827653.792759249452502 ], [ 3418923.983387186191976, 1827656.940469418419525 ], [ 3418922.67089459951967, 1827663.62027685996145 ], [ 3418916.337902100291103, 1827669.593115922762081 ], [ 3418910.295228093862534, 1827678.249401097651571 ], [ 3418910.575436301995069, 1827685.63192255073227 ], [ 3418912.16308453772217, 1827694.77264153258875 ], [ 3418908.161424038931727, 1827703.674002499086782 ], [ 3418900.169939046725631, 1827705.537882095668465 ], [ 3418894.090357618406415, 1827706.277239558985457 ], [ 3418891.38119279127568, 1827711.213705044938251 ], [ 3418890.673074352554977, 1827715.010815074201673 ], [ 3418892.538267945870757, 1827721.192166397115216 ], [ 3418881.991112009156495, 1827724.227205972885713 ], [ 3418865.932323447428644, 1827731.233702824218199 ], [ 3418854.288334427867085, 1827736.991470990935341 ], [ 3418834.606235708110034, 1827728.492478249594569 ], [ 3418821.084219382610172, 1827725.006738449214026 ], [ 3418805.865730914287269, 1827718.819407142000273 ], [ 3418797.997355989646167, 1827705.734055005013943 ], [ 3418788.707798869814724, 1827694.518066839547828 ], [ 3418784.537992020137608, 1827689.022671659709886 ], [ 3418793.224933378398418, 1827680.03717425186187 ], [ 3418787.82323550619185, 1827671.158171869581565 ], [ 3418792.518543399870396, 1827664.984013983048499 ], [ 3418801.656247561331838, 1827655.953866969095543 ], [ 3418812.891393274068832, 1827652.300232706125826 ], [ 3418826.148588152602315, 1827653.400799752213061 ], [ 3418841.175319557078183, 1827651.192957431077957 ], [ 3418853.510033395141363, 1827646.489487799117342 ] ], [ [ 3418467.910288657527417, 1827743.339461093302816 ], [ 3418473.422613284084946, 1827742.018940190784633 ], [ 3418478.372050530742854, 1827740.278085268568248 ], [ 3418486.67599110212177, 1827742.10191481676884 ], [ 3418493.780320968478918, 1827743.994306854438037 ], [ 3418498.211880065500736, 1827743.781108789378777 ], [ 3418501.973506194073707, 1827753.568061329424381 ], [ 3418508.008958399295807, 1827771.534950863802806 ], [ 3418510.41058543138206, 1827792.193004767876118 ], [ 3418511.305806617252529, 1827809.533387259347364 ], [ 3418508.513139910064638, 1827828.949055257253349 ], [ 3418502.323620550334454, 1827847.105302998796105 ], [ 3418497.423504923470318, 1827857.174380861455575 ], [ 3418494.396247423719615, 1827870.298658186802641 ], [ 3418492.90794875100255, 1827884.436986796325073 ], [ 3418488.312254248186946, 1827891.854696009773761 ], [ 3418479.180844694841653, 1827897.748969519045204 ], [ 3418469.285911003593355, 1827902.248163235606626 ], [ 3418462.745996300131083, 1827900.786046017194167 ], [ 3418456.880648363381624, 1827893.919612718746066 ], [ 3418453.917289223521948, 1827879.665178326191381 ], [ 3418454.000659235753119, 1827876.435681340750307 ], [ 3418415.725550032686442, 1827876.585005580913275 ], [ 3418388.520662897732109, 1827876.706781014567241 ], [ 3418352.972718480043113, 1827877.198720002314076 ], [ 3418326.090422837529331, 1827877.367661608150229 ], [ 3418305.8361373716034, 1827880.697615600191057 ], [ 3418296.104123452212662, 1827884.867336753988639 ], [ 3418278.144593278411776, 1827895.718458376592025 ], [ 3418266.476417790167034, 1827904.958314166869968 ], [ 3418259.182860088534653, 1827911.827040936332196 ], [ 3418250.414102537557483, 1827913.86074432474561 ], [ 3418242.815352907404304, 1827911.13335777586326 ], [ 3418234.294868549797684, 1827905.71668839128688 ], [ 3418220.034375453833491, 1827892.727279612328857 ], [ 3418193.35937712341547, 1827872.539811392547563 ], [ 3418192.056627149693668, 1827874.782742835814133 ], [ 3418183.506363083142787, 1827888.231390088796616 ], [ 3418176.09703362500295, 1827895.008515949361026 ], [ 3418169.466145400889218, 1827896.263215906918049 ], [ 3418164.64286844432354, 1827894.78765749046579 ], [ 3418160.02841761149466, 1827890.767339308746159 ], [ 3418156.888734873849899, 1827872.520151183474809 ], [ 3418158.259617703501135, 1827866.0221484657377 ], [ 3418162.173281158320606, 1827858.798511407105252 ], [ 3418168.678633640985936, 1827851.234338072361425 ], [ 3418183.156732999254018, 1827827.787459949031472 ], [ 3418202.171974191442132, 1827797.335805046604946 ], [ 3418211.41454756166786, 1827768.671633722027764 ], [ 3418213.006705997511744, 1827767.186978196725249 ], [ 3418232.797862834762782, 1827739.136539538623765 ], [ 3418244.152991394046694, 1827718.991581697249785 ], [ 3418246.01503568328917, 1827716.020533962873742 ], [ 3418255.882418813183904, 1827714.650694106006995 ], [ 3418314.892420646268874, 1827717.210170482750982 ], [ 3418321.347801468335092, 1827717.063311269972473 ], [ 3418371.087421350646764, 1827715.943811283679679 ], [ 3418399.255769560579211, 1827714.018672283506021 ], [ 3418407.700964337214828, 1827716.232278860639781 ], [ 3418421.974498797208071, 1827721.49803431914188 ], [ 3418437.536327503621578, 1827730.117961124517024 ], [ 3418448.658236087299883, 1827737.904032255755737 ], [ 3418455.600674587767571, 1827741.92006097943522 ], [ 3418463.094083270058036, 1827743.697307127527893 ], [ 3418463.822171452455223, 1827743.868487774860114 ], [ 3418465.761359381489456, 1827743.616383901098743 ], [ 3418467.700547316111624, 1827743.364280122332275 ], [ 3418467.910288657527417, 1827743.339461093302816 ] ], [ [ 3418563.030709275975823, 1827921.194619078421965 ], [ 3418561.906004693359137, 1827926.250556296668947 ], [ 3418562.009747225791216, 1827932.35204954422079 ], [ 3418562.203541669994593, 1827944.466592531651258 ], [ 3418560.868147781118751, 1827954.769015869125724 ], [ 3418558.040304256603122, 1827960.057944610714912 ], [ 3418548.113811919931322, 1827961.639183251420036 ], [ 3418542.738586244173348, 1827961.535632546059787 ], [ 3418536.254463103599846, 1827960.568241725908592 ], [ 3418530.466927372850478, 1827955.200804172782227 ], [ 3418527.985013156663626, 1827953.013054120820016 ], [ 3418522.543398281093687, 1827951.418683928903192 ], [ 3418515.76826228806749, 1827949.683211412280798 ], [ 3418510.874095333274454, 1827947.614597000880167 ], [ 3418507.936840088106692, 1827944.978436468169093 ], [ 3418506.121041991747916, 1827941.500450745923445 ], [ 3418506.616870050318539, 1827938.837383487960324 ], [ 3418513.361124788876623, 1827931.63674253039062 ], [ 3418522.78183412970975, 1827922.992807785980403 ], [ 3418528.564349354244769, 1827917.93802425917238 ], [ 3418532.589737852104008, 1827912.500234447419643 ], [ 3418535.169711410533637, 1827901.627731485757977 ], [ 3418534.536974920425564, 1827891.88464167015627 ], [ 3418530.695453019812703, 1827881.445571194402874 ], [ 3418525.769387381151319, 1827868.646721269935369 ], [ 3418523.814554896671325, 1827862.27865966851823 ], [ 3418523.126463366206735, 1827856.345063348067924 ], [ 3418524.243438108824193, 1827852.893184653483331 ], [ 3418532.67077827360481, 1827849.696543822297826 ], [ 3418542.615276463329792, 1827850.8139456755016 ], [ 3418550.269800078589469, 1827857.544064950663596 ], [ 3418556.58651275280863, 1827870.061018238309771 ], [ 3418560.407638435717672, 1827880.301874321885407 ], [ 3418562.737436749506742, 1827887.323247068561614 ], [ 3418566.239389074966311, 1827897.405525616602972 ], [ 3418566.862307880073786, 1827907.150246422505006 ], [ 3418563.993868058547378, 1827915.550662823719904 ], [ 3418563.030709275975823, 1827921.194619078421965 ] ], [ [ 3417973.989352900069207, 1829399.349337201099843 ], [ 3417966.250217764638364, 1829404.972001518588513 ], [ 3417958.043948260135949, 1829403.12205556826666 ], [ 3417942.003107366152108, 1829393.967293757013977 ], [ 3417935.194826672784984, 1829386.723425128264353 ], [ 3417934.648131529800594, 1829381.975730644771829 ], [ 3417936.446838230825961, 1829374.82157638692297 ], [ 3417943.941410238854587, 1829367.939216843806207 ], [ 3417954.696726134046912, 1829364.737942506093532 ], [ 3417961.001169647090137, 1829362.418550937436521 ], [ 3417973.370733604766428, 1829359.200640961062163 ], [ 3417982.487046244554222, 1829356.715697606327012 ], [ 3417991.116495936643332, 1829351.791640784125775 ], [ 3417998.308101597242057, 1829346.643176995683461 ], [ 3418005.345067103859037, 1829344.524462026078254 ], [ 3418018.387112004682422, 1829346.144211117411032 ], [ 3418033.739276545122266, 1829348.569006267935038 ], [ 3418052.680551806464791, 1829347.019395210081711 ], [ 3418067.205476283561438, 1829344.128290604101494 ], [ 3418072.590203483588994, 1829343.43374738516286 ], [ 3418076.972258590627462, 1829346.272982474882156 ], [ 3418076.920988880097866, 1829351.100024049403146 ], [ 3418071.411081911996007, 1829360.242752145044506 ], [ 3418060.735063156113029, 1829370.245257395319641 ], [ 3418045.572019050363451, 1829379.835161931812763 ], [ 3418037.992823100183159, 1829382.528082847595215 ], [ 3418025.33568175509572, 1829381.559995336458087 ], [ 3418012.52464994462207, 1829378.399796557612717 ], [ 3418006.384496337734163, 1829376.891461390769109 ], [ 3417999.947973811533302, 1829377.226793335517868 ], [ 3417995.983866842929274, 1829380.547802257351577 ], [ 3417988.419990080874413, 1829386.846930507570505 ], [ 3417980.744699126109481, 1829392.156546242535114 ], [ 3417973.989352900069207, 1829399.349337201099843 ] ], [ [ 3418286.021781274117529, 1829445.966413903050125 ], [ 3418287.589219203684479, 1829449.878906961297616 ], [ 3418287.946225718595088, 1829458.156109030125663 ], [ 3418288.01997262891382, 1829464.061119814170524 ], [ 3418290.103803560137749, 1829466.305027934722602 ], [ 3418294.9166498221457, 1829470.292330453172326 ], [ 3418295.914458965882659, 1829473.67452743393369 ], [ 3418296.511666294652969, 1829478.81702681700699 ], [ 3418303.444724861998111, 1829483.630906158592552 ], [ 3418311.402525447774678, 1829485.915398329496384 ], [ 3418320.339048765599728, 1829493.178093133261427 ], [ 3418323.479246001690626, 1829498.391232185298577 ], [ 3418321.787470430135727, 1829503.924746894743294 ], [ 3418314.844479507301003, 1829505.926973295863718 ], [ 3418304.765411204658449, 1829504.529876399319619 ], [ 3418287.067217636853456, 1829509.733284023357555 ], [ 3418271.700316727161407, 1829514.226144373882562 ], [ 3418257.494924350176007, 1829520.78375683282502 ], [ 3418249.186513226479292, 1829529.384151670150459 ], [ 3418239.400691231712699, 1829536.577112945262343 ], [ 3418228.445672115776688, 1829539.801486946176738 ], [ 3418213.341627591755241, 1829542.960421297233552 ], [ 3418201.156630708370358, 1829544.534677462885156 ], [ 3418199.681574059650302, 1829544.729760427027941 ], [ 3418188.125790092628449, 1829546.229546074056998 ], [ 3418180.970354691613466, 1829546.452655038097873 ], [ 3418169.057272627018392, 1829551.913093488896266 ], [ 3418157.367761663626879, 1829560.945176920387894 ], [ 3418150.796011740807444, 1829568.802958083339036 ], [ 3418147.95208145538345, 1829572.199531202670187 ], [ 3418145.238879564218223, 1829581.078447894426063 ], [ 3418146.897325516212732, 1829595.308400265173987 ], [ 3418149.470652708783746, 1829601.795411823550239 ], [ 3418155.508893575984985, 1829611.042342637199908 ], [ 3418161.164723999798298, 1829617.933677253313363 ], [ 3418166.716804691590369, 1829622.231406940845773 ], [ 3418169.390866386238486, 1829623.419426965760067 ], [ 3418172.479588476940989, 1829624.790451270760968 ], [ 3418178.447386590763927, 1829627.426262771710753 ], [ 3418182.30382236931473, 1829630.947732202708721 ], [ 3418186.154731675051153, 1829638.865257309051231 ], [ 3418187.749785089865327, 1829647.389969578012824 ], [ 3418188.725088939070702, 1829655.786072561517358 ], [ 3418190.044085703324527, 1829660.133063226472586 ], [ 3418191.057132893241942, 1829663.613638542825356 ], [ 3418200.538511921651661, 1829659.071993261808529 ], [ 3418217.403900137171149, 1829650.236963452771306 ], [ 3418218.08155992301181, 1829649.882249402813613 ], [ 3418228.024322872050107, 1829647.481556292390451 ], [ 3418238.131032251752913, 1829643.964878621743992 ], [ 3418246.411413630470634, 1829639.481997664086521 ], [ 3418258.151930885389447, 1829635.149069717386737 ], [ 3418267.843023704364896, 1829633.294302323134616 ], [ 3418283.904669587500393, 1829633.917607434326783 ], [ 3418296.569224008824676, 1829629.773651136085391 ], [ 3418315.539302195422351, 1829618.884795074816793 ], [ 3418328.09753565909341, 1829613.85129622509703 ], [ 3418343.501262149773538, 1829614.957100801868364 ], [ 3418352.991820334922522, 1829615.635610218392685 ], [ 3418359.460893021896482, 1829616.504565228009596 ], [ 3418373.430433460511267, 1829612.183784151216969 ], [ 3418383.818541436921805, 1829610.233212583465502 ], [ 3418390.824667716864496, 1829610.428123191697523 ], [ 3418398.600563674233854, 1829614.638038745382801 ], [ 3418405.319974209647626, 1829615.878641955321655 ], [ 3418409.297430992592126, 1829615.357840162236243 ], [ 3418415.424212710466236, 1829614.066045105457306 ], [ 3418422.678799887187779, 1829613.826470157131553 ], [ 3418428.576993125490844, 1829616.604940791614354 ], [ 3418429.849571663886309, 1829617.20968349208124 ], [ 3418447.636092723347247, 1829620.519662427948788 ], [ 3418466.453658910933882, 1829623.194457723526284 ], [ 3418474.999728207476437, 1829622.689561491133645 ], [ 3418480.394496143329889, 1829618.686962852720171 ], [ 3418484.714015383739024, 1829610.599235141417012 ], [ 3418486.208442382048815, 1829603.384877717820928 ], [ 3418483.085815880913287, 1829596.565901964902878 ], [ 3418476.095324641559273, 1829587.739526649238542 ], [ 3418468.544982411433011, 1829581.092893443768844 ], [ 3418462.531639062799513, 1829574.654181268298998 ], [ 3418452.792653556913137, 1829564.883911267155781 ], [ 3418443.487462031655014, 1829552.642382273916155 ], [ 3418439.898374018259346, 1829543.58251139940694 ], [ 3418446.463668629061431, 1829539.123024612898007 ], [ 3418455.361538061872125, 1829553.014984295936301 ], [ 3418461.714457276277244, 1829559.810486478265375 ], [ 3418471.704286484047771, 1829567.442259583622217 ], [ 3418489.018648752942681, 1829577.14135872782208 ], [ 3418498.25339047331363, 1829589.586146665038541 ], [ 3418501.092374688014388, 1829600.051079070661217 ], [ 3418503.361104290932417, 1829615.207641391549259 ], [ 3418501.070910366252065, 1829626.838660352863371 ], [ 3418497.263889089226723, 1829634.951984309824184 ], [ 3418492.744552468881011, 1829643.062886024592444 ], [ 3418489.229076347313821, 1829649.434162737801671 ], [ 3418486.417551727034152, 1829651.674012446543202 ], [ 3418484.778620440047234, 1829653.04574323259294 ], [ 3418483.725626200437546, 1829652.598003165330738 ], [ 3418478.72443825006485, 1829651.222654321696609 ], [ 3418473.584810296073556, 1829650.203003256581724 ], [ 3418469.957996373996139, 1829649.697713542496786 ], [ 3418468.368398897349834, 1829649.478386467089877 ], [ 3418463.362384840846062, 1829648.799400497460738 ], [ 3418460.374606892466545, 1829648.349052447127178 ], [ 3418458.377052595838904, 1829648.056489868089557 ], [ 3418454.667610317934304, 1829647.806885605212301 ], [ 3418449.553273083642125, 1829647.680197657551616 ], [ 3418444.531945399008691, 1829648.092462310567498 ], [ 3418439.399181607179344, 1829649.168428489472717 ], [ 3418436.963817602954805, 1829649.997105164220557 ], [ 3418434.624686687253416, 1829650.789605801925063 ], [ 3418429.659625632222742, 1829652.361853465205058 ], [ 3418424.451325500383973, 1829652.351611762540415 ], [ 3418419.461178506724536, 1829651.84135976433754 ], [ 3418413.966662022285163, 1829650.961420567473397 ], [ 3418408.883406062144786, 1829649.912234087707475 ], [ 3418404.013290300965309, 1829648.595724212005734 ], [ 3418399.172462760470808, 1829646.609023505821824 ], [ 3418394.464325598441064, 1829644.560019261203706 ], [ 3418389.70744625851512, 1829642.458542914828286 ], [ 3418384.98069142177701, 1829640.68471214803867 ], [ 3418380.067495771218091, 1829640.675766407744959 ], [ 3418374.864475765731186, 1829641.229163024108857 ], [ 3418374.537262621801347, 1829641.283618331653997 ], [ 3418367.502506309188902, 1829642.424112212611362 ], [ 3418362.501567312516272, 1829643.498311035102233 ], [ 3418357.558988909702748, 1829644.885376254096627 ], [ 3418352.906400450970978, 1829647.10119088483043 ], [ 3418351.548997508361936, 1829648.194021694129333 ], [ 3418348.905862963292748, 1829650.317353046964854 ], [ 3418340.104444205760956, 1829658.687297309283167 ], [ 3418335.953763323370367, 1829661.918368946993724 ], [ 3418331.949164888821542, 1829665.306580279488117 ], [ 3418330.152075997553766, 1829666.714520216919482 ], [ 3418325.879669869318604, 1829669.683595791459084 ], [ 3418324.288357615470886, 1829670.643986704060808 ], [ 3418321.494991502724588, 1829672.318536824081093 ], [ 3418316.464968170970678, 1829673.468148311600089 ], [ 3418314.419534635730088, 1829673.657347914762795 ], [ 3418309.408225800842047, 1829673.473209827905521 ], [ 3418304.40731526305899, 1829672.430492750136182 ], [ 3418299.650243643671274, 1829670.460104749305174 ], [ 3418295.909583405591547, 1829667.030248023802415 ], [ 3418292.930721713230014, 1829662.999822807032615 ], [ 3418289.621534170117229, 1829659.135258222464472 ], [ 3418285.887363212183118, 1829657.468422964448109 ], [ 3418281.187216681428254, 1829657.323227570857853 ], [ 3418280.413613500539213, 1829657.583021362544969 ], [ 3418276.96129132155329, 1829658.742245033849031 ], [ 3418276.603480976074934, 1829658.862276844680309 ], [ 3418273.557490010280162, 1829661.7381400114391 ], [ 3418271.342680498957634, 1829666.118809252744541 ], [ 3418269.237511430401355, 1829670.682843833928928 ], [ 3418266.002923069987446, 1829674.779604576760903 ], [ 3418261.646002077497542, 1829677.661949289031327 ], [ 3418256.871320752426982, 1829679.414231239585206 ], [ 3418251.85017287125811, 1829680.753905936144292 ], [ 3418245.589300478342921, 1829682.561998332617804 ], [ 3418240.676182888448238, 1829684.075226949993521 ], [ 3418235.727275531738997, 1829685.554090338759124 ], [ 3418230.57826716825366, 1829686.723516534082592 ], [ 3418225.532296635210514, 1829687.371765931136906 ], [ 3418220.219167565926909, 1829688.135042315814644 ], [ 3418215.257528967689723, 1829689.464919591555372 ], [ 3418210.465478562749922, 1829691.169696482364088 ], [ 3418205.832727350760251, 1829693.382233873009682 ], [ 3418201.369290148373693, 1829696.100865095388144 ], [ 3418197.218616310507059, 1829699.331958148628473 ], [ 3418193.241790996398777, 1829702.503877179929987 ], [ 3418191.160836405586451, 1829704.049795226193964 ], [ 3418189.114897321909666, 1829705.559543354669586 ], [ 3418185.749470254406333, 1829707.349575746804476 ], [ 3418181.012372592929751, 1829709.478678052779287 ], [ 3418178.47653469722718, 1829710.777723271632567 ], [ 3418170.570303186308593, 1829707.637915034778416 ], [ 3418164.741892059799284, 1829704.585766264935955 ], [ 3418160.147999178618193, 1829702.618476203642786 ], [ 3418154.747925768606365, 1829700.765196355059743 ], [ 3418151.997202811297029, 1829697.755268009612337 ], [ 3418146.905072466935962, 1829687.58464774931781 ], [ 3418144.391495606862009, 1829682.478810011874884 ], [ 3418144.389984778594226, 1829682.4689808615949 ], [ 3418141.237193628679961, 1829676.3808220224455 ], [ 3418139.615359605289996, 1829672.114572921069339 ], [ 3418139.049548946321011, 1829668.962787587195635 ], [ 3418139.594684217125177, 1829663.247089259792119 ], [ 3418140.406118265353143, 1829657.940698659047484 ], [ 3418140.88637868873775, 1829652.266040066257119 ], [ 3418140.9691301737912, 1829649.89340895973146 ], [ 3418140.856782903429121, 1829647.442361233290285 ], [ 3418140.126650210935622, 1829645.073968971846625 ], [ 3418138.851251478306949, 1829643.26003138278611 ], [ 3418137.191507881507277, 1829641.459656480932608 ], [ 3418136.221970185171813, 1829640.363359616836533 ], [ 3418136.203939448110759, 1829639.930475582601503 ], [ 3418135.745185816194862, 1829639.129813309991732 ], [ 3418135.06896058190614, 1829637.972201200900599 ], [ 3418131.598937596194446, 1829635.112227035686374 ], [ 3418120.130411002319306, 1829629.571350884623826 ], [ 3418108.891909641679376, 1829626.915667274268344 ], [ 3418094.962767287157476, 1829625.413326365407556 ], [ 3418084.603002086281776, 1829626.754425989231095 ], [ 3418074.676410569809377, 1829627.539567078463733 ], [ 3418068.313437602482736, 1829630.271931210532784 ], [ 3418059.547954771667719, 1829596.599979009013623 ], [ 3418070.381626569665968, 1829592.387680497486144 ], [ 3418086.403135055676103, 1829586.596261134371161 ], [ 3418099.189027122221887, 1829583.44010978913866 ], [ 3418106.193039287813008, 1829579.320835145190358 ], [ 3418112.480371184647083, 1829569.87732070707716 ], [ 3418114.806093222927302, 1829562.050784563878551 ], [ 3418115.461999750696123, 1829557.254151795525104 ], [ 3418113.152480863034725, 1829553.938943629153073 ], [ 3418107.516605253797024, 1829553.26411352539435 ], [ 3418101.576413341332227, 1829555.240621080854908 ], [ 3418091.741154475137591, 1829560.324939266080037 ], [ 3418081.377838591113687, 1829565.083941417047754 ], [ 3418071.922907104250044, 1829568.209919690620154 ], [ 3418061.038391943555325, 1829568.519505725707859 ], [ 3418054.885610269382596, 1829565.208850111579522 ], [ 3418053.33032098878175, 1829562.302388711599633 ], [ 3418055.713964925613254, 1829559.284727842314169 ], [ 3418063.958846293389797, 1829554.505304602207616 ], [ 3418073.055704106111079, 1829550.108282062457874 ], [ 3418079.359994736500084, 1829544.280873053707182 ], [ 3418081.136037849355489, 1829542.140542652923614 ], [ 3418083.35456979740411, 1829535.13829161785543 ], [ 3418083.13482934422791, 1829528.945161405485123 ], [ 3418078.836948713287711, 1829523.279436672339216 ], [ 3418060.903586402535439, 1829505.649348561186343 ], [ 3418044.576883156783879, 1829489.606598336016759 ], [ 3418042.533415990415961, 1829484.251158084487543 ], [ 3418044.109192431904376, 1829475.118092183955014 ], [ 3418076.38154438091442, 1829475.150181130273268 ], [ 3418091.185883398167789, 1829490.287033057305962 ], [ 3418107.363260312005877, 1829506.747686216374859 ], [ 3418123.609346293844283, 1829519.487254520179704 ], [ 3418138.708077351562679, 1829525.754614478209987 ], [ 3418143.339300012215972, 1829525.649176952196285 ], [ 3418151.920684905722737, 1829525.44076306768693 ], [ 3418160.069879304617643, 1829523.015987911028787 ], [ 3418160.818368672858924, 1829522.790614509955049 ], [ 3418163.198603562545031, 1829520.479173880303279 ], [ 3418165.730784462764859, 1829518.031559637514874 ], [ 3418167.042941362597048, 1829511.946290060644969 ], [ 3418165.581863793544471, 1829499.397203894332051 ], [ 3418164.67741796001792, 1829491.594256517011672 ], [ 3418165.121251272037625, 1829485.81478895409964 ], [ 3418168.579384058713913, 1829481.65058762091212 ], [ 3418171.914707452058792, 1829480.722526828525588 ], [ 3418178.73350715637207, 1829485.454602402867749 ], [ 3418185.055596983991563, 1829494.563564428826794 ], [ 3418190.632312926929444, 1829511.195814204635099 ], [ 3418195.829916096292436, 1829518.546369760530069 ], [ 3418197.32223591953516, 1829519.588324280455709 ], [ 3418201.660568373277783, 1829522.606211532140151 ], [ 3418208.92507633054629, 1829522.364955978933722 ], [ 3418219.254872562363744, 1829518.115607546176761 ], [ 3418228.034350312314928, 1829507.551743814023212 ], [ 3418238.050139864441007, 1829487.498038269579411 ], [ 3418249.814244703389704, 1829463.403318444034085 ], [ 3418253.806865310296416, 1829449.946734020719305 ], [ 3418253.237776919268072, 1829440.686688847374171 ], [ 3418250.813559555914253, 1829430.273698379518464 ], [ 3418242.929381681606174, 1829414.640490465797484 ], [ 3418234.713513176888227, 1829400.554305356228724 ], [ 3418229.049563868436962, 1829390.962835750542581 ], [ 3418226.68181916885078, 1829375.822753869462758 ], [ 3418228.129221583716571, 1829364.795689305989072 ], [ 3418230.066739937290549, 1829359.735489003825933 ], [ 3418235.636842520907521, 1829353.697669661836699 ], [ 3418240.772210032679141, 1829350.917652901029214 ], [ 3418247.513785523362458, 1829353.162514898693189 ], [ 3418253.332703624852002, 1829363.232320785522461 ], [ 3418259.208345857914537, 1829379.824879996478558 ], [ 3418266.825306537095457, 1829408.738312562927604 ], [ 3418269.107119718100876, 1829423.186956425895914 ], [ 3418270.651993161998689, 1829432.113237347453833 ], [ 3418274.073587033897638, 1829438.892532501602545 ], [ 3418280.446580704767257, 1829442.378259350545704 ], [ 3418286.021781274117529, 1829445.966413903050125 ] ], [ [ 3418906.640632662922144, 1829554.104716825531796 ], [ 3418906.10872991476208, 1829561.69311289396137 ], [ 3418904.140134480781853, 1829568.270604270510375 ], [ 3418901.297657835297287, 1829574.257640545023605 ], [ 3418897.686063187196851, 1829583.245605157921091 ], [ 3418890.473844709340483, 1829600.433436372550204 ], [ 3418884.938878492917866, 1829616.293694728519768 ], [ 3418881.746575276833028, 1829614.90962447039783 ], [ 3418878.182870033197105, 1829612.962367678061128 ], [ 3418872.87666174583137, 1829612.645885083125904 ], [ 3418869.507073943503201, 1829613.085646201390773 ], [ 3418864.920135119464248, 1829613.677582543576136 ], [ 3418862.678960475604981, 1829612.659423674689606 ], [ 3418860.186253337655216, 1829609.475492188706994 ], [ 3418861.312056898605078, 1829590.467855335678905 ], [ 3418866.782233498990536, 1829559.366487779188901 ], [ 3418868.279476101044565, 1829540.922146556666121 ], [ 3418872.469163591973484, 1829538.672556679463014 ], [ 3418888.132681611925364, 1829539.352278223028407 ], [ 3418888.65992265380919, 1829538.67987340153195 ], [ 3418901.947804081253707, 1829541.56930887629278 ], [ 3418906.182979901321232, 1829545.834228960797191 ], [ 3418906.527132424991578, 1829548.80110614025034 ], [ 3418906.640632662922144, 1829554.104716825531796 ] ] ] ] } }
]
}
