{
"type": "FeatureCollection",
"name": "Benlloch",
"crs": { "type": "name", "properties": { "name": "urn:ogc:def:crs:EPSG::3035" } },
"features": [
{ "type": "Feature", "properties": { "ENP_GRAL": 1.0, "ENP_GRAL_NAME": "Otros Parques", "color": "#38A800" }, "geometry": { "type": "Polygon", "coordinates": [ [ [ 3483807.956872969865799, 1951510.700913557549939 ], [ 3483801.449765015393496, 1951503.038663397310302 ], [ 3483794.945712675340474, 1951495.52711991337128 ], [ 3483788.2268748995848, 1951488.071627793135121 ], [ 3483786.567506053950638, 1951486.158972045173869 ], [ 3483780.253773100674152, 1951478.303211529040709 ], [ 3483778.571323290001601, 1951476.111943484982476 ], [ 3483776.879880044609308, 1951474.123827373841777 ], [ 3483769.542996083386242, 1951467.396718070376664 ], [ 3483767.683430161327124, 1951465.698986791074276 ], [ 3483764.983511263504624, 1951463.041660894872621 ], [ 3483763.226645119022578, 1951461.155332377180457 ], [ 3483756.654716250486672, 1951453.534144451841712 ], [ 3483750.361496176570654, 1951445.745482194935903 ], [ 3483743.839796123094857, 1951438.055402408819646 ], [ 3483737.535961476154625, 1951430.32903526420705 ], [ 3483735.836163162253797, 1951428.352499972097576 ], [ 3483729.03443614160642, 1951421.082308815792203 ], [ 3483726.871232417412102, 1951418.870238621486351 ], [ 3483725.043719613924623, 1951417.116730485577136 ], [ 3483717.399937747046351, 1951410.571781095350161 ], [ 3483715.399380878545344, 1951408.816832178737968 ], [ 3483713.59841466229409, 1951407.038727130042389 ], [ 3483711.941291878931224, 1951405.075259594945237 ], [ 3483708.582220167852938, 1951400.33878466184251 ], [ 3483703.057932572439313, 1951391.877212228253484 ], [ 3483697.523045327980071, 1951383.478032941929996 ], [ 3483692.079734961502254, 1951375.144302825210616 ], [ 3483690.654870052821934, 1951373.041273219510913 ], [ 3483689.134039006661624, 1951370.974403280066326 ], [ 3483687.495191279798746, 1951368.997804470360279 ], [ 3483685.703310035169125, 1951367.147572437068447 ], [ 3483682.527233073487878, 1951364.498943319078535 ], [ 3483680.450622317381203, 1951362.907978635514155 ], [ 3483678.613927078433335, 1951361.226614804007113 ], [ 3483676.440715914592147, 1951358.885071714874357 ], [ 3483674.81565335392952, 1951356.996966675855219 ], [ 3483673.268995778169483, 1951355.025188282830641 ], [ 3483668.381474907975644, 1951346.346693185158074 ], [ 3483665.16150766517967, 1951340.285630993079394 ], [ 3483661.921438009478152, 1951334.681865525897592 ], [ 3483660.433881814591587, 1951332.306821533478796 ], [ 3483654.793950306251645, 1951324.015930576715618 ], [ 3483649.133500729687512, 1951315.788983891252428 ], [ 3483647.701692125760019, 1951313.57614631508477 ], [ 3483641.826547426171601, 1951305.536275891121477 ], [ 3483635.734236117918044, 1951297.471949907019734 ], [ 3483632.178244191687554, 1951292.636205000104383 ], [ 3482244.17630515107885, 1951292.636205000104383 ], [ 3482245.225558350794017, 1951296.168229736154899 ], [ 3482247.499848491046578, 1951303.789065227843821 ], [ 3482249.803955350071192, 1951311.536076745484024 ], [ 3482252.425563863478601, 1951319.038524554576725 ], [ 3482255.047188680619001, 1951326.541070863138884 ], [ 3482257.668799163773656, 1951334.043519010767341 ], [ 3482259.797764183022082, 1951340.145115003688261 ], [ 3482262.168026461731642, 1951347.72978843585588 ], [ 3482263.919532648287714, 1951353.299079914344475 ], [ 3482264.549724492244422, 1951355.32264503906481 ], [ 3482266.919988845475018, 1951362.907318866346031 ], [ 3482267.382115526590496, 1951364.373783313902095 ], [ 3482268.736435831524432, 1951368.697814328130335 ], [ 3482271.329775758087635, 1951376.215062026400119 ], [ 3482273.921683948487043, 1951383.722460657591 ], [ 3482276.515124889090657, 1951391.239692205330357 ], [ 3482277.926406884100288, 1951395.34238808369264 ], [ 3482278.355762018822134, 1951396.794136520009488 ], [ 3482280.171001758426428, 1951402.968175430083647 ], [ 3482282.407226503826678, 1951410.605445496039465 ], [ 3482282.967992713674903, 1951412.509434231789783 ], [ 3482285.218717044685036, 1951420.17455300851725 ], [ 3482287.936206929385662, 1951427.640856640413404 ], [ 3482288.963981489650905, 1951430.455661460757256 ], [ 3482290.655343895312399, 1951435.117075017886236 ], [ 3482291.899972176644951, 1951438.541279800236225 ], [ 3482293.372934739105403, 1951442.583362483419478 ], [ 3482295.1536082951352, 1951447.491981994127855 ], [ 3482297.737170064821839, 1951455.010963142849505 ], [ 3482300.330521430820227, 1951462.528212863719091 ], [ 3482302.896508043631911, 1951469.999582092044875 ], [ 3482302.931631695944816, 1951470.094609973486513 ], [ 3482305.595829298719764, 1951477.479002635693178 ], [ 3482306.3502605156973, 1951479.582650147378445 ], [ 3482308.283716797828674, 1951484.95024037361145 ], [ 3482309.800981658510864, 1951489.14624964306131 ], [ 3482312.412710659205914, 1951496.650351342745125 ], [ 3482315.034343592822552, 1951504.152803441975266 ], [ 3482317.647507320623845, 1951511.666754733771086 ], [ 3482318.767797952052206, 1951514.879753481363878 ], [ 3482320.751791111193597, 1951520.571726551977918 ], [ 3482323.451118947472423, 1951528.051148223690689 ], [ 3482326.139013024512678, 1951535.522387095727026 ], [ 3482328.196924193762243, 1951541.232310299994424 ], [ 3482336.569839827250689, 1951550.631515745073557 ], [ 3482339.921853379812092, 1951563.278194734826684 ], [ 3482360.320092161651701, 1951614.586935748113319 ], [ 3482364.832237180322409, 1951628.028965510660782 ], [ 3482372.543371599167585, 1951648.89744565077126 ], [ 3482379.917596412822604, 1951664.798260074807331 ], [ 3482407.817888637073338, 1951739.088469780283049 ], [ 3482436.415573780424893, 1951811.658442278159782 ], [ 3482465.142156262882054, 1951870.446994765428826 ], [ 3482466.112732589244843, 1951872.242363940458745 ], [ 3482514.305625414475799, 1951967.87757350737229 ], [ 3482509.781133067794144, 1951970.92130740522407 ], [ 3482516.204836106859148, 1951984.307191528612748 ], [ 3482535.92002519313246, 1952025.359412574674934 ], [ 3482548.571217565797269, 1952051.72000696323812 ], [ 3482593.490558777470142, 1952145.318044592626393 ], [ 3482599.981731018982828, 1952155.484824749873951 ], [ 3482618.390083154663444, 1952184.104372051311657 ], [ 3482626.512814355548471, 1952196.722993396222591 ], [ 3482649.437922189943492, 1952232.357809641165659 ], [ 3482653.246080261655152, 1952238.280566294677556 ], [ 3482682.726301132701337, 1952283.970643803011626 ], [ 3482691.286241003777832, 1952297.242767953546718 ], [ 3482722.359976540319622, 1952345.401125412201509 ], [ 3482723.127762879244983, 1952349.742291702423245 ], [ 3482724.71001574350521, 1952352.333490883000195 ], [ 3482737.771063200198114, 1952373.823964427923784 ], [ 3482765.084720493294299, 1952418.714896838646382 ], [ 3482778.525608804542571, 1952440.817991740535945 ], [ 3482789.043119895271957, 1952458.111922265263274 ], [ 3482792.900114381220192, 1952464.087178040295839 ], [ 3482822.555154363624752, 1952510.050718812504783 ], [ 3482863.662389636971056, 1952581.394384362269193 ], [ 3482902.69296277500689, 1952652.842029865831137 ], [ 3482931.665902499575168, 1952704.729935785755515 ], [ 3482949.863480927422643, 1952737.147496425546706 ], [ 3482953.26109182741493, 1952738.609150381293148 ], [ 3482965.495210835244507, 1952755.052294820314273 ], [ 3482982.028050002641976, 1952775.480192471062765 ], [ 3483003.140533272176981, 1952800.653184931026772 ], [ 3483024.914836453739554, 1952828.248012683354318 ], [ 3483042.831304475665092, 1952847.840230684261769 ], [ 3483056.226520461961627, 1952864.301696582464501 ], [ 3483070.660234638955444, 1952880.973497416358441 ], [ 3483085.79798836261034, 1952899.424554024124518 ], [ 3483095.328854172956198, 1952913.059540076414123 ], [ 3483097.604531121440232, 1952918.4709343011491 ], [ 3483100.36596261896193, 1952931.629696471616626 ], [ 3483103.913233504164964, 1952940.703042206820101 ], [ 3483110.154777162242681, 1952949.267002011183649 ], [ 3483117.83781647356227, 1952956.975545539986342 ], [ 3483119.439846275374293, 1952958.58502148417756 ], [ 3483130.709402624052018, 1952966.946874724235386 ], [ 3483144.477822521701455, 1952977.848212535725906 ], [ 3483165.502446472644806, 1952999.848061319207773 ], [ 3483169.860327515751123, 1953007.08159165061079 ], [ 3483170.761717939283699, 1953013.649935309542343 ], [ 3483170.429461020510644, 1953018.951052624499425 ], [ 3483172.657209077849984, 1953023.533129333751276 ], [ 3483176.661591645330191, 1953025.367939239367843 ], [ 3483183.471341154538095, 1953027.471607492072508 ], [ 3483188.600540200248361, 1953030.59177570627071 ], [ 3483193.855899948626757, 1953033.347934014862403 ], [ 3483200.999649731442332, 1953037.595247031189501 ], [ 3483210.475298115052283, 1953047.940764414612204 ], [ 3483226.761796549893916, 1953064.505677440902218 ], [ 3483233.145674733445048, 1953070.201113029615954 ], [ 3483232.956234631128609, 1953072.310802498832345 ], [ 3483241.097611561883241, 1953073.375603193882853 ], [ 3483243.44135201536119, 1953073.681218075333163 ], [ 3483276.610184628516436, 1953078.878987562144175 ], [ 3483327.347397438716143, 1953091.913979083765298 ], [ 3483376.181535532232374, 1953102.320356145035475 ], [ 3483394.502367219887674, 1953106.380267971428111 ], [ 3483422.947168583981693, 1953112.687924908241257 ], [ 3483463.995509790256619, 1953123.594474376412109 ], [ 3483470.664331892970949, 1953124.924798192456365 ], [ 3483530.592441776301712, 1953136.892878753598779 ], [ 3483553.852350819855928, 1953140.896723489742726 ], [ 3483602.947521603666246, 1953150.109768611378968 ], [ 3483613.844202539883554, 1953153.600778896128759 ], [ 3483616.931335744448006, 1953156.395352189429104 ], [ 3483620.240704162977636, 1953158.920880503254011 ], [ 3483622.853459653910249, 1953159.322927430039272 ], [ 3483626.736878826282918, 1953158.68608354148455 ], [ 3483646.533751199953258, 1953163.024753882316872 ], [ 3483658.337045102380216, 1953165.618231295375153 ], [ 3483713.490937111433595, 1953182.54814489162527 ], [ 3483714.718614018522203, 1953182.928732193307951 ], [ 3483787.002186581492424, 1953199.143786132801324 ], [ 3483809.006195000372827, 1953204.512915222905576 ], [ 3483809.006195000372827, 1951512.039703722344711 ], [ 3483807.956872969865799, 1951510.700913557549939 ] ] ] } },
{ "type": "Feature", "properties": { "ENP_GRAL": 6.0, "ENP_GRAL_NAME": "Otros Espacios Naturales Protegidos", "color": "#7F8F0D" }, "geometry": { "type": "MultiPolygon", "coordinates": [ [ [ [ 3483807.956872969865799, 1951510.700913557549939 ], [ 3483801.449765015393496, 1951503.038663397310302 ], [ 3483794.945712675340474, 1951495.52711991337128 ], [ 3483788.2268748995848, 1951488.071627793135121 ], [ 3483786.567506053950638, 1951486.158972045173869 ], [ 3483780.253773100674152, 1951478.303211529040709 ], [ 3483778.571323290001601, 1951476.111943484982476 ], [ 3483776.879880044609308, 1951474.123827373841777 ], [ 3483769.542996083386242, 1951467.396718070376664 ], [ 3483767.683430161327124, 1951465.698986791074276 ], [ 3483764.983511263504624, 1951463.041660894872621 ], [ 3483763.226645119022578, 1951461.155332377180457 ], [ 3483756.654716250486672, 1951453.534144451841712 ], [ 3483750.361496176570654, 1951445.745482194935903 ], [ 3483743.839796123094857, 1951438.055402408819646 ], [ 3483737.535961476154625, 1951430.32903526420705 ], [ 3483735.836163162253797, 1951428.352499972097576 ], [ 3483729.03443614160642, 1951421.082308815792203 ], [ 3483726.871232417412102, 1951418.870238621486351 ], [ 3483725.043719613924623, 1951417.116730485577136 ], [ 3483717.399937747046351, 1951410.571781095350161 ], [ 3483715.399380878545344, 1951408.816832178737968 ], [ 3483713.59841466229409, 1951407.038727130042389 ], [ 3483711.941291878931224, 1951405.075259594945237 ], [ 3483708.582220167852938, 1951400.33878466184251 ], [ 3483703.057932572439313, 1951391.877212228253484 ], [ 3483697.523045327980071, 1951383.478032941929996 ], [ 3483692.079734961502254, 1951375.144302825210616 ], [ 3483690.654870052821934, 1951373.041273219510913 ], [ 3483689.134039006661624, 1951370.974403280066326 ], [ 3483687.495191279798746, 1951368.997804470360279 ], [ 3483685.703310035169125, 1951367.147572437068447 ], [ 3483682.527233073487878, 1951364.498943319078535 ], [ 3483680.450622317381203, 1951362.907978635514155 ], [ 3483678.613927078433335, 1951361.226614804007113 ], [ 3483676.440715914592147, 1951358.885071714874357 ], [ 3483674.81565335392952, 1951356.996966675855219 ], [ 3483673.268995778169483, 1951355.025188282830641 ], [ 3483668.381474907975644, 1951346.346693185158074 ], [ 3483665.16150766517967, 1951340.285630993079394 ], [ 3483661.921438009478152, 1951334.681865525897592 ], [ 3483660.433881814591587, 1951332.306821533478796 ], [ 3483654.793950306251645, 1951324.015930576715618 ], [ 3483649.133500729687512, 1951315.788983891252428 ], [ 3483647.701692125760019, 1951313.57614631508477 ], [ 3483641.826547426171601, 1951305.536275891121477 ], [ 3483635.734236117918044, 1951297.471949907019734 ], [ 3483632.178244191687554, 1951292.636205000104383 ], [ 3482244.17630515107885, 1951292.636205000104383 ], [ 3482245.225558350794017, 1951296.168229736154899 ], [ 3482247.499848491046578, 1951303.789065227843821 ], [ 3482249.803955350071192, 1951311.536076745484024 ], [ 3482252.425563863478601, 1951319.038524554576725 ], [ 3482255.047188680619001, 1951326.541070863138884 ], [ 3482257.668799163773656, 1951334.043519010767341 ], [ 3482259.797764183022082, 1951340.145115003688261 ], [ 3482262.168026461731642, 1951347.72978843585588 ], [ 3482263.919532648287714, 1951353.299079914344475 ], [ 3482264.549724492244422, 1951355.32264503906481 ], [ 3482266.919988845475018, 1951362.907318866346031 ], [ 3482267.382115526590496, 1951364.373783313902095 ], [ 3482268.736435831524432, 1951368.697814328130335 ], [ 3482271.329775758087635, 1951376.215062026400119 ], [ 3482273.921683948487043, 1951383.722460657591 ], [ 3482276.515124889090657, 1951391.239692205330357 ], [ 3482277.926406884100288, 1951395.34238808369264 ], [ 3482278.355762018822134, 1951396.794136520009488 ], [ 3482280.171001758426428, 1951402.968175430083647 ], [ 3482282.407226503826678, 1951410.605445496039465 ], [ 3482282.967992713674903, 1951412.509434231789783 ], [ 3482285.218717044685036, 1951420.17455300851725 ], [ 3482287.936206929385662, 1951427.640856640413404 ], [ 3482288.963981489650905, 1951430.455661460757256 ], [ 3482290.655343895312399, 1951435.117075017886236 ], [ 3482291.899972176644951, 1951438.541279800236225 ], [ 3482293.372934739105403, 1951442.583362483419478 ], [ 3482295.1536082951352, 1951447.491981994127855 ], [ 3482297.737170064821839, 1951455.010963142849505 ], [ 3482300.330521430820227, 1951462.528212863719091 ], [ 3482302.896508043631911, 1951469.999582092044875 ], [ 3482302.931631695944816, 1951470.094609973486513 ], [ 3482305.595829298719764, 1951477.479002635693178 ], [ 3482306.3502605156973, 1951479.582650147378445 ], [ 3482308.283716797828674, 1951484.95024037361145 ], [ 3482309.800981658510864, 1951489.14624964306131 ], [ 3482312.412710659205914, 1951496.650351342745125 ], [ 3482315.034343592822552, 1951504.152803441975266 ], [ 3482317.647507320623845, 1951511.666754733771086 ], [ 3482318.767797952052206, 1951514.879753481363878 ], [ 3482320.751791111193597, 1951520.571726551977918 ], [ 3482323.451118947472423, 1951528.051148223690689 ], [ 3482326.139013024512678, 1951535.522387095727026 ], [ 3482328.196924193762243, 1951541.232310299994424 ], [ 3482336.569839827250689, 1951550.631515745073557 ], [ 3482339.921853379812092, 1951563.278194734826684 ], [ 3482360.320092161651701, 1951614.586935748113319 ], [ 3482364.832237180322409, 1951628.028965510660782 ], [ 3482372.543371599167585, 1951648.89744565077126 ], [ 3482379.917596412822604, 1951664.798260074807331 ], [ 3482407.817888637073338, 1951739.088469780283049 ], [ 3482436.415573780424893, 1951811.658442278159782 ], [ 3482465.142156262882054, 1951870.446994765428826 ], [ 3482466.112732589244843, 1951872.242363940458745 ], [ 3482514.305625414475799, 1951967.87757350737229 ], [ 3482509.781133067794144, 1951970.92130740522407 ], [ 3482516.204836106859148, 1951984.307191528612748 ], [ 3482535.92002519313246, 1952025.359412574674934 ], [ 3482548.571217565797269, 1952051.72000696323812 ], [ 3482593.490558777470142, 1952145.318044592626393 ], [ 3482599.981731018982828, 1952155.484824749873951 ], [ 3482618.390083154663444, 1952184.104372051311657 ], [ 3482626.512814355548471, 1952196.722993396222591 ], [ 3482649.437922189943492, 1952232.357809641165659 ], [ 3482653.246080261655152, 1952238.280566294677556 ], [ 3482682.726301132701337, 1952283.970643803011626 ], [ 3482691.286241003777832, 1952297.242767953546718 ], [ 3482722.359976540319622, 1952345.401125412201509 ], [ 3482723.127762879244983, 1952349.742291702423245 ], [ 3482724.71001574350521, 1952352.333490883000195 ], [ 3482737.771063200198114, 1952373.823964427923784 ], [ 3482765.084720493294299, 1952418.714896838646382 ], [ 3482778.525608804542571, 1952440.817991740535945 ], [ 3482789.043119895271957, 1952458.111922265263274 ], [ 3482792.900114381220192, 1952464.087178040295839 ], [ 3482822.555154363624752, 1952510.050718812504783 ], [ 3482863.662389636971056, 1952581.394384362269193 ], [ 3482902.69296277500689, 1952652.842029865831137 ], [ 3482931.665902499575168, 1952704.729935785755515 ], [ 3482949.863480927422643, 1952737.147496425546706 ], [ 3482953.26109182741493, 1952738.609150381293148 ], [ 3482965.495210835244507, 1952755.052294820314273 ], [ 3482982.028050002641976, 1952775.480192471062765 ], [ 3483003.140533272176981, 1952800.653184931026772 ], [ 3483024.914836453739554, 1952828.248012683354318 ], [ 3483042.831304475665092, 1952847.840230684261769 ], [ 3483056.226520461961627, 1952864.301696582464501 ], [ 3483070.660234638955444, 1952880.973497416358441 ], [ 3483085.79798836261034, 1952899.424554024124518 ], [ 3483095.328854172956198, 1952913.059540076414123 ], [ 3483097.604531121440232, 1952918.4709343011491 ], [ 3483100.36596261896193, 1952931.629696471616626 ], [ 3483103.913233504164964, 1952940.703042206820101 ], [ 3483110.154777162242681, 1952949.267002011183649 ], [ 3483117.83781647356227, 1952956.975545539986342 ], [ 3483119.439846275374293, 1952958.58502148417756 ], [ 3483130.709402624052018, 1952966.946874724235386 ], [ 3483144.477822521701455, 1952977.848212535725906 ], [ 3483165.502446472644806, 1952999.848061319207773 ], [ 3483169.860327515751123, 1953007.08159165061079 ], [ 3483170.761717939283699, 1953013.649935309542343 ], [ 3483170.429461020510644, 1953018.951052624499425 ], [ 3483172.657209077849984, 1953023.533129333751276 ], [ 3483176.661591645330191, 1953025.367939239367843 ], [ 3483183.471341154538095, 1953027.471607492072508 ], [ 3483188.600540200248361, 1953030.59177570627071 ], [ 3483193.855899948626757, 1953033.347934014862403 ], [ 3483200.999649731442332, 1953037.595247031189501 ], [ 3483210.475298115052283, 1953047.940764414612204 ], [ 3483226.761796549893916, 1953064.505677440902218 ], [ 3483233.145674733445048, 1953070.201113029615954 ], [ 3483232.956234631128609, 1953072.310802498832345 ], [ 3483241.097611561883241, 1953073.375603193882853 ], [ 3483243.44135201536119, 1953073.681218075333163 ], [ 3483276.610184628516436, 1953078.878987562144175 ], [ 3483327.347397438716143, 1953091.913979083765298 ], [ 3483376.181535532232374, 1953102.320356145035475 ], [ 3483394.502367219887674, 1953106.380267971428111 ], [ 3483422.947168583981693, 1953112.687924908241257 ], [ 3483463.995509790256619, 1953123.594474376412109 ], [ 3483470.664331892970949, 1953124.924798192456365 ], [ 3483530.592441776301712, 1953136.892878753598779 ], [ 3483553.852350819855928, 1953140.896723489742726 ], [ 3483602.947521603666246, 1953150.109768611378968 ], [ 3483613.844202539883554, 1953153.600778896128759 ], [ 3483616.931335744448006, 1953156.395352189429104 ], [ 3483620.240704162977636, 1953158.920880503254011 ], [ 3483622.853459653910249, 1953159.322927430039272 ], [ 3483626.736878826282918, 1953158.68608354148455 ], [ 3483646.533751199953258, 1953163.024753882316872 ], [ 3483658.337045102380216, 1953165.618231295375153 ], [ 3483713.490937111433595, 1953182.54814489162527 ], [ 3483714.718614018522203, 1953182.928732193307951 ], [ 3483787.002186581492424, 1953199.143786132801324 ], [ 3483809.006195000372827, 1953204.512915222905576 ], [ 3483809.006195000372827, 1951512.039703722344711 ], [ 3483807.956872969865799, 1951510.700913557549939 ] ] ], [ [ [ 3467135.953790061175823, 1962043.998801816953346 ], [ 3467135.530887702479959, 1962043.696329614613205 ], [ 3467135.060685895849019, 1962043.472225145436823 ], [ 3467134.557471484877169, 1962043.333297722274438 ], [ 3467134.036534385755658, 1962043.283768581459299 ], [ 3467133.513703008182347, 1962043.325142643647268 ], [ 3467133.004863320384175, 1962043.456162779126316 ], [ 3467132.525476160924882, 1962043.672848012065515 ], [ 3467132.09010746749118, 1962043.968614468351007 ], [ 3467131.711985698435456, 1962044.334475430194288 ], [ 3467131.402599895372987, 1962044.759314404102042 ], [ 3467131.171350589953363, 1962045.230222866637632 ], [ 3467131.025264176540077, 1962045.732892502564937 ], [ 3467130.968779415823519, 1962046.252049946924672 ], [ 3467131.003612569533288, 1962046.771920860046521 ], [ 3467131.128705247770995, 1962047.276709228055552 ], [ 3467131.340256571769714, 1962047.751077311113477 ], [ 3467131.631838659290224, 1962048.180611674673855 ], [ 3467131.994591934140772, 1962048.552261129487306 ], [ 3467132.417494321707636, 1962048.854733306914568 ], [ 3467132.887696142774075, 1962049.07883772929199 ], [ 3467133.390910555142909, 1962049.217765111709014 ], [ 3467133.911847641691566, 1962049.267294215038419 ], [ 3467134.434678994119167, 1962049.225920124677941 ], [ 3467134.94351864606142, 1962049.094899961259216 ], [ 3467135.422905765473843, 1962048.878214722266421 ], [ 3467135.858274418395013, 1962048.582448275061324 ], [ 3467136.236396150663495, 1962048.216587332077324 ], [ 3467136.545781926251948, 1962047.791748390765861 ], [ 3467136.777031216304749, 1962047.320839964784682 ], [ 3467136.923117628321052, 1962046.818170370999724 ], [ 3467136.979602401610464, 1962046.299012965988368 ], [ 3467136.944769273512065, 1962045.779142081504688 ], [ 3467136.819676630198956, 1962045.274353737244383 ], [ 3467136.608125346712768, 1962044.799985661404207 ], [ 3467136.31654329970479, 1962044.370451289694756 ], [ 3467135.953790061175823, 1962043.998801816953346 ] ] ] ] } }
]
}
