{
"type": "FeatureCollection",
"name": "Granja_de_Rocamora",
"crs": { "type": "name", "properties": { "name": "urn:ogc:def:crs:EPSG::3035" } },
"features": [
{ "type": "Feature", "properties": { "ENP_GRAL": 6.0, "ENP_GRAL_NAME": "Otros Espacios Naturales Protegidos", "color": "#7F8F0D" }, "geometry": { "type": "MultiPolygon", "coordinates": [ [ [ [ 3363800.231736090965569, 1740434.050350630423054 ], [ 3363804.106910657603294, 1740439.449566905619577 ], [ 3363877.161100536584854, 1740526.825503832427785 ], [ 3363922.723229405935854, 1740531.290425615152344 ], [ 3363929.590889174025506, 1740531.963422866072506 ], [ 3363931.699167781509459, 1740519.15609362302348 ], [ 3363926.760409022215754, 1740507.716201361035928 ], [ 3363921.079434599727392, 1740494.026646117912605 ], [ 3363906.371916436590254, 1740473.5345281988848 ], [ 3363877.784997599665076, 1740445.86120352242142 ], [ 3363856.981460417620838, 1740429.945035857381299 ], [ 3363836.47800175100565, 1740423.868347093928605 ], [ 3363822.524755594320595, 1740421.446870926069096 ], [ 3363803.292321386747062, 1740421.091765621677041 ], [ 3363792.178207926917821, 1740412.091810000594705 ], [ 3363774.541378125548363, 1740412.091810000594705 ], [ 3363800.231736090965569, 1740434.050350630423054 ] ] ], [ [ [ 3360590.831027174834162, 1740435.196497074095532 ], [ 3360585.835138567723334, 1740441.518387823132798 ], [ 3360554.737267620395869, 1740456.689819937339053 ], [ 3360536.848909868858755, 1740465.416682623559609 ], [ 3360513.131359060760587, 1740477.666124881478027 ], [ 3360497.202713392209262, 1740485.740091729676351 ], [ 3360449.782333839219064, 1740465.396324103698134 ], [ 3360438.603772402275354, 1740463.387088225688785 ], [ 3360395.289939906913787, 1740429.769848371855915 ], [ 3360372.512529753614217, 1740412.091810000594705 ], [ 3360312.108246736694127, 1740412.091810000594705 ], [ 3360265.170952703338116, 1740448.150503224460408 ], [ 3360254.112802545074373, 1740454.365950489649549 ], [ 3360250.184680009260774, 1740450.145601598545909 ], [ 3360243.148789272177964, 1740454.664114183047786 ], [ 3360240.585251731332392, 1740456.340987967560068 ], [ 3360227.025301455054432, 1740464.194310207851231 ], [ 3360211.337229796685278, 1740474.578782920725644 ], [ 3360199.454785653855652, 1740483.089441208401695 ], [ 3360194.091497035231441, 1740487.097212796332315 ], [ 3360184.756970788817853, 1740491.757131334627047 ], [ 3360177.228696240577847, 1740491.773282635724172 ], [ 3360157.242351066321135, 1740490.441108425613493 ], [ 3360124.52725566085428, 1740489.992415831424296 ], [ 3360107.016322973184288, 1740490.413775415392593 ], [ 3360097.564890688750893, 1740492.302316344575956 ], [ 3360075.276711263228208, 1740498.507858034688979 ], [ 3360057.367355295456946, 1740504.597836245084181 ], [ 3360040.56657205009833, 1740511.752363202162087 ], [ 3360032.791131657082587, 1740514.288312735036016 ], [ 3360026.837643262464553, 1740514.354236172279343 ], [ 3360023.662541700527072, 1740512.082635137019679 ], [ 3360020.036302794702351, 1740506.78291257773526 ], [ 3360017.246060046367347, 1740502.895557392388582 ], [ 3360011.496969971805811, 1740496.085813667858019 ], [ 3360004.542878466658294, 1740491.653493961784989 ], [ 3359996.382174282334745, 1740489.588691001059487 ], [ 3359983.632852388080209, 1740490.203493476146832 ], [ 3359978.641440308652818, 1740495.650589450960979 ], [ 3359962.036014950834215, 1740515.044834685046226 ], [ 3359946.289259657729417, 1740535.132301020435989 ], [ 3359935.769394208211452, 1740549.582166350679472 ], [ 3359923.336875598877668, 1740565.237673892173916 ], [ 3359908.533335818909109, 1740581.963774810312316 ], [ 3359899.05214168690145, 1740591.273065914632753 ], [ 3359886.460094154346734, 1740602.340571719221771 ], [ 3359871.247768469620496, 1740615.981137388153002 ], [ 3359856.110662373248488, 1740631.986973589286208 ], [ 3359847.13328710058704, 1740640.728734407108277 ], [ 3359833.085211453959346, 1740655.66630423697643 ], [ 3359828.727841833140701, 1740659.39567574323155 ], [ 3359816.679990350268781, 1740668.891225974541157 ], [ 3359815.96873432956636, 1740669.433026482118294 ], [ 3359806.290943340864033, 1740676.850766198942438 ], [ 3359792.878405931405723, 1740686.473258446203545 ], [ 3359790.237248782534152, 1740688.3747204891406 ], [ 3359779.590139060746878, 1740695.107650462538004 ], [ 3359771.426503182388842, 1740701.716705474071205 ], [ 3359782.188205065205693, 1740708.455349816475064 ], [ 3359936.829782916232944, 1740794.964142259676009 ], [ 3359915.70843259524554, 1740854.661684142425656 ], [ 3359775.849718741606921, 1740862.197050572140142 ], [ 3359765.156524803489447, 1740902.208633719710633 ], [ 3359854.326004276052117, 1740925.564132434083149 ], [ 3359838.428202290087938, 1740958.108887519920245 ], [ 3359818.72012503631413, 1741014.954208103008568 ], [ 3359799.012024342082441, 1741071.799509822623804 ], [ 3359794.016708687879145, 1741102.472443401813507 ], [ 3359783.262642132584006, 1741165.119427430676296 ], [ 3359777.503908532205969, 1741197.09357775375247 ], [ 3359779.703111838083714, 1741209.760034512961283 ], [ 3359785.624465253669769, 1741240.914656331529841 ], [ 3359789.346618770156056, 1741259.402822504285723 ], [ 3359803.958607716485858, 1741311.899669531034306 ], [ 3359819.607364804018289, 1741344.94842843292281 ], [ 3359808.372834119945765, 1741386.168804466491565 ], [ 3359795.080965836998075, 1741434.926476594759151 ], [ 3359834.454346819780767, 1741463.051032401854172 ], [ 3359833.36033612722531, 1741498.856985347578302 ], [ 3359832.234115999191999, 1741535.786761534167454 ], [ 3359870.547238114289939, 1741570.980132590746507 ], [ 3359866.50438654050231, 1741604.562547865789384 ], [ 3359862.461448172107339, 1741638.144895171746612 ], [ 3359862.349464224651456, 1741639.002397825941443 ], [ 3359864.290030907839537, 1741639.059120694641024 ], [ 3359865.885398370213807, 1741639.11044066818431 ], [ 3359867.480765834450722, 1741639.161760708317161 ], [ 3359868.848065465223044, 1741639.18562377570197 ], [ 3359871.350368136540055, 1741639.211535488953814 ], [ 3359872.485386146232486, 1741639.213682395871729 ], [ 3359874.312204714864492, 1741639.181059650843963 ], [ 3359875.453128150198609, 1741639.121765817049891 ], [ 3359876.594051589723676, 1741639.06247201981023 ], [ 3359882.209251621738076, 1741638.680055781500414 ], [ 3359888.286880160681903, 1741638.2609220915474 ], [ 3359884.894707317464054, 1741648.459306691773236 ], [ 3359886.23096219683066, 1741652.286995260044932 ], [ 3359886.335415354464203, 1741652.571854359237477 ], [ 3359889.124816291965544, 1741659.593000860884786 ], [ 3359892.450952615123242, 1741668.600386406062171 ], [ 3359892.766302080824971, 1741670.069267315091565 ], [ 3359893.552475431933999, 1741674.89543675724417 ], [ 3359893.534166153520346, 1741676.178141125710681 ], [ 3359893.30727900378406, 1741677.294112048344687 ], [ 3359892.78187938593328, 1741678.721844274085015 ], [ 3359891.966230573132634, 1741680.248363893013448 ], [ 3359890.295963983982801, 1741682.844507700763643 ], [ 3359889.252277920953929, 1741684.076551593840122 ], [ 3359884.707889387849718, 1741689.116756835952401 ], [ 3359881.568564439658076, 1741692.290317006409168 ], [ 3359876.094780935905874, 1741698.110340958228335 ], [ 3359873.897008112631738, 1741700.784287348389626 ], [ 3359870.941374116577208, 1741704.763521508313715 ], [ 3359870.426125026773661, 1741705.857054273597896 ], [ 3359869.44557822169736, 1741708.438828924670815 ], [ 3359866.16775869531557, 1741717.650861705187708 ], [ 3359864.654152886010706, 1741721.576002688147128 ], [ 3359865.050814857240766, 1741725.400392494164407 ], [ 3359865.322466509416699, 1741728.629282737383619 ], [ 3359864.595365718472749, 1741732.534087078180164 ], [ 3359863.162825467064977, 1741736.629293834092095 ], [ 3359860.905947093851864, 1741740.134396282956004 ], [ 3359857.677407643757761, 1741742.564623181940988 ], [ 3359855.042203084565699, 1741743.58621485112235 ], [ 3359852.04481141641736, 1741744.158870581304654 ], [ 3359848.932534751016647, 1741744.459692190634087 ], [ 3359845.944647424854338, 1741743.648436220129952 ], [ 3359842.052724152803421, 1741741.241583217866719 ], [ 3359839.506735394243151, 1741738.028264118358493 ], [ 3359838.260839434340596, 1741734.67086312151514 ], [ 3359837.96355764195323, 1741730.791406951379031 ], [ 3359838.727208524011075, 1741727.608194145839661 ], [ 3359841.379214990884066, 1741723.74015009123832 ], [ 3359838.85039718542248, 1741720.433787230169401 ], [ 3359843.626139574684203, 1741716.110685036052018 ], [ 3359843.916777853854001, 1741715.880844198865816 ], [ 3359847.25428864499554, 1741713.540659552905709 ], [ 3359850.252371690236032, 1741711.710606073727831 ], [ 3359854.177815262228251, 1741709.020567667903379 ], [ 3359855.904236512258649, 1741707.59404698270373 ], [ 3359861.988293788861483, 1741702.307023964822292 ], [ 3359882.109560127370059, 1741684.552411207929254 ], [ 3359882.850243006832898, 1741683.602649411885068 ], [ 3359885.956369343213737, 1741679.27588783740066 ], [ 3359886.985701158177108, 1741677.481982408557087 ], [ 3359887.418397465255111, 1741676.18054689350538 ], [ 3359887.740653004031628, 1741674.554946904769167 ], [ 3359887.927020777482539, 1741672.438134632073343 ], [ 3359887.844424346927553, 1741670.960663363570347 ], [ 3359887.48634479008615, 1741668.944729405455291 ], [ 3359886.503202931955457, 1741664.695412907050923 ], [ 3359885.382944404147565, 1741660.88208026997745 ], [ 3359884.373699579387903, 1741658.198996563674882 ], [ 3359881.424117438495159, 1741650.126333383377641 ], [ 3359872.013858918100595, 1741651.816777284955606 ], [ 3359865.300861339084804, 1741657.551268952200189 ], [ 3359858.587750956881791, 1741663.285681152250618 ], [ 3359853.180600990541279, 1741668.540413085138425 ], [ 3359816.138504615984857, 1741709.359897061251104 ], [ 3359803.211874240078032, 1741724.574424041900784 ], [ 3359788.604189374484122, 1741740.84518602467142 ], [ 3359777.415613711345941, 1741751.971202705055475 ], [ 3359778.208916760515422, 1741756.075857199262828 ], [ 3359778.944295302964747, 1741759.867740203393623 ], [ 3359774.946429496631026, 1741761.380901642143726 ], [ 3359770.948563858866692, 1741762.894063633400947 ], [ 3359765.092360273003578, 1741765.20091567421332 ], [ 3359749.050122421700507, 1741772.723265787120908 ], [ 3359745.821812604553998, 1741776.275937787955627 ], [ 3359748.616294003091753, 1741821.110051058232784 ], [ 3359856.618357219267637, 1741869.527104991488159 ], [ 3359894.765972385182977, 1741810.114277489716187 ], [ 3360014.045809078961611, 1741880.923571318155155 ], [ 3360018.840601152274758, 1741861.346873149042949 ], [ 3360018.676633037161082, 1741857.480147509369999 ], [ 3360041.474916830193251, 1741759.971298679243773 ], [ 3360062.077732501551509, 1741708.170459253713489 ], [ 3360101.686878219712526, 1741654.207446981919929 ], [ 3360132.829606072511524, 1741624.831108900019899 ], [ 3360214.01661684922874, 1741496.425456443801522 ], [ 3360232.241532122250646, 1741449.051973473047838 ], [ 3360223.471455442719162, 1741344.717913787113503 ], [ 3360228.101431977935135, 1741301.627094424795359 ], [ 3360245.893730112351477, 1741271.454853278817609 ], [ 3360277.280929534230381, 1741237.000351045280695 ], [ 3360322.562590240966529, 1741200.228767615742981 ], [ 3360338.763905645813793, 1741166.292028598953038 ], [ 3360339.235748718958348, 1741135.985734504880384 ], [ 3360284.735572165809572, 1741065.475498682819307 ], [ 3360273.69161811331287, 1741033.059447609353811 ], [ 3360268.023977839853615, 1740835.511251349002123 ], [ 3360280.539121911861002, 1740784.052795360563323 ], [ 3360302.002270669210702, 1740751.253710795426741 ], [ 3360379.231920612044632, 1740697.064278659410775 ], [ 3360609.244732090737671, 1740610.344814396928996 ], [ 3360633.796018363442272, 1740591.137192455586046 ], [ 3360697.793114938773215, 1740496.837462463416159 ], [ 3360745.044830805622041, 1740439.587646087864414 ], [ 3360782.844370958860964, 1740412.091810000594705 ], [ 3360592.049738308880478, 1740412.091810000594705 ], [ 3360590.831027174834162, 1740435.196497074095532 ] ] ], [ [ [ 3362436.730417471844703, 1741539.821391966193914 ], [ 3362436.308095335029066, 1741539.519226601812989 ], [ 3362435.838073845952749, 1741539.295369087252766 ], [ 3362435.334634368307889, 1741539.156621208647266 ], [ 3362434.813073656056076, 1741539.10719876200892 ], [ 3362434.28923906898126, 1741539.148603421868756 ], [ 3362433.779047056566924, 1741539.279577126959339 ], [ 3362433.297999547794461, 1741539.496140317525715 ], [ 3362432.860712928697467, 1741539.791712820297107 ], [ 3362432.48047393374145, 1741540.157313819276169 ], [ 3362432.168835934251547, 1741540.581834711134434 ], [ 3362431.935267894063145, 1741541.052376638399437 ], [ 3362431.786866660229862, 1741541.554642426548526 ], [ 3362431.728141329716891, 1741542.073370979633182 ], [ 3362431.760876240208745, 1741542.592800992075354 ], [ 3362431.884076756425202, 1741543.097149838926271 ], [ 3362432.093999492004514, 1741543.571093140169978 ], [ 3362432.384266048669815, 1741544.00023036939092 ], [ 3362432.746056823059916, 1741544.37152240681462 ], [ 3362433.168378982692957, 1741544.673687738599256 ], [ 3362433.638400482479483, 1741544.897545215906575 ], [ 3362434.141839955933392, 1741545.036293051438406 ], [ 3362434.66340064862743, 1741545.085715456167236 ], [ 3362435.187235206831247, 1741545.044310774188489 ], [ 3362435.697427180595696, 1741544.913337049540132 ], [ 3362436.178474646992981, 1741544.696773853385821 ], [ 3362436.615761226974428, 1741544.401201367378235 ], [ 3362436.996000187471509, 1741544.035600391682237 ], [ 3362437.307638164144009, 1741543.61107953870669 ], [ 3362437.541206194087863, 1741543.140537648461759 ], [ 3362437.689607432577759, 1741542.638271902222186 ], [ 3362437.748332781717181, 1741542.119543386390433 ], [ 3362437.715597901493311, 1741541.600113404216245 ], [ 3362437.59239742346108, 1741541.095764574361965 ], [ 3362437.382474729325622, 1741540.621821271954104 ], [ 3362437.092208213172853, 1741540.192684033419937 ], [ 3362436.730417471844703, 1741539.821391966193914 ] ] ] ] } }
]
}
