{
"type": "FeatureCollection",
"name": "Montesinos,_Los",
"crs": { "type": "name", "properties": { "name": "urn:ogc:def:crs:EPSG::3035" } },
"features": [
{ "type": "Feature", "properties": { "ENP_GRAL": 1.0, "ENP_GRAL_NAME": "Otros Parques", "color": "#38A800" }, "geometry": { "type": "Polygon", "coordinates": [ [ [ 3377318.404022941831499, 1726780.542402808554471 ], [ 3377307.599905158858746, 1726775.276465256232768 ], [ 3377301.842055680695921, 1726763.300444731255993 ], [ 3377299.30332893319428, 1726755.231514746556059 ], [ 3377293.086074138525873, 1726738.356239552376792 ], [ 3377286.21785903070122, 1726719.272628496633843 ], [ 3377280.317580733913928, 1726703.981408787192777 ], [ 3377274.417306266725063, 1726688.690190337365493 ], [ 3377270.818307877518237, 1726681.613192129647359 ], [ 3377267.219210946932435, 1726674.536210699239746 ], [ 3377263.53325623087585, 1726664.542711522663012 ], [ 3377259.847402442246675, 1726654.549196403240785 ], [ 3377252.434062044136226, 1726636.533016693079844 ], [ 3377245.020741757936776, 1726618.516936976695433 ], [ 3377231.520234230905771, 1726590.946365958312526 ], [ 3377227.949444933328778, 1726586.533759168582037 ], [ 3377222.894195754546672, 1726575.498620692407712 ], [ 3377216.836585479788482, 1726562.35369783337228 ], [ 3377207.939278392586857, 1726546.12510925764218 ], [ 3377198.702028844505548, 1726527.122761401347816 ], [ 3377190.720567987300456, 1726506.672895148396492 ], [ 3377172.877669444307685, 1726463.648199235787615 ], [ 3377170.589232400991023, 1726458.498874117154628 ], [ 3377167.372825375758111, 1726452.869038407923654 ], [ 3377164.764926967676729, 1726448.29651356022805 ], [ 3377162.571015171706676, 1726443.83642584620975 ], [ 3377160.191831209231168, 1726437.755409646546468 ], [ 3377158.33653288660571, 1726433.581529679708183 ], [ 3377152.909261084161699, 1726429.233322291867808 ], [ 3377160.935863352380693, 1726417.195944369304925 ], [ 3377192.790191977284849, 1726368.827796947211027 ], [ 3377241.59126930590719, 1726298.095672578783706 ], [ 3377264.147703805007041, 1726265.161134432535619 ], [ 3377309.287667547352612, 1726198.33086270140484 ], [ 3377352.025632754899561, 1726133.440689441747963 ], [ 3377415.50044, 1726041.332186022773385 ], [ 3377415.50044, 1724535.002472460269928 ], [ 3377336.765770731493831, 1724550.073053314583376 ], [ 3377241.397451361641288, 1724356.158387799048796 ], [ 3377254.401661459822208, 1724336.977966425009072 ], [ 3377346.557070970535278, 1724048.826757442671806 ], [ 3377415.50044, 1723947.735112086869776 ], [ 3377415.50044, 1723916.043859998928383 ], [ 3373264.287385497242212, 1723916.043859998928383 ], [ 3373255.517099626362324, 1723929.313852610066533 ], [ 3373239.530641785357147, 1723955.125900279264897 ], [ 3373219.745321932714432, 1723986.413877681829035 ], [ 3373209.95415510609746, 1723999.744578807381913 ], [ 3373205.268089989200234, 1724008.157878808677197 ], [ 3373202.414000044111162, 1724017.777587768621743 ], [ 3373201.196401546709239, 1724022.057395572541282 ], [ 3373200.050474517978728, 1724026.33869044855237 ], [ 3373198.632013743277639, 1724032.879521240247414 ], [ 3373200.285909672733396, 1724045.577567453496158 ], [ 3373207.319413750432432, 1724073.45669126836583 ], [ 3373214.478507704567164, 1724103.168321847217157 ], [ 3373221.867194744758308, 1724131.844570676563308 ], [ 3373232.213665792252868, 1724164.984826151980087 ], [ 3373237.976861303672194, 1724189.459272232372314 ], [ 3373241.888817045837641, 1724200.472650784766302 ], [ 3373246.890192685183138, 1724208.273400137433782 ], [ 3373253.088208845350891, 1724215.442209094762802 ], [ 3373257.386625332292169, 1724233.623154632747173 ], [ 3373266.848496049176902, 1724270.989738896023482 ], [ 3373274.965240808203816, 1724305.598399460548535 ], [ 3373282.277271198574454, 1724336.382440173765644 ], [ 3373291.817502422258258, 1724376.475558273261413 ], [ 3373302.377198445610702, 1724422.140409246785566 ], [ 3373312.364409767091274, 1724461.22267727041617 ], [ 3373322.974751960486174, 1724491.609773679869249 ], [ 3373334.683737562038004, 1724519.44736457709223 ], [ 3373339.495504486374557, 1724528.679667478660122 ], [ 3373346.090431310236454, 1724541.342364099575207 ], [ 3373359.270475209224969, 1724562.449059234000742 ], [ 3373366.625996244139969, 1724566.383756671100855 ], [ 3373370.589184995740652, 1724570.096519880229607 ], [ 3373371.462034053169191, 1724575.440803697099909 ], [ 3373371.418434407096356, 1724575.689780140295625 ], [ 3373370.611437487415969, 1724580.628191908122972 ], [ 3373369.555540991015732, 1724584.530343366554007 ], [ 3373370.488930473104119, 1724592.886214349651709 ], [ 3373377.629583408124745, 1724606.193503214977682 ], [ 3373395.295651937369257, 1724632.980816379655153 ], [ 3373409.209857017267495, 1724657.178553043399006 ], [ 3373417.545176242478192, 1724671.717581797391176 ], [ 3373419.858060962054878, 1724675.754934903932735 ], [ 3373429.235673754476011, 1724688.579630243824795 ], [ 3373457.663817419670522, 1724732.615052125882357 ], [ 3373471.118734132498503, 1724758.07764343265444 ], [ 3373488.965612603351474, 1724785.116969463648275 ], [ 3373503.695564661175013, 1724809.793691264465451 ], [ 3373513.41092297481373, 1724826.248694396810606 ], [ 3373518.888448883313686, 1724836.981941323727369 ], [ 3373526.727002736181021, 1724857.495657271472737 ], [ 3373538.120217057876289, 1724892.164373268606141 ], [ 3373550.274615066125989, 1724924.541097992565483 ], [ 3373559.637899083085358, 1724947.923945616465062 ], [ 3373569.260490434244275, 1724973.147106607444584 ], [ 3373570.862771595828235, 1724979.206190824275836 ], [ 3373592.987917199265212, 1725043.184388630790636 ], [ 3373595.900463058147579, 1725051.503512039547786 ], [ 3373599.392885840497911, 1725060.491765956394374 ], [ 3373601.442883662879467, 1725066.214581972686574 ], [ 3373602.646381397731602, 1725070.18438622681424 ], [ 3373604.236096626147628, 1725077.232638251269236 ], [ 3373604.724936748389155, 1725079.98169481055811 ], [ 3373604.910507586784661, 1725083.949519128073007 ], [ 3373604.777938831131905, 1725088.302590392064303 ], [ 3373602.32755376631394, 1725110.828303320799023 ], [ 3373600.161849397234619, 1725128.461991953896359 ], [ 3373597.996592714451253, 1725148.643777542514727 ], [ 3373596.288874773774296, 1725166.946717247599736 ], [ 3373595.590194439981133, 1725173.468738170573488 ], [ 3373589.321343431249261, 1725214.940271483967081 ], [ 3373585.404498741030693, 1725239.603288903832436 ], [ 3373584.54055851791054, 1725244.702379888854921 ], [ 3373577.538597996346653, 1725303.38824868015945 ], [ 3373576.833381513133645, 1725309.599131440045312 ], [ 3373574.645945626776665, 1725324.073809976456687 ], [ 3373574.019779185764492, 1725327.723285220563412 ], [ 3373572.413770538754761, 1725334.234940060181543 ], [ 3373570.728008134756237, 1725339.752625567605719 ], [ 3373569.508596010040492, 1725344.588483597384766 ], [ 3373567.886436027940363, 1725352.935970906633884 ], [ 3373566.926049873232841, 1725359.007960933027789 ], [ 3373564.183092517778277, 1725383.425511093111709 ], [ 3373563.814053206238896, 1725387.092696201754734 ], [ 3373562.853398084174842, 1725392.358955398201942 ], [ 3373561.987436613999307, 1725395.83676554216072 ], [ 3373560.924916746094823, 1725399.024926959071308 ], [ 3373559.708714668639004, 1725401.60407533403486 ], [ 3373558.557768270373344, 1725403.406889918725938 ], [ 3373557.245393385179341, 1725404.884001273429021 ], [ 3373554.58215514710173, 1725407.048913045087829 ], [ 3373550.386334971990436, 1725409.710333912400529 ], [ 3373546.613184590823948, 1725411.737372779054567 ], [ 3373541.853688673581928, 1725413.837666639359668 ], [ 3373533.491045197471976, 1725416.939600035082549 ], [ 3373529.084846663754433, 1725418.41714167362079 ], [ 3373528.620786499697715, 1725419.984948808792979 ], [ 3373528.774919796269387, 1725422.205446721054614 ], [ 3373528.829619599040598, 1725422.498524414375424 ], [ 3373529.38158600917086, 1725423.988144561648369 ], [ 3373530.085820432752371, 1725425.140222083544359 ], [ 3373533.395762445870787, 1725429.392239747801796 ], [ 3373510.434512310195714, 1725640.789411724545062 ], [ 3373552.07137083588168, 1725745.370051295263693 ], [ 3373653.378880663774908, 1725674.446647924836725 ], [ 3373728.880370300263166, 1725780.929307183716446 ], [ 3373730.039003934711218, 1725781.325597983552143 ], [ 3373731.500062605831772, 1725782.100108197890222 ], [ 3373732.679739538114518, 1725783.032171579543501 ], [ 3373733.977704537566751, 1725784.407903105020523 ], [ 3373735.780785817652941, 1725786.696852586930618 ], [ 3373737.286053044721484, 1725789.035190162248909 ], [ 3373738.747812154237181, 1725791.824038313468918 ], [ 3373740.641484029591084, 1725795.981448936741799 ], [ 3373744.37625234015286, 1725803.549586846260354 ], [ 3373745.46881334669888, 1725805.181041290750727 ], [ 3373758.685178384184837, 1725825.385467968415469 ], [ 3373760.20799120189622, 1725828.17424375237897 ], [ 3373767.371345665771514, 1725841.83031691564247 ], [ 3373769.781978342682123, 1725846.979557574493811 ], [ 3373774.557357526384294, 1725857.779206089908257 ], [ 3373778.985671518370509, 1725867.165875413455069 ], [ 3373789.312137556262314, 1725888.444901742739603 ], [ 3373790.684334793593735, 1725890.644197554327548 ], [ 3373798.494397177826613, 1725902.661926466505975 ], [ 3373799.885280082467943, 1725904.31431516027078 ], [ 3373809.920836780685931, 1725915.841260254848748 ], [ 3373812.04150313558057, 1725917.875992858083919 ], [ 3373816.966281890869141, 1725922.95998331415467 ], [ 3373822.415917900856584, 1725928.953812062041834 ], [ 3373836.961350397206843, 1725944.57610916881822 ], [ 3373840.430167267099023, 1725947.847297535976395 ], [ 3373844.453874916303903, 1725951.288157735485584 ], [ 3373851.565849921666086, 1725957.036071496084332 ], [ 3373866.567088869400322, 1725968.825672635110095 ], [ 3373870.047899964265525, 1725971.238625030266121 ], [ 3373871.534473211038858, 1725972.583018171600997 ], [ 3373871.673066142946482, 1725972.892373115755618 ], [ 3373877.914269880857319, 1725977.062627969076857 ], [ 3373884.688219221774489, 1725982.796209938125685 ], [ 3373885.72883915156126, 1725983.549837151775137 ], [ 3373899.947197670117021, 1725993.535762128885835 ], [ 3373915.090112605597824, 1726004.516194671625271 ], [ 3373916.991281446069479, 1726006.244947516126558 ], [ 3373919.076874991878867, 1726008.517073503229767 ], [ 3373926.064961653668433, 1726016.531700608553365 ], [ 3373936.604391766246408, 1726028.226743663428351 ], [ 3373939.00755308335647, 1726030.446200484642759 ], [ 3373967.131138852331787, 1726056.060024438658729 ], [ 3373980.282384519465268, 1726067.663525499403477 ], [ 3373996.325944433454424, 1726082.160626661032438 ], [ 3374000.503765038680285, 1726086.280947436345741 ], [ 3374013.510875024367124, 1726098.744405690580606 ], [ 3374031.300292372703552, 1726116.224897823762149 ], [ 3374033.82629355834797, 1726119.118933337042108 ], [ 3374038.351294556632638, 1726123.916741549503058 ], [ 3374047.500099968165159, 1726133.224190752021968 ], [ 3374049.563080948777497, 1726134.946203947532922 ], [ 3374058.103695437312126, 1726142.461027966113761 ], [ 3374063.194078507367522, 1726147.295929248910397 ], [ 3374098.580865928903222, 1726181.261385733028874 ], [ 3374106.524551245383918, 1726189.268326911376789 ], [ 3374113.585649141576141, 1726196.02177946944721 ], [ 3374143.289037853013724, 1726224.062467909883708 ], [ 3374179.688875964842737, 1726257.930139548843727 ], [ 3374181.030294529162347, 1726258.654033965198323 ], [ 3374184.375299728941172, 1726260.173093240475282 ], [ 3374213.503915869630873, 1726273.110251832986251 ], [ 3374235.453569545410573, 1726283.141009954968467 ], [ 3374238.15827349293977, 1726284.66574617032893 ], [ 3374254.180443730205297, 1726293.395051930798218 ], [ 3374258.754152950365096, 1726295.565989977214485 ], [ 3374275.090773980133235, 1726303.61856949958019 ], [ 3374277.447004415560514, 1726305.060199927072972 ], [ 3374281.656528936233371, 1726307.311899990774691 ], [ 3374294.13574776193127, 1726313.688827827107161 ], [ 3374310.93427602108568, 1726322.571169685572386 ], [ 3374316.639709371607751, 1726325.893773176940158 ], [ 3374327.117120175622404, 1726332.291097194422036 ], [ 3374340.483461208175868, 1726340.152335440041497 ], [ 3374347.700992047786713, 1726344.049511438468471 ], [ 3374372.641538459341973, 1726357.823771682800725 ], [ 3374386.354338106699288, 1726365.687885302584618 ], [ 3374406.710625772830099, 1726377.02081200084649 ], [ 3374411.492977897636592, 1726379.358639841433614 ], [ 3374420.050569197162986, 1726383.234602412674576 ], [ 3374447.851417538244277, 1726396.140802317066118 ], [ 3374454.726723155938089, 1726399.661749039310962 ], [ 3374461.873711169697344, 1726403.631195273948833 ], [ 3374483.807431242894381, 1726416.102086023893207 ], [ 3374492.394781412556767, 1726421.312726387288421 ], [ 3374509.346068492159247, 1726431.267620746046305 ], [ 3374513.453790397848934, 1726433.385169370565563 ], [ 3374537.677229907829314, 1726446.190750427544117 ], [ 3374542.639867851510644, 1726449.113041189266369 ], [ 3374557.892164114397019, 1726457.799125086516142 ], [ 3374563.420701219700277, 1726460.627287317300215 ], [ 3374574.483954849652946, 1726465.99069245532155 ], [ 3374580.675980624742806, 1726468.69853936554864 ], [ 3374596.542250385973603, 1726475.93293316103518 ], [ 3374599.858165791258216, 1726477.72880184953101 ], [ 3374605.706267677247524, 1726480.58444788493216 ], [ 3374615.827179813757539, 1726485.238224914530292 ], [ 3374620.306925753131509, 1726486.991697862045839 ], [ 3374623.917338587809354, 1726488.114154662005603 ], [ 3374629.737286350689828, 1726489.645043730735779 ], [ 3374645.978545872494578, 1726493.654455270152539 ], [ 3374706.432498090900481, 1726508.870530792279169 ], [ 3374712.040437801741064, 1726510.547350402222946 ], [ 3374722.82883930252865, 1726513.498825053451583 ], [ 3374731.186726867221296, 1726515.524507509544492 ], [ 3374739.915041045751423, 1726517.911778335692361 ], [ 3374761.84089376218617, 1726524.169607735006139 ], [ 3374768.00100736413151, 1726526.197866376489401 ], [ 3374775.863838342484087, 1726529.051259624073282 ], [ 3374783.069792715832591, 1726531.39928913442418 ], [ 3374792.195005967281759, 1726534.657341740792617 ], [ 3374796.889265099540353, 1726536.617022685473785 ], [ 3374805.134882709011436, 1726539.779391258489341 ], [ 3374813.731380023993552, 1726542.772767225746065 ], [ 3374831.794762230478227, 1726549.329833711264655 ], [ 3374850.435508260969073, 1726556.405483443289995 ], [ 3374852.60895837424323, 1726557.514906190801412 ], [ 3374856.389522540383041, 1726559.757344454759732 ], [ 3374857.01885287091136, 1726559.61249060370028 ], [ 3374858.081895535346121, 1726559.17398501560092 ], [ 3374860.419802096206695, 1726557.949539846275002 ], [ 3374863.812767217867076, 1726556.167049250332639 ], [ 3374870.390061894897372, 1726553.573352327337489 ], [ 3374872.93059991998598, 1726552.677841316210106 ], [ 3374876.897651085164398, 1726551.726612881757319 ], [ 3374879.012011242564768, 1726551.375307899434119 ], [ 3374891.882929300423712, 1726551.019468406913802 ], [ 3374894.089235659688711, 1726551.005415627500042 ], [ 3374906.038960138801485, 1726549.342265270650387 ], [ 3374908.522096302360296, 1726548.939761817222461 ], [ 3374927.809681761078537, 1726547.880400269990787 ], [ 3374932.55330665782094, 1726547.686506820842624 ], [ 3374940.800833943299949, 1726547.847056856844574 ], [ 3374941.583090982399881, 1726547.837951552122831 ], [ 3374948.398977945093066, 1726547.551559444051236 ], [ 3374950.801659065298736, 1726547.021415371913463 ], [ 3374952.786831200122833, 1726546.288690304150805 ], [ 3374963.940352351404727, 1726543.136119506787509 ], [ 3374967.133733234368265, 1726542.147355801425874 ], [ 3374970.326950016897172, 1726541.157511771190912 ], [ 3374973.520241507794708, 1726540.168159288819879 ], [ 3374976.714005483314395, 1726539.181246715597808 ], [ 3374979.90849567996338, 1726538.198444169713184 ], [ 3374982.237406959757209, 1726537.691840257728472 ], [ 3374984.618882254231721, 1726537.492368029197678 ], [ 3374987.030196333769709, 1726537.468533259350806 ], [ 3374989.44907553633675, 1726537.488464547786862 ], [ 3374991.852993189357221, 1726537.420634710695595 ], [ 3374993.582895627710968, 1726537.687186300987378 ], [ 3374995.888232393655926, 1726538.391958278138191 ], [ 3374998.350073355715722, 1726539.523977474309504 ], [ 3375000.81502726720646, 1726541.078412207774818 ], [ 3375002.370564574375749, 1726542.340867966180667 ], [ 3375004.671616251580417, 1726544.9600745937787 ], [ 3375005.976739586796612, 1726546.918830782407895 ], [ 3375007.038768963422626, 1726549.220143331214786 ], [ 3375007.829938598442823, 1726551.949203286552802 ], [ 3375007.915880073327571, 1726552.514882887015119 ], [ 3375153.061563495080918, 1726689.02411484066397 ], [ 3375394.804362692404538, 1726873.468655303353444 ], [ 3375484.165226377546787, 1726919.054662931477651 ], [ 3375554.665682649705559, 1726967.774451187578961 ], [ 3375629.927694098558277, 1727007.645579603267834 ], [ 3375760.240780646912754, 1727061.536469055339694 ], [ 3375934.879891879856586, 1727119.142668236047029 ], [ 3376628.688490885775536, 1727398.708777673309669 ], [ 3376677.089226603042334, 1727415.848592496011406 ], [ 3376743.708634230773896, 1727439.026833140291274 ], [ 3376704.358582307118922, 1727481.682486666599289 ], [ 3376747.848245079629123, 1727493.332780638476834 ], [ 3376809.072224487084895, 1727510.004507636884227 ], [ 3376857.226651515811682, 1727522.441515343729407 ], [ 3376893.136849487200379, 1727530.315301122842357 ], [ 3376907.265118213370442, 1727532.943902333499864 ], [ 3376907.42446400411427, 1727532.987938532605767 ], [ 3376909.225407581776381, 1727533.454268195899203 ], [ 3376911.031799811404198, 1727533.889476466458291 ], [ 3376912.209242762997746, 1727534.137066862545907 ], [ 3376914.42165064252913, 1727534.565265383804217 ], [ 3376915.601557019166648, 1727534.762086021946743 ], [ 3376917.580133965238929, 1727535.057899779640138 ], [ 3376918.772415342275053, 1727535.2022035473492 ], [ 3376920.892426705453545, 1727535.42416336783208 ], [ 3376922.355723716318607, 1727535.543694262159988 ], [ 3376923.948065219912678, 1727535.641789854736999 ], [ 3376925.278810716234148, 1727535.692689591320232 ], [ 3376927.27963131479919, 1727535.733005721122026 ], [ 3376928.754796466324478, 1727535.729699910851195 ], [ 3376930.357513501308858, 1727535.695134627632797 ], [ 3376931.691693259868771, 1727535.634670708095655 ], [ 3376933.55644041672349, 1727535.516191031783819 ], [ 3376935.154157838318497, 1727535.381735156290233 ], [ 3376935.304547946900129, 1727535.366826293291524 ], [ 3376935.504570554941893, 1727535.343673085561022 ], [ 3376936.886368425097317, 1727535.194722588174045 ], [ 3376938.473637574817985, 1727534.991497513372451 ], [ 3376939.796847286168486, 1727534.791846320033073 ], [ 3376941.909699167590588, 1727534.430813136510551 ], [ 3376943.352997727692127, 1727534.15078164357692 ], [ 3376944.919370354618877, 1727533.810018169227988 ], [ 3376946.618743553757668, 1727533.406873868778348 ], [ 3376948.174653005320579, 1727532.997242963640019 ], [ 3376949.716173067223281, 1727532.55988666927442 ], [ 3376951.389201099984348, 1727532.050325380405411 ], [ 3376953.613113586325198, 1727531.348536976380274 ], [ 3376953.663716930896044, 1727531.279698644764721 ], [ 3376953.83985779248178, 1727531.099358479026705 ], [ 3376954.017491265200078, 1727530.928842505207285 ], [ 3376954.193632129579782, 1727530.748502338537946 ], [ 3376954.371265606023371, 1727530.577986371703446 ], [ 3376954.557332973461598, 1727530.395997349871323 ], [ 3376954.734966451302171, 1727530.225481381174177 ], [ 3376954.922526431735605, 1727530.053316553123295 ], [ 3376955.11157902283594, 1727529.890975921414793 ], [ 3376955.29913900513202, 1727529.718811099184677 ], [ 3376961.612274448852986, 1727525.588084171293303 ], [ 3376963.92075731093064, 1727524.036262738285586 ], [ 3376964.156978991813958, 1727523.916447696974501 ], [ 3376964.459700968116522, 1727523.765442243078724 ], [ 3376964.772349449340254, 1727523.612787939142436 ], [ 3376965.076564037241042, 1727523.471606686478481 ], [ 3376965.390705128200352, 1727523.328776577487588 ], [ 3376965.704846221022308, 1727523.18594647757709 ], [ 3376966.020479921251535, 1727523.052940565161407 ], [ 3376966.336113622877747, 1727522.91993465879932 ], [ 3376966.651747325900942, 1727522.786928757326677 ], [ 3376966.968873636797071, 1727522.663747042650357 ], [ 3376967.285999949555844, 1727522.540565337287262 ], [ 3376967.613052765373141, 1727522.415734776295722 ], [ 3376967.93167168693617, 1727522.302377270068973 ], [ 3376968.260217111557722, 1727522.18737090472132 ], [ 3376968.578836034983397, 1727522.074013403151184 ], [ 3376968.908874069340527, 1727521.968831239035353 ], [ 3376969.228985600173473, 1727521.865297930780798 ], [ 3376969.559023636393249, 1727521.760115770855919 ], [ 3376969.889061672613025, 1727521.654933614190668 ], [ 3376970.210665813647211, 1727521.561224507633597 ], [ 3376970.543674138840288, 1727521.475592500995845 ], [ 3376970.875204783864319, 1727521.380234545096755 ], [ 3376971.208228036295623, 1727521.294700781349093 ], [ 3376971.542743896599859, 1727521.218991213943809 ], [ 3376971.875767150893807, 1727521.133457456715405 ], [ 3376972.210283011663705, 1727521.057747896527871 ], [ 3376972.546291479840875, 1727520.991862527793273 ], [ 3376972.882299947552383, 1727520.925977157894522 ], [ 3376973.218308417126536, 1727520.860091795912012 ], [ 3376973.55431688670069, 1727520.794206439051777 ], [ 3376973.891817963682115, 1727520.738145275507122 ], [ 3376974.229319041129202, 1727520.682084113359451 ], [ 3376974.566820118576288, 1727520.626022955635563 ], [ 3376974.895887299906462, 1727520.581434841966256 ], [ 3376975.23488098429516, 1727520.535197882680222 ], [ 3376975.573874669149518, 1727520.488960924325511 ], [ 3376975.914360960014164, 1727520.452548153232783 ], [ 3376976.254847250878811, 1727520.416135389590636 ], [ 3376976.596826150082052, 1727520.389546822290868 ], [ 3376976.937312441878021, 1727520.35313406214118 ], [ 3376977.280783946160227, 1727520.336369690485299 ], [ 3376977.622762844432145, 1727520.309781127609313 ], [ 3376977.966234348714352, 1727520.29301675921306 ], [ 3376978.29977935180068, 1727520.277901253430173 ], [ 3376978.643250857014209, 1727520.261136892717332 ], [ 3376978.988214966841042, 1727520.254196718800813 ], [ 3376979.323252576868981, 1727520.248905414016917 ], [ 3376979.669709292240441, 1727520.25178943388164 ], [ 3376980.006239507347345, 1727520.256322319153696 ], [ 3376980.352696225047112, 1727520.259206351125613 ], [ 3376980.689226438757032, 1727520.263739240821451 ], [ 3376981.005903649609536, 1727520.271569849923253 ], [ 3376982.000119104981422, 1727520.317938819294795 ], [ 3376982.896562141366303, 1727520.390620561083779 ], [ 3376983.891299333423376, 1727520.507407763507217 ], [ 3376984.77684499649331, 1727520.642332387156785 ], [ 3376985.855978830717504, 1727520.845721296733245 ], [ 3376986.635318174026906, 1727521.018431732198223 ], [ 3376987.504517775494605, 1727521.246720678871498 ], [ 3376988.03815803071484, 1727521.409882690990344 ], [ 3376988.410959906410426, 1727521.519184012897313 ], [ 3376989.354644571430981, 1727521.835821759421378 ], [ 3376990.066512732766569, 1727522.100316591793671 ], [ 3376991.066322061233222, 1727522.518425018992275 ], [ 3376991.929623830132186, 1727522.908847618615255 ], [ 3376992.733366584405303, 1727523.309163347352296 ], [ 3376993.554498865734786, 1727523.756951180985197 ], [ 3376994.44862360926345, 1727524.283263602061197 ], [ 3376994.52706475649029, 1727524.330666765104979 ], [ 3376994.549902972299606, 1727524.347017434658483 ], [ 3376994.808064631652087, 1727524.505577601958066 ], [ 3376995.143174834549427, 1727524.701716743875295 ], [ 3376995.469836213625968, 1727524.909230682533234 ], [ 3376995.796512519475073, 1727525.116842871066183 ], [ 3376996.123188825324178, 1727525.324455055175349 ], [ 3376996.45135773671791, 1727525.541891436558217 ], [ 3376996.768107540439814, 1727525.751152478856966 ], [ 3376997.087842555250973, 1727525.980061901500449 ], [ 3376997.406084962654859, 1727526.199147129664198 ], [ 3376997.715893475804478, 1727526.429705408634618 ], [ 3376998.035628491081297, 1727526.658614835236222 ], [ 3376998.335510501638055, 1727526.890821970300749 ], [ 3376998.645319013856351, 1727527.121380249736831 ], [ 3376998.946693630423397, 1727527.36341156763956 ], [ 3376999.248068248387426, 1727527.605442897649482 ], [ 3376999.549442864954472, 1727527.847474221140146 ], [ 3376999.852310087531805, 1727528.099329738877714 ], [ 3377000.145250809378922, 1727528.352834108518437 ], [ 3377000.438191530294716, 1727528.606338475365192 ], [ 3377000.721205751411617, 1727528.86149170040153 ], [ 3377001.015639079269022, 1727529.124820259865373 ], [ 3377001.288726798724383, 1727529.38162233447656 ], [ 3377001.57323362538591, 1727529.646599751664326 ], [ 3377001.84930655779317, 1727529.923050206154585 ], [ 3377002.123886884190142, 1727530.189676475943998 ], [ 3377002.399959817528725, 1727530.4661269353237 ], [ 3377002.676032749935985, 1727530.74257739004679 ], [ 3377002.942179183010012, 1727531.020676701329648 ], [ 3377003.198399114888161, 1727531.300424868008122 ], [ 3377003.466038154438138, 1727531.588348368182778 ], [ 3377003.723735767416656, 1727531.877822479000315 ], [ 3377003.981448306702077, 1727532.167394832475111 ], [ 3377004.229234346188605, 1727532.458616039715707 ], [ 3377004.490031364373863, 1727532.767820282373577 ], [ 3377006.1745840087533, 1727536.688079934800044 ], [ 3377008.407617378048599, 1727542.007907564053312 ], [ 3377008.961082553025335, 1727543.507267975946888 ], [ 3377009.08086764626205, 1727543.960760614834726 ], [ 3377009.18774102628231, 1727544.396253725048155 ], [ 3377009.284687909297645, 1727544.833395688561723 ], [ 3377009.38163479603827, 1727545.270537648582831 ], [ 3377009.480074293911457, 1727545.717503800988197 ], [ 3377009.56709468876943, 1727546.156294618966058 ], [ 3377009.644188586622477, 1727546.596734290011227 ], [ 3377009.732701596803963, 1727547.045349294319749 ], [ 3377009.799869002774358, 1727547.487437820062041 ], [ 3377009.878455521073192, 1727547.937701679067686 ], [ 3377009.935696434695274, 1727548.381439053686336 ], [ 3377010.002863852772862, 1727548.823527584550902 ], [ 3377010.061696648597717, 1727549.277072660857812 ], [ 3377010.109011074528098, 1727549.722458892734721 ], [ 3377010.156325506046414, 1727550.167845129268244 ], [ 3377010.195206050295383, 1727550.624704407295212 ], [ 3377010.242520488332957, 1727551.070090640569106 ], [ 3377010.269981932360679, 1727551.518774582771584 ], [ 3377010.298935990780592, 1727551.977282713167369 ], [ 3377010.326397445518523, 1727552.42596666328609 ], [ 3377010.343932401854545, 1727552.876299453899264 ], [ 3377010.361467365175486, 1727553.326632256386802 ], [ 3377010.36206184560433, 1727553.598480789922178 ], [ 3377010.369075832888484, 1727553.778613907750696 ], [ 3377010.376684305258095, 1727554.230595565866679 ], [ 3377010.384292782749981, 1727554.682577218860388 ], [ 3377010.381974764633924, 1727555.136207730043679 ], [ 3377010.369730253238231, 1727555.591487097088248 ], [ 3377010.365919634699821, 1727556.035293416585773 ], [ 3377010.34374863281846, 1727556.492221641354263 ], [ 3377010.320085025392473, 1727556.939325671177357 ], [ 3377010.297914034221321, 1727557.396253895945847 ], [ 3377010.274235509801656, 1727557.843259687768295 ], [ 3377010.273410136811435, 1727558.306714406702667 ], [ 3377010.271613938733935, 1727558.830763119505718 ], [ 3377010.0297128604725, 1727559.717002638150007 ], [ 3377009.720862497575581, 1727560.765444711083546 ], [ 3377009.380740057677031, 1727561.809009161777794 ], [ 3377009.052485793828964, 1727562.729736789129674 ], [ 3377008.670643016695976, 1727563.699654320487753 ], [ 3377008.189086259808391, 1727564.817072591744363 ], [ 3377007.775449641980231, 1727565.711694343248382 ], [ 3377007.250779205933213, 1727566.745625030947849 ], [ 3377006.813782621175051, 1727567.553477956680581 ], [ 3377006.167431581765413, 1727568.657981243217364 ], [ 3377005.652515683323145, 1727569.488849248969927 ], [ 3377005.038856640458107, 1727570.406624025898054 ], [ 3377004.535808906424791, 1727571.114655210170895 ], [ 3377003.644280805252492, 1727572.280028400011361 ], [ 3377003.1054831687361, 1727572.953709437744692 ], [ 3377002.221345404163003, 1727573.966773267369717 ], [ 3377001.557981200050563, 1727574.691362062003464 ], [ 3377000.737807503901422, 1727575.522575001232326 ], [ 3377000.027274277992547, 1727576.204638324445114 ], [ 3376999.02446766756475, 1727577.106476387009025 ], [ 3376998.321846548002213, 1727577.706648524152115 ], [ 3376997.504585341084749, 1727578.356079563032836 ], [ 3376996.617838682141155, 1727579.017052640439942 ], [ 3376995.559878203086555, 1727579.756826172815636 ], [ 3376994.847779626958072, 1727580.22763506998308 ], [ 3376993.897966991178691, 1727580.808434811187908 ], [ 3376992.830529042519629, 1727581.418845104286447 ], [ 3376992.021628959104419, 1727581.855372853111476 ], [ 3376991.141750798095018, 1727582.293618459021673 ], [ 3376989.800341980531812, 1727582.909349577967077 ], [ 3376989.237068030051887, 1727583.15399526595138 ], [ 3376988.948228882625699, 1727583.262406261870638 ], [ 3376988.863368280697614, 1727583.306718592531979 ], [ 3376986.951656498014927, 1727583.986864115577191 ], [ 3376979.505802997853607, 1727586.623700354713947 ], [ 3376977.544082894455642, 1727587.64453356503509 ], [ 3376975.170000874903053, 1727588.96552234957926 ], [ 3376973.207555269356817, 1727590.449794445652515 ], [ 3376968.90839022770524, 1727593.903538551647216 ], [ 3376962.411204948090017, 1727600.975792109966278 ], [ 3376961.904782045166939, 1727601.996520745567977 ], [ 3376960.344432737212628, 1727605.257203376386315 ], [ 3376959.245858830865473, 1727607.605194441508502 ], [ 3376957.761065287981182, 1727610.893615729874 ], [ 3376956.308937531895936, 1727614.19675554591231 ], [ 3376955.09340707026422, 1727617.047637253766879 ], [ 3376953.525815412867814, 1727620.863491911906749 ], [ 3376952.566735377535224, 1727623.25881787086837 ], [ 3376951.267013351432979, 1727626.627292152261361 ], [ 3376950.362143320497125, 1727629.043830141890794 ], [ 3376948.966810499317944, 1727632.9217215673998 ], [ 3376948.114459341857582, 1727635.349680361803621 ], [ 3376947.12529848376289, 1727638.283827359322459 ], [ 3376946.007746974006295, 1727641.712591312127188 ], [ 3376945.230852365493774, 1727644.168305174913257 ], [ 3376944.049076553434134, 1727648.111445673275739 ], [ 3376943.18649775441736, 1727651.074927814304829 ], [ 3376942.633288508281112, 1727653.060383832314983 ], [ 3376942.459309482015669, 1727653.723828370682895 ], [ 3376936.177421171218157, 1727677.953287160955369 ], [ 3376914.150464023929089, 1727775.182117750635371 ], [ 3376898.002283959649503, 1727846.264425932429731 ], [ 3376889.413915193174034, 1727884.917636067373678 ], [ 3376875.652985173277557, 1727946.860879086656496 ], [ 3376857.607086824253201, 1728026.014167941873893 ], [ 3376845.577190064825118, 1728080.327385823009536 ], [ 3376830.389048259705305, 1728147.543966254452243 ], [ 3376820.383797709830105, 1728192.476217896677554 ], [ 3376815.093774809502065, 1728216.198719012085348 ], [ 3376802.885396316181868, 1728270.340346154989675 ], [ 3376790.136986056342721, 1728326.888360942015424 ], [ 3376777.361726970411837, 1728384.39776426833123 ], [ 3376768.385079763829708, 1728423.841193101368845 ], [ 3376764.125631107483059, 1728442.356564325746149 ], [ 3376759.831876250915229, 1728463.325103085953742 ], [ 3376756.875857180915773, 1728476.688439550343901 ], [ 3376753.606046204455197, 1728497.497061071451753 ], [ 3376753.300054223276675, 1728508.274770623072982 ], [ 3376753.329852143768221, 1728509.609433586709201 ], [ 3376753.751121392007917, 1728511.846001651370898 ], [ 3376754.349204294383526, 1728514.375509276753291 ], [ 3376755.339480679482222, 1728517.141930879326537 ], [ 3376755.696616926696151, 1728517.817877515684813 ], [ 3376755.98023596405983, 1728518.344880835618824 ], [ 3376756.39648456312716, 1728519.141946996329352 ], [ 3376757.038732714951038, 1728520.35472125094384 ], [ 3376759.951525620184839, 1728525.793330010725185 ], [ 3376762.11821411177516, 1728530.006100364727899 ], [ 3376763.143946388270706, 1728532.001239458099008 ], [ 3376765.737406924366951, 1728535.941766929579899 ], [ 3376769.988734799902886, 1728539.808223681291565 ], [ 3376778.329302251338959, 1728546.006962239742279 ], [ 3376796.262675387784839, 1728558.005039950367063 ], [ 3376805.475836305879056, 1728565.257423110073432 ], [ 3376821.557398346252739, 1728578.731526478659362 ], [ 3376832.303413606248796, 1728589.173886537086219 ], [ 3376841.697675569914281, 1728598.823609191225842 ], [ 3376858.729062828235328, 1728619.553030389128253 ], [ 3376877.474816147238016, 1728643.794908236945048 ], [ 3376885.168900016695261, 1728652.971658421913162 ], [ 3376898.200033331289887, 1728668.070556694176048 ], [ 3376904.843663623090833, 1728675.759888922795653 ], [ 3376906.060228160582483, 1728677.068630199879408 ], [ 3376921.487929230090231, 1728693.673066324321553 ], [ 3376937.214356490410864, 1728710.368791925953701 ], [ 3376967.227854995056987, 1728739.980725935427472 ], [ 3376985.792726442217827, 1728757.474038651445881 ], [ 3377009.946911583188921, 1728778.329635879257694 ], [ 3377013.890732879284769, 1728781.713462534826249 ], [ 3377048.659344556741416, 1728811.542629125760868 ], [ 3377082.489934292156249, 1728840.28874969156459 ], [ 3377111.184642060659826, 1728864.77144836797379 ], [ 3377117.905515676829964, 1728870.423441984457895 ], [ 3377120.028600802645087, 1728872.206076599191874 ], [ 3377121.907403600867838, 1728873.787556947208941 ], [ 3377148.217723292298615, 1728895.906563995871693 ], [ 3377168.371348217129707, 1728913.206510818330571 ], [ 3377194.938054526224732, 1728936.008150616660714 ], [ 3377237.165759025607258, 1728972.061777417780831 ], [ 3377272.518160882405937, 1729003.053123073419556 ], [ 3377292.991662273183465, 1729019.645273375557736 ], [ 3377293.999063793104142, 1729020.44818844483234 ], [ 3377307.821551077999175, 1729008.207253403728828 ], [ 3377313.579367645084858, 1729011.808483963133767 ], [ 3377319.337169262580574, 1729015.409616826334968 ], [ 3377325.092528473120183, 1729019.529777689371258 ], [ 3377329.277734516654164, 1729018.240276833996177 ], [ 3377333.462940695695579, 1729016.950776557903737 ], [ 3377339.176434060093015, 1729013.831090529914945 ], [ 3377344.890027216635644, 1729010.711389328818768 ], [ 3377349.913241469301283, 1729004.055072382558137 ], [ 3377352.139396630227566, 1729000.321130986791104 ], [ 3377354.365567171014845, 1728996.58728826791048 ], [ 3377358.10250958474353, 1728992.380690656136721 ], [ 3377364.408034354448318, 1728990.144611669238657 ], [ 3377368.47645959071815, 1728989.091171358013526 ], [ 3377372.544870003592223, 1728988.037633328698575 ], [ 3377375.659401941113174, 1728987.671243563294411 ], [ 3377378.773933907039464, 1728987.304854078684002 ], [ 3377382.16364742256701, 1728985.769795626867563 ], [ 3377385.553276748862118, 1728984.234852335881442 ], [ 3377391.516424923203886, 1728981.753485368331894 ], [ 3377395.33348236232996, 1728979.548140429658815 ], [ 3377399.150639319326729, 1728977.342779595870525 ], [ 3377405.489993507042527, 1728977.337133287684992 ], [ 3377412.134838242549449, 1728975.860653013689443 ], [ 3377415.50044, 1728974.124690694734454 ], [ 3377415.50044, 1726968.547914291033521 ], [ 3377318.404022941831499, 1726780.542402808554471 ] ] ] } },
{ "type": "Feature", "properties": { "ENP_GRAL": 6.0, "ENP_GRAL_NAME": "Otros Espacios Naturales Protegidos", "color": "#7F8F0D" }, "geometry": { "type": "Polygon", "coordinates": [ [ [ 3377318.404022941831499, 1726780.542402808554471 ], [ 3377307.599905158858746, 1726775.276465256232768 ], [ 3377301.842055680695921, 1726763.300444731255993 ], [ 3377299.30332893319428, 1726755.231514746556059 ], [ 3377293.086074138525873, 1726738.356239552376792 ], [ 3377286.21785903070122, 1726719.272628496633843 ], [ 3377280.317580733913928, 1726703.981408787192777 ], [ 3377274.417306266725063, 1726688.690190337365493 ], [ 3377270.818307877518237, 1726681.613192129647359 ], [ 3377267.219210946932435, 1726674.536210699239746 ], [ 3377263.53325623087585, 1726664.542711522663012 ], [ 3377259.847402442246675, 1726654.549196403240785 ], [ 3377252.434062044136226, 1726636.533016693079844 ], [ 3377245.020741757936776, 1726618.516936976695433 ], [ 3377231.520234230905771, 1726590.946365958312526 ], [ 3377227.949444933328778, 1726586.533759168582037 ], [ 3377222.894195754546672, 1726575.498620692407712 ], [ 3377216.836585479788482, 1726562.35369783337228 ], [ 3377207.939278392586857, 1726546.12510925764218 ], [ 3377198.702028844505548, 1726527.122761401347816 ], [ 3377190.720567987300456, 1726506.672895148396492 ], [ 3377172.877669444307685, 1726463.648199235787615 ], [ 3377170.589232400991023, 1726458.498874117154628 ], [ 3377167.372825375758111, 1726452.869038407923654 ], [ 3377164.764926967676729, 1726448.29651356022805 ], [ 3377162.571015171706676, 1726443.83642584620975 ], [ 3377160.191831209231168, 1726437.755409646546468 ], [ 3377158.33653288660571, 1726433.581529679708183 ], [ 3377152.909261084161699, 1726429.233322291867808 ], [ 3377160.935863352380693, 1726417.195944369304925 ], [ 3377192.790191977284849, 1726368.827796947211027 ], [ 3377241.59126930590719, 1726298.095672578783706 ], [ 3377264.147703805007041, 1726265.161134432535619 ], [ 3377309.287667547352612, 1726198.33086270140484 ], [ 3377352.025632754899561, 1726133.440689441747963 ], [ 3377415.50044, 1726041.332186022773385 ], [ 3377415.50044, 1724535.002472460269928 ], [ 3377336.765770731493831, 1724550.073053314583376 ], [ 3377241.397451361641288, 1724356.158387799048796 ], [ 3377254.401661459822208, 1724336.977966425009072 ], [ 3377346.557070970535278, 1724048.826757442671806 ], [ 3377415.50044, 1723947.735112086869776 ], [ 3377415.50044, 1723916.043859998928383 ], [ 3373264.287385497242212, 1723916.043859998928383 ], [ 3373255.517099626362324, 1723929.313852610066533 ], [ 3373239.530641785357147, 1723955.125900279264897 ], [ 3373219.745321932714432, 1723986.413877681829035 ], [ 3373209.95415510609746, 1723999.744578807381913 ], [ 3373205.268089989200234, 1724008.157878808677197 ], [ 3373202.414000044111162, 1724017.777587768621743 ], [ 3373201.196401546709239, 1724022.057395572541282 ], [ 3373200.050474517978728, 1724026.33869044855237 ], [ 3373198.632013743277639, 1724032.879521240247414 ], [ 3373200.285909672733396, 1724045.577567453496158 ], [ 3373207.319413750432432, 1724073.45669126836583 ], [ 3373214.478507704567164, 1724103.168321847217157 ], [ 3373221.867194744758308, 1724131.844570676563308 ], [ 3373232.213665792252868, 1724164.984826151980087 ], [ 3373237.976861303672194, 1724189.459272232372314 ], [ 3373241.888817045837641, 1724200.472650784766302 ], [ 3373246.890192685183138, 1724208.273400137433782 ], [ 3373253.088208845350891, 1724215.442209094762802 ], [ 3373257.386625332292169, 1724233.623154632747173 ], [ 3373266.848496049176902, 1724270.989738896023482 ], [ 3373274.965240808203816, 1724305.598399460548535 ], [ 3373282.277271198574454, 1724336.382440173765644 ], [ 3373291.817502422258258, 1724376.475558273261413 ], [ 3373302.377198445610702, 1724422.140409246785566 ], [ 3373312.364409767091274, 1724461.22267727041617 ], [ 3373322.974751960486174, 1724491.609773679869249 ], [ 3373334.683737562038004, 1724519.44736457709223 ], [ 3373339.495504486374557, 1724528.679667478660122 ], [ 3373346.090431310236454, 1724541.342364099575207 ], [ 3373359.270475209224969, 1724562.449059234000742 ], [ 3373366.625996244139969, 1724566.383756671100855 ], [ 3373370.589184995740652, 1724570.096519880229607 ], [ 3373371.462034053169191, 1724575.440803697099909 ], [ 3373371.418434407096356, 1724575.689780140295625 ], [ 3373370.611437487415969, 1724580.628191908122972 ], [ 3373369.555540991015732, 1724584.530343366554007 ], [ 3373370.488930473104119, 1724592.886214349651709 ], [ 3373377.629583408124745, 1724606.193503214977682 ], [ 3373395.295651937369257, 1724632.980816379655153 ], [ 3373409.209857017267495, 1724657.178553043399006 ], [ 3373417.545176242478192, 1724671.717581797391176 ], [ 3373419.858060962054878, 1724675.754934903932735 ], [ 3373429.235673754476011, 1724688.579630243824795 ], [ 3373457.663817419670522, 1724732.615052125882357 ], [ 3373471.118734132498503, 1724758.07764343265444 ], [ 3373488.965612603351474, 1724785.116969463648275 ], [ 3373503.695564661175013, 1724809.793691264465451 ], [ 3373513.41092297481373, 1724826.248694396810606 ], [ 3373518.888448883313686, 1724836.981941323727369 ], [ 3373526.727002736181021, 1724857.495657271472737 ], [ 3373538.120217057876289, 1724892.164373268606141 ], [ 3373550.274615066125989, 1724924.541097992565483 ], [ 3373559.637899083085358, 1724947.923945616465062 ], [ 3373569.260490434244275, 1724973.147106607444584 ], [ 3373570.862771595828235, 1724979.206190824275836 ], [ 3373592.987917199265212, 1725043.184388630790636 ], [ 3373595.900463058147579, 1725051.503512039547786 ], [ 3373599.392885840497911, 1725060.491765956394374 ], [ 3373601.442883662879467, 1725066.214581972686574 ], [ 3373602.646381397731602, 1725070.18438622681424 ], [ 3373604.236096626147628, 1725077.232638251269236 ], [ 3373604.724936748389155, 1725079.98169481055811 ], [ 3373604.910507586784661, 1725083.949519128073007 ], [ 3373604.777938831131905, 1725088.302590392064303 ], [ 3373602.32755376631394, 1725110.828303320799023 ], [ 3373600.161849397234619, 1725128.461991953896359 ], [ 3373597.996592714451253, 1725148.643777542514727 ], [ 3373596.288874773774296, 1725166.946717247599736 ], [ 3373595.590194439981133, 1725173.468738170573488 ], [ 3373589.321343431249261, 1725214.940271483967081 ], [ 3373585.404498741030693, 1725239.603288903832436 ], [ 3373584.54055851791054, 1725244.702379888854921 ], [ 3373577.538597996346653, 1725303.38824868015945 ], [ 3373576.833381513133645, 1725309.599131440045312 ], [ 3373574.645945626776665, 1725324.073809976456687 ], [ 3373574.019779185764492, 1725327.723285220563412 ], [ 3373572.413770538754761, 1725334.234940060181543 ], [ 3373570.728008134756237, 1725339.752625567605719 ], [ 3373569.508596010040492, 1725344.588483597384766 ], [ 3373567.886436027940363, 1725352.935970906633884 ], [ 3373566.926049873232841, 1725359.007960933027789 ], [ 3373564.183092517778277, 1725383.425511093111709 ], [ 3373563.814053206238896, 1725387.092696201754734 ], [ 3373562.853398084174842, 1725392.358955398201942 ], [ 3373561.987436613999307, 1725395.83676554216072 ], [ 3373560.924916746094823, 1725399.024926959071308 ], [ 3373559.708714668639004, 1725401.60407533403486 ], [ 3373558.557768270373344, 1725403.406889918725938 ], [ 3373557.245393385179341, 1725404.884001273429021 ], [ 3373554.58215514710173, 1725407.048913045087829 ], [ 3373550.386334971990436, 1725409.710333912400529 ], [ 3373546.613184590823948, 1725411.737372779054567 ], [ 3373541.853688673581928, 1725413.837666639359668 ], [ 3373533.491045197471976, 1725416.939600035082549 ], [ 3373529.084846663754433, 1725418.41714167362079 ], [ 3373528.620786499697715, 1725419.984948808792979 ], [ 3373528.774919796269387, 1725422.205446721054614 ], [ 3373528.829619599040598, 1725422.498524414375424 ], [ 3373529.38158600917086, 1725423.988144561648369 ], [ 3373530.085820432752371, 1725425.140222083544359 ], [ 3373533.395762445870787, 1725429.392239747801796 ], [ 3373510.434512310195714, 1725640.789411724545062 ], [ 3373552.07137083588168, 1725745.370051295263693 ], [ 3373653.378880663774908, 1725674.446647924836725 ], [ 3373728.880370300263166, 1725780.929307183716446 ], [ 3373730.039003934711218, 1725781.325597983552143 ], [ 3373731.500062605831772, 1725782.100108197890222 ], [ 3373732.679739538114518, 1725783.032171579543501 ], [ 3373733.977704537566751, 1725784.407903105020523 ], [ 3373735.780785817652941, 1725786.696852586930618 ], [ 3373737.286053044721484, 1725789.035190162248909 ], [ 3373738.747812154237181, 1725791.824038313468918 ], [ 3373740.641484029591084, 1725795.981448936741799 ], [ 3373744.37625234015286, 1725803.549586846260354 ], [ 3373745.46881334669888, 1725805.181041290750727 ], [ 3373758.685178384184837, 1725825.385467968415469 ], [ 3373760.20799120189622, 1725828.17424375237897 ], [ 3373767.371345665771514, 1725841.83031691564247 ], [ 3373769.781978342682123, 1725846.979557574493811 ], [ 3373774.557357526384294, 1725857.779206089908257 ], [ 3373778.985671518370509, 1725867.165875413455069 ], [ 3373789.312137556262314, 1725888.444901742739603 ], [ 3373790.684334793593735, 1725890.644197554327548 ], [ 3373798.494397177826613, 1725902.661926466505975 ], [ 3373799.885280082467943, 1725904.31431516027078 ], [ 3373809.920836780685931, 1725915.841260254848748 ], [ 3373812.04150313558057, 1725917.875992858083919 ], [ 3373816.966281890869141, 1725922.95998331415467 ], [ 3373822.415917900856584, 1725928.953812062041834 ], [ 3373836.961350397206843, 1725944.57610916881822 ], [ 3373840.430167267099023, 1725947.847297535976395 ], [ 3373844.453874916303903, 1725951.288157735485584 ], [ 3373851.565849921666086, 1725957.036071496084332 ], [ 3373866.567088869400322, 1725968.825672635110095 ], [ 3373870.047899964265525, 1725971.238625030266121 ], [ 3373871.534473211038858, 1725972.583018171600997 ], [ 3373871.673066142946482, 1725972.892373115755618 ], [ 3373877.914269880857319, 1725977.062627969076857 ], [ 3373884.688219221774489, 1725982.796209938125685 ], [ 3373885.72883915156126, 1725983.549837151775137 ], [ 3373899.947197670117021, 1725993.535762128885835 ], [ 3373915.090112605597824, 1726004.516194671625271 ], [ 3373916.991281446069479, 1726006.244947516126558 ], [ 3373919.076874991878867, 1726008.517073503229767 ], [ 3373926.064961653668433, 1726016.531700608553365 ], [ 3373936.604391766246408, 1726028.226743663428351 ], [ 3373939.00755308335647, 1726030.446200484642759 ], [ 3373967.131138852331787, 1726056.060024438658729 ], [ 3373980.282384519465268, 1726067.663525499403477 ], [ 3373996.325944433454424, 1726082.160626661032438 ], [ 3374000.503765038680285, 1726086.280947436345741 ], [ 3374013.510875024367124, 1726098.744405690580606 ], [ 3374031.300292372703552, 1726116.224897823762149 ], [ 3374033.82629355834797, 1726119.118933337042108 ], [ 3374038.351294556632638, 1726123.916741549503058 ], [ 3374047.500099968165159, 1726133.224190752021968 ], [ 3374049.563080948777497, 1726134.946203947532922 ], [ 3374058.103695437312126, 1726142.461027966113761 ], [ 3374063.194078507367522, 1726147.295929248910397 ], [ 3374098.580865928903222, 1726181.261385733028874 ], [ 3374106.524551245383918, 1726189.268326911376789 ], [ 3374113.585649141576141, 1726196.02177946944721 ], [ 3374143.289037853013724, 1726224.062467909883708 ], [ 3374179.688875964842737, 1726257.930139548843727 ], [ 3374181.030294529162347, 1726258.654033965198323 ], [ 3374184.375299728941172, 1726260.173093240475282 ], [ 3374213.503915869630873, 1726273.110251832986251 ], [ 3374235.453569545410573, 1726283.141009954968467 ], [ 3374238.15827349293977, 1726284.66574617032893 ], [ 3374254.180443730205297, 1726293.395051930798218 ], [ 3374258.754152950365096, 1726295.565989977214485 ], [ 3374275.090773980133235, 1726303.61856949958019 ], [ 3374277.447004415560514, 1726305.060199927072972 ], [ 3374281.656528936233371, 1726307.311899990774691 ], [ 3374294.13574776193127, 1726313.688827827107161 ], [ 3374310.93427602108568, 1726322.571169685572386 ], [ 3374316.639709371607751, 1726325.893773176940158 ], [ 3374327.117120175622404, 1726332.291097194422036 ], [ 3374340.483461208175868, 1726340.152335440041497 ], [ 3374347.700992047786713, 1726344.049511438468471 ], [ 3374372.641538459341973, 1726357.823771682800725 ], [ 3374386.354338106699288, 1726365.687885302584618 ], [ 3374406.710625772830099, 1726377.02081200084649 ], [ 3374411.492977897636592, 1726379.358639841433614 ], [ 3374420.050569197162986, 1726383.234602412674576 ], [ 3374447.851417538244277, 1726396.140802317066118 ], [ 3374454.726723155938089, 1726399.661749039310962 ], [ 3374461.873711169697344, 1726403.631195273948833 ], [ 3374483.807431242894381, 1726416.102086023893207 ], [ 3374492.394781412556767, 1726421.312726387288421 ], [ 3374509.346068492159247, 1726431.267620746046305 ], [ 3374513.453790397848934, 1726433.385169370565563 ], [ 3374537.677229907829314, 1726446.190750427544117 ], [ 3374542.639867851510644, 1726449.113041189266369 ], [ 3374557.892164114397019, 1726457.799125086516142 ], [ 3374563.420701219700277, 1726460.627287317300215 ], [ 3374574.483954849652946, 1726465.99069245532155 ], [ 3374580.675980624742806, 1726468.69853936554864 ], [ 3374596.542250385973603, 1726475.93293316103518 ], [ 3374599.858165791258216, 1726477.72880184953101 ], [ 3374605.706267677247524, 1726480.58444788493216 ], [ 3374615.827179813757539, 1726485.238224914530292 ], [ 3374620.306925753131509, 1726486.991697862045839 ], [ 3374623.917338587809354, 1726488.114154662005603 ], [ 3374629.737286350689828, 1726489.645043730735779 ], [ 3374645.978545872494578, 1726493.654455270152539 ], [ 3374706.432498090900481, 1726508.870530792279169 ], [ 3374712.040437801741064, 1726510.547350402222946 ], [ 3374722.82883930252865, 1726513.498825053451583 ], [ 3374731.186726867221296, 1726515.524507509544492 ], [ 3374739.915041045751423, 1726517.911778335692361 ], [ 3374761.84089376218617, 1726524.169607735006139 ], [ 3374768.00100736413151, 1726526.197866376489401 ], [ 3374775.863838342484087, 1726529.051259624073282 ], [ 3374783.069792715832591, 1726531.39928913442418 ], [ 3374792.195005967281759, 1726534.657341740792617 ], [ 3374796.889265099540353, 1726536.617022685473785 ], [ 3374805.134882709011436, 1726539.779391258489341 ], [ 3374813.731380023993552, 1726542.772767225746065 ], [ 3374831.794762230478227, 1726549.329833711264655 ], [ 3374850.435508260969073, 1726556.405483443289995 ], [ 3374852.60895837424323, 1726557.514906190801412 ], [ 3374856.389522540383041, 1726559.757344454759732 ], [ 3374857.01885287091136, 1726559.61249060370028 ], [ 3374858.081895535346121, 1726559.17398501560092 ], [ 3374860.419802096206695, 1726557.949539846275002 ], [ 3374863.812767217867076, 1726556.167049250332639 ], [ 3374870.390061894897372, 1726553.573352327337489 ], [ 3374872.93059991998598, 1726552.677841316210106 ], [ 3374876.897651085164398, 1726551.726612881757319 ], [ 3374879.012011242564768, 1726551.375307899434119 ], [ 3374891.882929300423712, 1726551.019468406913802 ], [ 3374894.089235659688711, 1726551.005415627500042 ], [ 3374906.038960138801485, 1726549.342265270650387 ], [ 3374908.522096302360296, 1726548.939761817222461 ], [ 3374927.809681761078537, 1726547.880400269990787 ], [ 3374932.55330665782094, 1726547.686506820842624 ], [ 3374940.800833943299949, 1726547.847056856844574 ], [ 3374941.583090982399881, 1726547.837951552122831 ], [ 3374948.398977945093066, 1726547.551559444051236 ], [ 3374950.801659065298736, 1726547.021415371913463 ], [ 3374952.786831200122833, 1726546.288690304150805 ], [ 3374963.940352351404727, 1726543.136119506787509 ], [ 3374967.133733234368265, 1726542.147355801425874 ], [ 3374970.326950016897172, 1726541.157511771190912 ], [ 3374973.520241507794708, 1726540.168159288819879 ], [ 3374976.714005483314395, 1726539.181246715597808 ], [ 3374979.90849567996338, 1726538.198444169713184 ], [ 3374982.237406959757209, 1726537.691840257728472 ], [ 3374984.618882254231721, 1726537.492368029197678 ], [ 3374987.030196333769709, 1726537.468533259350806 ], [ 3374989.44907553633675, 1726537.488464547786862 ], [ 3374991.852993189357221, 1726537.420634710695595 ], [ 3374993.582895627710968, 1726537.687186300987378 ], [ 3374995.888232393655926, 1726538.391958278138191 ], [ 3374998.350073355715722, 1726539.523977474309504 ], [ 3375000.81502726720646, 1726541.078412207774818 ], [ 3375002.370564574375749, 1726542.340867966180667 ], [ 3375004.671616251580417, 1726544.9600745937787 ], [ 3375005.976739586796612, 1726546.918830782407895 ], [ 3375007.038768963422626, 1726549.220143331214786 ], [ 3375007.829938598442823, 1726551.949203286552802 ], [ 3375007.915880073327571, 1726552.514882887015119 ], [ 3375153.061563495080918, 1726689.02411484066397 ], [ 3375394.804362692404538, 1726873.468655303353444 ], [ 3375484.165226377546787, 1726919.054662931477651 ], [ 3375554.665682649705559, 1726967.774451187578961 ], [ 3375629.927694098558277, 1727007.645579603267834 ], [ 3375760.240780646912754, 1727061.536469055339694 ], [ 3375934.879891879856586, 1727119.142668236047029 ], [ 3376628.688490885775536, 1727398.708777673309669 ], [ 3376677.089226603042334, 1727415.848592496011406 ], [ 3376743.708634230773896, 1727439.026833140291274 ], [ 3376704.358582307118922, 1727481.682486666599289 ], [ 3376747.848245079629123, 1727493.332780638476834 ], [ 3376809.072224487084895, 1727510.004507636884227 ], [ 3376857.226651515811682, 1727522.441515343729407 ], [ 3376893.136849487200379, 1727530.315301122842357 ], [ 3376907.265118213370442, 1727532.943902333499864 ], [ 3376907.42446400411427, 1727532.987938532605767 ], [ 3376909.225407581776381, 1727533.454268195899203 ], [ 3376911.031799811404198, 1727533.889476466458291 ], [ 3376912.209242762997746, 1727534.137066862545907 ], [ 3376914.42165064252913, 1727534.565265383804217 ], [ 3376915.601557019166648, 1727534.762086021946743 ], [ 3376917.580133965238929, 1727535.057899779640138 ], [ 3376918.772415342275053, 1727535.2022035473492 ], [ 3376920.892426705453545, 1727535.42416336783208 ], [ 3376922.355723716318607, 1727535.543694262159988 ], [ 3376923.948065219912678, 1727535.641789854736999 ], [ 3376925.278810716234148, 1727535.692689591320232 ], [ 3376927.27963131479919, 1727535.733005721122026 ], [ 3376928.754796466324478, 1727535.729699910851195 ], [ 3376930.357513501308858, 1727535.695134627632797 ], [ 3376931.691693259868771, 1727535.634670708095655 ], [ 3376933.55644041672349, 1727535.516191031783819 ], [ 3376935.154157838318497, 1727535.381735156290233 ], [ 3376935.304547946900129, 1727535.366826293291524 ], [ 3376935.504570554941893, 1727535.343673085561022 ], [ 3376936.886368425097317, 1727535.194722588174045 ], [ 3376938.473637574817985, 1727534.991497513372451 ], [ 3376939.796847286168486, 1727534.791846320033073 ], [ 3376941.909699167590588, 1727534.430813136510551 ], [ 3376943.352997727692127, 1727534.15078164357692 ], [ 3376944.919370354618877, 1727533.810018169227988 ], [ 3376946.618743553757668, 1727533.406873868778348 ], [ 3376948.174653005320579, 1727532.997242963640019 ], [ 3376949.716173067223281, 1727532.55988666927442 ], [ 3376951.389201099984348, 1727532.050325380405411 ], [ 3376953.613113586325198, 1727531.348536976380274 ], [ 3376953.663716930896044, 1727531.279698644764721 ], [ 3376953.83985779248178, 1727531.099358479026705 ], [ 3376954.017491265200078, 1727530.928842505207285 ], [ 3376954.193632129579782, 1727530.748502338537946 ], [ 3376954.371265606023371, 1727530.577986371703446 ], [ 3376954.557332973461598, 1727530.395997349871323 ], [ 3376954.734966451302171, 1727530.225481381174177 ], [ 3376954.922526431735605, 1727530.053316553123295 ], [ 3376955.11157902283594, 1727529.890975921414793 ], [ 3376955.29913900513202, 1727529.718811099184677 ], [ 3376961.612274448852986, 1727525.588084171293303 ], [ 3376963.92075731093064, 1727524.036262738285586 ], [ 3376964.156978991813958, 1727523.916447696974501 ], [ 3376964.459700968116522, 1727523.765442243078724 ], [ 3376964.772349449340254, 1727523.612787939142436 ], [ 3376965.076564037241042, 1727523.471606686478481 ], [ 3376965.390705128200352, 1727523.328776577487588 ], [ 3376965.704846221022308, 1727523.18594647757709 ], [ 3376966.020479921251535, 1727523.052940565161407 ], [ 3376966.336113622877747, 1727522.91993465879932 ], [ 3376966.651747325900942, 1727522.786928757326677 ], [ 3376966.968873636797071, 1727522.663747042650357 ], [ 3376967.285999949555844, 1727522.540565337287262 ], [ 3376967.613052765373141, 1727522.415734776295722 ], [ 3376967.93167168693617, 1727522.302377270068973 ], [ 3376968.260217111557722, 1727522.18737090472132 ], [ 3376968.578836034983397, 1727522.074013403151184 ], [ 3376968.908874069340527, 1727521.968831239035353 ], [ 3376969.228985600173473, 1727521.865297930780798 ], [ 3376969.559023636393249, 1727521.760115770855919 ], [ 3376969.889061672613025, 1727521.654933614190668 ], [ 3376970.210665813647211, 1727521.561224507633597 ], [ 3376970.543674138840288, 1727521.475592500995845 ], [ 3376970.875204783864319, 1727521.380234545096755 ], [ 3376971.208228036295623, 1727521.294700781349093 ], [ 3376971.542743896599859, 1727521.218991213943809 ], [ 3376971.875767150893807, 1727521.133457456715405 ], [ 3376972.210283011663705, 1727521.057747896527871 ], [ 3376972.546291479840875, 1727520.991862527793273 ], [ 3376972.882299947552383, 1727520.925977157894522 ], [ 3376973.218308417126536, 1727520.860091795912012 ], [ 3376973.55431688670069, 1727520.794206439051777 ], [ 3376973.891817963682115, 1727520.738145275507122 ], [ 3376974.229319041129202, 1727520.682084113359451 ], [ 3376974.566820118576288, 1727520.626022955635563 ], [ 3376974.895887299906462, 1727520.581434841966256 ], [ 3376975.23488098429516, 1727520.535197882680222 ], [ 3376975.573874669149518, 1727520.488960924325511 ], [ 3376975.914360960014164, 1727520.452548153232783 ], [ 3376976.254847250878811, 1727520.416135389590636 ], [ 3376976.596826150082052, 1727520.389546822290868 ], [ 3376976.937312441878021, 1727520.35313406214118 ], [ 3376977.280783946160227, 1727520.336369690485299 ], [ 3376977.622762844432145, 1727520.309781127609313 ], [ 3376977.966234348714352, 1727520.29301675921306 ], [ 3376978.29977935180068, 1727520.277901253430173 ], [ 3376978.643250857014209, 1727520.261136892717332 ], [ 3376978.988214966841042, 1727520.254196718800813 ], [ 3376979.323252576868981, 1727520.248905414016917 ], [ 3376979.669709292240441, 1727520.25178943388164 ], [ 3376980.006239507347345, 1727520.256322319153696 ], [ 3376980.352696225047112, 1727520.259206351125613 ], [ 3376980.689226438757032, 1727520.263739240821451 ], [ 3376981.005903649609536, 1727520.271569849923253 ], [ 3376982.000119104981422, 1727520.317938819294795 ], [ 3376982.896562141366303, 1727520.390620561083779 ], [ 3376983.891299333423376, 1727520.507407763507217 ], [ 3376984.77684499649331, 1727520.642332387156785 ], [ 3376985.855978830717504, 1727520.845721296733245 ], [ 3376986.635318174026906, 1727521.018431732198223 ], [ 3376987.504517775494605, 1727521.246720678871498 ], [ 3376988.03815803071484, 1727521.409882690990344 ], [ 3376988.410959906410426, 1727521.519184012897313 ], [ 3376989.354644571430981, 1727521.835821759421378 ], [ 3376990.066512732766569, 1727522.100316591793671 ], [ 3376991.066322061233222, 1727522.518425018992275 ], [ 3376991.929623830132186, 1727522.908847618615255 ], [ 3376992.733366584405303, 1727523.309163347352296 ], [ 3376993.554498865734786, 1727523.756951180985197 ], [ 3376994.44862360926345, 1727524.283263602061197 ], [ 3376994.52706475649029, 1727524.330666765104979 ], [ 3376994.549902972299606, 1727524.347017434658483 ], [ 3376994.808064631652087, 1727524.505577601958066 ], [ 3376995.143174834549427, 1727524.701716743875295 ], [ 3376995.469836213625968, 1727524.909230682533234 ], [ 3376995.796512519475073, 1727525.116842871066183 ], [ 3376996.123188825324178, 1727525.324455055175349 ], [ 3376996.45135773671791, 1727525.541891436558217 ], [ 3376996.768107540439814, 1727525.751152478856966 ], [ 3376997.087842555250973, 1727525.980061901500449 ], [ 3376997.406084962654859, 1727526.199147129664198 ], [ 3376997.715893475804478, 1727526.429705408634618 ], [ 3376998.035628491081297, 1727526.658614835236222 ], [ 3376998.335510501638055, 1727526.890821970300749 ], [ 3376998.645319013856351, 1727527.121380249736831 ], [ 3376998.946693630423397, 1727527.36341156763956 ], [ 3376999.248068248387426, 1727527.605442897649482 ], [ 3376999.549442864954472, 1727527.847474221140146 ], [ 3376999.852310087531805, 1727528.099329738877714 ], [ 3377000.145250809378922, 1727528.352834108518437 ], [ 3377000.438191530294716, 1727528.606338475365192 ], [ 3377000.721205751411617, 1727528.86149170040153 ], [ 3377001.015639079269022, 1727529.124820259865373 ], [ 3377001.288726798724383, 1727529.38162233447656 ], [ 3377001.57323362538591, 1727529.646599751664326 ], [ 3377001.84930655779317, 1727529.923050206154585 ], [ 3377002.123886884190142, 1727530.189676475943998 ], [ 3377002.399959817528725, 1727530.4661269353237 ], [ 3377002.676032749935985, 1727530.74257739004679 ], [ 3377002.942179183010012, 1727531.020676701329648 ], [ 3377003.198399114888161, 1727531.300424868008122 ], [ 3377003.466038154438138, 1727531.588348368182778 ], [ 3377003.723735767416656, 1727531.877822479000315 ], [ 3377003.981448306702077, 1727532.167394832475111 ], [ 3377004.229234346188605, 1727532.458616039715707 ], [ 3377004.490031364373863, 1727532.767820282373577 ], [ 3377006.1745840087533, 1727536.688079934800044 ], [ 3377008.407617378048599, 1727542.007907564053312 ], [ 3377008.961082553025335, 1727543.507267975946888 ], [ 3377009.08086764626205, 1727543.960760614834726 ], [ 3377009.18774102628231, 1727544.396253725048155 ], [ 3377009.284687909297645, 1727544.833395688561723 ], [ 3377009.38163479603827, 1727545.270537648582831 ], [ 3377009.480074293911457, 1727545.717503800988197 ], [ 3377009.56709468876943, 1727546.156294618966058 ], [ 3377009.644188586622477, 1727546.596734290011227 ], [ 3377009.732701596803963, 1727547.045349294319749 ], [ 3377009.799869002774358, 1727547.487437820062041 ], [ 3377009.878455521073192, 1727547.937701679067686 ], [ 3377009.935696434695274, 1727548.381439053686336 ], [ 3377010.002863852772862, 1727548.823527584550902 ], [ 3377010.061696648597717, 1727549.277072660857812 ], [ 3377010.109011074528098, 1727549.722458892734721 ], [ 3377010.156325506046414, 1727550.167845129268244 ], [ 3377010.195206050295383, 1727550.624704407295212 ], [ 3377010.242520488332957, 1727551.070090640569106 ], [ 3377010.269981932360679, 1727551.518774582771584 ], [ 3377010.298935990780592, 1727551.977282713167369 ], [ 3377010.326397445518523, 1727552.42596666328609 ], [ 3377010.343932401854545, 1727552.876299453899264 ], [ 3377010.361467365175486, 1727553.326632256386802 ], [ 3377010.36206184560433, 1727553.598480789922178 ], [ 3377010.369075832888484, 1727553.778613907750696 ], [ 3377010.376684305258095, 1727554.230595565866679 ], [ 3377010.384292782749981, 1727554.682577218860388 ], [ 3377010.381974764633924, 1727555.136207730043679 ], [ 3377010.369730253238231, 1727555.591487097088248 ], [ 3377010.365919634699821, 1727556.035293416585773 ], [ 3377010.34374863281846, 1727556.492221641354263 ], [ 3377010.320085025392473, 1727556.939325671177357 ], [ 3377010.297914034221321, 1727557.396253895945847 ], [ 3377010.274235509801656, 1727557.843259687768295 ], [ 3377010.273410136811435, 1727558.306714406702667 ], [ 3377010.271613938733935, 1727558.830763119505718 ], [ 3377010.0297128604725, 1727559.717002638150007 ], [ 3377009.720862497575581, 1727560.765444711083546 ], [ 3377009.380740057677031, 1727561.809009161777794 ], [ 3377009.052485793828964, 1727562.729736789129674 ], [ 3377008.670643016695976, 1727563.699654320487753 ], [ 3377008.189086259808391, 1727564.817072591744363 ], [ 3377007.775449641980231, 1727565.711694343248382 ], [ 3377007.250779205933213, 1727566.745625030947849 ], [ 3377006.813782621175051, 1727567.553477956680581 ], [ 3377006.167431581765413, 1727568.657981243217364 ], [ 3377005.652515683323145, 1727569.488849248969927 ], [ 3377005.038856640458107, 1727570.406624025898054 ], [ 3377004.535808906424791, 1727571.114655210170895 ], [ 3377003.644280805252492, 1727572.280028400011361 ], [ 3377003.1054831687361, 1727572.953709437744692 ], [ 3377002.221345404163003, 1727573.966773267369717 ], [ 3377001.557981200050563, 1727574.691362062003464 ], [ 3377000.737807503901422, 1727575.522575001232326 ], [ 3377000.027274277992547, 1727576.204638324445114 ], [ 3376999.02446766756475, 1727577.106476387009025 ], [ 3376998.321846548002213, 1727577.706648524152115 ], [ 3376997.504585341084749, 1727578.356079563032836 ], [ 3376996.617838682141155, 1727579.017052640439942 ], [ 3376995.559878203086555, 1727579.756826172815636 ], [ 3376994.847779626958072, 1727580.22763506998308 ], [ 3376993.897966991178691, 1727580.808434811187908 ], [ 3376992.830529042519629, 1727581.418845104286447 ], [ 3376992.021628959104419, 1727581.855372853111476 ], [ 3376991.141750798095018, 1727582.293618459021673 ], [ 3376989.800341980531812, 1727582.909349577967077 ], [ 3376989.237068030051887, 1727583.15399526595138 ], [ 3376988.948228882625699, 1727583.262406261870638 ], [ 3376988.863368280697614, 1727583.306718592531979 ], [ 3376986.951656498014927, 1727583.986864115577191 ], [ 3376979.505802997853607, 1727586.623700354713947 ], [ 3376977.544082894455642, 1727587.64453356503509 ], [ 3376975.170000874903053, 1727588.96552234957926 ], [ 3376973.207555269356817, 1727590.449794445652515 ], [ 3376968.90839022770524, 1727593.903538551647216 ], [ 3376962.411204948090017, 1727600.975792109966278 ], [ 3376961.904782045166939, 1727601.996520745567977 ], [ 3376960.344432737212628, 1727605.257203376386315 ], [ 3376959.245858830865473, 1727607.605194441508502 ], [ 3376957.761065287981182, 1727610.893615729874 ], [ 3376956.308937531895936, 1727614.19675554591231 ], [ 3376955.09340707026422, 1727617.047637253766879 ], [ 3376953.525815412867814, 1727620.863491911906749 ], [ 3376952.566735377535224, 1727623.25881787086837 ], [ 3376951.267013351432979, 1727626.627292152261361 ], [ 3376950.362143320497125, 1727629.043830141890794 ], [ 3376948.966810499317944, 1727632.9217215673998 ], [ 3376948.114459341857582, 1727635.349680361803621 ], [ 3376947.12529848376289, 1727638.283827359322459 ], [ 3376946.007746974006295, 1727641.712591312127188 ], [ 3376945.230852365493774, 1727644.168305174913257 ], [ 3376944.049076553434134, 1727648.111445673275739 ], [ 3376943.18649775441736, 1727651.074927814304829 ], [ 3376942.633288508281112, 1727653.060383832314983 ], [ 3376942.459309482015669, 1727653.723828370682895 ], [ 3376936.177421171218157, 1727677.953287160955369 ], [ 3376914.150464023929089, 1727775.182117750635371 ], [ 3376898.002283959649503, 1727846.264425932429731 ], [ 3376889.413915193174034, 1727884.917636067373678 ], [ 3376875.652985173277557, 1727946.860879086656496 ], [ 3376857.607086824253201, 1728026.014167941873893 ], [ 3376845.577190064825118, 1728080.327385823009536 ], [ 3376830.389048259705305, 1728147.543966254452243 ], [ 3376820.383797709830105, 1728192.476217896677554 ], [ 3376815.093774809502065, 1728216.198719012085348 ], [ 3376802.885396316181868, 1728270.340346154989675 ], [ 3376790.136986056342721, 1728326.888360942015424 ], [ 3376777.361726970411837, 1728384.39776426833123 ], [ 3376768.385079763829708, 1728423.841193101368845 ], [ 3376764.125631107483059, 1728442.356564325746149 ], [ 3376759.831876250915229, 1728463.325103085953742 ], [ 3376756.875857180915773, 1728476.688439550343901 ], [ 3376753.606046204455197, 1728497.497061071451753 ], [ 3376753.300054223276675, 1728508.274770623072982 ], [ 3376753.329852143768221, 1728509.609433586709201 ], [ 3376753.751121392007917, 1728511.846001651370898 ], [ 3376754.349204294383526, 1728514.375509276753291 ], [ 3376755.339480679482222, 1728517.141930879326537 ], [ 3376755.696616926696151, 1728517.817877515684813 ], [ 3376755.98023596405983, 1728518.344880835618824 ], [ 3376756.39648456312716, 1728519.141946996329352 ], [ 3376757.038732714951038, 1728520.35472125094384 ], [ 3376759.951525620184839, 1728525.793330010725185 ], [ 3376762.11821411177516, 1728530.006100364727899 ], [ 3376763.143946388270706, 1728532.001239458099008 ], [ 3376765.737406924366951, 1728535.941766929579899 ], [ 3376769.988734799902886, 1728539.808223681291565 ], [ 3376778.329302251338959, 1728546.006962239742279 ], [ 3376796.262675387784839, 1728558.005039950367063 ], [ 3376805.475836305879056, 1728565.257423110073432 ], [ 3376821.557398346252739, 1728578.731526478659362 ], [ 3376832.303413606248796, 1728589.173886537086219 ], [ 3376841.697675569914281, 1728598.823609191225842 ], [ 3376858.729062828235328, 1728619.553030389128253 ], [ 3376877.474816147238016, 1728643.794908236945048 ], [ 3376885.168900016695261, 1728652.971658421913162 ], [ 3376898.200033331289887, 1728668.070556694176048 ], [ 3376904.843663623090833, 1728675.759888922795653 ], [ 3376906.060228160582483, 1728677.068630199879408 ], [ 3376921.487929230090231, 1728693.673066324321553 ], [ 3376937.214356490410864, 1728710.368791925953701 ], [ 3376967.227854995056987, 1728739.980725935427472 ], [ 3376985.792726442217827, 1728757.474038651445881 ], [ 3377009.946911583188921, 1728778.329635879257694 ], [ 3377013.890732879284769, 1728781.713462534826249 ], [ 3377048.659344556741416, 1728811.542629125760868 ], [ 3377082.489934292156249, 1728840.28874969156459 ], [ 3377111.184642060659826, 1728864.77144836797379 ], [ 3377117.905515676829964, 1728870.423441984457895 ], [ 3377120.028600802645087, 1728872.206076599191874 ], [ 3377121.907403600867838, 1728873.787556947208941 ], [ 3377148.217723292298615, 1728895.906563995871693 ], [ 3377168.371348217129707, 1728913.206510818330571 ], [ 3377194.938054526224732, 1728936.008150616660714 ], [ 3377237.165759025607258, 1728972.061777417780831 ], [ 3377272.518160882405937, 1729003.053123073419556 ], [ 3377292.991662273183465, 1729019.645273375557736 ], [ 3377293.999063793104142, 1729020.44818844483234 ], [ 3377307.821551077999175, 1729008.207253403728828 ], [ 3377313.579367645084858, 1729011.808483963133767 ], [ 3377319.337169262580574, 1729015.409616826334968 ], [ 3377325.092528473120183, 1729019.529777689371258 ], [ 3377329.277734516654164, 1729018.240276833996177 ], [ 3377333.462940695695579, 1729016.950776557903737 ], [ 3377339.176434060093015, 1729013.831090529914945 ], [ 3377344.890027216635644, 1729010.711389328818768 ], [ 3377349.913241469301283, 1729004.055072382558137 ], [ 3377352.139396630227566, 1729000.321130986791104 ], [ 3377354.365567171014845, 1728996.58728826791048 ], [ 3377358.10250958474353, 1728992.380690656136721 ], [ 3377364.408034354448318, 1728990.144611669238657 ], [ 3377368.47645959071815, 1728989.091171358013526 ], [ 3377372.544870003592223, 1728988.037633328698575 ], [ 3377375.659401941113174, 1728987.671243563294411 ], [ 3377378.773933907039464, 1728987.304854078684002 ], [ 3377382.16364742256701, 1728985.769795626867563 ], [ 3377385.553276748862118, 1728984.234852335881442 ], [ 3377391.516424923203886, 1728981.753485368331894 ], [ 3377395.33348236232996, 1728979.548140429658815 ], [ 3377399.150639319326729, 1728977.342779595870525 ], [ 3377405.489993507042527, 1728977.337133287684992 ], [ 3377412.134838242549449, 1728975.860653013689443 ], [ 3377415.50044, 1728974.124690694734454 ], [ 3377415.50044, 1726968.547914291033521 ], [ 3377318.404022941831499, 1726780.542402808554471 ] ] ] } }
]
}
