{
"type": "FeatureCollection",
"name": "Picassent",
"crs": { "type": "name", "properties": { "name": "urn:ogc:def:crs:EPSG::3035" } },
"features": [
{ "type": "Feature", "properties": { "ENP_GRAL": 6.0, "ENP_GRAL_NAME": "Otros Espacios Naturales Protegidos", "color": "#7F8F0D" }, "geometry": { "type": "MultiPolygon", "coordinates": [ [ [ [ 3409549.307209059596062, 1866496.99638474592939 ], [ 3409584.623754002153873, 1866498.068075651302934 ], [ 3409603.082889045588672, 1866481.03458935325034 ], [ 3409602.58258891152218, 1866432.297352665336803 ], [ 3409612.728151677176356, 1866388.756661431398243 ], [ 3409654.642878762446344, 1866371.647023301571608 ], [ 3409659.020777684170753, 1866369.859693563077599 ], [ 3409682.021790656261146, 1866336.72377288271673 ], [ 3409725.535521924030036, 1866199.729493087157607 ], [ 3410880.472541343886405, 1866018.16548638464883 ], [ 3411035.171584018971771, 1866027.006618872983381 ], [ 3411103.930550220888108, 1865723.303912037750706 ], [ 3411524.743066481780261, 1865534.903564661974087 ], [ 3411831.05104654841125, 1865249.55657625477761 ], [ 3411885.783653591293842, 1865133.669506366364658 ], [ 3411749.633499493356794, 1864809.504228991921991 ], [ 3411568.721440314315259, 1864622.241846495075151 ], [ 3411373.51842583110556, 1864468.723443905590102 ], [ 3409999.828107360284775, 1863878.338108278112486 ], [ 3409087.288696835748851, 1863595.858611017698422 ], [ 3408325.589209965895861, 1864102.77774664061144 ], [ 3408159.160950898192823, 1864139.937377494759858 ], [ 3408153.657127452082932, 1864152.19892165157944 ], [ 3408072.044425302185118, 1864189.858981230761856 ], [ 3408034.743581113405526, 1864183.639589479193091 ], [ 3408027.188020806759596, 1864151.990105673437938 ], [ 3408013.579186752438545, 1864142.255561118712649 ], [ 3407993.403555626049638, 1864150.965921472525224 ], [ 3407957.59815631667152, 1864154.282209353055805 ], [ 3407936.524461335036904, 1864148.46560571808368 ], [ 3407911.600704173091799, 1864169.976782660232857 ], [ 3407866.838852867484093, 1864141.433130374876782 ], [ 3407834.968003747519106, 1864144.091872385470197 ], [ 3407801.087971369270235, 1864133.744283377658576 ], [ 3407733.170249625109136, 1864207.810960989445448 ], [ 3407623.895964307710528, 1864292.794572338229045 ], [ 3407548.01601783791557, 1864358.852423776639625 ], [ 3407505.778141166083515, 1864411.947813485283405 ], [ 3407491.351289635058492, 1864505.761112709762529 ], [ 3407464.694510190747678, 1864559.587617618963122 ], [ 3407494.17022951412946, 1864598.025268278084695 ], [ 3407574.726038715802133, 1864640.600235571619123 ], [ 3407537.05194842023775, 1864736.299201924586669 ], [ 3407581.221810881514102, 1864743.592598313000053 ], [ 3407636.070377242285758, 1864767.780835086945444 ], [ 3407659.958441188093275, 1864791.808234537718818 ], [ 3407581.061562911141664, 1864929.758871783735231 ], [ 3407549.477523337583989, 1864960.391271469648927 ], [ 3407584.915541768074036, 1865067.884964528027922 ], [ 3407565.945046294014901, 1865084.400041464949027 ], [ 3407535.311216278467327, 1865042.819975605001673 ], [ 3407513.834233385045081, 1865034.400972651084885 ], [ 3407467.982907491270453, 1864972.681801900500432 ], [ 3407419.075946160592139, 1864960.842830373439938 ], [ 3407388.616314999293536, 1865008.31886857165955 ], [ 3407388.616314999293536, 1865965.937573553994298 ], [ 3407400.454818481113762, 1865963.380539692705497 ], [ 3407679.255658963229507, 1866144.274334179004654 ], [ 3408167.573021188843995, 1867487.373358209151775 ], [ 3408168.151465322356671, 1867488.965130620868877 ], [ 3408178.920341871213168, 1867532.533226819708943 ], [ 3408220.177597511559725, 1867512.29131581611 ], [ 3408271.513978077098727, 1867505.04223795584403 ], [ 3408286.653571034781635, 1867481.161220533074811 ], [ 3408317.221977447159588, 1867461.372678012121469 ], [ 3408348.297197370324284, 1867436.161424571182579 ], [ 3408373.89874581573531, 1867462.571778344456106 ], [ 3408386.073549273423851, 1867515.245999980252236 ], [ 3408410.249031129293144, 1867567.247502397047356 ], [ 3408462.064636461436749, 1867606.620912936516106 ], [ 3408505.150035447906703, 1867563.39005336817354 ], [ 3408544.59005604730919, 1867548.79036265425384 ], [ 3408598.462331542279571, 1867514.431203822139651 ], [ 3408602.672107147984207, 1867511.85566815873608 ], [ 3409374.319182261824608, 1867039.778088050894439 ], [ 3409417.987106876447797, 1867013.064287214539945 ], [ 3409466.920328972861171, 1866956.978382125264034 ], [ 3409458.51076832646504, 1866919.473234043689445 ], [ 3409387.407940469216555, 1866814.189115699613467 ], [ 3409395.651801558677107, 1866776.544782226672396 ], [ 3409457.462030727881938, 1866721.578016075538471 ], [ 3409441.244027859997004, 1866689.417447339743376 ], [ 3409454.120079159736633, 1866663.552115191938356 ], [ 3409432.251586789265275, 1866558.408303451025859 ], [ 3409470.539200550410897, 1866524.110686344094574 ], [ 3409497.55241212528199, 1866480.540550312725827 ], [ 3409549.307209059596062, 1866496.99638474592939 ] ] ], [ [ [ 3411408.341426018625498, 1866939.453974147327244 ], [ 3411407.979070171248168, 1866939.082479025935754 ], [ 3411407.556405697949231, 1866938.780159794958308 ], [ 3411407.086275043431669, 1866938.55620228080079 ], [ 3411406.58296288875863, 1866938.417411309666932 ], [ 3411406.06176211964339, 1866938.368003983283415 ], [ 3411405.538509159348905, 1866938.409481527516618 ], [ 3411405.029102784115821, 1866938.540583656867966 ], [ 3411404.549021051730961, 1866938.75732691003941 ], [ 3411404.112851003184915, 1866939.053125646198168 ], [ 3411403.733845446724445, 1866939.418992168735713 ], [ 3411403.423520277254283, 1866939.84380981628783 ], [ 3411403.191304567735642, 1866940.314670711522922 ], [ 3411403.044254076201469, 1866940.81726798391901 ], [ 3411402.986836858093739, 1866941.336330473655835 ], [ 3411403.020797503646463, 1866941.856086713960394 ], [ 3411403.14510413678363, 1866942.360744187841192 ], [ 3411403.355979760177433, 1866942.834969121264294 ], [ 3411403.647017024923116, 1866943.264352441998199 ], [ 3411404.009372906759381, 1866943.635847540572286 ], [ 3411404.432037405669689, 1866943.938166739651933 ], [ 3411404.902168073225766, 1866944.162124222144485 ], [ 3411405.405480224639177, 1866944.30091514158994 ], [ 3411405.926680978387594, 1866944.3503224295564 ], [ 3411406.449933911673725, 1866944.308844859944656 ], [ 3411406.959340250585228, 1866944.177742708241567 ], [ 3411407.439421942923218, 1866943.960999453673139 ], [ 3411407.875591950956732, 1866943.665200725663453 ], [ 3411408.254597472026944, 1866943.299334220122546 ], [ 3411408.56492261774838, 1866942.874516610987484 ], [ 3411408.797138313762844, 1866942.403655752772465 ], [ 3411408.944188806694001, 1866941.901058520423248 ], [ 3411409.001606040634215, 1866941.381996071431786 ], [ 3411408.967645421624184, 1866940.862239856272936 ], [ 3411408.84333882573992, 1866940.357582405908033 ], [ 3411408.632463242858648, 1866939.883357475278899 ], [ 3411408.341426018625498, 1866939.453974147327244 ] ] ] ] } }
]
}
