{
"type": "FeatureCollection",
"name": "Sant_Mateu",
"crs": { "type": "name", "properties": { "name": "urn:ogc:def:crs:EPSG::3035" } },
"features": [
{ "type": "Feature", "properties": { "ENP_GRAL": 6.0, "ENP_GRAL_NAME": "Otros Espacios Naturales Protegidos", "color": "#7F8F0D" }, "geometry": { "type": "MultiPolygon", "coordinates": [ [ [ [ 3488800.151345616206527, 1979112.64804321480915 ], [ 3488799.7284288960509, 1979112.345490021398291 ], [ 3488799.258238018490374, 1979112.12128378613852 ], [ 3488798.755059495568275, 1979111.982236898737028 ], [ 3488798.234182150103152, 1979111.93257422815077 ], [ 3488797.711432578973472, 1979111.973804760957137 ], [ 3488797.202694264240563, 1979112.104675726732239 ], [ 3488796.723424963653088, 1979112.321210674475878 ], [ 3488796.288187033496797, 1979112.616830300772563 ], [ 3488795.910204960033298, 1979112.982552353525534 ], [ 3488795.600963540375233, 1979113.407264557434246 ], [ 3488795.369858918245882, 1979113.878062235191464 ], [ 3488795.223913092166185, 1979114.380640441551805 ], [ 3488795.167560552246869, 1979114.899728592950851 ], [ 3488795.202513541094959, 1979115.419554452877492 ], [ 3488795.327710029669106, 1979115.924323377665132 ], [ 3488795.539345983415842, 1979116.398698213510215 ], [ 3488795.830990948714316, 1979116.828265320276842 ], [ 3488796.193783440161496, 1979117.199972523842007 ], [ 3488796.616700190119445, 1979117.50252569350414 ], [ 3488797.086891083512455, 1979117.726731890114024 ], [ 3488797.590069609694183, 1979117.86577873583883 ], [ 3488798.11094694212079, 1979117.915441358927637 ], [ 3488798.633696487639099, 1979117.874210790498182 ], [ 3488799.142434767447412, 1979117.743339804466814 ], [ 3488799.621704027988017, 1979117.526804849039763 ], [ 3488800.056941916700453, 1979117.231185230659321 ], [ 3488800.434923951979727, 1979116.865463193040341 ], [ 3488800.744165343232453, 1979116.440751021495089 ], [ 3488800.975269948597997, 1979115.969953382154927 ], [ 3488801.121215771883726, 1979115.467375214910135 ], [ 3488801.177568323910236, 1979114.948287104256451 ], [ 3488801.142615360207856, 1979114.428461279021576 ], [ 3488801.017418907023966, 1979113.923692381707951 ], [ 3488800.805782994255424, 1979113.449317553080618 ], [ 3488800.514138070400804, 1979113.019750438630581 ], [ 3488800.151345616206527, 1979112.64804321480915 ] ] ], [ [ [ 3485715.911195711232722, 1981142.605419997125864 ], [ 3485725.677634238265455, 1981151.415195178240538 ], [ 3485732.065036891028285, 1981156.2129775818903 ], [ 3485739.957856526598334, 1981162.114165795966983 ], [ 3485744.913609669078141, 1981165.731342326384038 ], [ 3485749.761691535823047, 1981169.499293501488864 ], [ 3485761.617734488565475, 1981178.604130922583863 ], [ 3485772.226029912941158, 1981185.049284059088677 ], [ 3485782.853830973617733, 1981193.574692632537335 ], [ 3485793.753767067566514, 1981202.683446849230677 ], [ 3485814.760670156218112, 1981218.146982911741361 ], [ 3485823.875772084109485, 1981225.369088720297441 ], [ 3485830.282489876262844, 1981230.50543771754019 ], [ 3485843.35176508128643, 1981236.768713051220402 ], [ 3485851.599446176551282, 1981240.031783813145012 ], [ 3485861.28539347788319, 1981243.624486232176423 ], [ 3485871.499854207038879, 1981247.275479559553787 ], [ 3485881.052808035630733, 1981248.989223811309785 ], [ 3485892.538330131210387, 1981251.623761406634003 ], [ 3485905.164345135912299, 1981256.028702589683235 ], [ 3485920.942878426983953, 1981260.793952709529549 ], [ 3485936.572668774984777, 1981262.571240746648982 ], [ 3485949.880096065811813, 1981266.248489793390036 ], [ 3485962.186587144155055, 1981268.482000680407509 ], [ 3485975.701627496164292, 1981273.270034989574924 ], [ 3485992.473848359193653, 1981276.37603145907633 ], [ 3486004.817886358592659, 1981279.156980592990294 ], [ 3486019.791073527187109, 1981282.300145495450124 ], [ 3486040.438719502650201, 1981284.004165600053966 ], [ 3486052.819381416775286, 1981285.119733502389863 ], [ 3486066.144500155001879, 1981285.401330463588238 ], [ 3486089.912066485732794, 1981287.900401331717148 ], [ 3486142.174237946979702, 1981291.331822335952893 ], [ 3486160.967464037239552, 1981291.396780171897262 ], [ 3486191.600073458626866, 1981293.99145279545337 ], [ 3486206.16782343480736, 1981294.321552160196006 ], [ 3486219.729317674413323, 1981295.701093101641163 ], [ 3486228.650275712832808, 1981298.137769771972671 ], [ 3486241.167476835660636, 1981289.579901060787961 ], [ 3486233.727186521980911, 1981276.947164728539065 ], [ 3486227.935614198911935, 1981263.822035886580124 ], [ 3486217.169778374489397, 1981242.577239180682227 ], [ 3486209.737540169153363, 1981231.545419301604852 ], [ 3486194.264048673212528, 1981197.018873751861975 ], [ 3486172.55172411352396, 1981153.845914935693145 ], [ 3486165.115371283143759, 1981141.142698820913211 ], [ 3486160.88434671331197, 1981131.147657557623461 ], [ 3486155.251492775976658, 1981118.457909140270203 ], [ 3486151.725908671505749, 1981109.744934997754171 ], [ 3486146.977892723865807, 1981101.332299473928288 ], [ 3486141.067274338565767, 1981090.661520348163322 ], [ 3486134.695057347416878, 1981076.763082475401461 ], [ 3486130.070452575571835, 1981066.756651985924691 ], [ 3486125.679211174603552, 1981056.887454607523978 ], [ 3486120.47718512872234, 1981044.985748467035592 ], [ 3486112.650745412800461, 1981030.109161987202242 ], [ 3486104.018512528389692, 1981011.867620141711086 ], [ 3486094.073098259512335, 1980994.626547077437863 ], [ 3486089.192582229152322, 1980985.035705569200218 ], [ 3486076.786613641772419, 1980960.788375801872462 ], [ 3486072.940166264772415, 1980951.046405426692218 ], [ 3486062.767163062933832, 1980930.483720261370763 ], [ 3486056.970326039940119, 1980918.920777507591993 ], [ 3486051.248411621432751, 1980907.640793619910255 ], [ 3486045.984853933565319, 1980897.117107036989182 ], [ 3486041.773868480231613, 1980887.120044156443328 ], [ 3486034.256736329291016, 1980873.834250655490905 ], [ 3486030.671942612156272, 1980866.178216972621158 ], [ 3486027.07467050710693, 1980859.07453080592677 ], [ 3486023.93905946565792, 1980853.576658612117171 ], [ 3486018.524334333371371, 1980844.558867516228929 ], [ 3486012.306238868273795, 1980836.260670537361875 ], [ 3486007.356440270319581, 1980827.147203902015463 ], [ 3486006.05655262619257, 1980822.149560243589804 ], [ 3486001.954998154658824, 1980813.533859078772366 ], [ 3485991.060641606338322, 1980789.418269864981994 ], [ 3485987.069452372379601, 1980779.980294567300007 ], [ 3485984.948253497947007, 1980772.250576362246647 ], [ 3485981.46014639781788, 1980764.084954516496509 ], [ 3485976.761463384144008, 1980753.224994033109397 ], [ 3485648.908779525198042, 1981039.477661271579564 ], [ 3485656.583459083456546, 1981049.244232092518359 ], [ 3485661.839762896765023, 1981059.799118161667138 ], [ 3485669.790025480091572, 1981070.529700664570555 ], [ 3485675.602466418407857, 1981080.64904780453071 ], [ 3485681.258493734989315, 1981092.446018892573193 ], [ 3485687.593762775417417, 1981103.715756283840165 ], [ 3485693.845196626149118, 1981113.672307812608778 ], [ 3485700.00173160713166, 1981123.347418897785246 ], [ 3485707.130511156283319, 1981132.857390641933307 ], [ 3485715.911195711232722, 1981142.605419997125864 ] ] ], [ [ [ 3483554.01738805603236, 1986034.864578981650993 ], [ 3483532.624700183980167, 1986030.601800606120378 ], [ 3483521.003494122996926, 1986024.316766851581633 ], [ 3483511.677688934374601, 1986014.902722756378353 ], [ 3483500.385904940310866, 1986001.287350684637204 ], [ 3483487.916650797240436, 1985988.488547417800874 ], [ 3483463.541487119626254, 1985961.263755179243162 ], [ 3483450.088925013318658, 1985948.851965870242566 ], [ 3483428.459650924894959, 1985929.936434419360012 ], [ 3483419.859379843808711, 1985919.139685488305986 ], [ 3483417.357992138713598, 1985915.381330467062071 ], [ 3483410.909890348091722, 1985905.714393796399236 ], [ 3483402.949867823161185, 1985889.078338419087231 ], [ 3483391.794136316049844, 1985867.530864536995068 ], [ 3483382.080786280333996, 1985843.348801545798779 ], [ 3483377.259358280338347, 1985836.875481075840071 ], [ 3483373.619739812798798, 1985823.728700158419088 ], [ 3483373.845066527370363, 1985809.641219351207837 ], [ 3483376.473862270824611, 1985797.259297697804868 ], [ 3483380.669522214215249, 1985784.022601382108405 ], [ 3483385.468054315075278, 1985771.46741602034308 ], [ 3483387.531527648679912, 1985760.572742242831737 ], [ 3483389.549955834634602, 1985752.635677248705178 ], [ 3483390.929520319215953, 1985747.194214130751789 ], [ 3483395.851103943772614, 1985737.560084331547841 ], [ 3483400.357710088137537, 1985729.638559301616624 ], [ 3483403.101405539549887, 1985724.022886855062097 ], [ 3483403.255089784506708, 1985713.396120036020875 ], [ 3483400.98365120170638, 1985700.815619697794318 ], [ 3483394.468762959353626, 1985684.357773566618562 ], [ 3483388.076914688106626, 1985670.820974056608975 ], [ 3483386.759743117261678, 1985661.690436065429822 ], [ 3483379.416636321693659, 1985658.638642193516716 ], [ 3483370.688312592450529, 1985656.794265193864703 ], [ 3483352.164221560582519, 1985658.776595961069688 ], [ 3483335.273112166207284, 1985658.466009832452983 ], [ 3483320.0628243079409, 1985660.232502354541793 ], [ 3483311.145758199971169, 1985660.849407229805365 ], [ 3483303.813796991482377, 1985657.926652553956956 ], [ 3483292.127272306010127, 1985647.183218129212037 ], [ 3483280.245652284007519, 1985631.99407293391414 ], [ 3483278.590159068349749, 1985619.202780957100913 ], [ 3483282.932286550290883, 1985608.114021345274523 ], [ 3483286.187090796418488, 1985595.520455506397411 ], [ 3483288.232424695044756, 1985583.6065073099453 ], [ 3483287.458210127428174, 1985572.730683124158531 ], [ 3483283.730854670982808, 1985564.828330293530598 ], [ 3483261.340913604479283, 1985581.526632773922756 ], [ 3483221.925399122294039, 1985547.482525900937617 ], [ 3483206.324344888329506, 1985535.372281317133456 ], [ 3483175.896631495095789, 1985512.066736416658387 ], [ 3483143.450441303197294, 1985547.433693137718365 ], [ 3483140.971125533338636, 1985589.683457283070311 ], [ 3483105.863823634572327, 1985622.348941241623834 ], [ 3483093.377047754824162, 1985617.340477659134194 ], [ 3483087.844009278807789, 1985620.287431115051731 ], [ 3483078.000064974185079, 1985615.799897297518328 ], [ 3483070.132325829006732, 1985625.593668283894658 ], [ 3483063.565659582149237, 1985637.381828134646639 ], [ 3483053.44900617795065, 1985663.464491507504135 ], [ 3483027.09845690568909, 1985670.501512704882771 ], [ 3483018.807738864794374, 1985671.026846691034734 ], [ 3483017.103444534353912, 1985680.724900889210403 ], [ 3483014.504448751918972, 1985689.389657228253782 ], [ 3483010.058258095756173, 1985698.706870948895812 ], [ 3483005.307025644928217, 1985704.740352459484711 ], [ 3482989.26750831771642, 1985693.143824741942808 ], [ 3482973.226992586161941, 1985681.546759693650529 ], [ 3482968.075911998748779, 1985679.61149522010237 ], [ 3482933.391269987914711, 1985650.998711911495775 ], [ 3482935.287125294096768, 1985610.378040765412152 ], [ 3482912.251181483734399, 1985602.383034051861614 ], [ 3482884.727654404006898, 1985598.473516261903569 ], [ 3482862.009850995615125, 1985597.845317339990288 ], [ 3482846.011045412160456, 1985599.459307935088873 ], [ 3482821.682715040631592, 1985600.341125420993194 ], [ 3482797.007508515380323, 1985601.51726647792384 ], [ 3482775.841652234084904, 1985601.947726728627458 ], [ 3482757.106313473545015, 1985601.268186965724453 ], [ 3482746.394458459690213, 1985594.093083394691348 ], [ 3482733.379625159781426, 1985584.051114414585754 ], [ 3482720.822125390172005, 1985571.51155873760581 ], [ 3482687.415595328900963, 1985547.988866322906688 ], [ 3482668.224717450328171, 1985534.770430945092812 ], [ 3482654.494176897220314, 1985525.29946827259846 ], [ 3482638.317840988282114, 1985514.677634109742939 ], [ 3482623.408240796998143, 1985506.814337801886722 ], [ 3482604.258341568987817, 1985499.047844053478912 ], [ 3482600.107093194499612, 1985498.084837341681123 ], [ 3482580.256391920149326, 1985493.490701774368063 ], [ 3482536.32670658826828, 1985485.118827159516513 ], [ 3482502.996779446490109, 1985466.183851723093539 ], [ 3482485.164475948549807, 1985451.800704503897578 ], [ 3482480.318252603057772, 1985448.863763414788991 ], [ 3482473.208487065508962, 1985444.557891591219231 ], [ 3482451.846516346558928, 1985431.613242114661261 ], [ 3482447.956420936621726, 1985429.252964313374832 ], [ 3482447.828881248366088, 1985429.175372277852148 ], [ 3482446.915205529890954, 1985428.624618455534801 ], [ 3482419.913514532148838, 1985412.881168517516926 ], [ 3482395.719435052014887, 1985479.011226169299334 ], [ 3482374.786029690876603, 1985467.405964426696301 ], [ 3482357.945156629197299, 1985459.562547776149586 ], [ 3482335.92948579788208, 1985453.4596677783411 ], [ 3482313.548319398425519, 1985447.552896563662216 ], [ 3482266.080677564255893, 1985438.668601095443591 ], [ 3482224.459512242116034, 1985418.166988347424194 ], [ 3482222.524293877650052, 1985417.216220094589517 ], [ 3482180.408098029904068, 1985403.991271360544488 ], [ 3482157.879666077438742, 1985395.92674716655165 ], [ 3482137.000435716938227, 1985388.650972610106692 ], [ 3482107.827377165202051, 1985378.967826172243804 ], [ 3482090.010386561974883, 1985373.563129066955298 ], [ 3482074.937711542472243, 1985371.352205203380436 ], [ 3482062.949816669337451, 1985370.229270811192691 ], [ 3482043.881695823743939, 1985368.96208429033868 ], [ 3482042.519585080910474, 1985379.237158343195915 ], [ 3481998.67530074948445, 1985371.498299300204962 ], [ 3481999.646162936929613, 1985364.945663892896846 ], [ 3481980.823773237876594, 1985365.11593090929091 ], [ 3481960.457760127261281, 1985364.206833860371262 ], [ 3481942.067754400894046, 1985364.835105351405218 ], [ 3481921.82294955290854, 1985366.246531521901488 ], [ 3481908.343646040186286, 1985370.436046370305121 ], [ 3481897.021972982678562, 1985373.502273276215419 ], [ 3481885.125547613017261, 1985378.29683962254785 ], [ 3481874.848774261306971, 1985386.666065010009333 ], [ 3481844.272900858428329, 1985410.647765554487705 ], [ 3481825.26051351102069, 1985394.038411620305851 ], [ 3481827.95238557877019, 1985372.770700969966128 ], [ 3481829.383347554132342, 1985357.032837891718373 ], [ 3481831.193058885168284, 1985341.367933719186112 ], [ 3481835.012710466980934, 1985326.356103021418676 ], [ 3481837.484845411963761, 1985318.774798618629575 ], [ 3481836.899505670648068, 1985292.003199826227501 ], [ 3481801.089950836729258, 1985295.036445173667744 ], [ 3481796.657703727018088, 1985295.59268000209704 ], [ 3481785.966464005876333, 1985293.981856612954289 ], [ 3481777.240661914460361, 1985295.060759556246921 ], [ 3481768.700201502069831, 1985295.490754364058375 ], [ 3481759.725733329541981, 1985296.604148085461929 ], [ 3481750.553618552628905, 1985300.540029294323176 ], [ 3481743.837582796812057, 1985303.543440214591101 ], [ 3481735.040235873777419, 1985311.907289412571117 ], [ 3481725.151019126642495, 1985319.637848183978349 ], [ 3481718.648177212569863, 1985325.673644655849785 ], [ 3481712.617030164692551, 1985329.490589561406523 ], [ 3481702.140182529110461, 1985336.137766767060384 ], [ 3481690.345872373320162, 1985347.549580204300582 ], [ 3481685.732214267365634, 1985355.51177013060078 ], [ 3481672.639653074555099, 1985341.333253398537636 ], [ 3481668.542599391192198, 1985339.023542273091152 ], [ 3481639.524537257384509, 1985311.896407403750345 ], [ 3481605.917789031751454, 1985283.288842935115099 ], [ 3481592.796159012243152, 1985273.988578427117318 ], [ 3481578.038093153852969, 1985261.265425004530698 ], [ 3481563.858980549499393, 1985250.91799916792661 ], [ 3481548.839210458565503, 1985242.134949370520189 ], [ 3481531.021080414298922, 1985230.924285493092611 ], [ 3481515.652756340801716, 1985222.41575943143107 ], [ 3481497.542291874531657, 1985214.907908389111981 ], [ 3481482.494102386757731, 1985209.851697309175506 ], [ 3481465.105252414476126, 1985203.464198149740696 ], [ 3481458.770986406132579, 1985201.825051164021716 ], [ 3481447.608467375859618, 1985196.066148966783658 ], [ 3481436.98893430409953, 1985188.331705624703318 ], [ 3481425.862724021542817, 1985179.51578497630544 ], [ 3481411.743867911864072, 1985166.850037458352745 ], [ 3481398.034674486611038, 1985156.696697067236528 ], [ 3481382.771852588281035, 1985143.032252029981464 ], [ 3481378.466752937529236, 1985139.371465815929696 ], [ 3481369.300857660360634, 1985131.564070258988068 ], [ 3481358.924180735833943, 1985119.210652572102845 ], [ 3481348.425358409062028, 1985109.85260701389052 ], [ 3481293.709916959516704, 1985081.520721952663735 ], [ 3481334.582303356379271, 1985021.137029041768983 ], [ 3481348.010328219272196, 1985011.146032828371972 ], [ 3481331.198661950416863, 1985003.059968865243718 ], [ 3481316.455892671365291, 1984995.030559844803065 ], [ 3481300.936590559314936, 1984984.785100957844406 ], [ 3481293.95533711463213, 1984979.52573873125948 ], [ 3481281.394105504266918, 1984971.922306603752077 ], [ 3481268.290645001921803, 1984965.493581729708239 ], [ 3481262.155717932619154, 1984962.673656756756827 ], [ 3481253.410437077749521, 1984975.45719909388572 ], [ 3481244.595033743884414, 1984974.693077018251643 ], [ 3481230.491647788323462, 1984970.545048624044284 ], [ 3481214.077218810096383, 1984964.131806378718466 ], [ 3481199.384366911370307, 1984956.097507910104468 ], [ 3481205.361679686699063, 1984941.353879230096936 ], [ 3481168.922772309742868, 1984920.123131475644186 ], [ 3481139.599953745026141, 1984902.576844073832035 ], [ 3481133.49456753814593, 1984897.20130465994589 ], [ 3481121.130348686128855, 1984891.400529861683026 ], [ 3481109.015101870056242, 1984886.496317157754675 ], [ 3481096.491634963080287, 1984882.222858947468922 ], [ 3481082.662124904803932, 1984880.760929960291833 ], [ 3481072.252568982541561, 1984880.073592426721007 ], [ 3481060.10523562412709, 1984878.506066175643355 ], [ 3481050.14384210202843, 1984874.751418898813426 ], [ 3481039.201552505604923, 1984872.684906242415309 ], [ 3481033.156358586158603, 1984872.749275540700182 ], [ 3481027.874486495740712, 1984883.680475331144407 ], [ 3481018.986956636421382, 1984896.217882886063308 ], [ 3481008.346690582111478, 1984910.2492639136035 ], [ 3481002.991772961337119, 1984922.308775551849976 ], [ 3480997.64954960718751, 1984933.356045481050387 ], [ 3480994.533097513951361, 1984944.874972181627527 ], [ 3480993.045532483607531, 1984957.064405491808429 ], [ 3480994.031037061475217, 1984970.60225166962482 ], [ 3480993.970336819067597, 1984982.991647608578205 ], [ 3480992.674008483998477, 1984997.845252136467025 ], [ 3480986.731362054590136, 1985013.566649217624217 ], [ 3480981.490168002434075, 1985029.829547110246494 ], [ 3480976.340294332709163, 1985050.037864700425416 ], [ 3480973.870976030826569, 1985061.473094977904111 ], [ 3480973.079604333266616, 1985078.429309471743181 ], [ 3480969.397598219104111, 1985100.235075970413163 ], [ 3480965.643242956139147, 1985126.652858879417181 ], [ 3480960.693123157601804, 1985150.665688101667911 ], [ 3480960.096022987738252, 1985168.233542595524341 ], [ 3480961.231078292708844, 1985183.028040740638971 ], [ 3480959.904232325032353, 1985196.603265259414911 ], [ 3480953.408108493778855, 1985206.652858285000548 ], [ 3480944.670368564780802, 1985211.877663907827809 ], [ 3480931.9104875465855, 1985219.940928611438721 ], [ 3480918.933909958228469, 1985228.405953308800235 ], [ 3480905.674336486496031, 1985237.66964341676794 ], [ 3480893.040997246745974, 1985247.882918886141852 ], [ 3480884.00506055355072, 1985258.1324358927086 ], [ 3480877.671265132725239, 1985267.38530061324127 ], [ 3480868.819629344157875, 1985276.97598823858425 ], [ 3480860.360572318080813, 1985284.595965101616457 ], [ 3480848.52178404154256, 1985290.746676260139793 ], [ 3480836.70521907415241, 1985295.99415871524252 ], [ 3480823.187026776839048, 1985297.765153697691858 ], [ 3480809.812270865775645, 1985296.438695057528093 ], [ 3480777.911304344888777, 1985302.16147916787304 ], [ 3480767.429132425691932, 1985303.533601139206439 ], [ 3480757.483475553803146, 1985307.255557633005083 ], [ 3480733.363502915017307, 1985319.09994193771854 ], [ 3480723.888441026210785, 1985326.729899851838127 ], [ 3480714.53055266616866, 1985335.359293594025075 ], [ 3480703.088225272484124, 1985343.753516548778862 ], [ 3480691.622819289099425, 1985353.040931391529739 ], [ 3480678.386371412780136, 1985361.411550470395014 ], [ 3480666.190425243228674, 1985367.737583287060261 ], [ 3480653.743294646032155, 1985368.852581586455926 ], [ 3480646.495827123522758, 1985367.253523628227413 ], [ 3480630.898464427795261, 1985357.035901226103306 ], [ 3480620.974312324076891, 1985345.949671553447843 ], [ 3480615.152438074816018, 1985329.474151084199548 ], [ 3480610.981868901755661, 1985313.927269391715527 ], [ 3480605.629751336295158, 1985301.349793660687283 ], [ 3480595.895448603667319, 1985286.540797924622893 ], [ 3480585.123126987367868, 1985271.603725488064811 ], [ 3480573.428808575030416, 1985258.569427315378562 ], [ 3480560.007243893109262, 1985246.165520063834265 ], [ 3480548.11583346594125, 1985235.843555359402671 ], [ 3480535.204124656505883, 1985221.197221964597702 ], [ 3480520.867767008021474, 1985205.449642077786848 ], [ 3480509.123973406851292, 1985189.87744401791133 ], [ 3480498.193589328788221, 1985172.543343061348423 ], [ 3480488.710377952083945, 1985155.527302146190777 ], [ 3480481.082601379603148, 1985140.050476098433137 ], [ 3480471.885412681847811, 1985126.44000179739669 ], [ 3480453.810615832917392, 1985103.011801579734311 ], [ 3480414.578896383289248, 1985166.508453928167 ], [ 3480409.083412325941026, 1985155.987422403879464 ], [ 3480398.597869012039155, 1985144.46589626185596 ], [ 3480386.42623654473573, 1985133.931308974744752 ], [ 3480424.311726227402687, 1985067.804140841122717 ], [ 3480399.525837497785687, 1985038.749665503390133 ], [ 3480392.610493591055274, 1985048.26006499514915 ], [ 3480314.897017682436854, 1985155.157942526973784 ], [ 3480279.340568156447262, 1985204.067460200749338 ], [ 3480264.817976534366608, 1985224.047241155523807 ], [ 3480264.847675224766135, 1985232.263353899586946 ], [ 3480264.86407293798402, 1985237.317152442643419 ], [ 3480264.940518198534846, 1985240.743424283806235 ], [ 3480265.038406951818615, 1985245.228628580691293 ], [ 3480265.230530431028455, 1985253.228467477718368 ], [ 3480264.847106724511832, 1985258.662153078475967 ], [ 3480263.995913684368134, 1985270.758936229161918 ], [ 3480263.751371842809021, 1985277.210027855355293 ], [ 3480263.266365807969123, 1985290.392097011674196 ], [ 3480262.658711111638695, 1985303.205810819519684 ], [ 3480262.353003398515284, 1985309.53279949631542 ], [ 3480260.733869638293982, 1985331.325742050539702 ], [ 3480257.749775260686874, 1985355.715687345247716 ], [ 3480254.850939255673438, 1985373.2098520740401 ], [ 3480252.628013373352587, 1985394.31138191302307 ], [ 3480248.938198066316545, 1985413.825524374842644 ], [ 3480246.34005562402308, 1985424.702885465929285 ], [ 3480243.807464816141874, 1985435.293469869531691 ], [ 3480242.251564690377563, 1985442.874682887922972 ], [ 3480240.617899321485311, 1985450.834034287836403 ], [ 3480240.56699241977185, 1985451.059224675642326 ], [ 3480240.356569517403841, 1985452.691704844823107 ], [ 3480238.20823822543025, 1985468.860586097463965 ], [ 3480236.688743143342435, 1985476.858789002289996 ], [ 3480234.746529899537563, 1985487.060858555603772 ], [ 3480229.99938369449228, 1985505.297547872876748 ], [ 3480227.034311597701162, 1985514.619262160733342 ], [ 3480224.313162834849209, 1985523.156203370075673 ], [ 3480219.138986612204462, 1985540.303660597419366 ], [ 3480217.614487734623253, 1985545.349088718881831 ], [ 3480210.357388583943248, 1985566.215528613654897 ], [ 3480206.304369112476707, 1985580.739929259289056 ], [ 3480204.61387168802321, 1985586.77268596412614 ], [ 3480200.148018722888082, 1985608.245335273910314 ], [ 3480170.206862418912351, 1985642.296755133895203 ], [ 3480163.096752553246915, 1985655.009794631740078 ], [ 3480145.156903642229736, 1985687.098976998589933 ], [ 3480136.939651690423489, 1985701.783028109930456 ], [ 3480141.673590949270874, 1985705.281347199808806 ], [ 3480154.336695927195251, 1985714.636301568476483 ], [ 3480172.109627292491496, 1985728.453750065993518 ], [ 3480191.253800977487117, 1985744.148286123294383 ], [ 3480212.609745817258954, 1985762.238051187712699 ], [ 3480230.956943436525762, 1985775.598521878011525 ], [ 3480248.354660511948168, 1985787.300562978954986 ], [ 3480271.522756669204682, 1985798.904979778919369 ], [ 3480295.68467508116737, 1985811.402791186468676 ], [ 3480318.640137211885303, 1985821.2563125139568 ], [ 3480355.996432365849614, 1985834.627622152678668 ], [ 3480377.448969690594822, 1985843.638043390586972 ], [ 3480396.307055524084717, 1985853.494473892496899 ], [ 3480416.661012744531035, 1985869.670807208167389 ], [ 3480433.278170669451356, 1985883.512021000497043 ], [ 3480446.489955916535109, 1985897.788475617067888 ], [ 3480458.418681837618351, 1985909.928871093317866 ], [ 3480467.746623911429197, 1985918.440978398080915 ], [ 3480483.246509718708694, 1985917.115453698905185 ], [ 3480499.065067729447037, 1985909.611833401024342 ], [ 3480513.303689905442297, 1985905.126888030208647 ], [ 3480524.943820800632238, 1985903.640710877953097 ], [ 3480543.259879676159471, 1985906.683095148298889 ], [ 3480561.684254787862301, 1985908.423435240518302 ], [ 3480579.124571822118014, 1985910.540896793827415 ], [ 3480595.941004923544824, 1985910.577445078874007 ], [ 3480614.98538776487112, 1985918.753905708901584 ], [ 3480637.060286263003945, 1985932.02793725929223 ], [ 3480654.664493902586401, 1985942.16806927905418 ], [ 3480692.454046491999179, 1985964.807276442181319 ], [ 3480710.725810415577143, 1985977.41453741164878 ], [ 3480728.639763058628887, 1985991.348492220509797 ], [ 3480733.017390892840922, 1985980.326015133410692 ], [ 3480736.629979462828487, 1985968.377765311626717 ], [ 3480740.059277086518705, 1985955.826859390828758 ], [ 3480744.242624289356172, 1985945.464200013317168 ], [ 3480753.190292471088469, 1985936.284381390316412 ], [ 3480765.616542979609221, 1985928.323860791046172 ], [ 3480782.039619318209589, 1985922.793090288294479 ], [ 3480797.832301439251751, 1985919.506749097025022 ], [ 3480819.1714754300192, 1985914.242927844170481 ], [ 3480839.366881153080612, 1985907.980494253570214 ], [ 3480875.809493388980627, 1985897.986625622026622 ], [ 3480892.48877882771194, 1985894.593023359542713 ], [ 3480919.205352370161563, 1985885.866709857946262 ], [ 3480934.134423232637346, 1985880.753333200700581 ], [ 3480956.675525632221252, 1985873.679507668595761 ], [ 3480979.875371430069208, 1985866.771023267880082 ], [ 3480996.370376317296177, 1985864.036308928858489 ], [ 3481012.17375847324729, 1985862.030394269851968 ], [ 3480998.948846663348377, 1985848.645914332708344 ], [ 3480989.549022360704839, 1985837.337699445430189 ], [ 3480980.062817404512316, 1985825.267119560856372 ], [ 3480969.229170684702694, 1985810.43603325705044 ], [ 3480985.741475133690983, 1985811.143432429526001 ], [ 3481006.487122907768935, 1985815.148159935604781 ], [ 3481025.037570371758193, 1985820.189888635650277 ], [ 3481039.392930663190782, 1985827.816941142780706 ], [ 3481052.867603040765971, 1985838.86419993522577 ], [ 3481064.664807788096368, 1985852.038787321653217 ], [ 3481071.945394678972661, 1985865.027200772427022 ], [ 3481078.921854921616614, 1985878.686308168107644 ], [ 3481093.970165699720383, 1985904.475052217487246 ], [ 3481100.006691774353385, 1985917.746061989106238 ], [ 3481109.097505771555007, 1985945.302501180907711 ], [ 3481112.843004734721035, 1985958.73900898755528 ], [ 3481117.594102458562702, 1985972.046415607212111 ], [ 3481125.588848802726716, 1985984.564171926816925 ], [ 3481137.94124040659517, 1985994.861020381329581 ], [ 3481150.154689466580749, 1986002.748954479815438 ], [ 3481166.672840870451182, 1986009.081939268391579 ], [ 3481179.835568324662745, 1986018.508246415993199 ], [ 3481191.349347477778792, 1986024.833257985534146 ], [ 3481206.673531116452068, 1986025.307199833448976 ], [ 3481220.022529054898769, 1986024.253760819789022 ], [ 3481232.698404058814049, 1986025.06846865080297 ], [ 3481255.129568935837597, 1986029.237840366084129 ], [ 3481278.985884548630565, 1986034.628490408649668 ], [ 3481294.940483096055686, 1986041.657688956009224 ], [ 3481308.1603823909536, 1986049.42659642198123 ], [ 3481317.632429370190948, 1986064.692046787822619 ], [ 3481325.033205532468855, 1986085.317178840748966 ], [ 3481332.651175452861935, 1986105.66057216655463 ], [ 3481336.492833275813609, 1986121.129837898071855 ], [ 3481343.11561052268371, 1986141.721299479249865 ], [ 3481349.613240346312523, 1986159.021498366259038 ], [ 3481351.53890327597037, 1986176.771696566836908 ], [ 3481359.714891135692596, 1986200.754166717175394 ], [ 3481378.55536358198151, 1986236.000659686047584 ], [ 3481389.873768684454262, 1986252.816452965140343 ], [ 3481402.806305251084268, 1986265.84937378228642 ], [ 3481422.684143525082618, 1986253.501768626505509 ], [ 3481444.846124256029725, 1986237.665754646761343 ], [ 3481460.596186531707644, 1986225.203760659787804 ], [ 3481479.249182406812906, 1986215.559537652414292 ], [ 3481501.859122577123344, 1986191.210183924296871 ], [ 3481519.387029595673084, 1986176.731306550325826 ], [ 3481541.312453499063849, 1986159.447025245754048 ], [ 3481562.941259671002626, 1986139.909490175079554 ], [ 3481585.898533622734249, 1986119.670492094941437 ], [ 3481611.55443761497736, 1986099.436308830976486 ], [ 3481637.289501232560724, 1986077.912969385506585 ], [ 3481674.789291114546359, 1986045.911772005259991 ], [ 3481695.295722926035523, 1986026.664887153776363 ], [ 3481719.065924294292927, 1986004.774348840815946 ], [ 3481754.72366704698652, 1985971.502813382307068 ], [ 3481718.938313374295831, 1985794.606932952068746 ], [ 3481716.730726566631347, 1985782.530773474136367 ], [ 3481711.696988136507571, 1985769.561412311159074 ], [ 3481708.087040165904909, 1985757.683266517706215 ], [ 3481702.560735175386071, 1985742.870228545740247 ], [ 3481697.137208971194923, 1985730.86027315678075 ], [ 3481690.859697881154716, 1985714.239210123661906 ], [ 3481682.0997961666435, 1985698.362883831840008 ], [ 3481674.195740891620517, 1985685.035323954885826 ], [ 3481668.892523392103612, 1985676.957763092825189 ], [ 3481645.986977458000183, 1985663.975203331327066 ], [ 3481627.760491490364075, 1985653.395330582512543 ], [ 3481611.524465045891702, 1985645.212470644619316 ], [ 3481594.940486280247569, 1985638.35513365524821 ], [ 3481580.801490645855665, 1985633.449683214537799 ], [ 3481565.442706781439483, 1985629.104728800710291 ], [ 3481552.08246570173651, 1985628.177066481439397 ], [ 3481537.98861819691956, 1985627.611890279687941 ], [ 3481519.272903164383024, 1985628.082276062574238 ], [ 3481491.753149262163788, 1985631.971797795966268 ], [ 3481476.362096359021962, 1985642.195987629238516 ], [ 3481458.83885186444968, 1985654.762238038238138 ], [ 3481441.070438599679619, 1985668.213684517191723 ], [ 3481428.690891530830413, 1985676.019152265507728 ], [ 3481416.79353210888803, 1985695.510036523919553 ], [ 3481401.520974459126592, 1985706.633574547478929 ], [ 3481392.598892638925463, 1985672.793687309138477 ], [ 3481383.157111381180584, 1985641.197358285775408 ], [ 3481393.12537745712325, 1985637.503415000624955 ], [ 3481401.926136969588697, 1985634.855350505793467 ], [ 3481408.981764701660722, 1985627.073256054660305 ], [ 3481420.984618643298745, 1985598.141689359908924 ], [ 3481433.123449768871069, 1985576.795109994011 ], [ 3481448.693813257850707, 1985552.187557545490563 ], [ 3481467.637494511902332, 1985521.912301748758182 ], [ 3481400.910908166319132, 1985470.645937535446137 ], [ 3481405.348227148875594, 1985460.308480537030846 ], [ 3481408.233787102624774, 1985448.912402186542749 ], [ 3481412.319578952621669, 1985403.491154897492379 ], [ 3481416.405334949027747, 1985358.070044074906036 ], [ 3481417.167224212549627, 1985347.203258154913783 ], [ 3481417.929131568875164, 1985336.336571749765426 ], [ 3481418.522516617551446, 1985326.252234873827547 ], [ 3481419.115804985165596, 1985316.167915523285046 ], [ 3481427.721483213361353, 1985316.37214756780304 ], [ 3481433.049660400487483, 1985318.135305295931175 ], [ 3481438.377822109963745, 1985319.898365082917735 ], [ 3481444.872463512700051, 1985322.918255372904241 ], [ 3481451.366990428417921, 1985325.938064366579056 ], [ 3481458.070245220325887, 1985330.779445193707943 ], [ 3481464.773484672419727, 1985335.620728064794093 ], [ 3481470.477132765576243, 1985340.139983156463131 ], [ 3481476.180864548310637, 1985344.659123616525903 ], [ 3481479.885886096395552, 1985348.539174913661554 ], [ 3481483.590907776728272, 1985352.419226300437003 ], [ 3481488.019742092117667, 1985355.882624734193087 ], [ 3481492.448675449937582, 1985359.34600678505376 ], [ 3481496.668943888973445, 1985343.90432408824563 ], [ 3481500.889202982187271, 1985328.462546869413927 ], [ 3481514.066294120624661, 1985341.876873632892966 ], [ 3481527.243371388874948, 1985355.291103145573288 ], [ 3481533.569394645746797, 1985339.982578883646056 ], [ 3481539.895325222518295, 1985324.674076134804636 ], [ 3481571.857160746119916, 1985356.016242551384494 ], [ 3481603.818920384161174, 1985387.358530544675887 ], [ 3481619.240815609693527, 1985370.654310746351257 ], [ 3481637.038843948859721, 1985385.455893460894004 ], [ 3481654.836972382385284, 1985400.257462072884664 ], [ 3481642.812417545355856, 1985407.977934713708237 ], [ 3481634.304203983861953, 1985414.281147310277447 ], [ 3481625.795991864986718, 1985420.584362984402105 ], [ 3481627.801776161417365, 1985422.579464916838333 ], [ 3481650.089151275344193, 1985429.956629666732624 ], [ 3481662.720564326271415, 1985442.99912895867601 ], [ 3481668.049352386035025, 1985449.402362753637135 ], [ 3481713.909500483423471, 1985419.411608279915527 ], [ 3481715.533072029706091, 1985426.970285588875413 ], [ 3481715.872482545673847, 1985434.465106592979282 ], [ 3481716.849379217252135, 1985441.997216157848015 ], [ 3481719.109214236028492, 1985449.463299533119425 ], [ 3481724.849888928234577, 1985455.045037077274173 ], [ 3481732.092507300898433, 1985459.257690687896684 ], [ 3481737.217247659806162, 1985465.05023718602024 ], [ 3481741.614249978214502, 1985473.126830911030993 ], [ 3481744.099473283626139, 1985481.331539131235331 ], [ 3481747.852575364988297, 1985492.424686556914821 ], [ 3481749.763195893261582, 1985502.1275129748974 ], [ 3481752.406974568963051, 1985511.577942360891029 ], [ 3481756.477296715136617, 1985521.108199426904321 ], [ 3481763.262511889915913, 1985527.818591426825151 ], [ 3481773.453890840988606, 1985535.955628987634555 ], [ 3481780.22380771394819, 1985544.459427651017904 ], [ 3481784.524355000350624, 1985551.774744849884883 ], [ 3481784.379823026712984, 1985558.566380041185766 ], [ 3481781.74889450147748, 1985566.984149982919917 ], [ 3481777.210104477126151, 1985580.324864073423669 ], [ 3481772.042769106570631, 1985588.751993343932554 ], [ 3481758.63553292164579, 1985596.603205022402108 ], [ 3481761.252199355512857, 1985601.286404031561688 ], [ 3481774.560828442685306, 1985600.577428526245058 ], [ 3481782.002994492184371, 1985613.339801016030833 ], [ 3481791.621172566432506, 1985626.929127390030771 ], [ 3481803.916834952309728, 1985640.395301099400967 ], [ 3481817.65626455238089, 1985650.085344979772344 ], [ 3481836.647031342610717, 1985661.581180467503145 ], [ 3481876.009127534925938, 1985690.263429010054097 ], [ 3481885.948964096605778, 1985700.487477683229372 ], [ 3481909.687108249869198, 1985698.03149988478981 ], [ 3481921.980515772476792, 1985697.572628196328878 ], [ 3481935.32322341343388, 1985696.329764879541472 ], [ 3481954.880270532332361, 1985696.387544090859592 ], [ 3481966.492702911607921, 1985696.666471436619759 ], [ 3481996.561444884166121, 1985701.366077661048621 ], [ 3482013.284159985836595, 1985704.375614308286458 ], [ 3482037.665869523305446, 1985713.839450494619086 ], [ 3482047.935284430161119, 1985720.557438500924036 ], [ 3482058.223065027967095, 1985729.455991197377443 ], [ 3482075.712902446743101, 1985756.11601250921376 ], [ 3482098.090103594586253, 1985788.732194007374346 ], [ 3482118.869897775352001, 1985820.925002183299512 ], [ 3482125.736789455637336, 1985834.134517525788397 ], [ 3482133.892844610847533, 1985850.360621027415618 ], [ 3482144.131475840229541, 1985866.802276062779129 ], [ 3482155.020928848534822, 1985886.213179823709652 ], [ 3482186.220188037492335, 1985936.231453513260931 ], [ 3482195.621764111332595, 1985955.087953529553488 ], [ 3482204.270324107725173, 1985973.157752012601122 ], [ 3482210.26032813731581, 1985987.514740607701242 ], [ 3482217.876580191776156, 1986003.553723668679595 ], [ 3482225.482029091566801, 1986024.449032799573615 ], [ 3482229.494360905140638, 1986040.492268976988271 ], [ 3482232.956438731402159, 1986056.229217784712091 ], [ 3482234.717555026523769, 1986069.77095969975926 ], [ 3482236.734121929854155, 1986080.34440653398633 ], [ 3482243.531165197491646, 1986095.993476462783292 ], [ 3482249.685120959300548, 1986104.708213340956718 ], [ 3482259.751662948634475, 1986110.945612462935969 ], [ 3482271.429946176707745, 1986110.707530058221892 ], [ 3482284.643798235803843, 1986109.48743669455871 ], [ 3482303.297401423100382, 1986107.491895818151534 ], [ 3482319.459602870978415, 1986105.210963544202968 ], [ 3482336.850602584891021, 1986103.399671070976183 ], [ 3482353.21462535392493, 1986102.630537131801248 ], [ 3482371.314460711088032, 1986102.371364487102255 ], [ 3482383.895295249763876, 1986104.176829221891239 ], [ 3482415.314109435770661, 1986113.288988209795207 ], [ 3482429.244186669122428, 1986119.496652178931981 ], [ 3482441.446966139599681, 1986126.334862114628777 ], [ 3482454.755191368050873, 1986135.697185867698863 ], [ 3482468.413511696271598, 1986147.698030742350966 ], [ 3482476.942557680886239, 1986157.790810159873217 ], [ 3482481.768617437686771, 1986160.379290944896638 ], [ 3482487.642141537740827, 1986149.189779905369505 ], [ 3482491.840764011722058, 1986139.927071137819439 ], [ 3482493.124942793976516, 1986130.030014944961295 ], [ 3482491.862676569260657, 1986120.373466472141445 ], [ 3482488.79575299564749, 1986111.615212162025273 ], [ 3482486.184522910043597, 1986101.380635006353259 ], [ 3482484.635267268866301, 1986094.445342521881685 ], [ 3482490.574707663618028, 1986097.565033643739298 ], [ 3482500.30785562004894, 1986113.05541762476787 ], [ 3482506.27563407830894, 1986113.489404539810494 ], [ 3482508.183852518443018, 1986104.401922046439722 ], [ 3482505.295448111370206, 1986093.063362107146531 ], [ 3482499.457765713334084, 1986082.775800971314311 ], [ 3482491.815835196059197, 1986073.506660865852609 ], [ 3482486.586580885574222, 1986065.932327651185915 ], [ 3482485.130653520580381, 1986060.649668522411957 ], [ 3482501.86454225378111, 1986039.001303160795942 ], [ 3482515.715495704673231, 1986022.872346033807844 ], [ 3482525.920282114762813, 1986010.315683711552992 ], [ 3482528.910981270484626, 1986019.471780537161976 ], [ 3482529.760018795263022, 1986025.995543068042025 ], [ 3482522.310689772479236, 1986037.009718907531351 ], [ 3482519.562927798833698, 1986044.547952368855476 ], [ 3482516.910722209140658, 1986052.837724975543097 ], [ 3482517.101842148695141, 1986059.205900111468509 ], [ 3482519.290509025100619, 1986065.15734401345253 ], [ 3482521.131246567703784, 1986072.43439196026884 ], [ 3482523.802932184189558, 1986079.079091230873019 ], [ 3482524.928180142305791, 1986087.738013435387984 ], [ 3482523.280844727996737, 1986095.888848884264007 ], [ 3482519.418777636252344, 1986104.738148375879973 ], [ 3482514.896139209158719, 1986114.443230164470151 ], [ 3482511.97315271710977, 1986123.670602999860421 ], [ 3482511.080582660622895, 1986131.587039769859985 ], [ 3482510.805283872876316, 1986139.422639048425481 ], [ 3482511.356082604266703, 1986148.538549506338313 ], [ 3482509.806005393154919, 1986156.419527809135616 ], [ 3482505.24229404097423, 1986160.902958737919107 ], [ 3482499.157436239998788, 1986164.564947326434776 ], [ 3482491.701397783122957, 1986168.552130884956568 ], [ 3482498.834768051281571, 1986173.936917858198285 ], [ 3482511.252677571959794, 1986170.512743179686368 ], [ 3482524.116875535342842, 1986166.544112011091784 ], [ 3482541.336082835681736, 1986159.514093066100031 ], [ 3482559.735982687678188, 1986155.641618367284536 ], [ 3482579.073702284134924, 1986152.017143888399005 ], [ 3482595.767708329018205, 1986152.727249465882778 ], [ 3482608.0835792561993, 1986152.526621148455888 ], [ 3482618.893924263771623, 1986149.6009913131129 ], [ 3482630.241016385145485, 1986142.888539066538215 ], [ 3482644.85584436589852, 1986132.650998321129009 ], [ 3482661.832325074356049, 1986122.711681125685573 ], [ 3482677.602945557329804, 1986112.450586683116853 ], [ 3482694.021935639437288, 1986101.194678436266258 ], [ 3482710.778556471690536, 1986093.589593991171569 ], [ 3482723.204397650435567, 1986087.241506282472983 ], [ 3482744.559408689849079, 1986079.374223924009129 ], [ 3482767.421665190253407, 1986073.210757576394826 ], [ 3482785.597206473350525, 1986068.609499020734802 ], [ 3482799.309165551327169, 1986066.169362564338371 ], [ 3482815.927477579563856, 1986067.397516734432429 ], [ 3482835.454430827870965, 1986071.16276392666623 ], [ 3482854.082545313052833, 1986075.937337001087144 ], [ 3482874.581040932331234, 1986084.161926648346707 ], [ 3482897.591737560462207, 1986093.95137678226456 ], [ 3482911.226698850281537, 1986101.860120268771425 ], [ 3482921.81100835185498, 1986113.012216003611684 ], [ 3482927.742797220125794, 1986120.097080170409754 ], [ 3482932.479094584938139, 1986130.803404951933771 ], [ 3482940.017963035032153, 1986157.071395232109353 ], [ 3482948.347942902240902, 1986177.615295498631895 ], [ 3482953.427707087248564, 1986189.028608688851818 ], [ 3482958.811520564369857, 1986199.771366934292018 ], [ 3482967.022948505356908, 1986210.496222885791212 ], [ 3482979.436796717811376, 1986218.835464649833739 ], [ 3482996.020940102636814, 1986225.693261412670836 ], [ 3483008.480202614795417, 1986228.53201043815352 ], [ 3483019.939570914022624, 1986229.597123868297786 ], [ 3483031.499430065508932, 1986229.501009752973914 ], [ 3483061.068928220309317, 1986221.506607024930418 ], [ 3483077.11144561227411, 1986219.237645574612543 ], [ 3483093.740704735741019, 1986220.47493206965737 ], [ 3483110.586122713517398, 1986221.42067798692733 ], [ 3483124.769459559582174, 1986220.696120249573141 ], [ 3483137.023158065974712, 1986218.970096978358924 ], [ 3483150.198402382899076, 1986215.451561219058931 ], [ 3483164.558734572958201, 1986208.192517950199544 ], [ 3483178.041405256371945, 1986202.070957469986752 ], [ 3483185.848004309460521, 1986214.27725370391272 ], [ 3483188.53873643791303, 1986218.477494626538828 ], [ 3483202.723478591069579, 1986206.880877684801817 ], [ 3483219.778782094828784, 1986196.573694957187399 ], [ 3483234.028703399933875, 1986190.476759762270376 ], [ 3483254.471915297210217, 1986214.163909067865461 ], [ 3483266.691054980736226, 1986208.216751388739794 ], [ 3483279.62666777940467, 1986205.762939255917445 ], [ 3483294.020345255266875, 1986207.690798802534118 ], [ 3483310.022849666886032, 1986213.995223506120965 ], [ 3483324.659521171823144, 1986222.656559807015583 ], [ 3483338.286839890759438, 1986234.530593525851145 ], [ 3483351.01375440414995, 1986248.325104354415089 ], [ 3483364.204466042108834, 1986261.66367631428875 ], [ 3483373.375272958539426, 1986272.88484667125158 ], [ 3483386.051397339440882, 1986285.282936259638518 ], [ 3483401.721792958676815, 1986299.929219126002863 ], [ 3483417.744012730196118, 1986312.368534970795736 ], [ 3483431.869230138137937, 1986323.02232409408316 ], [ 3483438.590509762056172, 1986329.228797073708847 ], [ 3483454.329856465570629, 1986342.466830784687772 ], [ 3483469.974979815073311, 1986358.907568092923611 ], [ 3483489.569299466907978, 1986376.071204562205821 ], [ 3483507.403481443412602, 1986393.487944463035092 ], [ 3483522.643603202886879, 1986407.816275276709348 ], [ 3483551.741310972254723, 1986436.669009758392349 ], [ 3483564.631327169016004, 1986444.81140320841223 ], [ 3483594.221515210345387, 1986325.162710458738729 ], [ 3483595.999093424063176, 1986278.546887638512999 ], [ 3483563.559238369576633, 1986237.769423683173954 ], [ 3483511.12764352094382, 1986169.926751321414486 ], [ 3483478.885713082272559, 1986127.718400801997632 ], [ 3483471.028877914417535, 1986122.694895992521197 ], [ 3483461.677365912124515, 1986120.050822925986722 ], [ 3483448.891338535118848, 1986118.665606157854199 ], [ 3483433.168257672805339, 1986117.429175193188712 ], [ 3483439.257765408605337, 1986106.869302778271958 ], [ 3483446.375962540972978, 1986099.341575118713081 ], [ 3483458.058977113571018, 1986092.205825445242226 ], [ 3483480.932254846673459, 1986081.186357778729871 ], [ 3483504.357589760329574, 1986069.451799477217719 ], [ 3483523.466608315706253, 1986062.036073692608625 ], [ 3483536.792573055252433, 1986050.173696357989684 ], [ 3483554.01738805603236, 1986034.864578981650993 ] ] ] ] } }
]
}
