{
"type": "FeatureCollection",
"name": "Villafranca_del_Cid_o_Vilafranca",
"crs": { "type": "name", "properties": { "name": "urn:ogc:def:crs:EPSG::3035" } },
"features": [
{ "type": "Feature", "properties": { "ENP_GRAL": 6.0, "ENP_GRAL_NAME": "Otros Espacios Naturales Protegidos", "color": "#7F8F0D" }, "geometry": { "type": "MultiPolygon", "coordinates": [ [ [ [ 3457744.017024694476277, 1976478.978299311129376 ], [ 3457733.329029209446162, 1976483.524573163827881 ], [ 3457724.36618451308459, 1976485.460320106241852 ], [ 3457693.802040490321815, 1976482.253431254066527 ], [ 3457678.968535957857966, 1976483.810083327582106 ], [ 3457656.752680937759578, 1976488.703040456166491 ], [ 3457650.204403964336962, 1976488.992631948320195 ], [ 3457640.055295631755143, 1976485.878231636947021 ], [ 3457623.823607300408185, 1976476.807854828890413 ], [ 3457593.019961152225733, 1976467.978392884600908 ], [ 3457583.732818445656449, 1976467.061413906980306 ], [ 3457575.383366303518414, 1976465.189816737081856 ], [ 3457559.458102981559932, 1976465.09229051345028 ], [ 3457544.234732220880687, 1976471.690559745533392 ], [ 3457536.274159509688616, 1976473.993318621069193 ], [ 3457494.794976531527936, 1976473.362402117811143 ], [ 3457479.575012453366071, 1976471.279244810109958 ], [ 3457458.553674942813814, 1976462.375494857085869 ], [ 3457443.436974966898561, 1976456.146578717511147 ], [ 3457425.806304340716451, 1976445.342278438154608 ], [ 3457421.519618605263531, 1976444.697837728075683 ], [ 3457421.157005397137254, 1976447.120595731772482 ], [ 3457427.966910548042506, 1976463.311213040025905 ], [ 3457433.244096770416945, 1976469.573607081314549 ], [ 3457434.430471549741924, 1976473.261063173878938 ], [ 3457432.120832851622254, 1976480.643182762200013 ], [ 3457419.606102169957012, 1976495.07494562654756 ], [ 3457416.844518928322941, 1976496.385602691443637 ], [ 3457415.3034613057971, 1976494.392804377013817 ], [ 3457409.88996604597196, 1976491.090618748683482 ], [ 3457382.579797364771366, 1976482.836820878088474 ], [ 3457373.176614861935377, 1976478.840344118187204 ], [ 3457307.378361533395946, 1976442.573985694907606 ], [ 3457330.310653729829937, 1976480.904857550747693 ], [ 3457361.372300917282701, 1976545.289089530939236 ], [ 3457362.353784358594567, 1976546.497451203176752 ], [ 3457362.572865476366132, 1976546.793851990019903 ], [ 3457368.175054334104061, 1976554.354502291884273 ], [ 3457372.666637310758233, 1976561.959799719508737 ], [ 3457378.675065663643181, 1976568.675046825315803 ], [ 3457384.284515705890954, 1976574.074349578935653 ], [ 3457389.18944407440722, 1976577.502109858905897 ], [ 3457399.716752000618726, 1976581.411092898575589 ], [ 3457412.057382472790778, 1976583.532455773092806 ], [ 3457428.345120498910546, 1976583.47843762091361 ], [ 3457441.792964512482285, 1976582.416373483138159 ], [ 3457472.668055843561888, 1976579.817264679120854 ], [ 3457491.692956731654704, 1976578.426421368028969 ], [ 3457514.30092382710427, 1976575.910418920684606 ], [ 3457522.525638736318797, 1976573.997334643732756 ], [ 3457536.0928934966214, 1976570.321122806053609 ], [ 3457553.238719566259533, 1976564.581658026436344 ], [ 3457562.693149851635098, 1976562.866431410424411 ], [ 3457582.350011066999286, 1976560.77420897455886 ], [ 3457612.949260969646275, 1976560.048438468948007 ], [ 3457626.553504617884755, 1976560.635842990595847 ], [ 3457640.228923039045185, 1976561.93809845042415 ], [ 3457660.786452628672123, 1976563.005868270294741 ], [ 3457679.823355758562684, 1976564.419239456765354 ], [ 3457709.086481331847608, 1976561.777432821923867 ], [ 3457739.886342067737132, 1976556.294232619693503 ], [ 3457757.213385457638651, 1976553.986752155702561 ], [ 3457761.928501093294472, 1976553.408723956672475 ], [ 3457784.545904660131782, 1976551.083071878645569 ], [ 3457807.360586553812027, 1976552.681138002080843 ], [ 3457820.879493620246649, 1976557.988221076317132 ], [ 3457826.115806337445974, 1976540.928687589708716 ], [ 3457850.93476616544649, 1976502.016847040504217 ], [ 3457873.911995211150497, 1976473.154302405659109 ], [ 3457889.944345305208117, 1976435.224637929350138 ], [ 3457892.370118048973382, 1976427.915189089253545 ], [ 3457872.086736422032118, 1976424.594917501555756 ], [ 3457867.682826377917081, 1976427.876453660894185 ], [ 3457856.134023574646562, 1976433.414884140482172 ], [ 3457812.079906191211194, 1976437.626008912455291 ], [ 3457805.294407395645976, 1976439.711671440163627 ], [ 3457779.349203581921756, 1976457.069778201635927 ], [ 3457770.624275739304721, 1976461.176143218297511 ], [ 3457744.017024694476277, 1976478.978299311129376 ] ] ], [ [ [ 3457799.766721171326935, 1976776.719156254082918 ], [ 3457817.354149254970253, 1976773.348527087597176 ], [ 3457824.765022267121822, 1976773.247531174682081 ], [ 3457837.713865518104285, 1976747.498268529539928 ], [ 3457888.337924425490201, 1976744.305903053143993 ], [ 3457893.864070416428149, 1976750.536703636869788 ], [ 3457888.638858422636986, 1976755.71221781312488 ], [ 3457961.177245035301894, 1976739.854653232498094 ], [ 3457965.255044874269515, 1976738.969545178348199 ], [ 3457970.388513464480639, 1976738.987649048212916 ], [ 3457971.249619664624333, 1976738.257940498879179 ], [ 3457970.934893936850131, 1976694.744772563455626 ], [ 3457971.10895632347092, 1976692.999630237463862 ], [ 3457972.795369589235634, 1976675.658231039531529 ], [ 3457975.270984998438507, 1976649.917530668899417 ], [ 3457977.45862536970526, 1976627.142250252421945 ], [ 3457978.219766285270452, 1976623.239583749091253 ], [ 3457978.959669423755258, 1976619.461603385861963 ], [ 3457954.8461271552369, 1976619.756668203743175 ], [ 3457909.83798607904464, 1976617.738214160315692 ], [ 3457904.568836172111332, 1976617.17747324006632 ], [ 3457897.393664340488613, 1976616.057957016862929 ], [ 3457871.30379386106506, 1976607.680278877494857 ], [ 3457849.627418805379421, 1976594.394312671851367 ], [ 3457811.025493205524981, 1976564.614044829271734 ], [ 3457803.932535966392606, 1976562.461268472019583 ], [ 3457786.765417046844959, 1976561.309972999617457 ], [ 3457765.749819237738848, 1976562.509291525464505 ], [ 3457698.153567138593644, 1976571.967052875319496 ], [ 3457672.712278085760772, 1976573.776719047455117 ], [ 3457656.095202066935599, 1976571.59457803494297 ], [ 3457613.6668626149185, 1976568.467781832674518 ], [ 3457588.741335344035178, 1976568.313595588086173 ], [ 3457570.847426947206259, 1976570.049905295716599 ], [ 3457520.547293047420681, 1976581.808567530475557 ], [ 3457493.215583299286664, 1976585.237176240887493 ], [ 3457421.173988850787282, 1976589.918767291354015 ], [ 3457412.027796655893326, 1976589.513204318005592 ], [ 3457391.697706618346274, 1976585.742605716222897 ], [ 3457379.927775394171476, 1976579.800821055890992 ], [ 3457369.264703679364175, 1976569.373625156935304 ], [ 3457361.784785153809935, 1976558.836991732940078 ], [ 3457360.282425063662231, 1976554.818895354866982 ], [ 3457356.491685325745493, 1976550.719854606082663 ], [ 3457350.976737926714122, 1976551.250232155201957 ], [ 3457342.919377711601555, 1976558.000553950900212 ], [ 3457341.744548259302974, 1976563.284895470831543 ], [ 3457341.774149131495506, 1976569.124407862778753 ], [ 3457348.27606543386355, 1976578.734730341937393 ], [ 3457358.991339355241507, 1976600.731189182261005 ], [ 3457375.175009980332106, 1976627.484273666515946 ], [ 3457379.936177478171885, 1976639.930045747430995 ], [ 3457384.989424815867096, 1976649.177429962670431 ], [ 3457396.038209251128137, 1976661.680053152376786 ], [ 3457401.676680455449969, 1976665.641033649677411 ], [ 3457405.315827055834234, 1976669.74518420943059 ], [ 3457407.271342451684177, 1976674.19206792791374 ], [ 3457410.805933464318514, 1976687.045219278894365 ], [ 3457426.883580346126109, 1976787.482851303415373 ], [ 3457427.113504559267312, 1976788.887786202598363 ], [ 3457431.290909926407039, 1976814.422474366147071 ], [ 3457431.581308869645, 1976816.019159802468494 ], [ 3457436.587634300813079, 1976843.605398869141936 ], [ 3457447.581645106896758, 1976830.104611710878089 ], [ 3457485.194980677217245, 1976796.931946989148855 ], [ 3457485.738232466392219, 1976796.507828264031559 ], [ 3457488.427753049414605, 1976794.411801684880629 ], [ 3457497.904091398231685, 1976790.108773333020508 ], [ 3457519.977748283650726, 1976788.853038005298004 ], [ 3457576.427829316817224, 1976795.626121482579038 ], [ 3457605.274291157722473, 1976792.529172547161579 ], [ 3457605.874472116585821, 1976792.468999111559242 ], [ 3457688.062934567220509, 1976770.885743118589744 ], [ 3457689.126696881838143, 1976770.606590274721384 ], [ 3457702.666151909157634, 1976770.195330197690055 ], [ 3457741.482028144411743, 1976759.452425424009562 ], [ 3457747.537441161461174, 1976758.609468079172075 ], [ 3457757.659572832286358, 1976762.071682127658278 ], [ 3457783.730930700432509, 1976775.136016344884411 ], [ 3457788.662646838929504, 1976776.722193023189902 ], [ 3457799.766721171326935, 1976776.719156254082918 ] ] ], [ [ [ 3445583.596661211922765, 1986769.93234774004668 ], [ 3445587.491032274439931, 1986758.606068202294409 ], [ 3445591.638116464950144, 1986748.438756291288882 ], [ 3445599.452199150808156, 1986734.621319264173508 ], [ 3445600.201005951501429, 1986721.743519423529506 ], [ 3445600.05917550669983, 1986711.976766484091058 ], [ 3445598.371023544110358, 1986705.231163962045684 ], [ 3445593.786906279157847, 1986693.70014023128897 ], [ 3445590.78723329724744, 1986689.057537329383194 ], [ 3445586.070445322431624, 1986682.318579516140744 ], [ 3445581.395084671676159, 1986677.455396470846608 ], [ 3445573.462498340755701, 1986676.779421472456306 ], [ 3445567.905280845239758, 1986675.955513567198068 ], [ 3445561.686717686243355, 1986675.744787018280476 ], [ 3445556.832272680010647, 1986676.183474512770772 ], [ 3445551.370869214646518, 1986675.971087813610211 ], [ 3445546.256133458577096, 1986673.943147666286677 ], [ 3445540.946578315924853, 1986669.06107710651122 ], [ 3445535.806452615186572, 1986663.648341222666204 ], [ 3445529.933196759782732, 1986655.973891608417034 ], [ 3445523.941746762022376, 1986645.934349975083023 ], [ 3445516.551066212356091, 1986636.632017621072009 ], [ 3445500.518767393194139, 1986622.128415191313252 ], [ 3445493.787586628459394, 1986616.229884582106024 ], [ 3445487.011844320222735, 1986606.824175168061629 ], [ 3445483.363677988760173, 1986599.654642591020092 ], [ 3445481.940696064382792, 1986592.990008658031002 ], [ 3445480.944159934762865, 1986586.630361130461097 ], [ 3445481.612132018897682, 1986579.614555204054341 ], [ 3445482.588457488454878, 1986570.53862754907459 ], [ 3445481.100022844504565, 1986564.261594994226471 ], [ 3445476.594014617614448, 1986558.867865069303662 ], [ 3445472.848286524880677, 1986555.103778340853751 ], [ 3445468.123431717511266, 1986549.119293741183355 ], [ 3445464.516793889459223, 1986543.825520514510572 ], [ 3445461.472504199016839, 1986535.675955392885953 ], [ 3445455.396455096546561, 1986525.901733156526461 ], [ 3445450.297775954939425, 1986522.364873172482476 ], [ 3445445.505694046616554, 1986520.784855528501794 ], [ 3445437.356094883754849, 1986515.50105523574166 ], [ 3445433.998478823341429, 1986511.797288950299844 ], [ 3445430.003649186342955, 1986506.443312201881781 ], [ 3445427.599778708536178, 1986501.575148007133976 ], [ 3445426.48340423591435, 1986496.867357609095052 ], [ 3445425.732879003509879, 1986490.466395954601467 ], [ 3445425.955259762238711, 1986483.023320950800553 ], [ 3445428.648742830846459, 1986476.043944672914222 ], [ 3445439.644080854952335, 1986460.013360233046114 ], [ 3445447.158552099019289, 1986449.964877327438444 ], [ 3445457.813540651928633, 1986439.012351083569229 ], [ 3445459.834488613530993, 1986431.769328030059114 ], [ 3445460.775624212808907, 1986424.080047035356984 ], [ 3445459.434183045756072, 1986415.518898247508332 ], [ 3445457.68858801247552, 1986408.406449082773179 ], [ 3445457.703202324919403, 1986401.24928168579936 ], [ 3445467.428582789376378, 1986389.197676223935559 ], [ 3445475.545177994761616, 1986382.186139591736719 ], [ 3445488.025970770046115, 1986370.801402358571067 ], [ 3445504.302344301715493, 1986354.637064079055563 ], [ 3445518.078626225702465, 1986342.658271010499448 ], [ 3445534.661603766027838, 1986328.450795263983309 ], [ 3445549.452251085545868, 1986317.305881508393213 ], [ 3445558.506536901462823, 1986310.638804961461574 ], [ 3445563.302090198732913, 1986304.185050499625504 ], [ 3445569.064353141002357, 1986293.426690750056878 ], [ 3445573.796215884853154, 1986283.343489034334198 ], [ 3445584.153135228902102, 1986260.014652028912678 ], [ 3445589.400789309758693, 1986251.005749616073444 ], [ 3445590.058887419290841, 1986243.776786079164594 ], [ 3445589.18578657368198, 1986238.960811424767599 ], [ 3445587.082330885808915, 1986232.786988541483879 ], [ 3445583.833519650157541, 1986226.554616654058918 ], [ 3445580.60884439246729, 1986218.058763567125425 ], [ 3445575.476743029430509, 1986211.891570633277297 ], [ 3445568.69928357983008, 1986206.502807902172208 ], [ 3445562.340283071156591, 1986202.173483022721484 ], [ 3445555.7625234676525, 1986197.253289606887847 ], [ 3445550.453086921945214, 1986192.371095114620402 ], [ 3445546.335240521002561, 1986187.037780607584864 ], [ 3445542.348512853961438, 1986180.929236004129052 ], [ 3445528.84659884031862, 1986163.239331148099154 ], [ 3445519.769197161309421, 1986152.839462564093992 ], [ 3445497.860625685658306, 1986129.030200306558982 ], [ 3445482.732618696056306, 1986112.240998248104006 ], [ 3445474.111996523104608, 1986103.145137578016147 ], [ 3445465.799765033647418, 1986091.989262682385743 ], [ 3445459.535267210565507, 1986082.623211988946423 ], [ 3445457.024865197017789, 1986075.261006757849827 ], [ 3445369.987336826976389, 1986085.167471752269194 ], [ 3445348.335690602194518, 1986103.252272054553032 ], [ 3445338.509105741046369, 1986111.798620807938278 ], [ 3445327.575671861879528, 1986122.812913663452491 ], [ 3445320.362687333952636, 1986133.515173080842942 ], [ 3445270.043388593941927, 1986112.393378420267254 ], [ 3445244.815871246624738, 1986102.407387288752943 ], [ 3445256.443518531508744, 1986019.435559056699276 ], [ 3445254.160896456800401, 1986017.900651219999418 ], [ 3445260.738791722338647, 1985968.907362852012739 ], [ 3445262.710714193526655, 1985954.259029308799654 ], [ 3445282.289185498841107, 1985808.426211347104982 ], [ 3445287.418386168312281, 1985792.853904942283407 ], [ 3445290.315268917474896, 1985781.967865722952411 ], [ 3445290.731909951660782, 1985773.214792005717754 ], [ 3445460.527077839244157, 1985799.886006346205249 ], [ 3445473.922030226327479, 1985799.070101618301123 ], [ 3445482.934693465940654, 1985797.324211675673723 ], [ 3445491.16215175576508, 1985793.226524440338835 ], [ 3445498.824831471778452, 1985788.052379586268216 ], [ 3445503.671435022726655, 1985783.3208707512822 ], [ 3445514.881037908606231, 1985776.208223219728097 ], [ 3445524.570386449340731, 1985773.399624084820971 ], [ 3445532.480213350616395, 1985772.202532798051834 ], [ 3445548.87410777201876, 1985768.02558543626219 ], [ 3445556.721040656790137, 1985767.010703415144235 ], [ 3445567.525392958894372, 1985767.427516553085297 ], [ 3445577.651539050042629, 1985769.805903597502038 ], [ 3445584.602380249183625, 1985772.798309794859961 ], [ 3445592.368431442417204, 1985776.714057796401903 ], [ 3445609.306738214101642, 1985789.17576177418232 ], [ 3445623.134217847138643, 1985796.243381035048515 ], [ 3445631.500281906686723, 1985802.56232471507974 ], [ 3445640.204909568186849, 1985808.188226381782442 ], [ 3445650.858866346534342, 1985812.638656376162544 ], [ 3445673.244245544541627, 1985816.744436609791592 ], [ 3445680.738980825524777, 1985818.474409861722961 ], [ 3445684.841438850387931, 1985820.471061791991815 ], [ 3445688.949660709593445, 1985824.385198755422607 ], [ 3445692.529455509502441, 1985829.205900044180453 ], [ 3445697.472694077529013, 1985836.957765243481845 ], [ 3445702.908156427089125, 1985844.415042584296316 ], [ 3445710.714554700534791, 1985851.63570676650852 ], [ 3445721.073778603225946, 1985856.539504600223154 ], [ 3445734.423119409941137, 1985859.517546215094626 ], [ 3445750.544258449226618, 1985862.484361259732395 ], [ 3445772.706133872270584, 1985864.255009199958295 ], [ 3445815.045952196232975, 1985867.261292411247268 ], [ 3445831.579489844385535, 1985867.866953488439322 ], [ 3445867.883678007870913, 1985860.558493487071246 ], [ 3445878.207418400794268, 1985857.259762971894816 ], [ 3445887.211448532994837, 1985852.476333399536088 ], [ 3445894.053732277359813, 1985848.550759248202667 ], [ 3445902.91282537765801, 1985845.760504332603887 ], [ 3445917.020655921194702, 1985844.047573136165738 ], [ 3445929.109524687752128, 1985843.390542881330475 ], [ 3445937.873330956790596, 1985844.725598009303212 ], [ 3445947.168977049645036, 1985848.677222077501938 ], [ 3445960.060084676370025, 1985855.215583270881325 ], [ 3445964.487260177265853, 1985858.116996981203556 ], [ 3445977.730236462317407, 1985868.846923874923959 ], [ 3445989.306503358762711, 1985881.128904673270881 ], [ 3445997.973876154050231, 1985898.967943108407781 ], [ 3446008.883021700661629, 1985920.61040398851037 ], [ 3446017.279741032514721, 1985937.889102441025898 ], [ 3446021.54449399234727, 1985947.017082892823964 ], [ 3446026.264964136295021, 1985957.10838152305223 ], [ 3446044.63852985529229, 1985993.450042832642794 ], [ 3446047.433961713220924, 1985998.452851036563516 ], [ 3446053.102848060429096, 1986008.566726412158459 ], [ 3446071.215925008058548, 1986036.178121572593227 ], [ 3446080.914594454225153, 1986046.008953140582889 ], [ 3446092.468983136117458, 1986054.649859345983714 ], [ 3446109.320229273289442, 1986067.398981252685189 ], [ 3446126.74705023271963, 1986079.152756160125136 ], [ 3446136.083918990567327, 1986086.93426721310243 ], [ 3446148.084775499068201, 1986094.793345419922844 ], [ 3446161.169016800820827, 1986101.137749776244164 ], [ 3446174.251121144741774, 1986106.301217099651694 ], [ 3446207.004326867870986, 1986118.348634422989562 ], [ 3446242.790460219606757, 1986130.886322238482535 ], [ 3446254.455947981216013, 1986134.530887903878465 ], [ 3446259.862482893280685, 1986137.782779877306893 ], [ 3446265.209629495628178, 1986144.416895136237144 ], [ 3446272.018033842556179, 1986153.309475226793438 ], [ 3446275.555641271639615, 1986161.751844148384407 ], [ 3446283.657252625096589, 1986168.004089989699423 ], [ 3446296.654917626641691, 1986171.657176526961848 ], [ 3446309.837109424173832, 1986173.310450785560533 ], [ 3446325.69315854087472, 1986173.807965932646766 ], [ 3446339.381924610119313, 1986175.063087736256421 ], [ 3446352.141880185343325, 1986177.847413568524644 ], [ 3446366.849821199662983, 1986182.818672189023346 ], [ 3446380.731250773184001, 1986189.453302628593519 ], [ 3446395.012945356313139, 1986195.919756604125723 ], [ 3446405.904895414598286, 1986201.824612434022129 ], [ 3446415.188351288903505, 1986207.514936700230464 ], [ 3446425.007266755215824, 1986213.186022446257994 ], [ 3446434.169331987388432, 1986217.453027626266703 ], [ 3446442.845116001088172, 1986219.459191353525966 ], [ 3446463.104414589237422, 1986223.225570447742939 ], [ 3446468.491914688143879, 1986224.799597774865106 ], [ 3446473.8793003144674, 1986226.373543794965371 ], [ 3446479.709922634996474, 1986227.469300945056602 ], [ 3446485.540628468617797, 1986228.564943680074066 ], [ 3446492.74941380508244, 1986231.453636716585606 ], [ 3446499.958183628506958, 1986234.342232096241787 ], [ 3446512.990442926995456, 1986238.539813437731937 ], [ 3446526.022602859884501, 1986242.737413953058422 ], [ 3446533.56842835759744, 1986245.83192436536774 ], [ 3446538.079210328869522, 1986249.527048577787355 ], [ 3446542.407997177448124, 1986254.524796301499009 ], [ 3446546.699516575783491, 1986260.387108819326386 ], [ 3446549.854221506044269, 1986263.75968406139873 ], [ 3446553.00892654620111, 1986267.132259384263307 ], [ 3446558.68941662972793, 1986270.090701905312017 ], [ 3446564.370021086651832, 1986273.049226570874453 ], [ 3446572.379054623655975, 1986278.711251200176775 ], [ 3446580.449853337369859, 1986284.766867362195626 ], [ 3446584.418375017121434, 1986288.729637865908444 ], [ 3446588.386912246700376, 1986292.692506872117519 ], [ 3446591.314643645659089, 1986296.496961412485689 ], [ 3446594.242375215049833, 1986300.301416008966044 ], [ 3446597.310197750106454, 1986304.708231084980071 ], [ 3446600.278921172488481, 1986308.972767404047772 ], [ 3446600.677862563636154, 1986308.729996847454458 ], [ 3446605.846595115493983, 1986305.943424011114985 ], [ 3446605.948713346384466, 1986305.893563660094514 ], [ 3446605.490077858325094, 1986302.966150952037424 ], [ 3446605.786884477362037, 1986303.23940068599768 ], [ 3446600.770288799423724, 1986266.098518465878442 ], [ 3446468.756759976968169, 1986180.385777219664305 ], [ 3446411.427757869008929, 1986142.791392669081688 ], [ 3446307.270162679255009, 1986061.8008554847911 ], [ 3446232.387894601561129, 1985996.470968507230282 ], [ 3446177.641797766089439, 1985948.84117432590574 ], [ 3446060.055846948176622, 1985833.63700089417398 ], [ 3445962.597347495146096, 1985734.519173791399226 ], [ 3445894.867470045574009, 1985672.075127631425858 ], [ 3445857.035447211470455, 1985609.228934698505327 ], [ 3445841.861904585268348, 1985583.648108329856768 ], [ 3445826.298804293386638, 1985556.618221312761307 ], [ 3445815.535648842807859, 1985536.879724779166281 ], [ 3445807.189992229919881, 1985522.520483858184889 ], [ 3445797.522095673251897, 1985507.373730213614181 ], [ 3445789.997563040349633, 1985498.449891716940328 ], [ 3445787.950224914588034, 1985496.017146163154393 ], [ 3445776.475886805914342, 1985484.83878729166463 ], [ 3445764.546879801433533, 1985474.130545668303967 ], [ 3445748.608361608348787, 1985465.196132959099486 ], [ 3445731.59181000944227, 1985457.42221967712976 ], [ 3445713.261743961833417, 1985450.343321843072772 ], [ 3445680.496839352417737, 1985439.842746541602537 ], [ 3445664.40205703722313, 1985442.232625806936994 ], [ 3445658.736328207887709, 1985443.032716960646212 ], [ 3445653.834893168881536, 1985445.189966939389706 ], [ 3445650.756566374562681, 1985441.121862777508795 ], [ 3445637.771792389452457, 1985439.112315985374153 ], [ 3445628.321782430168241, 1985435.731847991002724 ], [ 3445615.714814325328916, 1985428.348176687723026 ], [ 3445605.858548528049141, 1985421.077984981937334 ], [ 3445579.574177363887429, 1985400.321415552403778 ], [ 3445573.126013547182083, 1985394.377157153328881 ], [ 3445566.756410391069949, 1985385.107936704065651 ], [ 3445554.267080031335354, 1985370.758091122843325 ], [ 3445417.6316451379098, 1985372.8655343237333 ], [ 3445370.150942350737751, 1985347.228072215802968 ], [ 3445367.355862914584577, 1985344.95119436015375 ], [ 3445365.991382339969277, 1985341.495089202420786 ], [ 3445358.881568451412022, 1985340.275989699410275 ], [ 3445342.375595497898757, 1985336.020898973103613 ], [ 3445338.50721534807235, 1985334.156487435335293 ], [ 3445333.460932550020516, 1985331.712551714386791 ], [ 3445327.647553836461157, 1985326.772228547837585 ], [ 3445327.249323895201087, 1985326.435242304578424 ], [ 3445317.221880655735731, 1985316.255827564513311 ], [ 3445303.219191990792751, 1985300.807211912702769 ], [ 3445274.578936080448329, 1985269.229071945417672 ], [ 3445272.219037625007331, 1985265.38482178770937 ], [ 3445271.174010656774044, 1985262.087097930023447 ], [ 3445206.257472717668861, 1985214.313169630477205 ], [ 3445198.974647148046643, 1985222.185015750816092 ], [ 3445183.931528430897743, 1985240.431778142461553 ], [ 3445167.397440145723522, 1985258.888660088879988 ], [ 3445149.302288149483502, 1985281.000174870016053 ], [ 3445135.462573884986341, 1985297.459723495412618 ], [ 3445124.63415757752955, 1985314.00926850666292 ], [ 3445117.778178147040308, 1985325.954020415665582 ], [ 3445101.948317628353834, 1985351.370424915105104 ], [ 3445092.640158634632826, 1985363.161602411419153 ], [ 3445082.746292092837393, 1985375.041053719352931 ], [ 3445070.026499620638788, 1985387.819159492850304 ], [ 3445057.290403330232948, 1985401.205910303629935 ], [ 3445043.498074937611818, 1985414.335801487090066 ], [ 3445028.257837317883968, 1985427.17374842450954 ], [ 3445012.91077433526516, 1985441.534145346144214 ], [ 3444998.188089591916651, 1985454.497224943712354 ], [ 3444985.983724160585552, 1985464.987862494774163 ], [ 3444975.619560011196882, 1985472.503843138692901 ], [ 3444964.698227362241596, 1985478.083978943293914 ], [ 3444949.228512848727405, 1985485.306407291442156 ], [ 3444937.576604339294136, 1985488.36393145727925 ], [ 3444929.678655571304262, 1985507.016297100810334 ], [ 3444925.269378448836505, 1985515.188049606513232 ], [ 3444919.357560554519296, 1985521.87542739440687 ], [ 3444911.844332113862038, 1985528.781377436826006 ], [ 3444897.916463383007795, 1985536.895909757120535 ], [ 3444882.41494865482673, 1985544.62865564157255 ], [ 3444865.835264569148421, 1985552.613062706543133 ], [ 3444848.113893563859165, 1985562.778367205290124 ], [ 3444832.625885962508619, 1985572.931970087112859 ], [ 3444816.411124856676906, 1985582.985615634126589 ], [ 3444790.48938676295802, 1985600.8588237373624 ], [ 3444774.827309872489423, 1985612.041370564606041 ], [ 3444761.086198835168034, 1985623.163710785098374 ], [ 3444750.774466391652822, 1985633.477864215383306 ], [ 3444740.611052563413978, 1985644.090206902939826 ], [ 3444731.892910966649652, 1985655.691613025031984 ], [ 3444714.9238714533858, 1985680.966258200118318 ], [ 3444741.735177742317319, 1985715.8504807674326 ], [ 3444749.537500148639083, 1985722.072081204736605 ], [ 3444755.267770384903997, 1985729.530199239496142 ], [ 3444761.54191467538476, 1985736.503302162513137 ], [ 3444768.124662996269763, 1985748.169917236547917 ], [ 3444774.287314652465284, 1985762.926101041026413 ], [ 3444781.345967769157141, 1985779.056399768451229 ], [ 3444798.425162327010185, 1985812.323746750829741 ], [ 3444805.741161218844354, 1985829.64262427133508 ], [ 3444806.814180152490735, 1985837.85276016080752 ], [ 3444805.073195936158299, 1985845.546043386915699 ], [ 3444802.438715545926243, 1985854.086066218093038 ], [ 3444795.458151201717556, 1985867.374622077681124 ], [ 3444787.071970630902797, 1985878.435667863115668 ], [ 3444777.835494193714112, 1985887.700963061768562 ], [ 3444765.179018180817366, 1985897.056029139319435 ], [ 3444753.586162661202252, 1985904.445343331433833 ], [ 3444742.604046271648258, 1985908.016495651565492 ], [ 3444731.58559088036418, 1985911.290853569284081 ], [ 3444718.819067775271833, 1985910.476840879302472 ], [ 3444706.167742596007884, 1985904.302320540882647 ], [ 3444684.198418143205345, 1985890.272693361155689 ], [ 3444666.009823316708207, 1985878.132147135911509 ], [ 3444645.890785268507898, 1985865.861586288316175 ], [ 3444614.964669943787158, 1985844.53210289333947 ], [ 3444603.762394197285175, 1985833.924078843323514 ], [ 3444600.99596144258976, 1985828.976883283350617 ], [ 3444608.984168068971485, 1985821.082326645264402 ], [ 3444587.542438532225788, 1985797.233092333422974 ], [ 3444586.862132594920695, 1985797.71366428094916 ], [ 3444583.477628906257451, 1985800.104577604448423 ], [ 3444574.455782321747392, 1985804.709571167360991 ], [ 3444561.691976943518966, 1985807.025111157912761 ], [ 3444549.008024014998227, 1985806.803062750492245 ], [ 3444533.914398631080985, 1985809.227319247554988 ], [ 3444507.963496242649853, 1985812.778498300118372 ], [ 3444482.975198297761381, 1985816.571883105905727 ], [ 3444463.098174714483321, 1985819.981332269264385 ], [ 3444433.030172688420862, 1985828.898964897263795 ], [ 3444407.149173635523766, 1985836.073296359740198 ], [ 3444389.098609103355557, 1985843.164221702609211 ], [ 3444374.177266052458435, 1985849.022687552496791 ], [ 3444362.910081936046481, 1985852.914427613141015 ], [ 3444332.41773798968643, 1985863.468421062221751 ], [ 3444334.987641073297709, 1985866.318111361935735 ], [ 3444355.615819327998906, 1985889.165341525571421 ], [ 3444362.372817646712065, 1985897.339510191930458 ], [ 3444370.031681314110756, 1985903.877974582603201 ], [ 3444397.10651123104617, 1985920.98769763065502 ], [ 3444402.883940794505179, 1985927.902860021218657 ], [ 3444400.947387085296214, 1985936.941631691064686 ], [ 3444399.489493409637362, 1985946.505812217015773 ], [ 3444401.442017714027315, 1985955.789969811914489 ], [ 3444414.808908161707222, 1985977.100438426248729 ], [ 3444422.346541066188365, 1985984.355944995535538 ], [ 3444432.568589508533478, 1985989.61576126748696 ], [ 3444443.86537554115057, 1985996.936541305854917 ], [ 3444451.414465439505875, 1986004.200323289260268 ], [ 3444459.1208785334602, 1986017.980279207928106 ], [ 3444463.744274431839585, 1986030.692982989130542 ], [ 3444466.239127575885504, 1986043.308853144058958 ], [ 3444466.447633773088455, 1986058.580521517898887 ], [ 3444465.099762118887156, 1986071.246128528844565 ], [ 3444461.96426322683692, 1986081.061806133249775 ], [ 3444450.842938012909144, 1986097.166346157900989 ], [ 3444442.66448478680104, 1986105.59778928081505 ], [ 3444433.776782928965986, 1986116.440333515871316 ], [ 3444429.040322909597307, 1986127.191318683791906 ], [ 3444426.288055610843003, 1986139.971674129599705 ], [ 3444422.777860691770911, 1986165.227801348082721 ], [ 3444426.333376413211226, 1986172.162688336567953 ], [ 3444432.607346537988633, 1986179.004549472825602 ], [ 3444440.760768020525575, 1986183.965623092837632 ], [ 3444449.800184103660285, 1986186.475813947618008 ], [ 3444459.346160238143057, 1986189.819828664883971 ], [ 3444469.125881945714355, 1986191.024352524895221 ], [ 3444477.531254023779184, 1986187.99694736674428 ], [ 3444486.787392976693809, 1986185.341580007225275 ], [ 3444492.757453981321305, 1986182.268974514910951 ], [ 3444500.303809866309166, 1986183.485150454100221 ], [ 3444501.583581995218992, 1986188.540708234300837 ], [ 3444501.086723375599831, 1986194.641840634867549 ], [ 3444497.719911708496511, 1986202.073157042032108 ], [ 3444495.162472358904779, 1986210.196564427576959 ], [ 3444491.278340892400593, 1986221.329422692069784 ], [ 3444489.674172180239111, 1986231.322067630244419 ], [ 3444489.329731829464436, 1986241.638251120224595 ], [ 3444491.117676819674671, 1986251.232781745959073 ], [ 3444494.661324079148471, 1986259.583315707277507 ], [ 3444500.57599101215601, 1986268.282658303156495 ], [ 3444507.745980702806264, 1986276.498636593576521 ], [ 3444516.706678798422217, 1986287.584124917630106 ], [ 3444525.421472439542413, 1986297.489206980448216 ], [ 3444562.864360520616174, 1986335.44385877950117 ], [ 3444577.424568700604141, 1986348.224083739798516 ], [ 3444587.816552769392729, 1986356.383426029002294 ], [ 3444598.866468456573784, 1986360.312772072385997 ], [ 3444608.462082227692008, 1986361.639201240381226 ], [ 3444616.368740901350975, 1986367.035509948385879 ], [ 3444623.326314610429108, 1986374.479330798145384 ], [ 3444630.155070432461798, 1986383.954149449942634 ], [ 3444636.760275894775987, 1986392.456738223321736 ], [ 3444645.752824321389198, 1986403.032149014528841 ], [ 3444656.55421237135306, 1986412.63724980968982 ], [ 3444666.952703944407403, 1986423.107669986085966 ], [ 3444676.067332721315324, 1986428.432344329543412 ], [ 3444687.56652223225683, 1986432.700206562643871 ], [ 3444699.667279484681785, 1986437.694964467547834 ], [ 3444712.212244220543653, 1986441.504467671969905 ], [ 3444728.587015624158084, 1986443.560057951603085 ], [ 3444741.876700614579022, 1986446.870900207664818 ], [ 3444748.074458827730268, 1986451.605156365316361 ], [ 3444751.940324907656759, 1986457.084574030479416 ], [ 3444756.757588781882077, 1986465.847192156594247 ], [ 3444760.237063594162464, 1986474.501317024696618 ], [ 3444761.98022235231474, 1986483.810463488567621 ], [ 3444765.073677097447217, 1986506.210562080377713 ], [ 3444767.423255762085319, 1986514.721277354983613 ], [ 3444771.968448496423662, 1986523.822402942925692 ], [ 3444774.117298210505396, 1986535.395868975901976 ], [ 3444775.543017831631005, 1986546.050827486906201 ], [ 3444779.061059609055519, 1986560.33238336769864 ], [ 3444789.60643610265106, 1986584.77238921658136 ], [ 3444794.950127889402211, 1986605.128473747521639 ], [ 3444796.500161550473422, 1986609.250128811923787 ], [ 3444799.500854725018144, 1986617.247614088002592 ], [ 3444804.77845360385254, 1986629.466795745072886 ], [ 3444820.592147404327989, 1986657.7673098531086 ], [ 3444834.408769667614251, 1986683.242969853105024 ], [ 3444841.717652581166476, 1986693.252963699866086 ], [ 3444849.848882054444402, 1986701.832544336561114 ], [ 3444857.172331200912595, 1986713.556547563755885 ], [ 3444864.973204056732357, 1986722.686259541427717 ], [ 3444873.026623288169503, 1986735.307532033883035 ], [ 3444880.370866846293211, 1986746.321269005537033 ], [ 3444889.742039670236409, 1986758.145689775934443 ], [ 3444900.427951256278902, 1986765.458043257240206 ], [ 3444910.217403062619269, 1986773.597456402145326 ], [ 3444918.775867583230138, 1986780.106015821220353 ], [ 3444927.97182512562722, 1986789.83954290417023 ], [ 3444933.89933280274272, 1986801.666761714499444 ], [ 3444939.90161323454231, 1986815.268655864754692 ], [ 3444947.107095127925277, 1986828.638165767304599 ], [ 3444955.301129004918039, 1986840.730886571574956 ], [ 3444963.592162876389921, 1986851.302892867708579 ], [ 3444974.160425731912255, 1986863.76428741030395 ], [ 3444983.066907696891576, 1986875.151730658253655 ], [ 3445007.414045873098075, 1986914.013864721404389 ], [ 3445019.500273782294244, 1986932.985055290162563 ], [ 3445033.630678907502443, 1986954.692524782149121 ], [ 3445039.77344601880759, 1986963.484847547020763 ], [ 3445048.913263306487352, 1986977.074595186393708 ], [ 3445060.166337989270687, 1986992.803403933299705 ], [ 3445071.663894420024008, 1987006.91594778909348 ], [ 3445081.09829058451578, 1987019.143635710701346 ], [ 3445093.831227666698396, 1987034.785332955187187 ], [ 3445103.002870393916965, 1987049.87426524143666 ], [ 3445111.235841074027121, 1987064.484661892987788 ], [ 3445120.576662042178214, 1987083.765544463647529 ], [ 3445129.282540826126933, 1987105.737556078471243 ], [ 3445137.100312066264451, 1987124.829798816470429 ], [ 3445149.661487637087703, 1987156.816294305957854 ], [ 3445161.595048878807575, 1987190.826707980595529 ], [ 3445169.221674443222582, 1987207.921504894271493 ], [ 3445195.324474717024714, 1987257.857125825481489 ], [ 3445204.897046641912311, 1987271.485069367336109 ], [ 3445213.3706608209759, 1987284.388987006852403 ], [ 3445225.996548369526863, 1987301.098450943827629 ], [ 3445237.157237017527223, 1987314.681780879851431 ], [ 3445243.911265678703785, 1987324.068029434652999 ], [ 3445253.406936379615217, 1987338.112868492957205 ], [ 3445274.683796128258109, 1987371.32112937187776 ], [ 3445285.443015160039067, 1987391.02988981991075 ], [ 3445293.877258213236928, 1987407.312666713027284 ], [ 3445311.929654790088534, 1987447.887988315662369 ], [ 3445316.479397708084434, 1987459.350848559523001 ], [ 3445332.719291771296412, 1987461.065528190694749 ], [ 3445372.453100141137838, 1987462.095164987491444 ], [ 3445390.356258120387793, 1987461.975585554726422 ], [ 3445405.091739977244288, 1987461.610709503991529 ], [ 3445417.69831652007997, 1987460.432082059094682 ], [ 3445429.21579459682107, 1987460.21394093404524 ], [ 3445441.859466135501862, 1987457.71660532685928 ], [ 3445456.465394566766918, 1987454.839206855744123 ], [ 3445470.548367502167821, 1987451.736648937920108 ], [ 3445480.331394785549492, 1987449.851161767728627 ], [ 3445500.601359429769218, 1987443.245724084088579 ], [ 3445500.757395912427455, 1987413.121456018649042 ], [ 3445499.052566773723811, 1987403.603907278506085 ], [ 3445490.572557151317596, 1987390.529505647718906 ], [ 3445485.966154367662966, 1987382.983534136321396 ], [ 3445484.065092978067696, 1987376.103919723303989 ], [ 3445483.077402980998158, 1987367.596865039085969 ], [ 3445483.548909743316472, 1987356.471877638017759 ], [ 3445485.520269785542041, 1987309.988939479691908 ], [ 3445486.989533450454473, 1987293.042379726422951 ], [ 3445468.592915726359934, 1987293.254763308912516 ], [ 3445439.547020855825394, 1987289.500929472502321 ], [ 3445426.118305689655244, 1987285.950954478001222 ], [ 3445417.59610933996737, 1987283.434593867510557 ], [ 3445407.677327115088701, 1987279.072864982532337 ], [ 3445403.2023980836384, 1987277.098439934663475 ], [ 3445391.441978110466152, 1987269.996903227409348 ], [ 3445382.856261088978499, 1987262.341950579080731 ], [ 3445375.618094325065613, 1987251.875884030712768 ], [ 3445368.199195221532136, 1987239.218980020144954 ], [ 3445363.351490922272205, 1987227.604249413823709 ], [ 3445360.489526028279215, 1987218.028639982221648 ], [ 3445356.97241843258962, 1987209.653623516438529 ], [ 3445354.981561295688152, 1987198.245640666922554 ], [ 3445352.173187958076596, 1987186.742641654796898 ], [ 3445344.536948460619897, 1987167.771466608392075 ], [ 3445333.946586284320801, 1987139.219974177889526 ], [ 3445320.796314423438162, 1987105.807833400322124 ], [ 3445294.20891438331455, 1987030.540056806989014 ], [ 3445358.27583021717146, 1986974.192081686807796 ], [ 3445368.684663000516593, 1986963.851402934407815 ], [ 3445384.61137756658718, 1986953.129093133611605 ], [ 3445391.424290992319584, 1986950.24818237288855 ], [ 3445393.099711345508695, 1986933.579750164411962 ], [ 3445393.059122480452061, 1986922.298294347710907 ], [ 3445392.032191575504839, 1986914.383272970793769 ], [ 3445387.809930877760053, 1986904.490933750756085 ], [ 3445379.586386031005532, 1986895.775368080940098 ], [ 3445369.695478591136634, 1986885.886014016112313 ], [ 3445358.322397256270051, 1986873.994024132145569 ], [ 3445345.930442901328206, 1986864.353091878350824 ], [ 3445333.196098919957876, 1986852.851183340186253 ], [ 3445316.665810869075358, 1986844.09725096123293 ], [ 3445302.827686572447419, 1986834.174185715150088 ], [ 3445285.351046393625438, 1986824.438170607900247 ], [ 3445264.783876550383866, 1986814.948621823685244 ], [ 3445229.742854984477162, 1986797.833896630443633 ], [ 3445247.167777319438756, 1986779.943764336174354 ], [ 3445263.235440338030457, 1986754.688752317102626 ], [ 3445281.767875821329653, 1986740.106017666403204 ], [ 3445336.556011346168816, 1986697.029142324347049 ], [ 3445350.264940478373319, 1986707.488852036884055 ], [ 3445438.075152167119086, 1986757.470334623707458 ], [ 3445458.058925843797624, 1986769.46095021488145 ], [ 3445467.52231855597347, 1986777.594606388360262 ], [ 3445476.870227393694222, 1986786.353563736658543 ], [ 3445501.812967344652861, 1986802.175910264253616 ], [ 3445513.621821001172066, 1986797.981318063801154 ], [ 3445525.552140273619443, 1986793.978361157001927 ], [ 3445535.800902490969747, 1986791.822818173328415 ], [ 3445546.022464834153652, 1986790.98441982944496 ], [ 3445566.336031105369329, 1986790.62187050236389 ], [ 3445574.662633160129189, 1986791.565760302590206 ], [ 3445583.596661211922765, 1986769.93234774004668 ] ], [ [ 3444907.2445855201222, 1986131.589285746216774 ], [ 3444894.088576198555529, 1986148.065680716885254 ], [ 3444874.521069197915494, 1986173.615650258492678 ], [ 3444837.456852472387254, 1986219.582010496640578 ], [ 3444829.8474066182971, 1986229.634147417033091 ], [ 3444824.504593923687935, 1986232.106712111737579 ], [ 3444810.593983607832342, 1986234.170613853726536 ], [ 3444802.498811312019825, 1986232.6931896826718 ], [ 3444795.022368168458343, 1986229.718393620103598 ], [ 3444745.542375996243209, 1986189.443915982032195 ], [ 3444739.985166787169874, 1986182.572623081272468 ], [ 3444737.818730277940631, 1986178.342479455750436 ], [ 3444737.205929489340633, 1986173.588871783344075 ], [ 3444759.307199070695788, 1986171.471830187598243 ], [ 3444761.812116119544953, 1986177.472632631659508 ], [ 3444775.166217575781047, 1986186.77015861030668 ], [ 3444783.48492219299078, 1986189.219711852027103 ], [ 3444791.445758407004178, 1986189.710025571286678 ], [ 3444798.298601456452161, 1986188.639803091064095 ], [ 3444804.56166260689497, 1986185.427064203890041 ], [ 3444810.33063649199903, 1986180.681936151348054 ], [ 3444817.123243963345885, 1986172.160246955230832 ], [ 3444827.158553793560714, 1986159.045134218875319 ], [ 3444841.044291953090578, 1986139.639250405365601 ], [ 3444862.684207708574831, 1986108.965451631695032 ], [ 3444907.2445855201222, 1986131.589285746216774 ] ] ], [ [ [ 3452414.818934723734856, 1992795.164646453224123 ], [ 3452397.861641502007842, 1992779.473881067242473 ], [ 3452369.167204906232655, 1992776.981034949421883 ], [ 3452338.714297353290021, 1992780.053744004806504 ], [ 3452318.098031429573894, 1992780.616911775432527 ], [ 3452305.128554056864232, 1992774.939023369224742 ], [ 3452305.992579087615013, 1992762.112618091050535 ], [ 3452312.277729508467019, 1992751.334643166512251 ], [ 3452325.69296299573034, 1992745.730358535656705 ], [ 3452334.506279765628278, 1992740.969611890381202 ], [ 3452341.650275681167841, 1992706.057822966016829 ], [ 3452338.441262748558074, 1992672.631754849804565 ], [ 3452335.646978260949254, 1992657.854973829584196 ], [ 3452327.005699458066374, 1992652.762930687051266 ], [ 3452319.348501735366881, 1992655.956644401885569 ], [ 3452313.450119546148926, 1992679.179467416135594 ], [ 3452306.073529325891286, 1992691.483604615088552 ], [ 3452292.805769104976207, 1992694.205784983700141 ], [ 3452261.592875304631889, 1992687.248900806764141 ], [ 3452233.359671690501273, 1992676.682049880968407 ], [ 3452209.15317256283015, 1992660.047719972906634 ], [ 3452196.296831473708153, 1992639.216018284671009 ], [ 3452200.539248114451766, 1992622.27874881005846 ], [ 3452217.530182656832039, 1992611.682350723305717 ], [ 3452237.159628414083272, 1992615.323388806544244 ], [ 3452253.15270765684545, 1992619.292188892373815 ], [ 3452264.809846724383533, 1992620.616728570777923 ], [ 3452271.271229601930827, 1992609.990622255951166 ], [ 3452263.321101036388427, 1992588.507132943486795 ], [ 3452244.56325794570148, 1992566.969927691156045 ], [ 3452230.18299283599481, 1992543.092576024122536 ], [ 3452217.357210165355355, 1992510.533600941533223 ], [ 3452213.668946797959507, 1992478.975012062117457 ], [ 3452214.770662264432758, 1992453.861668252618983 ], [ 3452215.257161621935666, 1992442.77481161407195 ], [ 3452218.310378739610314, 1992418.121405900921673 ], [ 3452234.731890375260264, 1992397.089935945812613 ], [ 3452254.54046896379441, 1992382.173924320843071 ], [ 3452258.270713387522846, 1992372.854662325698882 ], [ 3452262.452604651916772, 1992359.93567589763552 ], [ 3452259.193721601739526, 1992343.621673053130507 ], [ 3452257.040374175645411, 1992313.945954733761027 ], [ 3452265.078341125044972, 1992304.044909859076142 ], [ 3452275.911657060030848, 1992290.201491627842188 ], [ 3452288.234222174622118, 1992281.125971341738477 ], [ 3452294.557053082622588, 1992276.419793092645705 ], [ 3452297.852556415833533, 1992271.131387462140992 ], [ 3452299.320539387874305, 1992265.331948242615908 ], [ 3452297.450738974381238, 1992259.820116981631145 ], [ 3452295.640629590023309, 1992254.10643088677898 ], [ 3452291.682095234282315, 1992250.500208092154935 ], [ 3452284.633830947335809, 1992243.646643243031576 ], [ 3452257.471171220764518, 1992236.343003021087497 ], [ 3452234.200749511830509, 1992241.036772426683456 ], [ 3452215.165838048327714, 1992246.372572432737797 ], [ 3452206.050711296964437, 1992243.571321753552184 ], [ 3452192.286447008606046, 1992240.793393451720476 ], [ 3452175.580156298819929, 1992245.041636165929958 ], [ 3452174.972536326851696, 1992245.961360760964453 ], [ 3452174.260767764411867, 1992250.170061154291034 ], [ 3452173.932904318906367, 1992256.242558338679373 ], [ 3452174.739527055062354, 1992261.387555901659653 ], [ 3452176.080690115690231, 1992266.442818566225469 ], [ 3452177.683324681594968, 1992271.999503390397877 ], [ 3452180.160928060766309, 1992279.054844485595822 ], [ 3452181.904607985634357, 1992286.67784357839264 ], [ 3452180.534787908196449, 1992293.621923937695101 ], [ 3452169.402554641943425, 1992299.79177713743411 ], [ 3452151.441357023548335, 1992302.968545392155647 ], [ 3452136.858817463275045, 1992297.046515565831214 ], [ 3452122.531977591104805, 1992277.915717339841649 ], [ 3452112.636397561989725, 1992270.914168342482299 ], [ 3452098.850139344111085, 1992274.995339688146487 ], [ 3452081.455417967867106, 1992287.163660898571834 ], [ 3452067.231730652041733, 1992295.064216921338812 ], [ 3452064.06102181551978, 1992297.131186138140038 ], [ 3452061.830272229854017, 1992297.222870861180127 ], [ 3452059.184372653253376, 1992296.546333303907886 ], [ 3452057.648220222909003, 1992286.748212111881003 ], [ 3452059.225324741564691, 1992280.607337730005383 ], [ 3452058.712899275589734, 1992272.868604339892045 ], [ 3452057.207418091595173, 1992263.590157178696245 ], [ 3452052.574815081432462, 1992248.556903963675722 ], [ 3452049.854453739710152, 1992243.581622573779896 ], [ 3452023.123527145013213, 1992216.224667990813032 ], [ 3451991.079133403021842, 1992187.568867267109454 ], [ 3451962.359241415280849, 1992159.253565310034901 ], [ 3451943.631478678435087, 1992137.388474913546816 ], [ 3451937.753706435672939, 1992115.7085790138226 ], [ 3451937.700994693208486, 1992111.678793389350176 ], [ 3451938.559442709665745, 1992108.990340214921162 ], [ 3451943.688704445958138, 1992105.029706427128986 ], [ 3451957.009273301344365, 1992098.4318752377294 ], [ 3451964.323217322584242, 1992088.64223963371478 ], [ 3451963.520031748805195, 1992082.547585975378752 ], [ 3451958.054092614911497, 1992072.177410382078961 ], [ 3451949.791324824094772, 1992057.187877303222194 ], [ 3451937.426490969024599, 1992039.555313853546977 ], [ 3451934.037540659308434, 1992029.14945840020664 ], [ 3451929.673815271817148, 1992017.645172539399937 ], [ 3451927.2771583981812, 1992000.47967322729528 ], [ 3451931.493193626403809, 1991990.240739401197061 ], [ 3451935.312066963873804, 1991980.967278519179672 ], [ 3451951.416398639790714, 1991958.040644970955327 ], [ 3451944.096728859934956, 1991946.99210559995845 ], [ 3451930.036168423946947, 1991941.871059199096635 ], [ 3451916.800386439543217, 1991936.439813383622095 ], [ 3451912.635379823856056, 1991922.832277348497882 ], [ 3451911.880663025192916, 1991896.375020746607333 ], [ 3451911.043432572856545, 1991873.344160531414673 ], [ 3451907.258594073355198, 1991863.782110831234604 ], [ 3451894.564020292367786, 1991847.416503060143441 ], [ 3451876.347396510187536, 1991834.64339860342443 ], [ 3451861.739335756748915, 1991825.706796881742775 ], [ 3451846.050321883521974, 1991819.011461927322671 ], [ 3451831.487940556369722, 1991827.927817487390712 ], [ 3451817.684074281714857, 1991849.458614477189258 ], [ 3451798.684757929295301, 1991857.938648576149717 ], [ 3451779.168771007563919, 1991856.317986920243129 ], [ 3451770.561599669978023, 1991845.091830894118175 ], [ 3451776.376964293420315, 1991820.106219065375626 ], [ 3451783.572152733802795, 1991793.293923873221502 ], [ 3451787.83342210482806, 1991771.678972349967808 ], [ 3451786.001420349348336, 1991750.985870996490121 ], [ 3451781.869925480801612, 1991746.146530693629757 ], [ 3451780.126964627765119, 1991744.490494230762124 ], [ 3451753.799610512331128, 1991757.744507598457858 ], [ 3451410.562885775696486, 1991925.752970318542793 ], [ 3451415.337051293812692, 1991940.328517456306145 ], [ 3451421.577478630933911, 1991971.125101568410173 ], [ 3451431.139392036013305, 1991997.446868120227009 ], [ 3451448.307379825972021, 1992024.460220097796991 ], [ 3451465.491274114698172, 1992047.816024068277329 ], [ 3451481.334259395487607, 1992071.043670432409272 ], [ 3451490.296343834139407, 1992092.761018694378436 ], [ 3451494.262252318672836, 1992123.111667580204085 ], [ 3451500.98433224670589, 1992146.093595270533115 ], [ 3451516.743235256522894, 1992173.384122526738793 ], [ 3451519.400780139956623, 1992175.431724906666204 ], [ 3451637.25987854693085, 1992188.135012718616053 ], [ 3451658.100838926620781, 1992196.974019561894238 ], [ 3451691.691531228832901, 1992223.825226375833154 ], [ 3451724.779618680942804, 1992260.625027637463063 ], [ 3451765.932675596792251, 1992314.588084409711882 ], [ 3451702.984513708390296, 1992328.447595952311531 ], [ 3451660.94577521411702, 1992347.631470923312008 ], [ 3451671.717578910291195, 1992364.23901542997919 ], [ 3451691.4089594068937, 1992400.865046749589965 ], [ 3451708.124700341373682, 1992426.288735612528399 ], [ 3451720.290006218943745, 1992446.600132023449987 ], [ 3451729.987733690068126, 1992475.211492125177756 ], [ 3451737.762975936289877, 1992508.668818504316732 ], [ 3451740.875680840574205, 1992518.283280908130109 ], [ 3451740.9071707832627, 1992518.4193473784253 ], [ 3451747.883471688255668, 1992539.975495503051206 ], [ 3451761.373845613561571, 1992568.414481278974563 ], [ 3451771.323002983815968, 1992598.629306016024202 ], [ 3451778.995507959276438, 1992635.577060714829713 ], [ 3451796.485555285587907, 1992671.835965394508094 ], [ 3451806.626224732492119, 1992701.847013274207711 ], [ 3451810.783259045798331, 1992722.140080619836226 ], [ 3451825.134371341206133, 1992750.495166697073728 ], [ 3451835.80429017264396, 1992776.560341943986714 ], [ 3451824.440957932732999, 1992777.044583240291104 ], [ 3451811.287427399773151, 1992776.284488607198 ], [ 3451791.089481934439391, 1992775.626733681652695 ], [ 3451759.999746887478977, 1992773.021447618724778 ], [ 3451735.402083621826023, 1992775.53588802786544 ], [ 3451704.292589396238327, 1992778.053078226046637 ], [ 3451688.290847622789443, 1992776.428346074419096 ], [ 3451665.932611904572695, 1992775.860727049643174 ], [ 3451646.895703489892185, 1992773.927856747061014 ], [ 3451632.135651130229235, 1992766.420325041981414 ], [ 3451620.419037580955774, 1992759.209559918846935 ], [ 3451609.751647737808526, 1992751.822941709775478 ], [ 3451604.916800281498581, 1992746.970429740147665 ], [ 3451596.532936655916274, 1992740.280468632699922 ], [ 3451589.034694886766374, 1992737.490595812210813 ], [ 3451582.44277735799551, 1992736.981863257708028 ], [ 3451568.869755052961409, 1992742.229119797470048 ], [ 3451555.060517572332174, 1992749.404226745478809 ], [ 3451541.233055260032415, 1992761.711529645137489 ], [ 3451515.62460761051625, 1992785.447141150478274 ], [ 3451506.980272172484547, 1992799.579968393780291 ], [ 3451492.224458716344088, 1992815.326194999506697 ], [ 3452423.145085949916393, 1992815.326194999506697 ], [ 3452414.818934723734856, 1992795.164646453224123 ] ] ] ] } }
]
}
