{
"type": "FeatureCollection",
"name": "Torre_de_Don_Miguel",
"crs": { "type": "name", "properties": { "name": "urn:ogc:def:crs:EPSG::3035" } },
"features": [
{ "type": "Feature", "properties": { "SITE_NAME": "Sierra de Gata y Valle de las Pilas", "ODESIGNATE": "Zonas de Especial Protección para las Aves", "NUT2": 43, "SITE_CODE_": "ES0000370", "DESIG_ABBR": "ES54", "SITE_CDDA": "555774094_CDDA", "Sup_ha": 18926.351281499999 }, "geometry": { "type": "Polygon", "coordinates": [ [ [ 2917398.517647810280323, 2059679.90326941316016 ], [ 2917393.127052155323327, 2059669.949435897171497 ], [ 2917383.920223495457321, 2059656.843822128837928 ], [ 2917379.124118900857866, 2059640.569619465386495 ], [ 2917374.111004930920899, 2059636.690981032326818 ], [ 2917353.536505354102701, 2059623.364965869113803 ], [ 2917348.001215710304677, 2059621.674683827441186 ], [ 2917298.488938910886645, 2059616.669662222731858 ], [ 2917277.697515830397606, 2059615.73902933113277 ], [ 2917273.134340856224298, 2059613.803851488279179 ], [ 2917263.774968724232167, 2059595.594503505621105 ], [ 2917247.08083419688046, 2059567.921354334801435 ], [ 2917228.297818654216826, 2059549.001765116117895 ], [ 2917214.528010733425617, 2059533.960786156123504 ], [ 2917211.00927784666419, 2059527.648790449369699 ], [ 2917212.423276057466865, 2059515.980068390723318 ], [ 2917221.164045824669302, 2059500.408176911529154 ], [ 2917224.297290434129536, 2059487.277823176467791 ], [ 2917222.722733925096691, 2059480.475720974151045 ], [ 2917217.998935285024345, 2059460.06984602403827 ], [ 2917201.369303024373949, 2059414.897737715626135 ], [ 2917196.870602602139115, 2059395.463675627950579 ], [ 2917200.743012632708997, 2059367.749445794383064 ], [ 2917204.101236609742045, 2059355.590725026559085 ], [ 2917203.723784212954342, 2059349.515543831512332 ], [ 2917194.734164843801409, 2059324.014325526310131 ], [ 2917193.384505621623248, 2059318.18406930542551 ], [ 2917191.135227179620415, 2059308.467083657393232 ], [ 2917185.897155018523335, 2059303.616649621166289 ], [ 2917184.772557932883501, 2059298.758099047001451 ], [ 2917189.842090632766485, 2059271.770699738059193 ], [ 2917190.645879401825368, 2059239.687930648215115 ], [ 2917190.268423282541335, 2059233.612654824508354 ], [ 2917187.721731245517731, 2059227.055782252456993 ], [ 2917172.972114452160895, 2059198.892565934918821 ], [ 2917173.189126098528504, 2059186.497146851150319 ], [ 2917172.81169092701748, 2059180.421971397474408 ], [ 2917169.742795395664871, 2059176.053353100316599 ], [ 2917129.268866216763854, 2059152.316217054845765 ], [ 2917083.202890918124467, 2059157.754914388759062 ], [ 2917075.49854673165828, 2059155.582842449657619 ], [ 2917071.682419979479164, 2059152.430977029027417 ], [ 2917068.388681748416275, 2059147.090725037967786 ], [ 2917063.520437858067453, 2059134.948486782377586 ], [ 2917057.607614873442799, 2059127.182987581705675 ], [ 2917037.330608817283064, 2059110.696736087789759 ], [ 2917029.473598211072385, 2059103.421256303787231 ], [ 2916993.322362593375146, 2059053.91335305897519 ], [ 2916987.787092289887369, 2059052.223116784589365 ], [ 2916981.72962886467576, 2059052.721232350217178 ], [ 2916959.146390958689153, 2059057.384123795200139 ], [ 2916951.442057583946735, 2059055.212073226692155 ], [ 2916923.613155448809266, 2059041.657491889316589 ], [ 2916912.614982592873275, 2059034.145128231029958 ], [ 2916901.239398066420108, 2059020.557696442352608 ], [ 2916879.540410147979856, 2059002.372992631979287 ], [ 2916863.674024828709662, 2058982.718431028304622 ], [ 2916864.493552538566291, 2058977.369989653816447 ], [ 2916868.59917380195111, 2058963.994599781231955 ], [ 2916868.221635791473091, 2058957.919351753080264 ], [ 2916861.634176036342978, 2058947.238787400536239 ], [ 2916836.344037342816591, 2058926.873885430395603 ], [ 2916791.162333266809583, 2058909.465258189477026 ], [ 2916779.344683014787734, 2058907.301568070193753 ], [ 2916761.541848715394735, 2058901.504136312985793 ], [ 2916755.701535335741937, 2058889.606857413193211 ], [ 2916754.489033836871386, 2058862.145735411439091 ], [ 2916752.392271454446018, 2058857.532235914841294 ], [ 2916736.453534278552979, 2058842.009438263950869 ], [ 2916705.483540517743677, 2058828.218105788109824 ], [ 2916696.277032073587179, 2058815.112345613306388 ], [ 2916692.228462361730635, 2058797.62160747568123 ], [ 2916681.897378275170922, 2058779.657226209994406 ], [ 2916663.717135069426149, 2058767.784575139638036 ], [ 2916651.152231107465923, 2058766.837471851613373 ], [ 2916633.429624304641038, 2058770.275519446469843 ], [ 2916629.243996913079172, 2058774.415553393308073 ], [ 2916617.447564502246678, 2058781.592262365622446 ], [ 2916616.99174977466464, 2058781.869588472647592 ], [ 2916614.814991138875484, 2058783.193740599323064 ], [ 2916602.475069637876004, 2058783.218467249767855 ], [ 2916584.157708149403334, 2058792.976730309892446 ], [ 2916557.606146125588566, 2058789.384216908365488 ], [ 2916519.084372537210584, 2058778.524375641951337 ], [ 2916490.813413071446121, 2058776.393690489465371 ], [ 2916485.053204140625894, 2058773.731700496049598 ], [ 2916474.50490911770612, 2058768.162900839233771 ], [ 2916462.607173579744995, 2058756.763748246710747 ], [ 2916464.7608777359128, 2058730.511120794108137 ], [ 2916479.406987297814339, 2058709.337372903944924 ], [ 2916480.226605148054659, 2058703.988814410287887 ], [ 2916477.904881623573601, 2058698.403514856938273 ], [ 2916469.82317958958447, 2058690.156389612006024 ], [ 2916437.503723907284439, 2058670.534712359542027 ], [ 2916419.026195692829788, 2058661.822250391589478 ], [ 2916403.987138473428786, 2058650.186381112318486 ], [ 2916391.647229085210711, 2058650.211065339157358 ], [ 2916381.628943860530853, 2058655.821064460324124 ], [ 2916375.426569066476077, 2058664.583001972176135 ], [ 2916370.276460971683264, 2058682.335147652775049 ], [ 2916367.287811845541, 2058687.202016264665872 ], [ 2916364.859529625624418, 2058688.352734212297946 ], [ 2916362.652192211244255, 2058689.398659259546548 ], [ 2916348.368101504631341, 2058689.913299881387502 ], [ 2916323.985551905818284, 2058686.802631562575698 ], [ 2916296.839307676069438, 2058689.530467464588583 ], [ 2916269.765454447828233, 2058688.126513960538432 ], [ 2916254.581561323255301, 2058684.754321046173573 ], [ 2916246.499874318018556, 2058676.507234545424581 ], [ 2916229.444272488355637, 2058669.493175470503047 ], [ 2916220.542850243858993, 2058666.594477933365852 ], [ 2916206.925835000816733, 2058656.657177179586142 ], [ 2916191.436996481847018, 2058643.07792808348313 ], [ 2916179.161854742094874, 2058625.603501683333889 ], [ 2916168.388743215240538, 2058619.063042085617781 ], [ 2916159.937139169313014, 2058618.107804722385481 ], [ 2916154.104590002913028, 2058619.577761130873114 ], [ 2916136.534371437504888, 2058628.119476092513651 ], [ 2916090.091120593249798, 2058627.483560868771747 ], [ 2916060.478509927168489, 2058632.889967872062698 ], [ 2916030.038647493347526, 2058630.27759612374939 ], [ 2915993.468937439844012, 2058632.295314231654629 ], [ 2915985.989537646993995, 2058631.095062391133979 ], [ 2915963.173933485522866, 2058621.419258692767471 ], [ 2915947.917745132930577, 2058622.179073231294751 ], [ 2915927.278948011808097, 2058626.352307549677789 ], [ 2915900.655035226605833, 2058626.891922113252804 ], [ 2915878.216801055241376, 2058623.291431193007156 ], [ 2915849.19123326940462, 2058609.010228568688035 ], [ 2915828.697191141545773, 2058604.919796128291637 ], [ 2915808.355643580667675, 2058605.932911024661735 ], [ 2915793.774345217272639, 2058609.607819884316996 ], [ 2915793.023809495382011, 2058609.664272515103221 ], [ 2915770.516571003943682, 2058611.356052699266002 ], [ 2915761.687651494983584, 2058604.325521641178057 ], [ 2915747.315763182472438, 2058582.237560141365975 ], [ 2915739.908772686962038, 2058576.905640939483419 ], [ 2915727.344111933372915, 2058575.95867698919028 ], [ 2915698.486369064077735, 2058593.515859154751524 ], [ 2915679.719265139196068, 2058601.331077354727313 ], [ 2915639.783492641989142, 2058602.14068370917812 ], [ 2915629.018132794648409, 2058608.967620464973152 ], [ 2915622.590901126153767, 2058616.757854531286284 ], [ 2915617.51323667448014, 2058630.378501648781821 ], [ 2915612.66835049726069, 2058658.338218240533024 ], [ 2915606.996085844933987, 2058678.279161322629079 ], [ 2915608.570598662830889, 2058685.08118908549659 ], [ 2915604.609825260005891, 2058690.193069335538894 ], [ 2915598.030123741365969, 2058692.87986863986589 ], [ 2915591.000588294118643, 2058693.623126273974776 ], [ 2915555.170264345128089, 2058681.057229526806623 ], [ 2915543.955203543882817, 2058685.940630894387141 ], [ 2915537.455597332678735, 2058697.863005551509559 ], [ 2915537.085949627682567, 2058705.155012174975127 ], [ 2915550.341005757451057, 2058735.75170240434818 ], [ 2915558.647646320052445, 2058744.970582301262766 ], [ 2915564.632750275544822, 2058748.604169233236462 ], [ 2915564.785360801499337, 2058753.707694083219394 ], [ 2915557.161149680614471, 2058760.771369312889874 ], [ 2915550.760211990680546, 2058762.38471361855045 ], [ 2915550.356599693652242, 2058762.486446022987366 ], [ 2915549.434448806103319, 2058762.457402401603758 ], [ 2915543.102016125340015, 2058762.258016482694075 ], [ 2915497.703567042481154, 2058757.245885059470311 ], [ 2915474.590582336299121, 2058750.730356590356678 ], [ 2915450.272816445678473, 2058730.120787244057283 ], [ 2915415.856700657401234, 2058705.886020737234503 ], [ 2915400.287752465344965, 2058683.071382320486009 ], [ 2915382.027439956087619, 2058661.963510751258582 ], [ 2915354.946087643504143, 2058647.19255068176426 ], [ 2915323.606503759510815, 2058640.693744848715141 ], [ 2915317.549084083177149, 2058641.19209953979589 ], [ 2915312.166428171098232, 2058644.60550965112634 ], [ 2915310.14985438156873, 2058649.227524927584454 ], [ 2915313.828796453773975, 2058674.010471881367266 ], [ 2915307.481847050134093, 2058691.036405245540664 ], [ 2915295.824601780623198, 2058707.343943016370758 ], [ 2915293.66326734656468, 2058720.229701808188111 ], [ 2915302.652544869109988, 2058745.731055862735957 ], [ 2915317.996658649295568, 2058767.574037994723767 ], [ 2915332.59354106336832, 2058790.633604736533016 ], [ 2915344.194017388857901, 2058805.192852392792702 ], [ 2915361.104868841357529, 2058820.470294143073261 ], [ 2915366.045373501256108, 2058828.480848633684218 ], [ 2915388.194217974785715, 2058848.608621523482725 ], [ 2915402.935798525810242, 2058863.404588357312605 ], [ 2915431.374831350520253, 2058897.373145909979939 ], [ 2915482.484794784337282, 2058949.281002470990643 ], [ 2915484.806480699684471, 2058954.866478545125574 ], [ 2915486.533563463017344, 2058966.772061862284318 ], [ 2915474.57917707040906, 2058986.239664076594636 ], [ 2915472.787590988911688, 2058991.833395063178614 ], [ 2915481.102269920986146, 2059014.419637692393735 ], [ 2915474.530539348255843, 2059030.473846883280203 ], [ 2915470.344858598895371, 2059034.614036472514272 ], [ 2915438.941025979816914, 2059045.614631759002805 ], [ 2915405.970495070330799, 2059063.180620347382501 ], [ 2915393.188635142985731, 2059074.629579713800922 ], [ 2915391.397163870744407, 2059080.223299464676529 ], [ 2915391.54971354175359, 2059085.326851908117533 ], [ 2915400.386678202543408, 2059105.724700746359304 ], [ 2915411.015230401884764, 2059120.52891350723803 ], [ 2915420.816301349550486, 2059127.314234599238262 ], [ 2915434.280806671828032, 2059132.147851812886074 ], [ 2915474.20848920987919, 2059117.970414059469476 ], [ 2915481.985166255384684, 2059116.010260435752571 ], [ 2915502.704127110540867, 2059121.072234502295032 ], [ 2915519.687252425588667, 2059132.217853626934811 ], [ 2915523.953189819585532, 2059137.313237481052056 ], [ 2915544.173858024179935, 2059184.665785187156871 ], [ 2915563.559138888958842, 2059210.632251150673255 ], [ 2915563.567115496378392, 2059223.999747417401522 ], [ 2915561.405959274619818, 2059236.885411808732897 ], [ 2915549.676670115441084, 2059257.324938345933333 ], [ 2915550.431841763667762, 2059269.475565497064963 ], [ 2915542.735538486856967, 2059280.671172206988558 ], [ 2915525.993148296140134, 2059297.232194493990391 ], [ 2915523.976708787959069, 2059301.854100976372138 ], [ 2915512.874080696608871, 2059369.442943106638268 ], [ 2915519.244857748970389, 2059392.519301555817947 ], [ 2915532.870059378445148, 2059415.823907088022679 ], [ 2915551.580682473722845, 2059438.875112600857392 ], [ 2915564.225716264452785, 2059449.057375424308702 ], [ 2915577.770637646317482, 2059463.126510459696874 ], [ 2915594.762020424939692, 2059487.639553767628968 ], [ 2915604.265976767987013, 2059497.585115769645199 ], [ 2915667.049775632098317, 2059559.920252080075443 ], [ 2915711.653294673189521, 2059610.383010170189664 ], [ 2915742.631584857590497, 2059637.541224259650335 ], [ 2915773.987355513498187, 2059670.774767256341875 ], [ 2915790.853325746022165, 2059683.28214499913156 ], [ 2917399.433587226551026, 2059683.28214499913156 ], [ 2917398.517647810280323, 2059679.90326941316016 ] ] ] } },
{ "type": "Feature", "properties": { "SITE_NAME": "Sierra de Gata", "ODESIGNATE": "Zonas Especiales de Conservación", "NUT2": 43, "SITE_CODE_": "ES4320037", "DESIG_ABBR": "ES56", "SITE_CDDA": "555774195_CDDA", "Sup_ha": 17328.808254899999 }, "geometry": { "type": "Polygon", "coordinates": [ [ [ 2917398.517647810280323, 2059679.90326941316016 ], [ 2917393.127052155323327, 2059669.949435897171497 ], [ 2917383.920223495457321, 2059656.843822128837928 ], [ 2917379.124118900857866, 2059640.569619465386495 ], [ 2917374.111004930920899, 2059636.690981032326818 ], [ 2917353.536505354102701, 2059623.364965869113803 ], [ 2917348.001215710304677, 2059621.674683827441186 ], [ 2917298.488938910886645, 2059616.669662222731858 ], [ 2917277.697515830397606, 2059615.73902933113277 ], [ 2917273.134340856224298, 2059613.803851488279179 ], [ 2917263.774968724232167, 2059595.594503505621105 ], [ 2917247.08083419688046, 2059567.921354334801435 ], [ 2917228.297818654216826, 2059549.001765116117895 ], [ 2917214.528010733425617, 2059533.960786156123504 ], [ 2917211.00927784666419, 2059527.648790449369699 ], [ 2917212.423276057466865, 2059515.980068390723318 ], [ 2917221.164045824669302, 2059500.408176911529154 ], [ 2917224.297290434129536, 2059487.277823176467791 ], [ 2917222.722733925096691, 2059480.475720974151045 ], [ 2917217.998935285024345, 2059460.06984602403827 ], [ 2917201.369303024373949, 2059414.897737715626135 ], [ 2917196.870602602139115, 2059395.463675627950579 ], [ 2917200.743012632708997, 2059367.749445794383064 ], [ 2917204.101236609742045, 2059355.590725026559085 ], [ 2917203.723784212954342, 2059349.515543831512332 ], [ 2917194.734164843801409, 2059324.014325526310131 ], [ 2917193.384505621623248, 2059318.18406930542551 ], [ 2917191.135227179620415, 2059308.467083657393232 ], [ 2917185.897155018523335, 2059303.616649621166289 ], [ 2917184.772557932883501, 2059298.758099047001451 ], [ 2917189.842090632766485, 2059271.770699738059193 ], [ 2917190.645879401825368, 2059239.687930648215115 ], [ 2917190.268423282541335, 2059233.612654824508354 ], [ 2917187.721731245517731, 2059227.055782252456993 ], [ 2917172.972114452160895, 2059198.892565934918821 ], [ 2917173.189126098528504, 2059186.497146851150319 ], [ 2917172.81169092701748, 2059180.421971397474408 ], [ 2917169.742795395664871, 2059176.053353100316599 ], [ 2917129.268866216763854, 2059152.316217054845765 ], [ 2917083.202890918124467, 2059157.754914388759062 ], [ 2917075.49854673165828, 2059155.582842449657619 ], [ 2917071.682419979479164, 2059152.430977029027417 ], [ 2917068.388681748416275, 2059147.090725037967786 ], [ 2917063.520437858067453, 2059134.948486782377586 ], [ 2917057.607614873442799, 2059127.182987581705675 ], [ 2917037.330608817283064, 2059110.696736087789759 ], [ 2917029.473598211072385, 2059103.421256303787231 ], [ 2916993.322362593375146, 2059053.91335305897519 ], [ 2916987.787092289887369, 2059052.223116784589365 ], [ 2916981.72962886467576, 2059052.721232350217178 ], [ 2916959.146390958689153, 2059057.384123795200139 ], [ 2916951.442057583946735, 2059055.212073226692155 ], [ 2916923.613155448809266, 2059041.657491889316589 ], [ 2916912.614982592873275, 2059034.145128231029958 ], [ 2916901.239398066420108, 2059020.557696442352608 ], [ 2916879.540410147979856, 2059002.372992631979287 ], [ 2916863.674024828709662, 2058982.718431028304622 ], [ 2916864.493552538566291, 2058977.369989653816447 ], [ 2916868.59917380195111, 2058963.994599781231955 ], [ 2916868.221635791473091, 2058957.919351753080264 ], [ 2916861.634176036342978, 2058947.238787400536239 ], [ 2916836.344037342816591, 2058926.873885430395603 ], [ 2916791.162333266809583, 2058909.465258189477026 ], [ 2916779.344683014787734, 2058907.301568070193753 ], [ 2916761.541848715394735, 2058901.504136312985793 ], [ 2916755.701535335741937, 2058889.606857413193211 ], [ 2916754.489033836871386, 2058862.145735411439091 ], [ 2916752.392271454446018, 2058857.532235914841294 ], [ 2916736.453534278552979, 2058842.009438263950869 ], [ 2916705.483540517743677, 2058828.218105788109824 ], [ 2916696.277032073587179, 2058815.112345613306388 ], [ 2916692.228462361730635, 2058797.62160747568123 ], [ 2916681.897378275170922, 2058779.657226209994406 ], [ 2916663.717135069426149, 2058767.784575139638036 ], [ 2916651.152231107465923, 2058766.837471851613373 ], [ 2916633.429624304641038, 2058770.275519446469843 ], [ 2916629.243996913079172, 2058774.415553393308073 ], [ 2916617.447564502246678, 2058781.592262365622446 ], [ 2916616.99174977466464, 2058781.869588472647592 ], [ 2916614.814991138875484, 2058783.193740599323064 ], [ 2916602.475069637876004, 2058783.218467249767855 ], [ 2916584.157708149403334, 2058792.976730309892446 ], [ 2916557.606146125588566, 2058789.384216908365488 ], [ 2916519.084372537210584, 2058778.524375641951337 ], [ 2916490.813413071446121, 2058776.393690489465371 ], [ 2916485.053204140625894, 2058773.731700496049598 ], [ 2916474.50490911770612, 2058768.162900839233771 ], [ 2916462.607173579744995, 2058756.763748246710747 ], [ 2916464.7608777359128, 2058730.511120794108137 ], [ 2916479.406987297814339, 2058709.337372903944924 ], [ 2916480.226605148054659, 2058703.988814410287887 ], [ 2916477.904881623573601, 2058698.403514856938273 ], [ 2916469.82317958958447, 2058690.156389612006024 ], [ 2916437.503723907284439, 2058670.534712359542027 ], [ 2916419.026195692829788, 2058661.822250391589478 ], [ 2916403.987138473428786, 2058650.186381112318486 ], [ 2916391.647229085210711, 2058650.211065339157358 ], [ 2916381.628943860530853, 2058655.821064460324124 ], [ 2916375.426569066476077, 2058664.583001972176135 ], [ 2916370.276460971683264, 2058682.335147652775049 ], [ 2916367.287811845541, 2058687.202016264665872 ], [ 2916364.859529625624418, 2058688.352734212297946 ], [ 2916362.652192211244255, 2058689.398659259546548 ], [ 2916348.368101504631341, 2058689.913299881387502 ], [ 2916323.985551905818284, 2058686.802631562575698 ], [ 2916296.839307676069438, 2058689.530467464588583 ], [ 2916269.765454447828233, 2058688.126513960538432 ], [ 2916254.581561323255301, 2058684.754321046173573 ], [ 2916246.499874318018556, 2058676.507234545424581 ], [ 2916229.444272488355637, 2058669.493175470503047 ], [ 2916220.542850243858993, 2058666.594477933365852 ], [ 2916206.925835000816733, 2058656.657177179586142 ], [ 2916191.436996481847018, 2058643.07792808348313 ], [ 2916179.161854742094874, 2058625.603501683333889 ], [ 2916168.388743215240538, 2058619.063042085617781 ], [ 2916159.937139169313014, 2058618.107804722385481 ], [ 2916154.104590002913028, 2058619.577761130873114 ], [ 2916136.534371437504888, 2058628.119476092513651 ], [ 2916090.091120593249798, 2058627.483560868771747 ], [ 2916060.478509927168489, 2058632.889967872062698 ], [ 2916030.038647493347526, 2058630.27759612374939 ], [ 2915993.468937439844012, 2058632.295314231654629 ], [ 2915985.989537646993995, 2058631.095062391133979 ], [ 2915963.173933485522866, 2058621.419258692767471 ], [ 2915947.917745132930577, 2058622.179073231294751 ], [ 2915927.278948011808097, 2058626.352307549677789 ], [ 2915900.655035226605833, 2058626.891922113252804 ], [ 2915878.216801055241376, 2058623.291431193007156 ], [ 2915849.19123326940462, 2058609.010228568688035 ], [ 2915828.697191141545773, 2058604.919796128291637 ], [ 2915808.355643580667675, 2058605.932911024661735 ], [ 2915793.774345217272639, 2058609.607819884316996 ], [ 2915793.023809495382011, 2058609.664272515103221 ], [ 2915770.516571003943682, 2058611.356052699266002 ], [ 2915761.687651494983584, 2058604.325521641178057 ], [ 2915747.315763182472438, 2058582.237560141365975 ], [ 2915739.908772686962038, 2058576.905640939483419 ], [ 2915727.344111933372915, 2058575.95867698919028 ], [ 2915698.486369064077735, 2058593.515859154751524 ], [ 2915679.719265139196068, 2058601.331077354727313 ], [ 2915639.783492641989142, 2058602.14068370917812 ], [ 2915629.018132794648409, 2058608.967620464973152 ], [ 2915622.590901126153767, 2058616.757854531286284 ], [ 2915617.51323667448014, 2058630.378501648781821 ], [ 2915612.66835049726069, 2058658.338218240533024 ], [ 2915606.996085844933987, 2058678.279161322629079 ], [ 2915608.570598662830889, 2058685.08118908549659 ], [ 2915604.609825260005891, 2058690.193069335538894 ], [ 2915598.030123741365969, 2058692.87986863986589 ], [ 2915591.000588294118643, 2058693.623126273974776 ], [ 2915555.170264345128089, 2058681.057229526806623 ], [ 2915543.955203543882817, 2058685.940630894387141 ], [ 2915537.455597332678735, 2058697.863005551509559 ], [ 2915537.085949627682567, 2058705.155012174975127 ], [ 2915550.341005757451057, 2058735.75170240434818 ], [ 2915558.647646320052445, 2058744.970582301262766 ], [ 2915564.632750275544822, 2058748.604169233236462 ], [ 2915564.785360801499337, 2058753.707694083219394 ], [ 2915557.161149680614471, 2058760.771369312889874 ], [ 2915550.760211990680546, 2058762.38471361855045 ], [ 2915550.356599693652242, 2058762.486446022987366 ], [ 2915549.434448806103319, 2058762.457402401603758 ], [ 2915543.102016125340015, 2058762.258016482694075 ], [ 2915497.703567042481154, 2058757.245885059470311 ], [ 2915474.590582336299121, 2058750.730356590356678 ], [ 2915450.272816445678473, 2058730.120787244057283 ], [ 2915415.856700657401234, 2058705.886020737234503 ], [ 2915400.287752465344965, 2058683.071382320486009 ], [ 2915382.027439956087619, 2058661.963510751258582 ], [ 2915354.946087643504143, 2058647.19255068176426 ], [ 2915323.606503759510815, 2058640.693744848715141 ], [ 2915317.549084083177149, 2058641.19209953979589 ], [ 2915312.166428171098232, 2058644.60550965112634 ], [ 2915310.14985438156873, 2058649.227524927584454 ], [ 2915313.828796453773975, 2058674.010471881367266 ], [ 2915307.481847050134093, 2058691.036405245540664 ], [ 2915295.824601780623198, 2058707.343943016370758 ], [ 2915293.66326734656468, 2058720.229701808188111 ], [ 2915302.652544869109988, 2058745.731055862735957 ], [ 2915317.996658649295568, 2058767.574037994723767 ], [ 2915332.59354106336832, 2058790.633604736533016 ], [ 2915344.194017388857901, 2058805.192852392792702 ], [ 2915361.104868841357529, 2058820.470294143073261 ], [ 2915366.045373501256108, 2058828.480848633684218 ], [ 2915388.194217974785715, 2058848.608621523482725 ], [ 2915402.935798525810242, 2058863.404588357312605 ], [ 2915431.374831350520253, 2058897.373145909979939 ], [ 2915482.484794784337282, 2058949.281002470990643 ], [ 2915484.806480699684471, 2058954.866478545125574 ], [ 2915486.533563463017344, 2058966.772061862284318 ], [ 2915474.57917707040906, 2058986.239664076594636 ], [ 2915472.787590988911688, 2058991.833395063178614 ], [ 2915481.102269920986146, 2059014.419637692393735 ], [ 2915474.530539348255843, 2059030.473846883280203 ], [ 2915470.344858598895371, 2059034.614036472514272 ], [ 2915438.941025979816914, 2059045.614631759002805 ], [ 2915405.970495070330799, 2059063.180620347382501 ], [ 2915393.188635142985731, 2059074.629579713800922 ], [ 2915391.397163870744407, 2059080.223299464676529 ], [ 2915391.54971354175359, 2059085.326851908117533 ], [ 2915400.386678202543408, 2059105.724700746359304 ], [ 2915411.015230401884764, 2059120.52891350723803 ], [ 2915420.816301349550486, 2059127.314234599238262 ], [ 2915434.280806671828032, 2059132.147851812886074 ], [ 2915474.20848920987919, 2059117.970414059469476 ], [ 2915481.985166255384684, 2059116.010260435752571 ], [ 2915502.704127110540867, 2059121.072234502295032 ], [ 2915519.687252425588667, 2059132.217853626934811 ], [ 2915523.953189819585532, 2059137.313237481052056 ], [ 2915544.173858024179935, 2059184.665785187156871 ], [ 2915563.559138888958842, 2059210.632251150673255 ], [ 2915563.567115496378392, 2059223.999747417401522 ], [ 2915561.405959274619818, 2059236.885411808732897 ], [ 2915549.676670115441084, 2059257.324938345933333 ], [ 2915550.431841763667762, 2059269.475565497064963 ], [ 2915542.735538486856967, 2059280.671172206988558 ], [ 2915525.993148296140134, 2059297.232194493990391 ], [ 2915523.976708787959069, 2059301.854100976372138 ], [ 2915512.874080696608871, 2059369.442943106638268 ], [ 2915519.244857748970389, 2059392.519301555817947 ], [ 2915532.870059378445148, 2059415.823907088022679 ], [ 2915551.580682473722845, 2059438.875112600857392 ], [ 2915564.225716264452785, 2059449.057375424308702 ], [ 2915577.770637646317482, 2059463.126510459696874 ], [ 2915594.762020424939692, 2059487.639553767628968 ], [ 2915604.265976767987013, 2059497.585115769645199 ], [ 2915667.049775632098317, 2059559.920252080075443 ], [ 2915711.653294673189521, 2059610.383010170189664 ], [ 2915742.631584857590497, 2059637.541224259650335 ], [ 2915773.987355513498187, 2059670.774767256341875 ], [ 2915790.853325746022165, 2059683.28214499913156 ], [ 2917399.433587226551026, 2059683.28214499913156 ], [ 2917398.517647810280323, 2059679.90326941316016 ] ] ] } },
{ "type": "Feature", "properties": { "SITE_NAME": "Rí­os Arrago y Tralgas", "ODESIGNATE": "Zonas Especiales de Conservación", "NUT2": 43, "SITE_CODE_": "ES4320072", "DESIG_ABBR": "ES56", "SITE_CDDA": "555774216_CDDA", "Sup_ha": 826.9803246 }, "geometry": { "type": "Polygon", "coordinates": [ [ [ 2919600.904213196597993, 2058192.703257221030071 ], [ 2919599.541302746161819, 2058192.599677090067416 ], [ 2919590.307320543564856, 2058193.94216470583342 ], [ 2919581.572086413856596, 2058194.932641380000859 ], [ 2919572.287403027527034, 2058199.880616739625111 ], [ 2919565.71527986228466, 2058208.788307079579681 ], [ 2919562.49034137930721, 2058210.856836200226098 ], [ 2919555.864367885980755, 2058212.058366464683786 ], [ 2919545.717929668724537, 2058207.96295829792507 ], [ 2919542.994955770671368, 2058206.550369231030345 ], [ 2919543.004513171967119, 2058206.442242410965264 ], [ 2919543.035929163917899, 2058206.092718385625631 ], [ 2919541.536102404817939, 2058203.867127719568089 ], [ 2919537.931380518712103, 2058201.472703154431656 ], [ 2919518.412955010775477, 2058193.106774429092184 ], [ 2919513.010862066410482, 2058189.827990903751925 ], [ 2919498.928757997229695, 2058182.421066878596321 ], [ 2919493.53638256015256, 2058179.587499090936035 ], [ 2919483.750111368019134, 2058173.269710415974259 ], [ 2919476.133494826033711, 2058167.296544402604923 ], [ 2919461.719360151328146, 2058153.74077275628224 ], [ 2919450.48549759760499, 2058142.426464407704771 ], [ 2919438.33044980186969, 2058130.451384835178033 ], [ 2919426.587862960062921, 2058114.35003549605608 ], [ 2919421.767478759400547, 2058107.602055065333843 ], [ 2919414.505325908772647, 2058096.783096748171374 ], [ 2919408.643401597160846, 2058084.415243428666145 ], [ 2919402.582490243017673, 2058072.253462632186711 ], [ 2919400.409792841412127, 2058062.156582013936713 ], [ 2919396.36541902134195, 2058046.80538461683318 ], [ 2919392.511733010411263, 2058019.089922896819189 ], [ 2919389.6596196340397, 2057993.082773664733395 ], [ 2919387.512671166099608, 2057961.79958731867373 ], [ 2919386.930930656380951, 2057958.922410219209269 ], [ 2919387.805734855122864, 2057937.499474189477041 ], [ 2919388.891351031139493, 2057924.079490462318063 ], [ 2919390.103627977427095, 2057911.249646188924089 ], [ 2919389.93318146513775, 2057903.085620865225792 ], [ 2919390.143462189938873, 2057902.106378145515919 ], [ 2919391.058875784743577, 2057895.6701617075596 ], [ 2919391.528285810723901, 2057889.047775123966858 ], [ 2919391.478087423369288, 2057882.560183859430254 ], [ 2919390.901666931807995, 2057876.427662342321128 ], [ 2919389.462622292339802, 2057864.87336839735508 ], [ 2919389.257358359638602, 2057859.133803131524473 ], [ 2919389.416056058369577, 2057853.246794429374859 ], [ 2919390.264868930447847, 2057840.602650171378627 ], [ 2919390.544432695955038, 2057833.870266199111938 ], [ 2919390.317747356370091, 2057827.050875545246527 ], [ 2919389.467458280269057, 2057820.284830537391827 ], [ 2919388.256195887923241, 2057813.608586181886494 ], [ 2919387.279950262978673, 2057806.832420137478039 ], [ 2919387.596036327071488, 2057793.716811704915017 ], [ 2919387.571618643123657, 2057788.041923657525331 ], [ 2919388.12087796907872, 2057777.053383159916848 ], [ 2919389.538648888003081, 2057770.324650009395555 ], [ 2919389.872641205321997, 2057766.891445917310193 ], [ 2919394.190344288013875, 2057752.361528016161174 ], [ 2919402.136169424280524, 2057728.222356906160712 ], [ 2919403.463845934253186, 2057723.464295262703672 ], [ 2919404.605218825861812, 2057717.929238183889538 ], [ 2919405.151532919146121, 2057712.155727032804862 ], [ 2919405.186589499004185, 2057706.305650891270489 ], [ 2919403.853736782446504, 2057696.43096101959236 ], [ 2919403.733021073509008, 2057690.387319946661592 ], [ 2919402.54721646104008, 2057680.698549648048356 ], [ 2919400.998466601595283, 2057669.359003491234034 ], [ 2919399.725179336499423, 2057662.591881600441411 ], [ 2919398.626038516871631, 2057657.299015052616596 ], [ 2919396.097193128429353, 2057646.377370764734223 ], [ 2919395.02726647304371, 2057640.868652240140364 ], [ 2919393.72969710547477, 2057637.732229660265148 ], [ 2919386.072312422096729, 2057606.420163425849751 ], [ 2919379.663031756412238, 2057585.934291873592883 ], [ 2919377.870717498473823, 2057581.25243902951479 ], [ 2919375.821537829004228, 2057577.284227763768286 ], [ 2919373.830386778339744, 2057574.035742400679737 ], [ 2919369.923701012507081, 2057567.40791597077623 ], [ 2919367.562905579805374, 2057563.556661761365831 ], [ 2919365.277300532907248, 2057559.032115100417286 ], [ 2919362.42847755830735, 2057554.319022459443659 ], [ 2919360.434234340209514, 2057549.035125848604366 ], [ 2919358.145521341823041, 2057542.475069194799289 ], [ 2919356.047459385357797, 2057535.235083615407348 ], [ 2919350.00957706477493, 2057508.615037463372573 ], [ 2919347.844634467270225, 2057492.207964034285396 ], [ 2919346.150714225601405, 2057482.565914118895307 ], [ 2919344.680196308996528, 2057469.629490552702919 ], [ 2919343.980752434581518, 2057460.831683690426871 ], [ 2919343.565956267528236, 2057450.267191801918671 ], [ 2919343.715451067313552, 2057438.958769362885505 ], [ 2919343.494034143630415, 2057432.994459291687235 ], [ 2919343.513638874981552, 2057426.129821980604902 ], [ 2919344.385735761839896, 2057420.921203626785427 ], [ 2919346.032121188007295, 2057412.581103598698974 ], [ 2919346.213520454242826, 2057411.674853182630613 ], [ 2919348.270498747937381, 2057406.411721235606819 ], [ 2919354.698286791332066, 2057395.608270619763061 ], [ 2919358.383537478744984, 2057391.406610901467502 ], [ 2919360.464448844082654, 2057389.034064367413521 ], [ 2919363.332930374424905, 2057385.512278843671083 ], [ 2919366.930953203700483, 2057381.523604961810634 ], [ 2919374.336976865772158, 2057374.079904638230801 ], [ 2919378.829400490969419, 2057372.563309252494946 ], [ 2919378.927852395921946, 2057372.477401245385408 ], [ 2919381.654665483161807, 2057369.548871980514377 ], [ 2919388.897284959908575, 2057361.770291933324188 ], [ 2919398.506376010365784, 2057353.969292267691344 ], [ 2919404.603434662800282, 2057347.445136595284566 ], [ 2919414.833990566432476, 2057341.456358724040911 ], [ 2919433.044211530592293, 2057328.010651546297595 ], [ 2919437.368250722065568, 2057325.77295122272335 ], [ 2919451.126785913482308, 2057318.370780273573473 ], [ 2919471.150849478319287, 2057306.538434856804088 ], [ 2919509.902800430543721, 2057284.542234896216542 ], [ 2919541.680159959942102, 2057259.389264506055042 ], [ 2919556.499732772354037, 2057244.13922349922359 ], [ 2919557.281079201027751, 2057243.603815727634355 ], [ 2919584.007624680176377, 2057221.925775263691321 ], [ 2919593.281901761889458, 2057215.750610658433288 ], [ 2919600.335440557450056, 2057212.658038284862414 ], [ 2919602.534344999119639, 2057211.970951474271715 ], [ 2919602.534344999119639, 2056697.28999123768881 ], [ 2919593.019688196480274, 2056701.250734432600439 ], [ 2919570.728044785559177, 2056714.038840313442051 ], [ 2919558.467185828834772, 2056723.297381028998643 ], [ 2919552.864654378965497, 2056727.845838462235406 ], [ 2919526.326118933968246, 2056750.984141865512356 ], [ 2919510.942764398641884, 2056767.730191825190559 ], [ 2919500.778430226258934, 2056781.602237103274092 ], [ 2919488.899170211516321, 2056802.602180795976892 ], [ 2919483.595533281564713, 2056815.249823372811079 ], [ 2919481.354958956129849, 2056821.086080414708704 ], [ 2919477.023494003806263, 2056833.488776763668284 ], [ 2919474.857815261930227, 2056840.486030724598095 ], [ 2919470.975969024002552, 2056854.832104353001341 ], [ 2919468.119046197272837, 2056869.710299469996244 ], [ 2919466.406369679607451, 2056884.53831376018934 ], [ 2919465.755002430640161, 2056894.342707467963919 ], [ 2919465.500342461280525, 2056908.812217914499342 ], [ 2919464.582542491145432, 2056924.499678586376831 ], [ 2919464.410584204830229, 2056930.43275417201221 ], [ 2919464.417339401319623, 2056943.799156028777361 ], [ 2919469.416139109060168, 2056974.954488478600979 ], [ 2919471.44743159878999, 2056981.111489587696269 ], [ 2919473.126415371894836, 2056988.366483807330951 ], [ 2919475.13627150747925, 2056995.742621469544247 ], [ 2919477.884801237843931, 2057004.483031895477325 ], [ 2919479.944882613606751, 2057013.385199705138803 ], [ 2919487.4862917708233, 2057034.595234158681706 ], [ 2919491.263036313466728, 2057042.28953792876564 ], [ 2919494.92412587068975, 2057051.98793647158891 ], [ 2919505.645194449461997, 2057072.597973449155688 ], [ 2919513.429068008437753, 2057084.00534343556501 ], [ 2919520.148707994259894, 2057094.899488177616149 ], [ 2919512.312174442224205, 2057102.330021157162264 ], [ 2919510.480184250045568, 2057109.204305656487122 ], [ 2919497.694252347107977, 2057111.225346497027203 ], [ 2919492.527040204033256, 2057116.577276309020817 ], [ 2919483.997391161043197, 2057122.064372428925708 ], [ 2919479.583543637767434, 2057127.476657702354714 ], [ 2919472.089660294353962, 2057134.927626365562901 ], [ 2919466.934185835532844, 2057142.192400284577161 ], [ 2919461.908318413421512, 2057149.274540631566197 ], [ 2919456.28208252042532, 2057147.546411176677793 ], [ 2919438.511277407407761, 2057150.36541661946103 ], [ 2919431.059892495162785, 2057150.576620198553428 ], [ 2919416.662989238277078, 2057152.117276440607384 ], [ 2919409.115711643826216, 2057150.113552442286164 ], [ 2919390.287055178079754, 2057148.692829007748514 ], [ 2919376.97471746429801, 2057148.961338853463531 ], [ 2919360.296477217227221, 2057150.708397016394883 ], [ 2919343.545411658473313, 2057153.899950102670118 ], [ 2919332.725767754018307, 2057156.590379236731678 ], [ 2919323.10256984969601, 2057160.68580760108307 ], [ 2919314.818075374700129, 2057164.21149250632152 ], [ 2919306.799679433461279, 2057164.704957870068029 ], [ 2919295.595403282903135, 2057168.330792329506949 ], [ 2919290.103686867281795, 2057169.828596716746688 ], [ 2919274.241766528226435, 2057177.280482861911878 ], [ 2919257.561438582837582, 2057182.748974583810195 ], [ 2919235.61847816221416, 2057195.391572883818299 ], [ 2919223.357952458783984, 2057204.650320619344711 ], [ 2919204.04400194901973, 2057223.72726761829108 ], [ 2919196.121577013283968, 2057233.949812617152929 ], [ 2919192.257710937410593, 2057239.279140643775463 ], [ 2919174.620688430964947, 2057265.317564307944849 ], [ 2919171.117393748834729, 2057270.862553272163495 ], [ 2919170.408273303881288, 2057272.345754921203479 ], [ 2919169.670544332824647, 2057278.356908750487491 ], [ 2919169.938143128529191, 2057278.887203864054754 ], [ 2919168.588624121621251, 2057291.148143561556935 ], [ 2919167.675825498998165, 2057299.40115920919925 ], [ 2919167.659732738509774, 2057299.5379561514128 ], [ 2919167.684106364380568, 2057303.662069406360388 ], [ 2919168.29938970413059, 2057311.393853898858652 ], [ 2919168.350080516189337, 2057311.572902990272269 ], [ 2919186.718033749144524, 2057379.663451766595244 ], [ 2919186.774329407606274, 2057379.869781673885882 ], [ 2919214.507307889871299, 2057476.246796699706465 ], [ 2919214.590577682480216, 2057476.694491157308221 ], [ 2919221.501913462765515, 2057503.015349252615124 ], [ 2919221.540139877703041, 2057503.168564709601924 ], [ 2919221.855685270857066, 2057523.05138436332345 ], [ 2919221.961369606200606, 2057529.488528839312494 ], [ 2919221.420078434981406, 2057541.093680789228529 ], [ 2919220.399571587331593, 2057563.167438487289473 ], [ 2919220.361558635719121, 2057563.556596776004881 ], [ 2919218.004369061440229, 2057639.197571839438751 ], [ 2919219.834168770816177, 2057642.925125425215811 ], [ 2919221.452231286559254, 2057645.856157834175974 ], [ 2919221.753471711650491, 2057649.567182266153395 ], [ 2919222.443130346946418, 2057658.062711052130908 ], [ 2919223.499091726262122, 2057665.449078832287341 ], [ 2919227.910183729603887, 2057679.548073886660859 ], [ 2919228.30415053665638, 2057680.811567545402795 ], [ 2919232.567531595006585, 2057704.097013890277594 ], [ 2919243.472686165012419, 2057750.061965767526999 ], [ 2919245.997949956916273, 2057764.390677007148042 ], [ 2919245.006675820332021, 2057769.549829605268314 ], [ 2919244.878201615065336, 2057771.871488081291318 ], [ 2919241.874382495414466, 2057779.410381723660976 ], [ 2919240.151603095699102, 2057784.66577731561847 ], [ 2919236.105627826415002, 2057799.059221874456853 ], [ 2919232.086005756631494, 2057815.530523501336575 ], [ 2919230.341047252528369, 2057823.921297910856083 ], [ 2919228.857805502600968, 2057832.272929275641218 ], [ 2919227.674767265096307, 2057840.919120384147391 ], [ 2919226.824222934897989, 2057850.271576968720183 ], [ 2919226.30407331418246, 2057860.825526092899963 ], [ 2919226.056065279059112, 2057873.554752947762609 ], [ 2919225.844980110879987, 2057900.025272846687585 ], [ 2919225.376702742651105, 2057946.211146211018786 ], [ 2919224.986995161511004, 2057957.554361457470804 ], [ 2919224.684349643066525, 2057962.331739179324359 ], [ 2919223.601351820863783, 2057971.688427898800001 ], [ 2919222.790842007379979, 2057975.180264790542424 ], [ 2919221.350818442646414, 2057979.525741437915713 ], [ 2919220.545610500499606, 2057981.428725898964331 ], [ 2919227.374483860097826, 2057991.288550594588742 ], [ 2919228.343570143915713, 2057994.239202061668038 ], [ 2919232.026743692345917, 2058000.87886781594716 ], [ 2919235.460718343965709, 2058006.574842448346317 ], [ 2919238.034552448429167, 2058010.503092739963904 ], [ 2919249.518831390887499, 2058028.030994860455394 ], [ 2919254.117942631710321, 2058034.657004640437663 ], [ 2919262.508479460142553, 2058046.042839695699513 ], [ 2919278.392559113912284, 2058066.540573402540758 ], [ 2919282.168768556788564, 2058069.458056455710903 ], [ 2919295.050737077835947, 2058083.078923285705969 ], [ 2919297.56782203540206, 2058085.791559470584616 ], [ 2919298.856776366941631, 2058086.865171174518764 ], [ 2919300.743534269742668, 2058088.443077465286478 ], [ 2919301.981277642771602, 2058089.480538097210228 ], [ 2919314.760545746888965, 2058100.574194981250912 ], [ 2919318.683193857315928, 2058103.459040850168094 ], [ 2919323.23301793076098, 2058107.368332824204117 ], [ 2919323.886197901330888, 2058107.8634984921664 ], [ 2919326.897322352509946, 2058110.146370889386162 ], [ 2919338.388546858914196, 2058122.91555620986037 ], [ 2919344.516181864775717, 2058130.46667354600504 ], [ 2919349.041459574364126, 2058137.232663733651862 ], [ 2919350.894479520618916, 2058140.483390162931755 ], [ 2919353.219656429253519, 2058145.636607054853812 ], [ 2919359.054652115795761, 2058161.692756498698145 ], [ 2919363.999299123883247, 2058174.283749123569578 ], [ 2919364.77402419410646, 2058176.023761101532727 ], [ 2919367.355656548868865, 2058181.795409606071189 ], [ 2919368.754066566005349, 2058185.394713807152584 ], [ 2919377.438003046438098, 2058204.470184285892174 ], [ 2919382.513876494951546, 2058214.500975070986897 ], [ 2919384.220516971778125, 2058216.414198018144816 ], [ 2919385.976319087669253, 2058217.850130063481629 ], [ 2919388.04591126833111, 2058218.854499018518254 ], [ 2919390.782318947836757, 2058219.40588511293754 ], [ 2919391.383781883399934, 2058225.44128369842656 ], [ 2919403.601841723546386, 2058232.949577524326742 ], [ 2919407.799118285067379, 2058235.689090954372659 ], [ 2919409.809798178263009, 2058235.72580832336098 ], [ 2919415.650907251983881, 2058237.608078955672681 ], [ 2919418.21599034871906, 2058238.502210838021711 ], [ 2919420.8672309149988, 2058240.147890223190188 ], [ 2919425.897994196973741, 2058242.491017765831202 ], [ 2919449.306470139883459, 2058255.347436706768349 ], [ 2919453.458876228891313, 2058257.78159011551179 ], [ 2919463.564361772499979, 2058263.695226924261078 ], [ 2919469.527710392139852, 2058266.287518387194723 ], [ 2919491.542111127637327, 2058282.347085549961776 ], [ 2919496.562771250493824, 2058284.568823841167614 ], [ 2919501.567230082582682, 2058287.251024434575811 ], [ 2919507.358513923827559, 2058291.841642380924895 ], [ 2919511.188735398929566, 2058295.42291170428507 ], [ 2919515.312095618806779, 2058300.346923225326464 ], [ 2919517.738491019699723, 2058303.764893190469593 ], [ 2919527.167385978624225, 2058319.134988205973059 ], [ 2919534.580968847498298, 2058331.10030209296383 ], [ 2919538.220012849662453, 2058338.244582462823018 ], [ 2919545.031160248909146, 2058345.643494301242754 ], [ 2919547.756991657428443, 2058348.271742112236097 ], [ 2919550.616624003276229, 2058351.488531267270446 ], [ 2919559.284963893704116, 2058356.894412731053308 ], [ 2919562.283245022408664, 2058359.823575157904997 ], [ 2919567.575800432823598, 2058366.599656724603847 ], [ 2919572.806361874099821, 2058372.095446731429547 ], [ 2919581.01195393782109, 2058384.084197649499401 ], [ 2919582.962066609412432, 2058387.09440238494426 ], [ 2919584.118678711354733, 2058389.425035649212077 ], [ 2919585.595348764210939, 2058392.293294526170939 ], [ 2919586.391417790204287, 2058394.93242112849839 ], [ 2919586.751615437678993, 2058397.868446149630472 ], [ 2919586.652339569292963, 2058401.163765552220866 ], [ 2919584.05806100089103, 2058408.887243967270479 ], [ 2919581.710667570121586, 2058415.384160008281469 ], [ 2919583.020284361205995, 2058416.731024630367756 ], [ 2919593.882109011523426, 2058425.250256042229012 ], [ 2919602.534344999119639, 2058435.560468166135252 ], [ 2919602.534344999119639, 2058192.956306078005582 ], [ 2919600.904213196597993, 2058192.703257221030071 ] ] ] } },
{ "type": "Feature", "properties": { "SITE_NAME": "Riveras de Gata y Acebo", "ODESIGNATE": "Zonas Especiales de Conservación", "NUT2": 43, "SITE_CODE_": "ES4320076", "DESIG_ABBR": "ES56", "SITE_CDDA": "555774220_CDDA", "Sup_ha": 1199.1362891399999 }, "geometry": { "type": "Polygon", "coordinates": [ [ [ 2915551.593569035641849, 2059681.422026511514559 ], [ 2915542.313569897785783, 2059678.09071082691662 ], [ 2915528.464780147187412, 2059672.838614745996892 ], [ 2915511.385234002955258, 2059668.081345261540264 ], [ 2915499.567530461587012, 2059665.917943490669131 ], [ 2915485.677905508317053, 2059664.38293786207214 ], [ 2915468.027821109630167, 2059663.689702541334555 ], [ 2915460.556786089204252, 2059663.677971271332353 ], [ 2915448.738793797791004, 2059664.104151530656964 ], [ 2915444.656427901238203, 2059658.141216402407736 ], [ 2915432.549283805768937, 2059645.855976504506543 ], [ 2915427.568011609837413, 2059641.902207980630919 ], [ 2915421.35784172359854, 2059637.297025085659698 ], [ 2915400.904427931644022, 2059629.150209196377546 ], [ 2915392.791625194251537, 2059623.423636571969837 ], [ 2915386.578049715142697, 2059619.586164049804211 ], [ 2915380.605891241692007, 2059615.897699004970491 ], [ 2915368.793398703914136, 2059610.144522002199665 ], [ 2915362.110938212834299, 2059608.896143929800019 ], [ 2915352.273463664576411, 2059595.068704264936969 ], [ 2915344.809312346857041, 2059586.785244213650003 ], [ 2915335.509517113212496, 2059577.75761503027752 ], [ 2915321.420774506404996, 2059567.812827437650412 ], [ 2915315.211424336303025, 2059564.505261857528239 ], [ 2915308.253736838698387, 2059561.116634141886607 ], [ 2915298.821232533548027, 2059557.122130590723827 ], [ 2915282.100660095922649, 2059552.684429028071463 ], [ 2915268.983954353258014, 2059551.593362445477396 ], [ 2915261.390769544988871, 2059539.074241534573957 ], [ 2915250.01496134698391, 2059525.486813247203827 ], [ 2915239.815607291646302, 2059513.304681434994563 ], [ 2915234.263192540034652, 2059506.140573192387819 ], [ 2915225.921847324818373, 2059494.871790091507137 ], [ 2915220.147360440343618, 2059488.101957440143451 ], [ 2915218.299116137437522, 2059488.643829754088074 ], [ 2915193.869718026835471, 2059499.273856860818341 ], [ 2915189.833157488610595, 2059501.030404428951442 ], [ 2915179.029174769297242, 2059508.607301651732996 ], [ 2915127.589281694032252, 2059515.175194639479741 ], [ 2915121.195770455989987, 2059511.718609597999603 ], [ 2915114.801707268692553, 2059508.431101861177012 ], [ 2915108.257016446907073, 2059506.416238747304305 ], [ 2915102.129621773958206, 2059506.994383304845542 ], [ 2915092.637824586126953, 2059507.649212770164013 ], [ 2915067.508691869676113, 2059501.691551712341607 ], [ 2915065.161077487282455, 2059500.591685039922595 ], [ 2915060.047849797643721, 2059499.507926955120638 ], [ 2915056.901136577129364, 2059496.520683378214017 ], [ 2915052.457586986012757, 2059488.787412738893181 ], [ 2915048.850889884401113, 2059481.678302477812394 ], [ 2915049.522697837091982, 2059469.025593376718462 ], [ 2915049.52372414059937, 2059469.005527606001124 ], [ 2915044.125255428720266, 2059459.728694293182343 ], [ 2915039.687377316877246, 2059452.10241677146405 ], [ 2915039.044825134798884, 2059451.3735234469641 ], [ 2915038.355478547513485, 2059450.689431875478476 ], [ 2915037.722817288711667, 2059450.13532683160156 ], [ 2915030.090741802938282, 2059443.831607251195237 ], [ 2915029.990164030343294, 2059443.74934443552047 ], [ 2915029.215969568584114, 2059443.163210242055357 ], [ 2915028.756618367042392, 2059442.851812024833634 ], [ 2915009.379188941791654, 2059430.252989553380758 ], [ 2915009.026949612423778, 2059430.031087038340047 ], [ 2915008.181179479695857, 2059429.552977563114837 ], [ 2915007.305103464983404, 2059429.132094705943018 ], [ 2915006.402236627414823, 2059428.770133424550295 ], [ 2915005.476700571365654, 2059428.468780065188184 ], [ 2915005.096649597864598, 2059428.364304456161335 ], [ 2914994.09430894581601, 2059425.500016649952158 ], [ 2914988.175791220739484, 2059422.990287638036534 ], [ 2914978.298601159825921, 2059414.167319779517129 ], [ 2914977.770854922011495, 2059413.718019396532327 ], [ 2914977.509558666497469, 2059413.5109554794617 ], [ 2914974.077546794898808, 2059410.855628448072821 ], [ 2914959.318617721553892, 2059406.642766848439351 ], [ 2914944.385546387638897, 2059396.460224219597876 ], [ 2914934.977964819408953, 2059380.314889562083408 ], [ 2914931.633822079747915, 2059378.055716275935993 ], [ 2914931.06776568479836, 2059377.691973576322198 ], [ 2914931.039239462465048, 2059377.674633318558335 ], [ 2914922.659911519382149, 2059372.587835768470541 ], [ 2914921.842767001129687, 2059372.127050361130387 ], [ 2914920.966691941954195, 2059371.70616923738271 ], [ 2914920.063826060853899, 2059371.344209719682112 ], [ 2914919.13819251395762, 2059371.042876022169366 ], [ 2914918.869593146257102, 2059370.967977482825518 ], [ 2914909.978193715214729, 2059368.578422617167234 ], [ 2914903.288155386224389, 2059365.741537311347201 ], [ 2914897.407247064635158, 2059361.508054983569309 ], [ 2914892.592967559117824, 2059357.783398907165974 ], [ 2914892.463450834155083, 2059357.68437824677676 ], [ 2914881.240308038890362, 2059349.200709273573011 ], [ 2914880.85714050475508, 2059348.920724544674158 ], [ 2914880.045453034341335, 2059348.387444320134819 ], [ 2914879.199782758485526, 2059347.909319498110563 ], [ 2914879.155551169998944, 2059347.886309381108731 ], [ 2914869.804354816675186, 2059343.044442973099649 ], [ 2914868.972527768462896, 2059342.646671525668353 ], [ 2914868.069662468042225, 2059342.284713072935119 ], [ 2914867.144029504153877, 2059341.983380442718044 ], [ 2914866.1996711762622, 2059341.743867224082351 ], [ 2914865.387131185270846, 2059341.589974393602461 ], [ 2914850.42836716491729, 2059339.190096317091957 ], [ 2914850.281735622789711, 2059339.167309732874855 ], [ 2914849.871441418305039, 2059339.111632507527247 ], [ 2914836.109691632911563, 2059337.438318283297122 ], [ 2914835.550094521604478, 2059337.381030356977135 ], [ 2914835.434943185187876, 2059337.371903771068901 ], [ 2914818.062323493417352, 2059336.063244498800486 ], [ 2914804.072212510742247, 2059332.119674986461177 ], [ 2914803.709858621936291, 2059332.022538209566846 ], [ 2914790.304157461971045, 2059328.610895500285551 ], [ 2914777.261674886569381, 2059323.664797021774575 ], [ 2914757.347247627563775, 2059313.15159650053829 ], [ 2914743.93130118586123, 2059305.007153861690313 ], [ 2914732.552801273297518, 2059296.569163251435384 ], [ 2914715.906218950636685, 2059281.856679253978655 ], [ 2914707.969025480560958, 2059271.739085366018116 ], [ 2914707.750257062725723, 2059271.467000185046345 ], [ 2914707.676873348653316, 2059271.378687759162858 ], [ 2914694.005346435587853, 2059255.049100254895166 ], [ 2914688.111173423938453, 2059246.055187469348311 ], [ 2914687.760676318779588, 2059245.544414393370971 ], [ 2914687.167871180921793, 2059244.773941999766976 ], [ 2914686.525322274304926, 2059244.045054162153974 ], [ 2914685.835979103576392, 2059243.360968405148014 ], [ 2914685.102629292756319, 2059242.724525945726782 ], [ 2914684.328438389115036, 2059242.138397982576862 ], [ 2914683.516851421445608, 2059241.605103569570929 ], [ 2914683.488553900271654, 2059241.587924839695916 ], [ 2914675.109319237992167, 2059236.500959906494245 ], [ 2914674.291964539792389, 2059236.040116313379258 ], [ 2914673.415892193559557, 2059235.61924009420909 ], [ 2914673.235235536005348, 2059235.541164295980707 ], [ 2914664.108936385251582, 2059231.671071768505499 ], [ 2914663.585440613329411, 2059231.460978541988879 ], [ 2914649.344124327413738, 2059226.060216561891139 ], [ 2914634.879580212756991, 2059219.532350621651858 ], [ 2914626.168388929683715, 2059213.501415088772774 ], [ 2914625.465297671966255, 2059213.0441797550302 ], [ 2914625.437000171281397, 2059213.027001064270735 ], [ 2914615.453669994138181, 2059206.966152128530666 ], [ 2914607.347327450290322, 2059200.511242862325162 ], [ 2914606.674734006635845, 2059200.006787405582145 ], [ 2914605.863065263256431, 2059199.473610857035965 ], [ 2914605.834751911461353, 2059199.456333630951121 ], [ 2914599.909107224084437, 2059195.858943136176094 ], [ 2914595.853078551124781, 2059192.103122151456773 ], [ 2914596.929721721913666, 2059177.570663419552147 ], [ 2914596.683556360192597, 2059177.290770917432383 ], [ 2914592.396014660596848, 2059172.721535239135846 ], [ 2914587.831042484845966, 2059166.223112181760371 ], [ 2914581.531940105371177, 2059155.448936118511483 ], [ 2914581.192495139781386, 2059154.885952677810565 ], [ 2914580.875850865617394, 2059154.389728476526216 ], [ 2914574.513116089627147, 2059144.680816704174504 ], [ 2914573.928847734816372, 2059143.829279160359874 ], [ 2914573.926765101030469, 2059143.826411460060626 ], [ 2914563.298234696965665, 2059129.022283809492365 ], [ 2914562.312283770181239, 2059127.741072960663587 ], [ 2914561.241475207731128, 2059126.526278375415131 ], [ 2914560.597167803905904, 2059125.868304558796808 ], [ 2914553.937294898554683, 2059119.319592172047123 ], [ 2914553.432644573971629, 2059118.837504440452904 ], [ 2914552.817122799344361, 2059118.285368602955714 ], [ 2914546.382138196378946, 2059112.708485082257539 ], [ 2914545.775429985485971, 2059112.199783134274185 ], [ 2914544.485147416591644, 2059111.22290165303275 ], [ 2914543.132330575957894, 2059110.334046273725107 ], [ 2914541.722907485906035, 2059109.53731397842057 ], [ 2914541.11639894451946, 2059109.231326495064422 ], [ 2914534.313666229601949, 2059105.918168734293431 ], [ 2914526.313032144680619, 2059101.880450190743431 ], [ 2914525.151206152513623, 2059101.332212852314115 ], [ 2914523.646584123838693, 2059100.729035246418789 ], [ 2914523.570102472789586, 2059100.701431030174717 ], [ 2914516.837879560887814, 2059098.28476516646333 ], [ 2914515.371673581190407, 2059097.810121707851067 ], [ 2914513.797744149342179, 2059097.410912505816668 ], [ 2914512.199053901713341, 2059097.116608436685055 ], [ 2914510.582563500851393, 2059096.928279163781554 ], [ 2914508.955300338566303, 2059096.846779393497854 ], [ 2914508.480438330210745, 2059096.843190128915012 ], [ 2914496.140664008911699, 2059096.868552303174511 ], [ 2914494.984241517260671, 2059096.89786928682588 ], [ 2914493.356083829887211, 2059097.030541384359822 ], [ 2914491.737905799876899, 2059097.269928393419832 ], [ 2914490.136795556172729, 2059097.614744034595788 ], [ 2914490.082547827623785, 2059097.628341107396409 ], [ 2914480.361805613618344, 2059100.078812421532348 ], [ 2914478.838657967280596, 2059100.513949502492324 ], [ 2914478.515548763331026, 2059100.619747183052823 ], [ 2914466.103594391606748, 2059104.776925775455311 ], [ 2914464.879850948229432, 2059105.222136029740795 ], [ 2914463.370324275456369, 2059105.872867942787707 ], [ 2914463.29584726318717, 2059105.908088479191065 ], [ 2914458.660334683954716, 2059108.104956948431209 ], [ 2914457.269051676150411, 2059108.817400757689029 ], [ 2914455.922534551471472, 2059109.6147286221385 ], [ 2914455.602128544822335, 2059109.817912102211267 ], [ 2914452.499453505501151, 2059110.935959478374571 ], [ 2914448.257196492515504, 2059108.917805292876437 ], [ 2914443.686994336545467, 2059102.412031617714092 ], [ 2914440.713133384473622, 2059096.62606269470416 ], [ 2914440.545311260968447, 2059096.305380573729053 ], [ 2914439.735146658495069, 2059094.899467766052112 ], [ 2914438.834235471207649, 2059093.551708941580728 ], [ 2914437.846301597543061, 2059092.267615323187783 ], [ 2914436.775510294828564, 2059091.052922302158549 ], [ 2914435.626538205891848, 2059089.912765342276543 ], [ 2914434.40421128552407, 2059088.851948536001146 ], [ 2914433.114012895151973, 2059087.874953825492412 ], [ 2914431.761229503434151, 2059086.986298877978697 ], [ 2914430.351693969685584, 2059086.189489373005927 ], [ 2914429.745186246931553, 2059085.88350338395685 ], [ 2914422.788099855184555, 2059082.495123101631179 ], [ 2914421.934333871118724, 2059082.09951657243073 ], [ 2914420.429615345783532, 2059081.496360259829089 ], [ 2914418.887028089724481, 2059080.994098015129566 ], [ 2914418.12364445021376, 2059080.786767487879843 ], [ 2914404.215113048441708, 2059077.247217153431848 ], [ 2914389.495494266040623, 2059073.098121602321044 ], [ 2914376.795073852874339, 2059069.06153637683019 ], [ 2914362.003005847334862, 2059062.385789112420753 ], [ 2914361.79409018997103, 2059062.292659173952416 ], [ 2914360.289471237920225, 2059061.68948700837791 ], [ 2914359.823081234004349, 2059061.52573173888959 ], [ 2914344.910386569797993, 2059056.455749962711707 ], [ 2914328.939022354781628, 2059049.888136515859514 ], [ 2914314.579841480124742, 2059043.407800714252517 ], [ 2914305.376770709641278, 2059037.820784984156489 ], [ 2914298.60608983039856, 2059032.22858867701143 ], [ 2914293.973972630687058, 2059024.305484069278464 ], [ 2914293.634627381339669, 2059023.742485147435218 ], [ 2914293.260380200110376, 2059023.159043565392494 ], [ 2914284.61998380208388, 2059010.09696173784323 ], [ 2914283.597814169712365, 2059005.681269139749929 ], [ 2914283.194196730386466, 2059004.159794505685568 ], [ 2914282.675856601446867, 2059002.616743073798716 ], [ 2914282.343385905958712, 2059001.77347386139445 ], [ 2914280.021785103715956, 2058996.188033896964043 ], [ 2914279.929859004914761, 2058995.970016410341486 ], [ 2914273.189567827619612, 2058980.185693903127685 ], [ 2914272.995602733455598, 2058979.74348158785142 ], [ 2914272.603032128885388, 2058978.913959133438766 ], [ 2914264.890778259839863, 2058963.374590347986668 ], [ 2914264.567571477033198, 2058962.746286199893802 ], [ 2914263.757425636053085, 2058961.340475803706795 ], [ 2914262.856600033119321, 2058959.992604744620621 ], [ 2914261.86858664965257, 2058958.708632004912943 ], [ 2914260.797782635316253, 2058957.493845180841163 ], [ 2914260.275450579822063, 2058956.95665018260479 ], [ 2914249.574681817088276, 2058946.284429094055668 ], [ 2914248.948045106139034, 2058945.681472303112969 ], [ 2914247.725721652619541, 2058944.620661057299003 ], [ 2914246.435444165486842, 2058943.643788540735841 ], [ 2914245.082648413255811, 2058942.755041015567258 ], [ 2914243.673214819282293, 2058941.958219787105918 ], [ 2914242.212960369419307, 2058941.256731969071552 ], [ 2914241.379348996095359, 2058940.908286176854745 ], [ 2914233.450116061605513, 2058937.764923854265362 ], [ 2914232.779110725969076, 2058937.510201751021668 ], [ 2914231.236428430303931, 2058937.007963903713971 ], [ 2914229.662421763408929, 2058936.608881046297029 ], [ 2914228.063721018377692, 2058936.314488462405279 ], [ 2914227.708855016157031, 2058936.26387096196413 ], [ 2914227.455413412302732, 2058936.229636506177485 ], [ 2914226.462196091189981, 2058935.626670090481639 ], [ 2914222.378796358592808, 2058931.09497875533998 ], [ 2914216.754334608558565, 2058921.005282269325107 ], [ 2914211.945502611808479, 2058912.125663206446916 ], [ 2914208.844059385359287, 2058904.966944958083332 ], [ 2914199.678611301817, 2058865.371616100426763 ], [ 2914199.275063614360988, 2058863.849928279872984 ], [ 2914198.756742430850863, 2058862.306977363768965 ], [ 2914198.138351703062654, 2058860.803283294662833 ], [ 2914197.590413551777601, 2058859.666238007601351 ], [ 2914191.974890544544905, 2058848.740497057558969 ], [ 2914191.807168032974005, 2058848.419798320159316 ], [ 2914190.997008691541851, 2058847.013891397044063 ], [ 2914190.758056338876486, 2058846.637149586807936 ], [ 2914182.891798789147288, 2058834.479302160441875 ], [ 2914176.442590983118862, 2058824.023133491864428 ], [ 2914176.399985002353787, 2058823.954187527066097 ], [ 2914175.498981119133532, 2058822.606453294400126 ], [ 2914174.510954534634948, 2058821.322384667349979 ], [ 2914173.440283239353448, 2058820.107779827900231 ], [ 2914172.795964062213898, 2058819.449713696027175 ], [ 2914166.136132741346955, 2058812.901065407553688 ], [ 2914165.631371226161718, 2058812.418901836965233 ], [ 2914164.409231035038829, 2058811.357959114480764 ], [ 2914163.118971501011401, 2058810.381188005907461 ], [ 2914161.76607925677672, 2058809.492461267625913 ], [ 2914161.719010218046606, 2058809.46377992304042 ], [ 2914152.14291815739125, 2058803.650262300856411 ], [ 2914150.78055557096377, 2058802.88212567800656 ], [ 2914149.320302940905094, 2058802.180641158483922 ], [ 2914147.815687819384038, 2058801.577476458391175 ], [ 2914146.885832574684173, 2058801.261205524438992 ], [ 2914132.449367177207023, 2058796.672863034531474 ], [ 2914131.836541569326073, 2058796.486899364506826 ], [ 2914130.262520483694971, 2058796.087721498450264 ], [ 2914128.6638368582353, 2058795.793430975871161 ], [ 2914128.308971108868718, 2058795.742814241209999 ], [ 2914106.401832595467567, 2058792.779628300806507 ], [ 2914103.728785136714578, 2058791.274854374816641 ], [ 2914096.363729110918939, 2058787.076339466962963 ], [ 2914085.47490774281323, 2058781.236246678512543 ], [ 2914071.763418508693576, 2058777.42117788689211 ], [ 2914061.09506918117404, 2058775.198192066745833 ], [ 2914060.849294520914555, 2058775.143600583076477 ], [ 2914052.206956093665212, 2058770.367515749530867 ], [ 2914045.231495231855661, 2058762.539984183618799 ], [ 2914044.772974083665758, 2058762.039795020595193 ], [ 2914043.624092091806233, 2058760.899532943498343 ], [ 2914042.401871155947447, 2058759.838710068259388 ], [ 2914041.111613570246845, 2058758.861942558549345 ], [ 2914039.758723370730877, 2058757.973219574429095 ], [ 2914038.349277851171792, 2058757.1763066414278 ], [ 2914036.889125701971352, 2058756.474807935766876 ], [ 2914035.384430098347366, 2058755.871763436356559 ], [ 2914033.841865598224103, 2058755.369613172952086 ], [ 2914032.267846435308456, 2058754.970438726712018 ], [ 2914031.240614180453122, 2058754.768704059999436 ], [ 2914022.148094213567674, 2058753.184040600666776 ], [ 2914015.118746845982969, 2058751.623151781503111 ], [ 2914007.812842297367752, 2058745.865551640279591 ], [ 2913997.175065469928086, 2058732.585068055894226 ], [ 2913993.591225428506732, 2058727.23572322819382 ], [ 2913990.558680123649538, 2058721.79576208582148 ], [ 2913990.310356026981026, 2058721.360779790440574 ], [ 2913983.624330337159336, 2058709.924643533304334 ], [ 2913980.227574502117932, 2058703.83136784657836 ], [ 2913979.639809582382441, 2058702.833407686091959 ], [ 2913978.738776829093695, 2058701.485480839153752 ], [ 2913977.750784957781434, 2058700.201614134944975 ], [ 2913976.680085069965571, 2058698.986817344091833 ], [ 2913975.531106005422771, 2058697.846575124189258 ], [ 2913974.308902296703309, 2058696.785852875793353 ], [ 2913973.018630208447576, 2058695.808988975826651 ], [ 2913971.665839789435267, 2058694.92025033896789 ], [ 2913971.618770867120475, 2058694.891569196712226 ], [ 2913962.042604003101587, 2058689.078111485345289 ], [ 2913960.680228884331882, 2058688.309882265049964 ], [ 2913959.219979746732861, 2058687.608404068974778 ], [ 2913957.715384011156857, 2058687.005344382021576 ], [ 2913956.172805034089833, 2058686.503098283661529 ], [ 2913954.598787209019065, 2058686.103926580864936 ], [ 2913953.000106821767986, 2058685.809642255306244 ], [ 2913951.383724490180612, 2058685.621314890915528 ], [ 2913949.756273780949414, 2058685.539870563428849 ], [ 2913948.124998081941158, 2058685.565617539919913 ], [ 2913946.496963043697178, 2058685.698389229131863 ], [ 2913945.102734477259219, 2058685.898269204888493 ], [ 2913919.378821105696261, 2058690.325813888804987 ], [ 2913919.24421747494489, 2058690.349430680274963 ], [ 2913908.219514105468988, 2058692.308841111836955 ], [ 2913899.957230175845325, 2058691.880808245390654 ], [ 2913888.103104304522276, 2058688.864284561946988 ], [ 2913887.292384352535009, 2058688.67255307873711 ], [ 2913886.470767109189183, 2058688.507547174813226 ], [ 2913874.65314070507884, 2058686.344291322631761 ], [ 2913873.876161840744317, 2058686.214899068465456 ], [ 2913872.737680834718049, 2058686.071088592289016 ], [ 2913849.552496315911412, 2058683.688178504817188 ], [ 2913849.074498619884253, 2058683.643682554597035 ], [ 2913847.447164768353105, 2058683.562322605866939 ], [ 2913845.815891711041331, 2058683.588073295773938 ], [ 2913844.187859391793609, 2058683.72084869351238 ], [ 2913843.790626639965922, 2058683.76961229974404 ], [ 2913826.815339515451342, 2058685.991998988436535 ], [ 2913823.993305976502597, 2058686.527483309851959 ], [ 2913822.416019186843187, 2058686.976221243385226 ], [ 2913820.869274291675538, 2058687.527231998508796 ], [ 2913819.35975631326437, 2058688.177983801579103 ], [ 2913817.893905807752162, 2058688.925684975227341 ], [ 2913816.478001447860152, 2058689.767167513258755 ], [ 2913815.769500126130879, 2058690.236439300701022 ], [ 2913804.571364203467965, 2058697.924138948088512 ], [ 2913800.237685937900096, 2058699.349621489178389 ], [ 2913791.577968769706786, 2058698.088209648616612 ], [ 2913782.183598128147423, 2058693.61906053731218 ], [ 2913781.53060401417315, 2058693.32010109978728 ], [ 2913780.192154180724174, 2058692.777975097764283 ], [ 2913758.589364874176681, 2058684.764112152392045 ], [ 2913747.687028044834733, 2058676.80808120733127 ], [ 2913747.376353108324111, 2058676.585036458214745 ], [ 2913746.023566041141748, 2058675.696304481709376 ], [ 2913745.045545884873718, 2058675.130452409386635 ], [ 2913732.789657129906118, 2058668.414050681050867 ], [ 2913721.934104530140758, 2058659.672715944703668 ], [ 2913710.602378650568426, 2058650.313300265464932 ], [ 2913710.434567924588919, 2058650.17589612188749 ], [ 2913709.144216957502067, 2058649.199156150454655 ], [ 2913707.791529041714966, 2058648.310407527256757 ], [ 2913707.744460262358189, 2058648.281726654386148 ], [ 2913700.562341126613319, 2058643.921576454071328 ], [ 2913699.541617575101554, 2058643.335279302438721 ], [ 2913675.38174599269405, 2058630.227406308287755 ], [ 2913667.918684851378202, 2058624.453255525091663 ], [ 2913657.121000834275037, 2058614.108341939048842 ], [ 2913646.592666572425514, 2058603.60815200698562 ], [ 2913645.965806459542364, 2058603.005042837234214 ], [ 2913644.74368987698108, 2058601.944213232956827 ], [ 2913643.719442612491548, 2058601.157835436053574 ], [ 2913624.075973039492965, 2058586.891656036023051 ], [ 2913616.023857946507633, 2058579.104117116192356 ], [ 2913615.663093189243227, 2058578.762469192035496 ], [ 2913614.440862873569131, 2058577.701559817651287 ], [ 2913613.789454111363739, 2058577.191451234277338 ], [ 2913602.56657184753567, 2058568.707903995877132 ], [ 2913601.927599808201194, 2058568.241078644292429 ], [ 2913600.574815446976572, 2058567.352351314388216 ], [ 2913599.263333178125322, 2058566.606948223663494 ], [ 2913588.715151364915073, 2058561.038553715450689 ], [ 2913588.617211686447263, 2058560.987156454473734 ], [ 2913587.15696925856173, 2058560.285690409131348 ], [ 2913585.65238050930202, 2058559.68264319980517 ], [ 2913584.109808767214417, 2058559.180409855209291 ], [ 2913582.53569994494319, 2058558.781268978724256 ], [ 2913580.937109778635204, 2058558.486881372751668 ], [ 2913579.903134685475379, 2058558.354032745352015 ], [ 2913540.331971157342196, 2058554.116929443087429 ], [ 2913531.34778550779447, 2058552.769522911636159 ], [ 2913527.724755198229104, 2058551.156353434780613 ], [ 2913522.374931919854134, 2058546.202517399564385 ], [ 2913519.054519101046026, 2058541.135750185698271 ], [ 2913517.441935254260898, 2058536.983640425605699 ], [ 2913516.940548063255847, 2058535.787038280861452 ], [ 2913516.392630936577916, 2058534.650100974133238 ], [ 2913515.917281749192625, 2058533.724854073254392 ], [ 2913515.48433016333729, 2058531.854839808307588 ], [ 2913515.080786874517798, 2058530.3331598052755 ], [ 2913514.562455188017339, 2058528.790119896410033 ], [ 2913514.445556095801294, 2058528.483021013904363 ], [ 2913506.805751448497176, 2058508.811675089877099 ], [ 2913506.304396470077336, 2058507.615270322188735 ], [ 2913505.588597062975168, 2058506.157261138083413 ], [ 2913504.778461403679103, 2058504.75146659091115 ], [ 2913504.020491094328463, 2058503.604982645716518 ], [ 2913500.951636576093733, 2058499.236317261122167 ], [ 2913500.808709513396025, 2058499.035063811810687 ], [ 2913499.820707596838474, 2058497.751109711360186 ], [ 2913498.7500140205957, 2058496.536324896849692 ], [ 2913498.42361202230677, 2058496.196657023159787 ], [ 2913494.382732243742794, 2058492.073174212360755 ], [ 2913493.560177884530276, 2058491.272711241617799 ], [ 2913492.505874264054, 2058490.349289419129491 ], [ 2913488.689959172625095, 2058487.197510814992711 ], [ 2913488.522050547413528, 2058487.060125433141366 ], [ 2913487.23177039436996, 2058486.083177339751273 ], [ 2913486.552843836136162, 2058485.621171171311289 ], [ 2913469.56983885448426, 2058474.47577117360197 ], [ 2913468.89590073376894, 2058474.049170347861946 ], [ 2913468.112311063334346, 2058473.590946282492951 ], [ 2913457.953955000266433, 2058467.902508939616382 ], [ 2913457.953955000266433, 2058527.265206315089017 ], [ 2913459.407607512548566, 2058528.465858918614686 ], [ 2913461.167957140598446, 2058530.262209650594741 ], [ 2913461.389275900088251, 2058530.577234755968675 ], [ 2913467.310985425487161, 2058545.82483091740869 ], [ 2913468.036301918327808, 2058548.958187974058092 ], [ 2913468.4399443869479, 2058550.479849912459031 ], [ 2913468.958178346976638, 2058552.022907398175448 ], [ 2913469.576547733042389, 2058553.526491570519283 ], [ 2913470.124382604844868, 2058554.663544878130779 ], [ 2913471.411067702807486, 2058557.166994844796136 ], [ 2913473.493432267103344, 2058562.528947714949027 ], [ 2913473.994918458163738, 2058563.725531721254811 ], [ 2913474.710703239776194, 2058565.183442325796932 ], [ 2913475.52074158936739, 2058566.589254673104733 ], [ 2913475.837349051609635, 2058567.085273087024689 ], [ 2913482.199900899082422, 2058576.794128636363894 ], [ 2913482.784306273795664, 2058577.645928317913786 ], [ 2913483.772210920229554, 2058578.929900421993807 ], [ 2913484.843003980815411, 2058580.144667503191158 ], [ 2913485.991977155208588, 2058581.284897115780041 ], [ 2913486.013392363209277, 2058581.304642610019073 ], [ 2913496.489105470478535, 2058591.005066452780738 ], [ 2913497.689986142795533, 2058592.046012335224077 ], [ 2913498.980251394212246, 2058593.022862610174343 ], [ 2913500.332935995887965, 2058593.9116049350705 ], [ 2913501.74256921838969, 2058594.70846518361941 ], [ 2913503.104942113626748, 2058595.366531185107306 ], [ 2913513.428148061502725, 2058599.963202498620376 ], [ 2913513.525901849381626, 2058600.006519260117784 ], [ 2913515.030505049042404, 2058600.609662723960355 ], [ 2913516.573157836683095, 2058601.111777372891083 ], [ 2913518.147265002131462, 2058601.510915991617367 ], [ 2913519.745853408239782, 2058601.805301383836195 ], [ 2913519.749063792638481, 2058601.805732976878062 ], [ 2913532.538691091351211, 2058603.723911835579202 ], [ 2913533.569454807788134, 2058603.856327765388414 ], [ 2913568.982487157918513, 2058607.648116374388337 ], [ 2913573.656478323042393, 2058610.115438510663807 ], [ 2913582.138142078183591, 2058616.52696450566873 ], [ 2913590.357755725272, 2058624.476403022184968 ], [ 2913590.718552281148732, 2058624.818247915944085 ], [ 2913591.94084953237325, 2058625.8789419347886 ], [ 2913592.965013851411641, 2058626.665435089962557 ], [ 2913612.456816557794809, 2058640.821494580712169 ], [ 2913621.816512350924313, 2058650.156209314009175 ], [ 2913622.164696141146123, 2058650.496489427052438 ], [ 2913634.06240286771208, 2058661.895276034716517 ], [ 2913634.341079412028193, 2058662.158104972681031 ], [ 2913635.563294922932982, 2058663.218916721874848 ], [ 2913635.998868795111775, 2058663.563926034606993 ], [ 2913646.02485098131001, 2058671.320842348504812 ], [ 2913646.879544790834188, 2058671.952687644399703 ], [ 2913648.232231966219842, 2058672.841434571426362 ], [ 2913649.300122203305364, 2058673.456393605098128 ], [ 2913674.666842890437692, 2058687.21921119093895 ], [ 2913679.842885565944016, 2058690.361498814309016 ], [ 2913689.935735343955457, 2058698.697603634791449 ], [ 2913690.103644539602101, 2058698.834989867173135 ], [ 2913690.169463380239904, 2058698.888261341722682 ], [ 2913702.814372272230685, 2058709.070363291073591 ], [ 2913704.038806327152997, 2058709.993849705904722 ], [ 2913705.39160884404555, 2058710.88267912925221 ], [ 2913706.369644519407302, 2058711.448628985555843 ], [ 2913719.133472552057356, 2058718.443449714453891 ], [ 2913731.484265188220888, 2058727.456453632796183 ], [ 2913731.795038603246212, 2058727.679480454185978 ], [ 2913733.147825760301203, 2058728.568212201585993 ], [ 2913734.557250434532762, 2058729.365017167292535 ], [ 2913736.017495681531727, 2058730.066488325828686 ], [ 2913737.355944744776934, 2058730.60861310036853 ], [ 2913761.100862112827599, 2058739.417135125491768 ], [ 2913772.841520951595157, 2058745.002641242695972 ], [ 2913773.494499154854566, 2058745.30150206736289 ], [ 2913774.999205633997917, 2058745.904636484337971 ], [ 2913776.541682278271765, 2058746.406894394895062 ], [ 2913778.11579435877502, 2058746.806042110314593 ], [ 2913779.714470276143402, 2058747.100320272147655 ], [ 2913779.820651199668646, 2058747.116041815839708 ], [ 2913797.920486296527088, 2058749.752417169511318 ], [ 2913799.430683364160359, 2058749.925017414148897 ], [ 2913801.058031105436385, 2058750.006474103778601 ], [ 2913802.689302097540349, 2058749.980721671599895 ], [ 2913804.317414862569422, 2058749.847828194033355 ], [ 2913805.935595822986215, 2058749.60851584863849 ], [ 2913807.5367760672234, 2058749.263560421066359 ], [ 2913809.113946826197207, 2058748.814741025445983 ], [ 2913809.306819330435246, 2058748.752149609616026 ], [ 2913822.691139150410891, 2058744.349749807734042 ], [ 2913824.044911799952388, 2058743.861348065314814 ], [ 2913825.554444432258606, 2058743.210694685811177 ], [ 2913827.020293775014579, 2058742.462993463501334 ], [ 2913828.436098579317331, 2058741.621528806863353 ], [ 2913829.144697797484696, 2058741.152239188551903 ], [ 2913838.311715916730464, 2058734.858879264909774 ], [ 2913846.394995266571641, 2058733.800634508021176 ], [ 2913865.737369860522449, 2058735.788694496732205 ], [ 2913875.780352864880115, 2058737.627020748797804 ], [ 2913889.182325357571244, 2058741.037519770208746 ], [ 2913889.992946734651923, 2058741.229269181611016 ], [ 2913891.59164112387225, 2058741.523649825481698 ], [ 2913893.208119930699468, 2058741.71195715223439 ], [ 2913893.977387547492981, 2058741.763839894207194 ], [ 2913907.514221540652215, 2058742.465127608506009 ], [ 2913908.372205849736929, 2058742.494723075069487 ], [ 2913910.003463885746896, 2058742.468876008177176 ], [ 2913911.631693956442177, 2058742.336067126598209 ], [ 2913913.160359254572541, 2058742.112801962299272 ], [ 2913926.927172057330608, 2058739.665888352785259 ], [ 2913941.25988259864971, 2058737.198941455222666 ], [ 2913947.064283366315067, 2058747.126922345720232 ], [ 2913950.460944293998182, 2058753.220214914297685 ], [ 2913951.048808316700161, 2058754.218157116323709 ], [ 2913951.502218884415925, 2058754.920805929461494 ], [ 2913956.217942125163972, 2058761.959570115897804 ], [ 2913956.665450914762914, 2058762.604767368873581 ], [ 2913957.442071469035, 2058763.628497940255329 ], [ 2913970.46447782125324, 2058779.886044932994992 ], [ 2913970.675980247557163, 2058780.146360324695706 ], [ 2913971.746747951954603, 2058781.360942476894706 ], [ 2913972.895629533566535, 2058782.501202912069857 ], [ 2913974.11784993391484, 2058783.562024073442444 ], [ 2913974.382479260209948, 2058783.773446129867807 ], [ 2913988.224443134851754, 2058794.682262721471488 ], [ 2913989.250070944428444, 2058795.44760676054284 ], [ 2913990.602976489812136, 2058796.336426954716444 ], [ 2913992.012389665003866, 2058797.13314145244658 ], [ 2913993.472541080787778, 2058797.834638830507174 ], [ 2913994.977251708973199, 2058798.437780578853562 ], [ 2913996.519831143319607, 2058798.940028131473809 ], [ 2913998.014527269173414, 2058799.321647653821856 ], [ 2914011.029084033332765, 2058802.211587966186926 ], [ 2914011.108390220440924, 2058802.229043158702552 ], [ 2914012.135606109164655, 2058802.430678826523945 ], [ 2914013.419278922490776, 2058802.65443789656274 ], [ 2914017.521848533302546, 2058807.258088072761893 ], [ 2914017.980401564389467, 2058807.758474177448079 ], [ 2914019.129268024116755, 2058808.898637329228222 ], [ 2914020.351473333314061, 2058809.959361277986318 ], [ 2914021.641861217096448, 2058810.936307650757954 ], [ 2914022.994653011672199, 2058811.825048170750961 ], [ 2914023.897449185606092, 2058812.349687323439866 ], [ 2914032.706317377276719, 2058817.694059557747096 ], [ 2914043.767584450542927, 2058822.855442741885781 ], [ 2914062.532543072942644, 2058826.618868477875367 ], [ 2914070.962239259853959, 2058830.712003029184416 ], [ 2914085.444991460070014, 2058838.865158111555502 ], [ 2914086.118724412750453, 2058839.230646956246346 ], [ 2914087.578975982964039, 2058839.932129558874294 ], [ 2914089.083491477649659, 2058840.535310209263116 ], [ 2914090.62617115676403, 2058841.037543135229498 ], [ 2914092.200273734517395, 2058841.43660324672237 ], [ 2914093.798857740592211, 2058841.730910351034254 ], [ 2914094.153723223134875, 2058841.781526811653748 ], [ 2914118.591610014438629, 2058845.086998319020495 ], [ 2914128.226924110203981, 2058848.149437353946269 ], [ 2914132.911926515866071, 2058850.993550355080515 ], [ 2914135.464571721851826, 2058853.503602303797379 ], [ 2914140.503988556563854, 2058861.674184286035597 ], [ 2914140.546594568528235, 2058861.743130231276155 ], [ 2914140.785546956583858, 2058862.119871815433726 ], [ 2914148.134696692228317, 2058873.478300047805533 ], [ 2914151.797395195811987, 2058880.604533075122163 ], [ 2914160.777843752875924, 2058919.400219653965905 ], [ 2914161.181361331604421, 2058920.921710543567315 ], [ 2914161.699699959717691, 2058922.464760101865977 ], [ 2914162.174859888385981, 2058923.644426655722782 ], [ 2914166.593346410430968, 2058933.843332450138405 ], [ 2914166.736480303108692, 2058934.167377890786156 ], [ 2914167.45227278303355, 2058935.625301289604977 ], [ 2914167.530786147806793, 2058935.77130592497997 ], [ 2914172.921338140964508, 2058945.725241626845673 ], [ 2914173.065217457711697, 2058945.987180574331433 ], [ 2914180.102627210319042, 2058958.61119213886559 ], [ 2914180.690395933575928, 2058959.609156005084515 ], [ 2914181.591418132185936, 2058960.956989794969559 ], [ 2914182.579431115183979, 2058962.240960882045329 ], [ 2914183.280884978361428, 2058963.055099182995036 ], [ 2914191.58769859187305, 2058972.273910396266729 ], [ 2914191.95694985659793, 2058972.674575128592551 ], [ 2914193.105804015882313, 2058973.814644843805581 ], [ 2914194.328143022954464, 2058974.875553350895643 ], [ 2914195.618420092854649, 2058975.852424558252096 ], [ 2914196.971101016737521, 2058976.741090069524944 ], [ 2914197.018268545158207, 2058976.769753607921302 ], [ 2914205.397451985161752, 2058981.856626670341939 ], [ 2914206.759831877890974, 2058982.624863980337977 ], [ 2914208.219971457030624, 2058983.326270095538348 ], [ 2914209.724686022847891, 2058983.929419251624495 ], [ 2914211.267253432422876, 2058984.431575750000775 ], [ 2914212.841275310143828, 2058984.830756549257785 ], [ 2914214.439975351560861, 2058985.125148601597175 ], [ 2914214.794939638581127, 2058985.175748133799061 ], [ 2914217.137711027637124, 2058985.492623670957983 ], [ 2914217.638154714368284, 2058985.691072055371478 ], [ 2914221.966998939402401, 2058990.008333810605109 ], [ 2914227.584292634390295, 2059001.326490225270391 ], [ 2914234.002812945283949, 2059016.357287756167352 ], [ 2914235.489918327890337, 2059019.934807288926095 ], [ 2914237.049260818399489, 2059026.671012256061658 ], [ 2914237.452698051929474, 2059028.192621004767716 ], [ 2914237.971023131627589, 2059029.735573644051328 ], [ 2914238.589433504734188, 2059031.239368070848286 ], [ 2914239.305228032171726, 2059032.697293234756216 ], [ 2914240.115375228691846, 2059034.103103722212836 ], [ 2914240.489523981697857, 2059034.686562787042931 ], [ 2914251.1953892740421, 2059050.871078164316714 ], [ 2914257.666956800967455, 2059061.940090204589069 ], [ 2914258.00630231294781, 2059062.503088979283348 ], [ 2914258.907310754060745, 2059063.850826349109411 ], [ 2914259.895243206992745, 2059065.134916091803461 ], [ 2914260.966032858006656, 2059066.349604964256287 ], [ 2914262.115003073588014, 2059067.48975754249841 ], [ 2914263.16954752523452, 2059068.413360455771908 ], [ 2914274.617408558726311, 2059077.868812937522307 ], [ 2914274.785188963636756, 2059078.006022269604728 ], [ 2914276.075483718886971, 2059078.982994689140469 ], [ 2914277.428264829330146, 2059079.871645061532035 ], [ 2914277.475432416889817, 2059079.900308697484434 ], [ 2914289.445599623024464, 2059087.16724198218435 ], [ 2914290.807965311221778, 2059087.935383536154404 ], [ 2914292.059206886216998, 2059088.543761493638158 ], [ 2914308.142654502764344, 2059095.802220850251615 ], [ 2914308.351570024620742, 2059095.895350553095341 ], [ 2914308.898136069998145, 2059096.127927608322352 ], [ 2914325.953635584563017, 2059103.141326279845089 ], [ 2914326.911801983136684, 2059103.512000798014924 ], [ 2914327.378093312494457, 2059103.675773621536791 ], [ 2914341.900413863826543, 2059108.613029847154394 ], [ 2914356.915238223969936, 2059115.389227608218789 ], [ 2914357.124055427033454, 2059115.482375411083922 ], [ 2914358.628772718831897, 2059116.085529703879729 ], [ 2914359.558630063198507, 2059116.401805219473317 ], [ 2914373.99521207716316, 2059120.990106786834076 ], [ 2914374.607940765097737, 2059121.176091723609716 ], [ 2914374.767447267193347, 2059121.221592400688678 ], [ 2914390.175982985645533, 2059125.564851285889745 ], [ 2914390.779989863280207, 2059125.726859856862575 ], [ 2914400.382204964756966, 2059128.170484301401302 ], [ 2914401.037976996973157, 2059129.291312420973554 ], [ 2914401.796203860547394, 2059130.438073926605284 ], [ 2914411.00283323507756, 2059143.543791518546641 ], [ 2914411.145632404368371, 2059143.744869083864614 ], [ 2914412.133649541065097, 2059145.028846060391515 ], [ 2914413.204358830116689, 2059146.243655247148126 ], [ 2914414.353331390302628, 2059147.383811953710392 ], [ 2914415.575544365681708, 2059148.444547830848023 ], [ 2914416.865841452032328, 2059149.42152444110252 ], [ 2914418.21864084340632, 2059150.310277725337073 ], [ 2914419.628176406491548, 2059151.107087049866095 ], [ 2914420.435549203306437, 2059151.50969271780923 ], [ 2914432.460150515194982, 2059157.230388299329206 ], [ 2914451.96990353288129, 2059151.250332143623382 ], [ 2914462.398448906838894, 2059148.318747538374737 ], [ 2914479.56248044827953, 2059142.086554978741333 ], [ 2914495.474296640604734, 2059134.522792548406869 ], [ 2914504.616599950939417, 2059136.500983661506325 ], [ 2914516.768149959854782, 2059141.050522914621979 ], [ 2914528.462693615816534, 2059152.437872521579266 ], [ 2914545.979326379485428, 2059174.199622158193961 ], [ 2914555.52181405108422, 2059189.041593913221732 ], [ 2914555.523693211376667, 2059189.04571564681828 ], [ 2914562.385718784295022, 2059199.717129841214046 ], [ 2914565.403010039590299, 2059202.932800420559943 ], [ 2914565.877971667796373, 2059203.755489370785654 ], [ 2914566.41855919919908, 2059204.564139380585402 ], [ 2914567.011265114881098, 2059205.334627985022962 ], [ 2914567.084664554800838, 2059205.423038721550256 ], [ 2914571.350663315504789, 2059210.518222477519885 ], [ 2914571.919713544659317, 2059211.158715766388923 ], [ 2914572.609055860433728, 2059211.842799747595564 ], [ 2914572.622022656723857, 2059211.854747775010765 ], [ 2914580.479024386033416, 2059219.130098039051518 ], [ 2914581.19932398898527, 2059219.754707179730758 ], [ 2914581.973498145118356, 2059220.340734822675586 ], [ 2914582.785182612482458, 2059220.874009550083429 ], [ 2914582.813495959155262, 2059220.891286759171635 ], [ 2914589.205804135650396, 2059224.771863559260964 ], [ 2914597.312146615236998, 2059231.226770347217098 ], [ 2914597.98474012222141, 2059231.731225736206397 ], [ 2914598.796424766071141, 2059232.264500763500109 ], [ 2914598.82472226023674, 2059232.281679438892752 ], [ 2914609.224982306361198, 2059238.595588233554736 ], [ 2914618.667520993389189, 2059245.132790411356837 ], [ 2914619.370628150645643, 2059245.590124245733023 ], [ 2914620.216394167393446, 2059246.068226261297241 ], [ 2914620.967158710584044, 2059246.433235334698111 ], [ 2914637.050557810813189, 2059253.691733120940626 ], [ 2914637.175865086261183, 2059253.747599312104285 ], [ 2914637.880017253570259, 2059254.035767905646935 ], [ 2914652.277698034420609, 2059259.495885075768456 ], [ 2914660.171954068355262, 2059262.84355990216136 ], [ 2914664.834541485644877, 2059265.674157013650984 ], [ 2914669.389476787298918, 2059272.624542904784903 ], [ 2914669.739974045660347, 2059273.135315915336832 ], [ 2914670.332763537764549, 2059273.90568964695558 ], [ 2914670.406147237867117, 2059273.994002021616325 ], [ 2914684.476908813230693, 2059290.800359854009002 ], [ 2914693.090371660888195, 2059301.78018108708784 ], [ 2914693.309140159748495, 2059302.052266236860305 ], [ 2914693.951689581386745, 2059302.781154368305579 ], [ 2914694.641017363406718, 2059303.465141878928989 ], [ 2914694.904094712808728, 2059303.703424284234643 ], [ 2914713.012096549384296, 2059319.707597819389775 ], [ 2914713.48236957192421, 2059320.105758406920359 ], [ 2914713.980424782261252, 2059320.492081958567724 ], [ 2914726.400604357942939, 2059329.702561107929796 ], [ 2914726.67674068454653, 2059329.902366280322894 ], [ 2914727.488410910591483, 2059330.435545224696398 ], [ 2914727.516822760924697, 2059330.452804674627259 ], [ 2914741.881110399961472, 2059339.173171336995438 ], [ 2914742.639704426750541, 2059339.603196102660149 ], [ 2914763.736236563883722, 2059350.740270709153265 ], [ 2914763.794899638742208, 2059350.77110880590044 ], [ 2914764.670973028521985, 2059351.191986913094297 ], [ 2914765.375126298516989, 2059351.480157551588491 ], [ 2914780.036539417691529, 2059357.040240683825687 ], [ 2914780.235250297933817, 2059357.114026532508433 ], [ 2914781.160882167518139, 2059357.415357402991503 ], [ 2914781.618930112570524, 2059357.539857984054834 ], [ 2914795.648784704506397, 2059361.110262178583071 ], [ 2914810.876872916705906, 2059365.402848972007632 ], [ 2914811.725536216981709, 2059365.614997009979561 ], [ 2914812.684805382974446, 2059365.791657479014248 ], [ 2914813.65459768101573, 2059365.90463986620307 ], [ 2914813.769748958293349, 2059365.913766402751207 ], [ 2914832.278565580025315, 2059367.307948126457632 ], [ 2914845.424602676182985, 2059368.906465919222683 ], [ 2914857.775594353675842, 2059370.88791371928528 ], [ 2914863.941044367849827, 2059374.080243718344718 ], [ 2914874.112969587557018, 2059381.7693088313099 ], [ 2914879.061524959281087, 2059385.59800310828723 ], [ 2914879.464332857634872, 2059385.898664789507166 ], [ 2914886.871405544690788, 2059391.230545674450696 ], [ 2914886.981281995307654, 2059391.308889409294352 ], [ 2914887.792969670146704, 2059391.842169841052964 ], [ 2914888.638640122488141, 2059392.320294906850904 ], [ 2914889.514714859426022, 2059392.741175450850278 ], [ 2914889.695372002199292, 2059392.819252141518518 ], [ 2914898.821696636267006, 2059396.689391579246148 ], [ 2914899.54388923663646, 2059396.973175424151123 ], [ 2914900.469522498548031, 2059397.274508749367669 ], [ 2914900.738121779169887, 2059397.349407184869051 ], [ 2914908.598143899347633, 2059399.461784695507959 ], [ 2914914.8984130541794, 2059403.286595763405785 ], [ 2914926.018329260870814, 2059410.798885014140978 ], [ 2914934.364850784651935, 2059418.175653940765187 ], [ 2914934.835140970535576, 2059418.573915475979447 ], [ 2914934.994093414861709, 2059418.70096412114799 ], [ 2914948.836293566972017, 2059429.609782390296459 ], [ 2914948.938735747244209, 2059429.689779593609273 ], [ 2914958.558652494102716, 2059437.132562167942524 ], [ 2914969.848727530334145, 2059447.217598498798907 ], [ 2914970.376473867334425, 2059447.66689886036329 ], [ 2914971.150667904876173, 2059448.253032088745385 ], [ 2914971.962258051615208, 2059448.786331986775622 ], [ 2914972.808027877938002, 2059449.264440835220739 ], [ 2914973.684103547595441, 2059449.685323068406433 ], [ 2914973.864760878030211, 2059449.763400101801381 ], [ 2914982.991095020901412, 2059453.633556996937841 ], [ 2914983.71328836446628, 2059453.917342214845121 ], [ 2914984.638922556303442, 2059454.218677291180938 ], [ 2914985.018973395228386, 2059454.323152736760676 ], [ 2914994.763509189710021, 2059456.860064073232934 ], [ 2915011.461141883395612, 2059467.716512775514275 ], [ 2915016.270128408446908, 2059471.688407843932509 ], [ 2915020.307807906530797, 2059479.144184691365808 ], [ 2915020.721313913352787, 2059479.858855610946193 ], [ 2915024.395097936503589, 2059485.815252156928182 ], [ 2915024.747833989560604, 2059487.338464885950089 ], [ 2915024.989830733276904, 2059488.251002280972898 ], [ 2915025.300846453756094, 2059489.176879362668842 ], [ 2915025.371056037954986, 2059489.36131194117479 ], [ 2915026.656618220731616, 2059492.671058851294219 ], [ 2915021.089517337270081, 2059494.314353853464127 ], [ 2915020.144233451224864, 2059496.522623441880569 ], [ 2915018.165527451317757, 2059500.820867830188945 ], [ 2915015.217417925596237, 2059509.14434802881442 ], [ 2915026.481461238116026, 2059518.725068702828139 ], [ 2915032.097373930737376, 2059523.123196652159095 ], [ 2915039.36098183458671, 2059524.172552403062582 ], [ 2915039.270263817161322, 2059526.034667810425162 ], [ 2915047.184048846829683, 2059541.695576231228188 ], [ 2915036.973887541331351, 2059601.13764196424745 ], [ 2915058.299363062717021, 2059610.765592821408063 ], [ 2915068.781165899708867, 2059624.013346567051485 ], [ 2915088.722910192795098, 2059649.217317461501807 ], [ 2915104.537377608940005, 2059669.204827919136733 ], [ 2915117.383478933013976, 2059683.28214499913156 ], [ 2915555.676366526633501, 2059683.28214499913156 ], [ 2915551.593569035641849, 2059681.422026511514559 ] ] ] } }
]
}
