{
"type": "FeatureCollection",
"name": "Albagés,_L'",
"crs": { "type": "name", "properties": { "name": "urn:ogc:def:crs:EPSG::3035" } },
"features": [
{ "type": "Feature", "properties": { "ENP_GRAL": 2.0, "ENP_GRAL_NAME": "Reservas Naturales", "color": "#FFD37F" }, "geometry": { "type": "Polygon", "coordinates": [ [ [ 3546190.676078000571579, 2089615.751173556549475 ], [ 3546178.563885012175888, 2089609.372256357222795 ], [ 3546165.719647395424545, 2089603.485485187731683 ], [ 3546157.425714283250272, 2089600.372996056219563 ], [ 3546031.242030575871468, 2089571.281767795793712 ], [ 3545942.291903793346137, 2089554.657198263565078 ], [ 3545851.261171324644238, 2089533.455797436647117 ], [ 3545828.665792680811137, 2089529.206741191446781 ], [ 3545819.595110638998449, 2089526.189862967468798 ], [ 3545786.137334004975855, 2089508.438062751665711 ], [ 3545731.176999497227371, 2089479.819073193240911 ], [ 3545705.334134532604367, 2089469.273014644160867 ], [ 3545649.927466512192041, 2089465.503411808749661 ], [ 3545572.525863146875054, 2089457.677043838426471 ], [ 3545551.037566090933979, 2089451.928187167504802 ], [ 3545506.094837465789169, 2089432.786560765001923 ], [ 3545351.345068509690464, 2089357.709421328967437 ], [ 3545261.109528766479343, 2089315.533444430446252 ], [ 3545214.62102074874565, 2089290.911780475173146 ], [ 3545166.972212889231741, 2089273.746406154241413 ], [ 3545128.124563060235232, 2089264.462882770923898 ], [ 3545076.507696557790041, 2089259.023664322681725 ], [ 3545047.684474284760654, 2089257.069699517916888 ], [ 3545044.845998767763376, 2089256.877288583898917 ], [ 3545017.628653271123767, 2089248.414869920816272 ], [ 3544993.621644612401724, 2089240.950747224036604 ], [ 3544986.009540323633701, 2089239.310038348892704 ], [ 3544893.376261179335415, 2089219.343418255914003 ], [ 3544795.848737112246454, 2089198.774772500852123 ], [ 3544718.79238466033712, 2089172.311984937172383 ], [ 3544698.035756907425821, 2089159.960267293965444 ], [ 3544632.400431302376091, 2089114.105161290615797 ], [ 3544507.110368911642581, 2089030.941534792771563 ], [ 3544478.446163333021104, 2089018.055277301231399 ], [ 3544349.536792787723243, 2088983.562664817785844 ], [ 3544298.211384845431894, 2088970.499853438697755 ], [ 3544264.454813236370683, 2088961.908478824654594 ], [ 3544252.967671028338373, 2088958.984877945156768 ], [ 3544230.678119075484574, 2088951.551106757484376 ], [ 3544230.364740462973714, 2088951.651683985488489 ], [ 3543385.04338000016287, 2089400.65884516062215 ], [ 3543385.04338000016287, 2089661.905820000451058 ], [ 3546191.305945464875549, 2089661.905820000451058 ], [ 3546190.676078000571579, 2089615.751173556549475 ] ] ] } },
{ "type": "Feature", "properties": { "ENP_GRAL": 6.0, "ENP_GRAL_NAME": "Otros Espacios Naturales Protegidos", "color": "#7F8F0D" }, "geometry": { "type": "Polygon", "coordinates": [ [ [ 3546223.967371092177927, 2089655.910515242489055 ], [ 3546211.829188369214535, 2089647.620809423504397 ], [ 3546207.398193566128612, 2089643.792933404911309 ], [ 3546202.630137085914612, 2089638.064191797515377 ], [ 3546198.622294715605676, 2089629.516587022924796 ], [ 3546194.337233033031225, 2089617.679786420194432 ], [ 3546182.319653977639973, 2089610.079669726546854 ], [ 3546175.151774153113365, 2089606.607530598295853 ], [ 3546168.370588609017432, 2089603.759177181869745 ], [ 3546157.425714283250272, 2089600.372996056219563 ], [ 3546031.242030575871468, 2089571.281767795793712 ], [ 3545942.291903793346137, 2089554.657198263565078 ], [ 3545851.261171324644238, 2089533.455797436647117 ], [ 3545828.665792680811137, 2089529.206741191446781 ], [ 3545819.595110638998449, 2089526.189862967468798 ], [ 3545786.137334004975855, 2089508.438062751665711 ], [ 3545731.176999497227371, 2089479.819073193240911 ], [ 3545705.334134532604367, 2089469.273014644160867 ], [ 3545649.927466512192041, 2089465.503411808749661 ], [ 3545572.525863146875054, 2089457.677043838426471 ], [ 3545551.037566090933979, 2089451.928187167504802 ], [ 3545506.094837465789169, 2089432.786560765001923 ], [ 3545351.345068509690464, 2089357.709421328967437 ], [ 3545261.109528766479343, 2089315.533444430446252 ], [ 3545214.62102074874565, 2089290.911780475173146 ], [ 3545166.972212889231741, 2089273.746406154241413 ], [ 3545128.124563060235232, 2089264.462882770923898 ], [ 3545086.441439072601497, 2089260.283651522127911 ], [ 3545050.190088980365545, 2089257.791195418452844 ], [ 3545047.684474284760654, 2089257.069699517916888 ], [ 3545017.628653271123767, 2089248.414869920816272 ], [ 3544986.009540323633701, 2089239.310038348892704 ], [ 3544985.008401572238654, 2089239.021639226702973 ], [ 3544893.376261179335415, 2089219.343418255914003 ], [ 3544795.848737112246454, 2089198.774772500852123 ], [ 3544718.79238466033712, 2089172.311984937172383 ], [ 3544708.627723392099142, 2089167.257523345993832 ], [ 3544698.035756907425821, 2089159.960267293965444 ], [ 3544632.400431302376091, 2089114.105161290615797 ], [ 3544507.110368911642581, 2089030.941534792771563 ], [ 3544478.446163333021104, 2089018.055277301231399 ], [ 3544349.536792787723243, 2088983.562664817785844 ], [ 3544298.211384845431894, 2088970.499853438697755 ], [ 3544264.454813236370683, 2088961.908478824654594 ], [ 3544288.683037588838488, 2088959.97563810669817 ], [ 3544346.89780667796731, 2088919.724428614135832 ], [ 3544421.546058642677963, 2088889.212238837499171 ], [ 3544450.511256406083703, 2088884.610792502528057 ], [ 3544465.136229648254812, 2088859.92566072079353 ], [ 3544491.680155313573778, 2088873.776402075309306 ], [ 3544518.444083630107343, 2088836.564373280387372 ], [ 3544571.642755372449756, 2088812.52530250675045 ], [ 3544596.236559903714806, 2088786.534264721442014 ], [ 3544628.076415036339313, 2088749.257501734187827 ], [ 3544646.137770861387253, 2088743.3284241782967 ], [ 3544670.012839456088841, 2088742.2039431524463 ], [ 3544690.038085924927145, 2088731.311847456963733 ], [ 3544700.450962474569678, 2088733.88032808736898 ], [ 3544756.624764840118587, 2088718.286105567589402 ], [ 3544767.838897487614304, 2088709.44251712737605 ], [ 3544789.982822867576033, 2088709.08266534563154 ], [ 3544792.670066909398884, 2088712.401021424448118 ], [ 3544789.698138826526701, 2088753.851121123181656 ], [ 3544808.612148463726044, 2088750.822093006689101 ], [ 3544812.410374075174332, 2088759.998123511904851 ], [ 3544857.422084731049836, 2088726.39813388697803 ], [ 3544877.563639258500189, 2088724.221005202736706 ], [ 3544907.053591834846884, 2088718.212765725096688 ], [ 3544950.1294060125947, 2088711.947630597511306 ], [ 3544991.387429184745997, 2088706.880978360306472 ], [ 3545005.656579417642206, 2088708.093282441841438 ], [ 3545047.545002152677625, 2088693.626713948557153 ], [ 3545012.896041673608124, 2088619.438879396766424 ], [ 3545054.626543053425848, 2088568.85789187438786 ], [ 3545040.467504986096174, 2088516.543135972693563 ], [ 3545002.717790633440018, 2088448.025406775530428 ], [ 3544965.949481060728431, 2088418.187866031192243 ], [ 3544989.101827211212367, 2088381.340983894886449 ], [ 3544970.704561362508684, 2088376.564814804820344 ], [ 3544964.374119520187378, 2088365.844974884064868 ], [ 3544946.596960349939764, 2088368.16698266309686 ], [ 3544930.680401907302439, 2088350.622601435752586 ], [ 3544930.913490762934089, 2088318.983099990524352 ], [ 3544902.646445426624268, 2088269.827570351306349 ], [ 3544876.523874633479863, 2088238.360243156552315 ], [ 3544847.58418358489871, 2088236.397025015437976 ], [ 3544831.719792486168444, 2088192.003135650651529 ], [ 3544823.012215387076139, 2088181.514071075012907 ], [ 3544820.893567207269371, 2088170.981937130680308 ], [ 3544835.751008889637887, 2088169.539764761459082 ], [ 3544837.663188217673451, 2088163.985222214832902 ], [ 3544745.006849798373878, 2088036.370943445712328 ], [ 3544759.089488537516445, 2088012.33540541282855 ], [ 3544757.823587328661233, 2088004.703234522836283 ], [ 3544765.833924012258649, 2087986.625915291020647 ], [ 3544753.198796444106847, 2087986.062651187181473 ], [ 3544733.612360147759318, 2088008.842932355590165 ], [ 3544711.72674709931016, 2088012.160476337419823 ], [ 3544702.915846711024642, 2088000.488366574514657 ], [ 3544709.220967957749963, 2087976.611173708923161 ], [ 3544672.634123091585934, 2087914.543114361586049 ], [ 3544670.489884424488991, 2087896.854896160541102 ], [ 3544658.397589879576117, 2087868.201675206422806 ], [ 3544639.432118285447359, 2087856.918775014812127 ], [ 3544609.924646338447928, 2087821.007875316310674 ], [ 3544581.475996457505971, 2087817.803990253247321 ], [ 3544575.119800924323499, 2087813.648732598638162 ], [ 3544567.212863832246512, 2087819.188566840486601 ], [ 3544544.396987265907228, 2087825.579183748923242 ], [ 3544543.519140852615237, 2087788.082269073463976 ], [ 3544538.506452620029449, 2087785.586258316179737 ], [ 3544528.764749663881958, 2087804.427982893073931 ], [ 3544536.154754396528006, 2087806.693492857739329 ], [ 3544529.384737876243889, 2087811.526471604593098 ], [ 3544495.561532149557024, 2087815.40627886261791 ], [ 3544477.62919888459146, 2087815.954020880628377 ], [ 3544423.523354187142104, 2087772.886563721345738 ], [ 3544396.883339111227542, 2087776.665746537968516 ], [ 3544411.61242193216458, 2087725.723019026685506 ], [ 3544433.627645705826581, 2087703.303374586161226 ], [ 3544480.809739947784692, 2087694.547343669459224 ], [ 3544495.098503424786031, 2087700.318855242803693 ], [ 3544505.30497386585921, 2087700.521076505538076 ], [ 3544560.496358470059931, 2087728.569777446100488 ], [ 3544579.617184008937329, 2087727.906713371863589 ], [ 3544591.14199667237699, 2087695.17130141146481 ], [ 3544556.285467727575451, 2087687.220551823265851 ], [ 3544555.04549582535401, 2087673.024000589037314 ], [ 3544577.060760203748941, 2087650.604478343157098 ], [ 3544576.518382937181741, 2087637.533293258165941 ], [ 3544568.534461121540517, 2087621.605190785136074 ], [ 3544558.844760895706713, 2087627.318053278373554 ], [ 3544551.454789788462222, 2087625.052724529756233 ], [ 3544558.457387490198016, 2087616.02138453675434 ], [ 3544555.589505902957171, 2087603.772443405585364 ], [ 3544550.62836950365454, 2087601.867815219797194 ], [ 3544541.145273082423955, 2087609.946980624692515 ], [ 3544534.6340581770055, 2087604.017002582084388 ], [ 3544512.644470001105219, 2087633.592601605691016 ], [ 3544509.414584679529071, 2087630.923317640088499 ], [ 3544513.498027808964252, 2087595.33106811135076 ], [ 3544457.117205092683434, 2087594.838816004572436 ], [ 3544439.107075935229659, 2087560.18588232039474 ], [ 3544426.311412227340043, 2087565.631422806996852 ], [ 3544393.886095955967903, 2087574.910424325382337 ], [ 3544372.014333568047732, 2087578.255850343266502 ], [ 3544353.39132302487269, 2087576.386979047674686 ], [ 3544321.702259614598006, 2087565.978515296243131 ], [ 3544294.5356928515248, 2087564.939113758970052 ], [ 3544220.098683924414217, 2087575.842150930548087 ], [ 3544156.070876160636544, 2087572.821060159010813 ], [ 3544106.416145287454128, 2087570.949402945581824 ], [ 3544038.012133096344769, 2087562.883228773484007 ], [ 3543884.269535702653229, 2087564.324797713430598 ], [ 3543805.832408107817173, 2087568.263353496789932 ], [ 3543718.320739163085818, 2087566.951812063343823 ], [ 3543659.415897937491536, 2087568.994247979484499 ], [ 3543628.10254849633202, 2087576.943611399270594 ], [ 3543600.083277541212738, 2087594.371125274337828 ], [ 3543520.315222713164985, 2087653.590808406006545 ], [ 3543492.401777097489685, 2087672.230368062620983 ], [ 3543458.546618520282209, 2087679.194298868998885 ], [ 3543385.04338000016287, 2087683.391484894091263 ], [ 3543385.04338000016287, 2089661.905820000451058 ], [ 3546233.150607102084905, 2089661.905820000451058 ], [ 3546223.967371092177927, 2089655.910515242489055 ] ] ] } }
]
}
