{
"type": "FeatureCollection",
"name": "Blanes",
"crs": { "type": "name", "properties": { "name": "urn:ogc:def:crs:EPSG::3035" } },
"features": [
{ "type": "Feature", "properties": { "ENP_GRAL": 6.0, "ENP_GRAL_NAME": "Otros Espacios Naturales Protegidos", "color": "#7F8F0D" }, "geometry": { "type": "MultiPolygon", "coordinates": [ [ [ [ 3715397.590074422303587, 2094648.185690347338095 ], [ 3715414.201188978739083, 2094641.765536439139396 ], [ 3715456.807717613875866, 2094609.74056932143867 ], [ 3715540.176154504995793, 2094538.551679086405784 ], [ 3715597.026591614354402, 2094486.917723421007395 ], [ 3715615.03068533167243, 2094468.159251899924129 ], [ 3715641.131890554912388, 2094443.776203156448901 ], [ 3715657.429122003726661, 2094433.720061455387622 ], [ 3715691.660481785424054, 2094418.331990169361234 ], [ 3715716.333274431061, 2094391.639048884389922 ], [ 3715787.157870995812118, 2094331.388336173491552 ], [ 3715848.38581992033869, 2094287.868424971355125 ], [ 3715883.31415469199419, 2094266.316346481675282 ], [ 3715936.375754703767598, 2094241.857708885334432 ], [ 3715950.035588174127042, 2094229.604550804244354 ], [ 3715965.123866696376354, 2094219.66148597584106 ], [ 3715982.734889408573508, 2094210.704483281588182 ], [ 3716059.364346373826265, 2094160.868242708267644 ], [ 3716142.080210903659463, 2094110.473342461977154 ], [ 3716172.132136591244489, 2094089.377232436090708 ], [ 3716185.792835898697376, 2094077.133959195576608 ], [ 3716250.086458831094205, 2094040.649284273386002 ], [ 3716265.060315499547869, 2094029.495412091724575 ], [ 3716276.083415556233376, 2094015.05500498204492 ], [ 3716292.380711623933166, 2094004.99919242830947 ], [ 3716306.030557951424271, 2093992.746802135370672 ], [ 3716336.092804798390716, 2093971.649829804897308 ], [ 3716400.282076237723231, 2093915.395671906182542 ], [ 3716428.954820688348264, 2093882.520562310935929 ], [ 3716448.240226112306118, 2093850.242508094990626 ], [ 3716459.2535998551175, 2093835.803129614563659 ], [ 3716498.427092426456511, 2093763.869631769135594 ], [ 3716515.587289195507765, 2093735.445968027925119 ], [ 3716531.016193309333175, 2093701.084348041564226 ], [ 3716563.506777218077332, 2093594.432476360118017 ], [ 3716626.119735145941377, 2093453.258022187277675 ], [ 3716645.301713820546865, 2093419.77782053174451 ], [ 3716652.458669944200665, 2093403.255106965545565 ], [ 3716663.472112544812262, 2093388.815959816565737 ], [ 3716677.786762695293874, 2093355.780827009817585 ], [ 3716710.624036201275885, 2093267.384351403685287 ], [ 3716733.770868629217148, 2093194.515371000394225 ], [ 3716748.635651067830622, 2093139.485624648397788 ], [ 3716755.342584203463048, 2093103.50612429343164 ], [ 3716761.494492327794433, 2093046.857225602725521 ], [ 3716765.691157395020127, 2093024.51233335933648 ], [ 3716773.441269900184125, 2093000.623285105684772 ], [ 3716781.215744134970009, 2092906.036112536909059 ], [ 3716794.311312271282077, 2092787.777299106121063 ], [ 3716793.861573903355747, 2092768.320123999379575 ], [ 3716803.755155377089977, 2092627.195966775529087 ], [ 3716822.206328237429261, 2092585.241811121581122 ], [ 3716820.921488330233842, 2092556.108040974475443 ], [ 3716827.201359670609236, 2092515.291188763454556 ], [ 3716836.346692889928818, 2092479.083719458431005 ], [ 3716857.573687404859811, 2092369.829837722005323 ], [ 3716873.658464183099568, 2092314.686976050259545 ], [ 3716880.711453742813319, 2092296.962293063988909 ], [ 3716901.121468991041183, 2092263.34827752574347 ], [ 3716911.926966393366456, 2092246.495057223364711 ], [ 3716950.048968465067446, 2092162.473176585277542 ], [ 3717000.499152733478695, 2092065.111545699182898 ], [ 3717034.665047433227301, 2092020.467651028651744 ], [ 3717062.328780185896903, 2091971.56375347613357 ], [ 3717075.875794029328972, 2091958.110056256176904 ], [ 3717096.589608146809042, 2091928.13288283906877 ], [ 3717122.407807311974466, 2091872.080910792574286 ], [ 3717147.083325660321862, 2091845.399426399730146 ], [ 3717169.358344218228012, 2091790.900343565503135 ], [ 3717182.914326198864728, 2091777.435725640039891 ], [ 3717189.968070695642382, 2091759.711321292910725 ], [ 3717221.383255852386355, 2091711.66946733975783 ], [ 3717252.576854244805872, 2091653.470600891858339 ], [ 3717252.585504189133644, 2091653.452163223875687 ], [ 3717268.424376596231014, 2091616.239047926384956 ], [ 3717293.649330479558557, 2091567.553656208096072 ], [ 3717305.195120272226632, 2091559.164197896840051 ], [ 3717318.742064313031733, 2091545.710676538990811 ], [ 3717353.772072901017964, 2091482.699305658927187 ], [ 3717372.266932360362262, 2091455.373519489308819 ], [ 3717378.486232861410826, 2091427.972938034683466 ], [ 3717443.921801473014057, 2091319.45816373731941 ], [ 3717466.406539365649223, 2091267.383699614554644 ], [ 3717492.955594800878316, 2091219.796248676255345 ], [ 3717500.009380663279444, 2091202.072045655688271 ], [ 3717534.726893897168338, 2091135.43524383357726 ], [ 3717643.845471560023725, 2090978.955407438101247 ], [ 3717660.391428498085588, 2090943.279634142527357 ], [ 3717683.85593818500638, 2090876.982743099099025 ], [ 3717693.753475124482065, 2090860.925710640847683 ], [ 3717697.055100072640926, 2090842.330308499047533 ], [ 3717708.630340565927327, 2090805.896793921710923 ], [ 3717725.374416254460812, 2090772.635707146720961 ], [ 3717736.398630693089217, 2090758.196171008748934 ], [ 3717754.466734203975648, 2090726.033416066784412 ], [ 3717777.573885014280677, 2090638.539024430559948 ], [ 3717834.88237692322582, 2090521.040536971762776 ], [ 3717856.252544490154833, 2090470.282510063843802 ], [ 3717867.93122264649719, 2090435.051202251110226 ], [ 3717926.449145353399217, 2090317.440033418359235 ], [ 3717932.189406918361783, 2090298.616704028565437 ], [ 3717940.661012916825712, 2090283.194184291176498 ], [ 3717970.200033348519355, 2090213.386308988090605 ], [ 3718027.860891350544989, 2090071.469877000199631 ], [ 3718058.81866652239114, 2090003.973138249712065 ], [ 3718107.741004528943449, 2089903.222990949172527 ], [ 3718118.831714839674532, 2089856.269441296346486 ], [ 3718119.323836889117956, 2089854.731072607450187 ], [ 3718122.889063956681639, 2089837.202838244615123 ], [ 3718118.791516860947013, 2089818.076862807618454 ], [ 3718105.482164409011602, 2089805.910106795607135 ], [ 3718095.507636254653335, 2089789.776846274966374 ], [ 3718094.506126124411821, 2089787.169181718025357 ], [ 3718070.810173956677318, 2089763.190901075024158 ], [ 3718015.9662732090801, 2089713.182006184477359 ], [ 3717997.791975014843047, 2089693.864969065180048 ], [ 3717997.736837378703058, 2089694.074108896544203 ], [ 3717999.750350465998054, 2089731.671566791133955 ], [ 3717996.48374511860311, 2089807.557565498398617 ], [ 3717988.837167807389051, 2089832.657556361751631 ], [ 3717978.376151944510639, 2089867.765183493262157 ], [ 3717957.213714627083391, 2089920.936801009811461 ], [ 3717955.166851917747408, 2089996.709248339291662 ], [ 3717951.780069156549871, 2090013.9703775041271 ], [ 3717927.794868282508105, 2090077.160467955283821 ], [ 3717852.835463874507695, 2090231.669157666619867 ], [ 3717816.659777091816068, 2090324.039281239267439 ], [ 3717793.965546070598066, 2090373.698939661495388 ], [ 3717781.181392202619463, 2090410.245453847339377 ], [ 3717745.693176857661456, 2090496.452540705678985 ], [ 3717717.719491607509553, 2090584.401694606523961 ], [ 3717683.460697439033538, 2090670.494195906212553 ], [ 3717667.925596441142261, 2090703.642192376079038 ], [ 3717658.684377561789006, 2090738.635647055925801 ], [ 3717651.630299630574882, 2090756.359781807288527 ], [ 3717622.932110195979476, 2090804.377609689719975 ], [ 3717594.561421752907336, 2090848.248777440050617 ], [ 3717589.936125570908189, 2090865.74598470912315 ], [ 3717580.932543786708266, 2090875.119661378208548 ], [ 3717572.461531771346927, 2090890.542819139081985 ], [ 3717563.699458771385252, 2090916.959046809701249 ], [ 3717532.179018366150558, 2090963.788559252861887 ], [ 3717520.851910799741745, 2090974.601111262338236 ], [ 3717511.568695491179824, 2090994.977124978788197 ], [ 3717499.752204289194196, 2091014.35811853222549 ], [ 3717484.080380434170365, 2091031.675510270753875 ], [ 3717481.371216292958707, 2091042.894661641214043 ], [ 3717429.13624871801585, 2091119.700726342853159 ], [ 3717384.173596891574562, 2091181.196099351393059 ], [ 3717256.110949501860887, 2091345.545689551625401 ], [ 3717213.77511974517256, 2091409.229427102254704 ], [ 3717190.423426492139697, 2091437.009043915197253 ], [ 3717183.265988630242646, 2091453.531309093348682 ], [ 3717151.849753552116454, 2091501.563233236083761 ], [ 3717137.638774470426142, 2091535.809742632787675 ], [ 3717098.083605214953423, 2091574.857655321480706 ], [ 3717077.482808252796531, 2091606.03609668253921 ], [ 3717062.708802406676114, 2091639.944638281362131 ], [ 3717059.614734931848943, 2091640.624523739563301 ], [ 3717052.463367308489978, 2091654.882590522989631 ], [ 3717049.166511823423207, 2091673.297693155240268 ], [ 3717049.167952528689057, 2091673.313269007252529 ], [ 3717048.542445045430213, 2091683.931688862852752 ], [ 3717034.227295613847673, 2091716.966265066294 ], [ 3717017.275606790557504, 2091747.813432912807912 ], [ 3716985.859325997531414, 2091795.845800384879112 ], [ 3716967.886660676449537, 2091829.222172909649089 ], [ 3716922.815131194889545, 2091932.180262567009777 ], [ 3716881.922417538240552, 2092040.837147207465023 ], [ 3716863.640913726761937, 2092113.250835222424939 ], [ 3716831.571540614590049, 2092182.075516947545111 ], [ 3716813.048555489163846, 2092237.446123884292319 ], [ 3716808.385647285729647, 2092282.989238884998485 ], [ 3716803.979833840858191, 2092302.910006627440453 ], [ 3716770.368399695958942, 2092368.223245564382523 ], [ 3716762.168940030038357, 2092399.284807214979082 ], [ 3716741.988890301901847, 2092536.662974650040269 ], [ 3716732.81022812332958, 2092558.241597702959552 ], [ 3716718.220053316093981, 2092644.942449853755534 ], [ 3716701.832331404089928, 2092781.786459806142375 ], [ 3716695.571456612087786, 2092794.569614121457562 ], [ 3716692.696808536536992, 2092817.992900454672053 ], [ 3716676.854636834468693, 2092890.179138923762366 ], [ 3716674.762621975503862, 2092908.662147385533899 ], [ 3716673.696226706262678, 2092967.279497236013412 ], [ 3716665.594426679424942, 2093015.577713725389913 ], [ 3716665.07860638294369, 2093052.21075595007278 ], [ 3716644.654316673986614, 2093156.513090566499159 ], [ 3716624.704847601708025, 2093209.583845626330003 ], [ 3716616.337861495558172, 2093226.209439051570371 ], [ 3716598.826966093387455, 2093279.052764639491215 ], [ 3716562.23764791758731, 2093366.578141546109691 ], [ 3716529.951018280349672, 2093432.990407238481566 ], [ 3716511.780095738358796, 2093463.942418758524582 ], [ 3716497.674574564211071, 2093499.401747841620818 ], [ 3716488.947152688167989, 2093540.447852764744312 ], [ 3716467.745333223603666, 2093579.004155031871051 ], [ 3716431.157480200752616, 2093666.539721042150632 ], [ 3716411.255093369167298, 2093691.554404716240242 ], [ 3716394.08493686793372, 2093719.979449012549594 ], [ 3716354.460314845666289, 2093772.445887551177293 ], [ 3716325.930390367284417, 2093797.0549219280947 ], [ 3716289.337443307507783, 2093841.927149168681353 ], [ 3716260.807430553715676, 2093866.536106063984334 ], [ 3716233.705188080202788, 2093893.44582743011415 ], [ 3716202.528618816286325, 2093915.868913321988657 ], [ 3716127.25526049407199, 2093981.422025440726429 ], [ 3716110.957928103394806, 2093991.477806004928425 ], [ 3716075.412620457354933, 2094005.766531848814338 ], [ 3716042.599352683406323, 2094023.464956635376438 ], [ 3716013.757038460113108, 2094044.448062715353444 ], [ 3715977.409869654569775, 2094063.689086489612237 ], [ 3715869.484257942531258, 2094130.942152435192838 ], [ 3715851.878382646944374, 2094143.694484111620113 ], [ 3715816.845518205314875, 2094164.034766803029925 ], [ 3715754.398218107409775, 2094207.668409762205556 ], [ 3715734.663452176377177, 2094219.097481285687536 ], [ 3715721.908171763177961, 2094228.992796206148341 ], [ 3715704.287009836174548, 2094237.950676213949919 ], [ 3715671.796860828995705, 2094259.275046837516129 ], [ 3715627.074958118610084, 2094295.153351338813081 ], [ 3715594.470303009264171, 2094315.266430883668363 ], [ 3715583.457164668943733, 2094329.706098184688017 ], [ 3715521.114033064804971, 2094374.542323714122176 ], [ 3715491.365421894006431, 2094399.266105290036649 ], [ 3715430.971950439736247, 2094452.453270309837535 ], [ 3715418.844521523453295, 2094468.219183804700151 ], [ 3715357.023759133182466, 2094519.105982862180099 ], [ 3715337.851239999756217, 2094538.289094120496884 ], [ 3715337.851239999756217, 2094706.567572068190202 ], [ 3715397.590074422303587, 2094648.185690347338095 ] ] ], [ [ [ 3720963.993347220122814, 2093410.682364138308913 ], [ 3720971.616156540811062, 2093415.478840930154547 ], [ 3720981.112569552846253, 2093420.1005408402998 ], [ 3720993.173676481004804, 2093425.985172549728304 ], [ 3721005.148711468093097, 2093430.876012337394059 ], [ 3721017.09280598256737, 2093435.769906970206648 ], [ 3721021.749512714799494, 2093436.837392391869798 ], [ 3721029.353477729484439, 2093438.130688015837222 ], [ 3721037.246389049105346, 2093438.39545017411001 ], [ 3721049.511334905866534, 2093438.251920075854287 ], [ 3721061.733077528886497, 2093437.61172549542971 ], [ 3721062.181980206165463, 2093437.545444333693013 ], [ 3721070.965607216581702, 2093436.249252915382385 ], [ 3721080.029738103970885, 2093434.401559041347355 ], [ 3721085.147570515517145, 2093432.421506846090779 ], [ 3721089.929983838461339, 2093429.471387714380398 ], [ 3721096.570945788174868, 2093424.344663176685572 ], [ 3721103.594177177175879, 2093418.180869263131171 ], [ 3721107.400401403196156, 2093416.323317295173183 ], [ 3721111.519177792593837, 2093414.436624039895833 ], [ 3721116.078431443311274, 2093414.011065135942772 ], [ 3721120.649521104060113, 2093414.085095609771088 ], [ 3721124.500061166938394, 2093415.478202411206439 ], [ 3721128.350585631094873, 2093416.871211156714708 ], [ 3721135.540841292124242, 2093419.204726840602234 ], [ 3721149.108502201735973, 2093423.947200296679512 ], [ 3721162.551573573611677, 2093428.701120030134916 ], [ 3721170.584617672488093, 2093430.95560213830322 ], [ 3721171.980005165096372, 2093431.416181866079569 ], [ 3721172.950084634125233, 2093431.73645107797347 ], [ 3721176.919740380253643, 2093432.867945125093684 ], [ 3721178.941685075871646, 2093433.680793078383431 ], [ 3721184.464940637350082, 2093435.669020208995789 ], [ 3721189.69890586938709, 2093438.685532638337463 ], [ 3721193.351928791031241, 2093442.350445259129629 ], [ 3721194.09361574659124, 2093443.282767217606306 ], [ 3721195.158900454174727, 2093444.685665712924674 ], [ 3721196.704480287618935, 2093446.544349920004606 ], [ 3721211.226108528673649, 2093466.720612684264779 ], [ 3721232.502609213348478, 2093498.785308395745233 ], [ 3721254.224453750997782, 2093529.80662876390852 ], [ 3721261.327274432871491, 2093539.158427328336984 ], [ 3721264.031812480185181, 2093542.411110641201958 ], [ 3721268.824609949719161, 2093547.972777759190649 ], [ 3721275.025872935540974, 2093554.905097684822977 ], [ 3721278.410129971802235, 2093557.999712694901973 ], [ 3721281.485292679164559, 2093560.811613545753062 ], [ 3721292.796109967399389, 2093570.772362691815943 ], [ 3721299.774600136559457, 2093576.129789629252627 ], [ 3721304.614493284840137, 2093579.68397729168646 ], [ 3721312.404978078790009, 2093584.96570077794604 ], [ 3721320.453451739624143, 2093589.221849629888311 ], [ 3721331.784382110927254, 2093594.673817400354892 ], [ 3721334.192524556070566, 2093595.95121699757874 ], [ 3721348.212896086275578, 2093602.654448130866513 ], [ 3721356.062539015896618, 2093606.428447008598596 ], [ 3721362.518105948343873, 2093610.83322801720351 ], [ 3721363.915341505780816, 2093611.704293932765722 ], [ 3721364.052805466111749, 2093611.609267201274633 ], [ 3721364.88722177175805, 2093612.821273111505434 ], [ 3721366.944350431207567, 2093615.132737224455923 ], [ 3721369.06726526748389, 2093618.940826210891828 ], [ 3721375.204662160016596, 2093637.897191770840436 ], [ 3721380.34302870510146, 2093656.947008165996522 ], [ 3721382.301168148871511, 2093665.777519814437255 ], [ 3721383.697280833963305, 2093674.66071626287885 ], [ 3721383.688602331560105, 2093679.669051239034161 ], [ 3721382.887624004855752, 2093684.25035109417513 ], [ 3721381.485527634620667, 2093689.889765386236832 ], [ 3721379.696873685810715, 2093695.064284487161785 ], [ 3721378.869201859924942, 2093697.144838976673782 ], [ 3721378.404271753970534, 2093698.690229389583692 ], [ 3721377.834145012311637, 2093699.744979348499328 ], [ 3721377.576272759586573, 2093700.770636263536289 ], [ 3721376.975160501897335, 2093701.828145507257432 ], [ 3721376.279785643331707, 2093702.894649955211207 ], [ 3721375.9909279034473, 2093703.923066184157506 ], [ 3721375.264848476275802, 2093704.992183209164068 ], [ 3721374.444735005032271, 2093706.070459433365613 ], [ 3721374.062420636415482, 2093707.107839612523094 ], [ 3721373.242177473381162, 2093708.185935750603676 ], [ 3721372.934035788290203, 2093709.092632572399452 ], [ 3721398.791461162269115, 2093680.724288672441617 ], [ 3721587.011943900026381, 2093474.227734287036583 ], [ 3721587.041761727072299, 2093474.195054958108813 ], [ 3721609.873323780018836, 2093449.146741726435721 ], [ 3721646.950760801788419, 2093408.484286634251475 ], [ 3721646.982223920058459, 2093408.44982732180506 ], [ 3721649.785901716910303, 2093406.592181824613363 ], [ 3721651.969181272666901, 2093405.145526525564492 ], [ 3721767.020015202462673, 2093328.913209443213418 ], [ 3721708.886503363959491, 2092939.748687623534352 ], [ 3721696.279741971287876, 2092855.297545985784382 ], [ 3721453.705050819087774, 2092867.924507040530443 ], [ 3721451.609035345260054, 2092866.617718821624294 ], [ 3721449.950175975449383, 2092865.270448913564906 ], [ 3721423.436056120321155, 2092846.213386552408338 ], [ 3721422.101198432035744, 2092845.336726877139881 ], [ 3721224.140606328845024, 2092702.5769291552715 ], [ 3721213.375778558664024, 2092694.568544620648026 ], [ 3721211.529910618439317, 2092693.238610789412633 ], [ 3721149.720904456451535, 2092760.601438447134569 ], [ 3721144.80006358679384, 2092765.892032206524163 ], [ 3721137.521809230092913, 2092773.717144426889718 ], [ 3721127.872616404201835, 2092784.091280080610886 ], [ 3721127.279095101170242, 2092784.729494822910056 ], [ 3721127.206824941560626, 2092784.930158776929602 ], [ 3721127.008627307135612, 2092785.480460257967934 ], [ 3721089.768289100844413, 2092888.882608376210555 ], [ 3721086.700527287553996, 2092911.70274351304397 ], [ 3721079.496821340639144, 2092971.964651266578585 ], [ 3720663.048720775637776, 2092999.831813454162329 ], [ 3720642.690345674753189, 2093007.241476606810465 ], [ 3720626.961795384064317, 2093013.216403805185109 ], [ 3720611.264619941823184, 2093019.189119795802981 ], [ 3720588.450771238189191, 2093027.328239002497867 ], [ 3720511.97562517458573, 2093079.036405282560736 ], [ 3720480.926160394214094, 2093078.931132357334718 ], [ 3720446.952738068532199, 2093083.606031414587051 ], [ 3720442.279920740518719, 2093084.5428917768877 ], [ 3720438.80192301236093, 2093084.367173803271726 ], [ 3720403.779349158983678, 2093107.166882629971951 ], [ 3720383.394708333071321, 2093133.606897382531315 ], [ 3720352.294540622271597, 2093159.545693319523707 ], [ 3720338.157551625277847, 2093173.385084291920066 ], [ 3720318.395342932082713, 2093190.252616982907057 ], [ 3720311.356062402948737, 2093198.421472230460495 ], [ 3720290.149517102632672, 2093212.419858895009384 ], [ 3720264.14911340828985, 2093228.869008883833885 ], [ 3720252.378351951483637, 2093239.482442210428417 ], [ 3720237.933377273846418, 2093250.846466354327276 ], [ 3720229.266223359387368, 2093257.664832945680246 ], [ 3720221.461706683039665, 2093267.907916373340413 ], [ 3720210.319038893096149, 2093279.965083553921431 ], [ 3720197.130478346254677, 2093294.21611252380535 ], [ 3720185.585132990963757, 2093311.819284910568967 ], [ 3720174.515028598252684, 2093336.3882603822276 ], [ 3720171.367201801389456, 2093343.692785825813189 ], [ 3720166.174449978396297, 2093353.191517129773274 ], [ 3720180.510370870586485, 2093365.372817568015307 ], [ 3720189.655477886088192, 2093371.028790643904358 ], [ 3720193.867136869113892, 2093373.139275095425546 ], [ 3720199.503080120310187, 2093378.621845291927457 ], [ 3720260.478703998029232, 2093447.53987160185352 ], [ 3720285.589451584033668, 2093454.709255607333034 ], [ 3720295.73560953931883, 2093448.253835683688521 ], [ 3720297.933454894926399, 2093448.549104553647339 ], [ 3720331.351114325225353, 2093480.481269868090749 ], [ 3720342.572172137908638, 2093491.952239680336788 ], [ 3720344.562768684700131, 2093492.767988723702729 ], [ 3720345.609086920041591, 2093490.666882579447702 ], [ 3720348.51435837475583, 2093486.389755892567337 ], [ 3720351.992644380312413, 2093482.559872640296817 ], [ 3720356.49036218971014, 2093478.133662763284519 ], [ 3720361.647450717166066, 2093475.148351904004812 ], [ 3720367.097482914570719, 2093472.636527216993272 ], [ 3720372.558745483867824, 2093470.624297210481018 ], [ 3720385.417718448676169, 2093466.418573022121564 ], [ 3720398.100953643675894, 2093462.730688369134441 ], [ 3720402.738703590352088, 2093460.294732926879078 ], [ 3720407.115073617082089, 2093457.382338198134676 ], [ 3720410.460923859849572, 2093454.565646022791043 ], [ 3720413.09646959323436, 2093450.81451079621911 ], [ 3720507.370489364955574, 2093486.077507907291874 ], [ 3720594.234577727504075, 2093527.039812718518078 ], [ 3720603.82241555582732, 2093602.760022754315287 ], [ 3720610.988787730224431, 2093659.176968675339594 ], [ 3720553.942784923128784, 2093812.726819956209511 ], [ 3720581.532369142398238, 2093820.165655026445165 ], [ 3720632.256348034366965, 2093839.966241809539497 ], [ 3720672.392678780946881, 2093868.767306759022176 ], [ 3720693.223875568248332, 2093829.265465687494725 ], [ 3720718.060449977871031, 2093762.849847193807364 ], [ 3720722.356448819860816, 2093748.427752055693418 ], [ 3720728.385986219160259, 2093731.840428473893553 ], [ 3720738.527371000964195, 2093706.356708520324901 ], [ 3720760.281936931423843, 2093652.747614974854514 ], [ 3720766.364472845103592, 2093649.17506830370985 ], [ 3720777.154824716970325, 2093642.158496204763651 ], [ 3720794.887012815568596, 2093629.486246960470453 ], [ 3720813.829453601967543, 2093613.696401769528165 ], [ 3720826.740663219708949, 2093600.973700426984578 ], [ 3720837.145168425049633, 2093589.486140763852745 ], [ 3720838.835978003684431, 2093586.824678766541183 ], [ 3720838.731129939667881, 2093582.327571058180183 ], [ 3720837.982289962470531, 2093578.391463623382151 ], [ 3720795.943497921340168, 2093533.743859346024692 ], [ 3720745.529937950428575, 2093474.855303339660168 ], [ 3720771.273370964452624, 2093451.419549215119332 ], [ 3720764.981400928925723, 2093445.99821549654007 ], [ 3720758.607894289307296, 2093441.085323680657893 ], [ 3720752.963898876681924, 2093436.604916470125318 ], [ 3720780.125207467935979, 2093409.531965079484507 ], [ 3720787.980280405376107, 2093402.789226539898664 ], [ 3720783.804318832233548, 2093398.17166751739569 ], [ 3720697.876892312429845, 2093306.551828173687682 ], [ 3720724.605340317822993, 2093317.859189144801348 ], [ 3720728.887071362230927, 2093318.961601831018925 ], [ 3720747.634717601817101, 2093325.724096520105377 ], [ 3720766.444863373413682, 2093332.480585440527648 ], [ 3720796.96067309519276, 2093344.654120823834091 ], [ 3720827.320141513831913, 2093356.842193580698222 ], [ 3720866.837022786960006, 2093371.179909029975533 ], [ 3720906.478942020796239, 2093385.505914611974731 ], [ 3720921.631456018891186, 2093391.101883095223457 ], [ 3720936.846485965885222, 2093396.691943078767508 ], [ 3720946.831087753176689, 2093400.767291933298111 ], [ 3720956.339369735680521, 2093405.888777375454083 ], [ 3720963.993347220122814, 2093410.682364138308913 ] ] ], [ [ [ 3716198.645034608896822, 2094556.228604950709268 ], [ 3716184.070413029752672, 2094533.023570675170049 ], [ 3716170.54634073888883, 2094519.885698772734031 ], [ 3716148.395747859962285, 2094503.908766631036997 ], [ 3716128.084521201439202, 2094487.068624372361228 ], [ 3716112.46203135792166, 2094472.263891075039282 ], [ 3716091.027315905783325, 2094463.180476963054389 ], [ 3716078.930510655976832, 2094482.338588668266311 ], [ 3716064.131984760053456, 2094506.255444478942081 ], [ 3716041.521752090658993, 2094522.770235339412466 ], [ 3716020.54108071513474, 2094536.569373661652207 ], [ 3716001.553321897052228, 2094557.122225933708251 ], [ 3715981.621929360087961, 2094580.978435401571915 ], [ 3715965.724100992083549, 2094600.561620109714568 ], [ 3715951.34455435955897, 2094616.147106982767582 ], [ 3715940.36255544424057, 2094627.559475595830008 ], [ 3715927.636894563212991, 2094646.785971438046545 ], [ 3715920.123047732748091, 2094654.619065098464489 ], [ 3715936.142359785269946, 2094673.202041056938469 ], [ 3715943.866297760047019, 2094692.080051154829562 ], [ 3715955.097166998311877, 2094705.722845936892554 ], [ 3715963.486939821392298, 2094713.411383987404406 ], [ 3715983.882523444481194, 2094739.397485222900286 ], [ 3715985.883250871673226, 2094791.639853018801659 ], [ 3715974.621727790683508, 2094841.827141205314547 ], [ 3715972.121987383812666, 2094873.08779402798973 ], [ 3715992.825823865365237, 2094902.179677672451362 ], [ 3716024.802295342087746, 2094881.093597315484658 ], [ 3716030.928093133028597, 2094893.59111371752806 ], [ 3716040.571249105967581, 2094913.230793843278661 ], [ 3716100.710237193387002, 2094977.426031393231824 ], [ 3716133.429886269848794, 2094995.059389812173322 ], [ 3716157.453355801291764, 2094998.77345264935866 ], [ 3716176.07838352303952, 2094979.976416865829378 ], [ 3716196.429857741575688, 2094947.798792300745845 ], [ 3716214.366989686153829, 2094917.178259737091139 ], [ 3716246.354274700861424, 2094861.439044658793136 ], [ 3716268.821097086649388, 2094837.315798587165773 ], [ 3716290.365992699749768, 2094804.375585883622989 ], [ 3716299.59625324094668, 2094782.351153071038425 ], [ 3716312.959359713364393, 2094763.044775880174711 ], [ 3716324.185621125623584, 2094747.804365671239793 ], [ 3716329.396572787314653, 2094736.400606688344851 ], [ 3716323.927171321120113, 2094726.836502531077713 ], [ 3716321.980407550930977, 2094714.319239642471075 ], [ 3716317.638765384908766, 2094703.347661693813279 ], [ 3716305.253654493950307, 2094688.821436177240685 ], [ 3716285.789229107555002, 2094661.716739611234516 ], [ 3716263.661253886297345, 2094633.629031538031995 ], [ 3716242.939670578110963, 2094606.662016213405877 ], [ 3716226.419626778457314, 2094589.397235087119043 ], [ 3716198.645034608896822, 2094556.228604950709268 ] ] ] ] } }
]
}
