{
"type": "FeatureCollection",
"name": "Gallifa",
"crs": { "type": "name", "properties": { "name": "urn:ogc:def:crs:EPSG::3035" } },
"features": [
{ "type": "Feature", "properties": { "ENP_GRAL": 6.0, "ENP_GRAL_NAME": "Otros Espacios Naturales Protegidos", "color": "#7F8F0D" }, "geometry": { "type": "MultiPolygon", "coordinates": [ [ [ [ 3661429.730223669204861, 2103516.321589705534279 ], [ 3661432.174590806476772, 2103498.058884386904538 ], [ 3661436.702944158576429, 2103480.600200101733208 ], [ 3661444.228054410312325, 2103462.858136584050953 ], [ 3661457.264625729527324, 2103450.605280683375895 ], [ 3661472.385620206594467, 2103439.156681937165558 ], [ 3661488.936091151088476, 2103432.581786106340587 ], [ 3661506.571835431270301, 2103426.9060825756751 ], [ 3661523.122176830656826, 2103420.331023577600718 ], [ 3661541.940410935785621, 2103412.148901696316898 ], [ 3661554.198593996465206, 2103401.833045141771436 ], [ 3661569.503975194878876, 2103386.359912809915841 ], [ 3661579.19954476505518, 2103370.416114159859717 ], [ 3661595.6144062243402, 2103363.9040014478378 ], [ 3661617.453331371303648, 2103357.92057584412396 ], [ 3661632.318616559263319, 2103347.357815132476389 ], [ 3661638.743411667644978, 2103335.740540601313114 ], [ 3661651.694240693002939, 2103322.493930954486132 ], [ 3661660.173115885816514, 2103305.182447551283985 ], [ 3661671.039936310611665, 2103291.131533620879054 ], [ 3661680.294574193190783, 2103266.624329368583858 ], [ 3661670.93395885778591, 2103255.078248901758343 ], [ 3661668.383881576359272, 2103237.287998484447598 ], [ 3661664.834998100064695, 2103219.592219368554652 ], [ 3661669.865056599490345, 2103216.280966510530561 ], [ 3661676.737240350339562, 2103208.077596773393452 ], [ 3661683.619966986589134, 2103199.883175575174391 ], [ 3661700.781079535838217, 2103200.6936020758003 ], [ 3661722.789999122265726, 2103193.882466206327081 ], [ 3661754.149547776672989, 2103181.08803882682696 ], [ 3661760.355067775119096, 2103184.938538894522935 ], [ 3661766.430317286867648, 2103194.952198390383273 ], [ 3661773.889223001431674, 2103211.276627360843122 ], [ 3661784.257922749966383, 2103226.323424611240625 ], [ 3661795.625733851920813, 2103241.275704581290483 ], [ 3661809.904463634826243, 2103254.951073816046119 ], [ 3661825.836129652801901, 2103264.46300348918885 ], [ 3661841.767961237113923, 2103273.974705062806606 ], [ 3661856.700668454635888, 2103283.580825508572161 ], [ 3661869.807753557339311, 2103295.363844123203307 ], [ 3661882.915255731903017, 2103307.146289750933647 ], [ 3661885.489167136140168, 2103315.918853101786226 ], [ 3661885.689220245927572, 2103315.905778982210904 ], [ 3661885.688714982476085, 2103315.900015246123075 ], [ 3661898.639287267811596, 2103302.653155630454421 ], [ 3661913.932647174224257, 2103293.192299583926797 ], [ 3661927.882121427450329, 2103279.850878303870559 ], [ 3661935.493596046231687, 2103263.102742417249829 ], [ 3661951.957999253179878, 2103255.534263215959072 ], [ 3661970.197217774577439, 2103256.813843813259155 ], [ 3661988.091422932222486, 2103254.118786491453648 ], [ 3662006.244115167763084, 2103254.404939061496407 ], [ 3662041.062691458500922, 2103261.167916498612612 ], [ 3662055.856795570813119, 2103256.752795856911689 ], [ 3662065.616463670507073, 2103246.773431771434844 ], [ 3662062.679308423772454, 2103230.442337830550969 ], [ 3662057.984354773070663, 2103211.262191909831017 ], [ 3662043.14940418722108, 2103203.830462376587093 ], [ 3662034.692363903857768, 2103187.600718638859689 ], [ 3662026.234651450999081, 2103171.371186936274171 ], [ 3662015.865757075604051, 2103156.32413240801543 ], [ 3662007.408218897879124, 2103140.094370503909886 ], [ 3662006.85581324249506, 2103122.115082025062293 ], [ 3662016.158093847334385, 2103114.062490709591657 ], [ 3662026.776265128515661, 2103096.448681196197867 ], [ 3662076.388205052819103, 2103075.467619905248284 ], [ 3662163.843423427548259, 2102995.388829863164574 ], [ 3662245.791114585939795, 2102915.831016473472118 ], [ 3662380.916484441142529, 2102809.148640513420105 ], [ 3662526.582470779307187, 2102695.946613895706832 ], [ 3662603.973456553183496, 2102627.867651532404125 ], [ 3662698.081187594681978, 2102624.488124148920178 ], [ 3662809.662974887061864, 2102630.502640821039677 ], [ 3662928.177617197856307, 2102652.431552257854491 ], [ 3662975.565789038315415, 2102686.612233171239495 ], [ 3663014.982233766466379, 2102820.968358038458973 ], [ 3663079.755906290374696, 2102991.589464403688908 ], [ 3663165.108601675834507, 2103189.206024145707488 ], [ 3663183.197380321100354, 2103199.205576753243804 ], [ 3663194.870252789929509, 2103221.391961733810604 ], [ 3663200.321280121803284, 2103238.607438639737666 ], [ 3663202.871063850354403, 2103256.397798102349043 ], [ 3663205.421280635986477, 2103274.188290195539594 ], [ 3663204.061720010824502, 2103293.35015194863081 ], [ 3663197.535035115201026, 2103310.997488704510033 ], [ 3663192.00770767359063, 2103328.54999761749059 ], [ 3663193.902396912220865, 2103334.721758897881955 ], [ 3663204.202145892195404, 2103341.421104040462524 ], [ 3663221.838015703950077, 2103335.74577176105231 ], [ 3663233.726420916151255, 2103334.631252624094486 ], [ 3663239.250759445596486, 2103339.107413122430444 ], [ 3663251.445162401534617, 2103351.97832412738353 ], [ 3663259.766366145573556, 2103359.205358957406133 ], [ 3663268.203467907384038, 2103359.408893711864948 ], [ 3663284.668266803026199, 2103351.840944678522646 ], [ 3663297.321199666243047, 2103348.280140705406666 ], [ 3663302.648790700361133, 2103350.140073788352311 ], [ 3663320.319867967162281, 2103356.48270866740495 ], [ 3663330.985024486668408, 2103353.690849651582539 ], [ 3663336.870702266227454, 2103349.908385161310434 ], [ 3663352.078172176145017, 2103339.454063106328249 ], [ 3663370.230979242362082, 2103339.740490762051195 ], [ 3663376.134785952046514, 2103338.370675335638225 ], [ 3663378.454726063180715, 2103334.464703733101487 ], [ 3663382.182891781441867, 2103326.58916610525921 ], [ 3663393.049808781128377, 2103312.538308362476528 ], [ 3663406.08710043458268, 2103300.285674658603966 ], [ 3663421.294218327384442, 2103289.831658773589879 ], [ 3663436.587624821811914, 2103280.370910544879735 ], [ 3663451.881147628650069, 2103270.910253341309726 ], [ 3663466.003206324297935, 2103259.556936113163829 ], [ 3663478.954297048971057, 2103246.310877462849021 ], [ 3663491.86780774127692, 2103231.936307680793107 ], [ 3663491.959898402914405, 2103231.837531503289938 ], [ 3663497.07226267689839, 2103234.579726696945727 ], [ 3663511.178371510934085, 2103246.268152779899538 ], [ 3663520.548806593287736, 2103261.409715764224529 ], [ 3663520.907182203605771, 2103273.096410582307726 ], [ 3663521.100499891676009, 2103279.3891587019898 ], [ 3663517.570807579904795, 2103296.753070261329412 ], [ 3663513.041993712540716, 2103314.211274013854563 ], [ 3663508.513452827464789, 2103331.66923743346706 ], [ 3663500.901984549127519, 2103348.416994284372777 ], [ 3663498.860144432168454, 2103352.396904539316893 ], [ 3663498.949467320926487, 2103352.498795431107283 ], [ 3663516.042058515828103, 2103372.02908398071304 ], [ 3663527.410116164479405, 2103386.981674990616739 ], [ 3663536.176924156956375, 2103395.168157007545233 ], [ 3663542.256754280999303, 2103395.594978974200785 ], [ 3663544.168385161552578, 2103394.412293117493391 ], [ 3663556.774583108257502, 2103377.191938746720552 ], [ 3663563.731259182095528, 2103380.530983852222562 ], [ 3663570.79447550419718, 2103387.886786989867687 ], [ 3663582.989201665390283, 2103400.758051324635744 ], [ 3663589.620924281422049, 2103419.163995845243335 ], [ 3663590.310220211278647, 2103427.112638974562287 ], [ 3663582.52647662628442, 2103441.873628316447139 ], [ 3663582.257222816348076, 2103449.101662455126643 ], [ 3663586.81568321865052, 2103456.494271785020828 ], [ 3663614.907145663630217, 2103466.85992815066129 ], [ 3663619.036872781813145, 2103475.114585117436945 ], [ 3663624.277184605132788, 2103482.001860577613115 ], [ 3663634.646276036277413, 2103497.049013055860996 ], [ 3663645.015172698535025, 2103512.096197518520057 ], [ 3663654.385106646455824, 2103527.238046206533909 ], [ 3663658.791898518800735, 2103532.690689999144524 ], [ 3666169.618989999871701, 2103532.690689999144524 ], [ 3666169.618989999871701, 2100395.981320483144373 ], [ 3666150.098408394958824, 2100373.764044015668333 ], [ 3666141.486616801004857, 2100361.675823968835175 ], [ 3666139.824639023281634, 2100359.348314905539155 ], [ 3666133.166491732932627, 2100342.026915150694549 ], [ 3666135.900153315626085, 2100328.94643061934039 ], [ 3666148.025652185082436, 2100320.107062606140971 ], [ 3666169.618989999871701, 2100301.028787093237042 ], [ 3666169.618989999871701, 2100270.755826354026794 ], [ 3666163.744303240440786, 2100263.486776685342193 ], [ 3666062.975837541278452, 2100106.298459923360497 ], [ 3665934.771356415934861, 2100033.894374317489564 ], [ 3665861.475294890347868, 2099992.723781074397266 ], [ 3665824.057584797497839, 2100018.609303104691207 ], [ 3665808.033061406575143, 2100031.964290050324053 ], [ 3665798.448046235367656, 2100043.388454090803862 ], [ 3665792.045627993531525, 2100061.083059293683618 ], [ 3665716.327826423570514, 2100331.223188137635589 ], [ 3665714.823282143101096, 2100340.591073155403137 ], [ 3665716.817671163007617, 2100352.213094492442906 ], [ 3665743.722076021600515, 2100433.814475719816983 ], [ 3665747.480027770157903, 2100446.611897685565054 ], [ 3665746.380909546278417, 2100456.472558388952166 ], [ 3665743.591958641074598, 2100462.756706454791129 ], [ 3665682.847223339602351, 2100585.520877642091364 ], [ 3665670.7478510690853, 2100598.494789603631943 ], [ 3665661.165346397552639, 2100603.668374972417951 ], [ 3665650.222642587032169, 2100605.704286811407655 ], [ 3665635.458485762123019, 2100603.153054976835847 ], [ 3665553.059181567281485, 2100567.547774388454854 ], [ 3665541.026015450712293, 2100566.060794947203249 ], [ 3665529.341152443084866, 2100568.477957245893776 ], [ 3665520.838504097890109, 2100577.16524209594354 ], [ 3665479.969076012261212, 2100654.665935553610325 ], [ 3665470.27170073799789, 2100664.78858708543703 ], [ 3665462.851867121644318, 2100670.748986863531172 ], [ 3665452.475827216636389, 2100673.042245868593454 ], [ 3665358.817686970345676, 2100675.325353512074798 ], [ 3665340.79626066563651, 2100680.975902728736401 ], [ 3665331.215356712695211, 2100685.007403187453747 ], [ 3665323.236135528422892, 2100691.831909214146435 ], [ 3665314.030222104862332, 2100702.398914874531329 ], [ 3665304.283517207950354, 2100717.294823027215898 ], [ 3665299.830210108775645, 2100726.921516015660018 ], [ 3665246.301362586207688, 2100887.139988188631833 ], [ 3665241.16149983368814, 2100894.067153329961002 ], [ 3665235.982656144537032, 2100899.625466849189252 ], [ 3665230.615828916430473, 2100904.400196441449225 ], [ 3665221.340896462090313, 2100907.200438146013767 ], [ 3665217.49945779889822, 2100905.640244763344526 ], [ 3665189.920439463108778, 2100892.470517101231962 ], [ 3665165.523407876491547, 2100885.571073787286878 ], [ 3665128.359899023547769, 2100883.825793663039804 ], [ 3665114.461656771134585, 2100875.933895823545754 ], [ 3665109.318395820446312, 2100869.348069680854678 ], [ 3665106.655063745100051, 2100862.206921281293035 ], [ 3665106.746516590937972, 2100852.692025854252279 ], [ 3665110.429774317424744, 2100844.760676345787942 ], [ 3665124.590046979952604, 2100825.010030913166702 ], [ 3665127.338426768779755, 2100815.814938844181597 ], [ 3665127.046495130285621, 2100807.688204605132341 ], [ 3665124.154977649450302, 2100789.549859215971082 ], [ 3665104.981459342874587, 2100736.137596411630511 ], [ 3665091.666316970251501, 2100704.529368286952376 ], [ 3665071.609947952907532, 2100686.701505209319293 ], [ 3665047.400336461141706, 2100666.631946494802833 ], [ 3665027.909440082497895, 2100655.33206202276051 ], [ 3665024.017587599810213, 2100649.819948950782418 ], [ 3665021.646894495002925, 2100644.083620898425579 ], [ 3665023.231273449026048, 2100634.127007844857872 ], [ 3665027.936568460427225, 2100625.087408772669733 ], [ 3665044.036448036320508, 2100597.269854911603034 ], [ 3665048.495292991399765, 2100579.347963693551719 ], [ 3665050.154283080715686, 2100561.190043423790485 ], [ 3665049.28207242814824, 2100542.650448573753238 ], [ 3665047.666710754390806, 2100532.495482105296105 ], [ 3665044.855264503043145, 2100517.725258961319923 ], [ 3665039.821869504172355, 2100502.994796963408589 ], [ 3665019.839918709360063, 2100470.695254857651889 ], [ 3665008.774217282421887, 2100460.852744903415442 ], [ 3664997.165816186461598, 2100453.114987352397293 ], [ 3664960.519268305972219, 2100442.114726161118597 ], [ 3664929.908620743546635, 2100439.749846619088203 ], [ 3664911.661315942648798, 2100442.797671172302216 ], [ 3664894.957541596144438, 2100448.313432979863137 ], [ 3664885.929573833942413, 2100455.007136583328247 ], [ 3664881.43709883838892, 2100460.110147973522544 ], [ 3664872.535947578027844, 2100470.358091274276376 ], [ 3664866.374270635657012, 2100477.701867752708495 ], [ 3664858.218981815036386, 2100482.029417457059026 ], [ 3664849.302052202634513, 2100483.263137652538717 ], [ 3664844.999919288326055, 2100481.96697167865932 ], [ 3664837.019348588772118, 2100478.784723684191704 ], [ 3664831.091708305757493, 2100474.076101390179247 ], [ 3664826.645987014751881, 2100470.189042187761515 ], [ 3664823.74747097492218, 2100465.564703705254942 ], [ 3664821.596297021023929, 2100457.714043099898845 ], [ 3664822.277974581811577, 2100448.61404356174171 ], [ 3664832.267017341218889, 2100426.633664192631841 ], [ 3664840.090868479106575, 2100410.116194996982813 ], [ 3664839.959731315262616, 2100387.81017014849931 ], [ 3664840.831624123267829, 2100350.46360500017181 ], [ 3664845.45506344968453, 2100332.926944865845144 ], [ 3664848.744312467519194, 2100314.294350489042699 ], [ 3664849.60643451847136, 2100295.891427621245384 ], [ 3664846.498208786360919, 2100274.20766700617969 ], [ 3664843.493824535980821, 2100253.725608587730676 ], [ 3664838.583240638952702, 2100242.039051666855812 ], [ 3664831.759218736551702, 2100231.635276845656335 ], [ 3664818.637030229438096, 2100221.886768032796681 ], [ 3664814.328196798451245, 2100221.443096508737653 ], [ 3664813.109216453973204, 2100243.165343317203224 ], [ 3664799.66368059720844, 2100298.34932358097285 ], [ 3664798.219026815611869, 2100306.660208471119404 ], [ 3664793.689267802983522, 2100324.117809909395874 ], [ 3664789.159942713566124, 2100341.575547722168267 ], [ 3664781.547426217701286, 2100358.322955009527504 ], [ 3664772.84972669230774, 2100374.171138043515384 ], [ 3664763.23951200582087, 2100391.107408073730767 ], [ 3664753.456666125450283, 2100406.056572114583105 ], [ 3664742.588696914725006, 2100420.106906224507838 ], [ 3664730.636072226334363, 2100433.257527137175202 ], [ 3664730.738605363294482, 2100436.533518781419843 ], [ 3664684.334187270142138, 2100526.950428390875459 ], [ 3664649.081231800373644, 2100538.206891477573663 ], [ 3664618.07898879610002, 2100529.11715838406235 ], [ 3664587.636543950997293, 2100526.486218743026257 ], [ 3664527.742429544217885, 2100532.650526276789606 ], [ 3664497.084904232062399, 2100527.535482032224536 ], [ 3664478.138705181889236, 2100512.297806469723582 ], [ 3664463.97193997213617, 2100494.103532587178051 ], [ 3664428.017381738871336, 2100427.883239165879786 ], [ 3664403.370121791493148, 2100399.160182840190828 ], [ 3664363.988692415878177, 2100386.355582832824439 ], [ 3664241.271817337255925, 2100364.9027014169842 ], [ 3664156.954689748119563, 2100362.3579399921 ], [ 3664058.574632356874645, 2100348.621324002742767 ], [ 3663933.962988428305835, 2100305.310647699516267 ], [ 3663841.645601206924766, 2100285.992531569674611 ], [ 3663745.03953664097935, 2100281.104555779136717 ], [ 3663689.434069043956697, 2100272.839812688529491 ], [ 3663649.553153492510319, 2100260.08295925334096 ], [ 3663595.351059981621802, 2100233.153898182325065 ], [ 3663564.348784394562244, 2100224.065182492136955 ], [ 3663534.811134425923228, 2100231.867508879862726 ], [ 3663534.415817018132657, 2100232.398382723331451 ], [ 3663506.559782286174595, 2100218.090381441637874 ], [ 3663473.195548842661083, 2100217.563664118759334 ], [ 3663444.769686819985509, 2100231.298517799936235 ], [ 3663403.555942167527974, 2100268.336351903155446 ], [ 3663415.016162262763828, 2100315.121068831533194 ], [ 3663439.348875947762281, 2100415.818500321358442 ], [ 3663441.933094241656363, 2100431.451301074586809 ], [ 3663441.800793766975403, 2100438.756375503726304 ], [ 3663440.765754804946482, 2100446.217103170696646 ], [ 3663439.816920031793416, 2100451.766104305163026 ], [ 3663437.950463943649083, 2100456.260198726784438 ], [ 3663435.615974694956094, 2100460.467931278981268 ], [ 3663432.486436762381345, 2100464.099422542378306 ], [ 3663429.174994306173176, 2100467.838963405694813 ], [ 3663424.490985215641558, 2100470.966534623410553 ], [ 3663417.540752899833024, 2100472.46531056240201 ], [ 3663411.200124545022845, 2100473.445421440526843 ], [ 3663406.464441860094666, 2100473.653064902871847 ], [ 3663401.731956800445914, 2100472.968739716336131 ], [ 3663395.641563356854022, 2100469.748229972552508 ], [ 3663329.478358963504434, 2100406.15529262367636 ], [ 3663240.811321244575083, 2100321.019760319963098 ], [ 3663236.935673841275275, 2100318.020499137230217 ], [ 3663231.764817055314779, 2100315.76496369484812 ], [ 3663226.640884583350271, 2100315.327914531342685 ], [ 3663220.701291999779642, 2100315.589412222616374 ], [ 3663214.447813956998289, 2100316.761801726184785 ], [ 3663208.829363434575498, 2100320.378602104261518 ], [ 3663157.535021112766117, 2100380.195397428236902 ], [ 3663148.740324180573225, 2100392.01601847121492 ], [ 3663144.024935954250395, 2100394.545764004811645 ], [ 3663141.44283102825284, 2100395.78154782531783 ], [ 3663138.097136055119336, 2100396.689027170650661 ], [ 3663131.613093696534634, 2100396.711370508186519 ], [ 3663125.709559500217438, 2100395.416508716065437 ], [ 3663119.251021095085889, 2100392.941966803744435 ], [ 3663114.216063375584781, 2100390.39313957374543 ], [ 3663108.500010155607015, 2100386.496227853931487 ], [ 3663106.490030207671225, 2100384.572615992277861 ], [ 3663104.854917041957378, 2100381.511710620019585 ], [ 3663084.463683618232608, 2100316.264069003518671 ], [ 3663079.127750190906227, 2100297.234950757585466 ], [ 3663078.98123797820881, 2100281.371617646422237 ], [ 3663112.532632871996611, 2100158.511529876384884 ], [ 3663113.8173928395845, 2100150.676503772381693 ], [ 3663113.815214122179896, 2100144.956838006619364 ], [ 3663113.213384745642543, 2100140.455716430209577 ], [ 3663111.860875483136624, 2100136.586870247498155 ], [ 3663108.013183726463467, 2100132.633385856635869 ], [ 3663105.10613428754732, 2100130.233636160381138 ], [ 3663102.604675496928394, 2100128.917761800810695 ], [ 3663082.484772633761168, 2100123.487925142981112 ], [ 3663067.450821658130735, 2100120.031671405769885 ], [ 3663065.014944104477763, 2100118.539043833501637 ], [ 3663062.677344874944538, 2100116.085425721481442 ], [ 3663060.629342384636402, 2100113.604573158081621 ], [ 3663059.192954550031573, 2100109.813986429944634 ], [ 3663042.605228582862765, 2100060.094087719917297 ], [ 3663039.90835484303534, 2100054.308802532032132 ], [ 3663035.471831315197051, 2100048.557625961955637 ], [ 3663030.532195381354541, 2100044.206642187200487 ], [ 3663024.986086266115308, 2100040.995085613802075 ], [ 3663019.014052631799132, 2100038.674706112127751 ], [ 3663013.712378456722945, 2100038.394613761454821 ], [ 3662961.768187159206718, 2100048.196481556631625 ], [ 3662955.46279551833868, 2100048.772697537671775 ], [ 3662952.072239245753735, 2100048.813368780072778 ], [ 3662948.151848507113755, 2100047.040157486218959 ], [ 3662923.231346489861608, 2100028.641541670076549 ], [ 3662909.899281850084662, 2100016.469508703798056 ], [ 3662906.67894608527422, 2100015.221383177675307 ], [ 3662903.558188433758914, 2100015.23597155418247 ], [ 3662896.292997295502573, 2100015.31203433778137 ], [ 3662892.645716422703117, 2100016.689050012268126 ], [ 3662888.076934287324548, 2100019.515360238030553 ], [ 3662883.088076553307474, 2100022.381369926966727 ], [ 3662879.975837359204888, 2100025.400441330857575 ], [ 3662864.130630330648273, 2100054.987544975243509 ], [ 3662847.330203049816191, 2100073.676335192285478 ], [ 3662840.88990306854248, 2100077.921965221874416 ], [ 3662834.459658512845635, 2100081.004428029060364 ], [ 3662831.989562764763832, 2100081.438146217726171 ], [ 3662828.459163241554052, 2100081.491727088578045 ], [ 3662824.499526201747358, 2100079.502214385196567 ], [ 3662813.079752092715353, 2100061.0390560971573 ], [ 3662806.068072672002017, 2100053.46773312240839 ], [ 3662802.843054221943021, 2100050.536892516538501 ], [ 3662798.423357889056206, 2100047.769674436189234 ], [ 3662776.076161179225892, 2100044.995269587263465 ], [ 3662761.14715104456991, 2100042.751197602134198 ], [ 3662737.129502550233155, 2100020.590625227894634 ], [ 3662726.444555794354528, 2100010.612355657387525 ], [ 3662701.450651720166206, 2100005.654121275991201 ], [ 3662672.809591197874397, 2100001.03055081423372 ], [ 3662663.846964384429157, 2099996.509118800982833 ], [ 3662656.031321011483669, 2099991.628705762326717 ], [ 3662615.613924556411803, 2099950.264135447330773 ], [ 3662610.7454714467749, 2099946.617448248900473 ], [ 3662605.110919017344713, 2099943.423932909034193 ], [ 3662600.319862547330558, 2099940.671643136069179 ], [ 3662595.074635722674429, 2099939.995965582318604 ], [ 3662588.001623183023185, 2099940.775128432549536 ], [ 3662584.321090404875576, 2099941.654116290621459 ], [ 3662580.774250304326415, 2099945.004930455237627 ], [ 3662564.992089166305959, 2099995.302022625692189 ], [ 3662558.645776834338903, 2100015.496377931907773 ], [ 3662559.002514872699976, 2100033.784201844129711 ], [ 3662574.224855059757829, 2100067.755500378087163 ], [ 3662576.551275711506605, 2100074.607717884704471 ], [ 3662576.703746161423624, 2100082.176241356413811 ], [ 3662574.187519446481019, 2100090.558361663483083 ], [ 3662570.661939131561667, 2100097.403127263300121 ], [ 3662565.579854772426188, 2100102.562138553708792 ], [ 3662560.324161108583212, 2100105.713780796155334 ], [ 3662553.376115195918828, 2100103.986807806883007 ], [ 3662546.402715905103832, 2100100.920042477548122 ], [ 3662525.347743999678642, 2100084.590039764530957 ], [ 3662506.02698548650369, 2100074.206766260787845 ], [ 3662500.319711724296212, 2100072.963610570412129 ], [ 3662488.869846066460013, 2100074.6076076971367 ], [ 3662442.945701099466532, 2100097.27379522100091 ], [ 3662435.469702489674091, 2100102.468700627796352 ], [ 3662430.494891169946641, 2100109.440510258078575 ], [ 3662428.558992220554501, 2100116.154957511462271 ], [ 3662427.100551865063608, 2100126.861144552472979 ], [ 3662425.357511976733804, 2100132.545653153210878 ], [ 3662421.951941602863371, 2100138.337148762308061 ], [ 3662414.061540645547211, 2100146.416257775388658 ], [ 3662409.38564823474735, 2100148.241043084766716 ], [ 3662399.736549927853048, 2100148.001802587416023 ], [ 3662395.896038634702563, 2100149.356832621153444 ], [ 3662384.453718347474933, 2100158.983975470997393 ], [ 3662369.461147393099964, 2100170.179340551607311 ], [ 3662351.295629067346454, 2100173.11984050180763 ], [ 3662333.464697684161365, 2100174.576253341510892 ], [ 3662320.847865188959986, 2100176.000226639676839 ], [ 3662314.039116083178669, 2100178.08697247132659 ], [ 3662306.249191056005657, 2100182.911147742997855 ], [ 3662300.017823326867074, 2100187.58773358585313 ], [ 3662294.122840862721205, 2100192.542874573729932 ], [ 3662288.817582629621029, 2100200.587745087221265 ], [ 3662285.28292558575049, 2100207.213198100216687 ], [ 3662282.696543294936419, 2100213.73877417948097 ], [ 3662281.583444318734109, 2100218.79249473195523 ], [ 3662280.238040592521429, 2100245.786019032821059 ], [ 3662278.535990805365145, 2100254.501870387233794 ], [ 3662273.985728749539703, 2100258.588762329891324 ], [ 3662265.875277416780591, 2100264.244518999010324 ], [ 3662252.161801435984671, 2100269.749149880837649 ], [ 3662238.460950141772628, 2100274.000359383411705 ], [ 3662223.985225761774927, 2100276.752224416006356 ], [ 3662214.141249463893473, 2100276.471610836684704 ], [ 3662206.102575268596411, 2100270.640733650885522 ], [ 3662200.59272238984704, 2100263.7790915267542 ], [ 3662196.910494603216648, 2100256.854673998430371 ], [ 3662193.540678286459297, 2100249.119794472120702 ], [ 3662191.844145007431507, 2100244.65204004663974 ], [ 3662191.185503812506795, 2100238.333577967248857 ], [ 3662194.464342312887311, 2100231.201328203082085 ], [ 3662197.677225272171199, 2100225.738579422235489 ], [ 3662202.006457239855081, 2100219.799307039473206 ], [ 3662208.18959883833304, 2100213.634955748915672 ], [ 3662216.997277013491839, 2100208.584484135732055 ], [ 3662220.225961185526103, 2100205.053254774771631 ], [ 3662227.461191213689744, 2100191.506386626511812 ], [ 3662230.898829533718526, 2100182.36593010649085 ], [ 3662232.424990309402347, 2100175.810619810130447 ], [ 3662232.829837813507766, 2100164.562765311449766 ], [ 3662230.53498818166554, 2100154.011266901157796 ], [ 3662225.414962836075574, 2100145.720423044636846 ], [ 3662216.782362155150622, 2100136.990730080753565 ], [ 3662138.773583294823766, 2100086.971329370513558 ], [ 3662134.356617594137788, 2100081.909876116551459 ], [ 3662131.839371778536588, 2100077.850591525435448 ], [ 3662128.881395612843335, 2100072.079941238742322 ], [ 3662128.456649412401021, 2100067.18158202059567 ], [ 3662131.076211147010326, 2100057.317073057871312 ], [ 3662138.059597961604595, 2100050.39552063960582 ], [ 3662144.106176984030753, 2100047.649779572151601 ], [ 3662151.140269566327333, 2100045.491653222125024 ], [ 3662264.210725801065564, 2100075.104461653158069 ], [ 3662270.431824295781553, 2100074.025229630526155 ], [ 3662277.396364698186517, 2100071.412762684281915 ], [ 3662282.643293102737516, 2100068.27231081109494 ], [ 3662286.620815023314208, 2100064.42958405893296 ], [ 3662303.789647364988923, 2100035.93912604264915 ], [ 3662314.39101879298687, 2100016.614599865861237 ], [ 3662326.956998179666698, 2100005.658825040794909 ], [ 3662368.216549870558083, 2099985.878328652586788 ], [ 3662382.305391472764313, 2099978.434898254461586 ], [ 3662389.642371284775436, 2099973.844111646525562 ], [ 3662394.966608243994415, 2099968.692498182412237 ], [ 3662398.494739945977926, 2099960.364709853194654 ], [ 3662398.466281977016479, 2099952.483967499807477 ], [ 3662383.539902406278998, 2099850.48737725475803 ], [ 3662382.223884991370142, 2099831.939834330696613 ], [ 3662379.588380791246891, 2099813.156152868643403 ], [ 3662376.840148225892335, 2099805.502374991774559 ], [ 3662371.131385194137692, 2099796.926558306440711 ], [ 3662358.850871433503926, 2099783.062288712710142 ], [ 3662344.7448511836119, 2099771.374174819327891 ], [ 3662341.265290642622858, 2099766.905180455185473 ], [ 3662338.955545167904347, 2099762.335333003662527 ], [ 3662336.774549535475671, 2099755.068781034089625 ], [ 3662337.647099256981164, 2099747.243263362906873 ], [ 3662342.17464593751356, 2099737.318349227309227 ], [ 3662350.134502660483122, 2099729.573113520629704 ], [ 3662360.798053309321404, 2099725.599422662053257 ], [ 3662373.831958594731987, 2099723.524642812553793 ], [ 3662405.993734604679048, 2099726.823196089360863 ], [ 3662439.305829185992479, 2099728.750925184693187 ], [ 3662497.364974991418421, 2099721.986312195658684 ], [ 3662502.706164876464754, 2099718.305465185083449 ], [ 3662506.820617404766381, 2099713.488775625824928 ], [ 3662516.790759932249784, 2099696.05719553725794 ], [ 3662517.542615201324224, 2099685.097247716970742 ], [ 3662519.37769154086709, 2099681.868403364438564 ], [ 3662527.840126471128315, 2099674.927379872649908 ], [ 3662538.743780706543475, 2099669.888997131027281 ], [ 3662565.791294973809272, 2099658.454968605190516 ], [ 3662580.529410145245492, 2099651.992357399314642 ], [ 3662584.238581084646285, 2099650.048465639352798 ], [ 3662590.320390556473285, 2099640.277373671066016 ], [ 3662595.772198138292879, 2099636.596337035298347 ], [ 3662609.596525112167001, 2099631.552326475270092 ], [ 3662616.833697620779276, 2099629.535103490576148 ], [ 3662638.658470163121819, 2099631.277346803341061 ], [ 3662661.632350091822445, 2099631.638486469164491 ], [ 3662672.355747916735709, 2099623.0110067659989 ], [ 3662699.810162786394358, 2099601.401246241293848 ], [ 3662705.6127739707008, 2099592.587979407981038 ], [ 3662708.501671077683568, 2099584.090810276567936 ], [ 3662706.632031217217445, 2099573.328915758989751 ], [ 3662699.899061440490186, 2099558.278440087102354 ], [ 3662676.062382673844695, 2099518.691197542473674 ], [ 3662661.888375240378082, 2099502.271069160662591 ], [ 3662658.484224490821362, 2099499.367470203898847 ], [ 3662652.383883056696504, 2099495.567134330049157 ], [ 3662646.489593056030571, 2099493.329983907751739 ], [ 3662639.311196392867714, 2099491.734923922456801 ], [ 3662632.900184879079461, 2099491.31977259600535 ], [ 3662625.286423312034458, 2099491.789537251926959 ], [ 3662621.548236289061606, 2099493.3950528902933 ], [ 3662618.548036622814834, 2099494.800838051363826 ], [ 3662614.585459664929658, 2099498.000767050310969 ], [ 3662612.035574103239924, 2099500.656133544631302 ], [ 3662597.010012035258114, 2099518.555681036785245 ], [ 3662577.366288399323821, 2099541.971278670243919 ], [ 3662563.638451118487865, 2099550.562196662649512 ], [ 3662544.431161753833294, 2099559.030503834597766 ], [ 3662498.403726721182466, 2099572.259924723766744 ], [ 3662468.274542762897909, 2099577.654320231638849 ], [ 3662443.922535853460431, 2099576.151332296431065 ], [ 3662355.653686234727502, 2099557.87555449269712 ], [ 3662351.350361697375774, 2099555.057271670550108 ], [ 3662347.40682375151664, 2099551.042689698282629 ], [ 3662327.198386092204601, 2099523.793912189081311 ], [ 3662320.850182939320803, 2099520.858510046731681 ], [ 3662312.855741910636425, 2099520.072183029726148 ], [ 3662225.389933618716896, 2099525.81205462384969 ], [ 3662212.426795364357531, 2099523.241900756023824 ], [ 3662199.125556203536689, 2099516.887165416032076 ], [ 3662185.170355691574514, 2099502.991044876165688 ], [ 3662168.975459485314786, 2099477.897167367860675 ], [ 3662158.707027307711542, 2099462.379986220505089 ], [ 3662154.107348571997136, 2099459.509613318834454 ], [ 3662146.773790094070137, 2099457.168120061047375 ], [ 3662136.341848086100072, 2099454.869392836932093 ], [ 3662128.745769195258617, 2099455.077023971825838 ], [ 3662107.684487461578101, 2099462.138480890542269 ], [ 3662073.986346087418497, 2099470.39487995672971 ], [ 3662065.658712630625814, 2099470.4115742710419 ], [ 3662058.594178757630289, 2099469.316737025044858 ], [ 3662026.937761361245066, 2099457.095440107397735 ], [ 3662018.401674493215978, 2099452.964408679399639 ], [ 3662010.455334053840488, 2099443.438548381440341 ], [ 3661994.032585463486612, 2099415.832015270367265 ], [ 3661975.528107604011893, 2099393.49086923385039 ], [ 3661906.198540274053812, 2099329.037489297334105 ], [ 3661893.948687698692083, 2099320.058974023908377 ], [ 3661887.596936915069818, 2099317.424179277848452 ], [ 3661878.120193327777088, 2099313.943386763334274 ], [ 3661866.514157485682517, 2099312.507042649202049 ], [ 3661862.223403720650822, 2099313.083233533892781 ], [ 3661818.385674032382667, 2099320.995321262162179 ], [ 3661752.607495055533946, 2099330.900724234059453 ], [ 3661659.215030163526535, 2099359.907662070356309 ], [ 3661585.978126531466842, 2099360.395772415213287 ], [ 3661524.232496138196439, 2099345.201551521196961 ], [ 3661487.029397968668491, 2099322.676459663081914 ], [ 3661458.82553520752117, 2099287.780584840103984 ], [ 3661425.842627808451653, 2099255.840485710650682 ], [ 3661394.495987767819315, 2099242.778875113464892 ], [ 3661371.564859434962273, 2099303.549702482298017 ], [ 3661341.493908039294183, 2099328.433253851253539 ], [ 3661283.02189282560721, 2099350.994900398422033 ], [ 3661254.259627449326217, 2099367.740820673760027 ], [ 3661248.868945812806487, 2099375.262755306903273 ], [ 3661243.461810270324349, 2099405.826622623484582 ], [ 3661258.033338755369186, 2099434.499358103610575 ], [ 3661294.22070135595277, 2099480.160170241259038 ], [ 3661319.816230244003236, 2099548.861055972054601 ], [ 3661366.44093990791589, 2099604.553378388285637 ], [ 3661374.020169810391963, 2099633.888347842730582 ], [ 3661356.126166554167867, 2099665.633022139314562 ], [ 3661322.249286738224328, 2099698.890764793381095 ], [ 3661302.857346272096038, 2099730.777559336274862 ], [ 3661279.532333809416741, 2099839.388814791105688 ], [ 3661233.347739778924733, 2099823.503792592324317 ], [ 3661200.640394289977849, 2099800.553488479927182 ], [ 3661135.129872210323811, 2099736.130329456645995 ], [ 3661103.697216735221446, 2099722.075370920822024 ], [ 3661074.245784134604037, 2099730.872430104762316 ], [ 3661057.118304080329835, 2099754.030357666313648 ], [ 3661048.714560801628977, 2099784.877906060777605 ], [ 3661049.301176556386054, 2099814.874052786268294 ], [ 3661074.62336168717593, 2099932.685993335209787 ], [ 3661082.729941783007234, 2100015.493881561793387 ], [ 3661066.39407951477915, 2100023.620958553161472 ], [ 3661041.490550487302244, 2100050.019450894091278 ], [ 3661015.997016923967749, 2100066.596119362860918 ], [ 3660979.917522289790213, 2100036.81290924269706 ], [ 3660948.958589110057801, 2100028.222459357697517 ], [ 3660888.634879133664072, 2100029.422959715127945 ], [ 3660856.530117190442979, 2100013.428136601578444 ], [ 3660790.804775967728347, 2099946.52117892447859 ], [ 3660759.458283096086234, 2099933.46008028741926 ], [ 3660700.254451394081116, 2099947.577305000275373 ], [ 3660670.243514229543507, 2099949.916515410412103 ], [ 3660645.493685412220657, 2099943.24331506062299 ], [ 3660598.456533261574805, 2099917.642543009482324 ], [ 3660558.296032187063247, 2099859.999056516215205 ], [ 3660553.229028784669936, 2099801.563218280673027 ], [ 3660535.434432261623442, 2099681.734715537168086 ], [ 3660503.681493877898902, 2099635.467760435305536 ], [ 3660450.923998894169927, 2099615.096812518313527 ], [ 3660424.799180583097041, 2099622.647904545068741 ], [ 3660409.783951099496335, 2099640.547658967785537 ], [ 3660387.813012252561748, 2099695.889145009219646 ], [ 3660376.405948972329497, 2099726.129239660687745 ], [ 3660359.358484988566488, 2099735.345708381384611 ], [ 3660345.930261627305299, 2099756.911743884906173 ], [ 3660345.910892699845135, 2099786.074222455266863 ], [ 3660334.622949482873082, 2099817.575131124816835 ], [ 3660321.471600558143109, 2099827.695240608416498 ], [ 3660302.065864242613316, 2099824.462988300248981 ], [ 3660275.969467318616807, 2099802.840970580466092 ], [ 3660216.106097273062915, 2099803.427836856804788 ], [ 3660196.641870785970241, 2099814.155577776953578 ], [ 3660184.344310001004487, 2099842.749632882885635 ], [ 3660184.344310001004487, 2103532.690689999144524 ], [ 3661424.928289301227778, 2103532.690689999144524 ], [ 3661429.730223669204861, 2103516.321589705534279 ] ], [ [ 3662855.875417395494878, 2100655.218881606124341 ], [ 3662813.078713566064835, 2100673.995910576544702 ], [ 3662751.737465487327427, 2100655.469502330757678 ], [ 3662756.03263758867979, 2100636.360987664666027 ], [ 3662760.213347957469523, 2100620.227992906235158 ], [ 3662768.62132616341114, 2100599.067381391767412 ], [ 3662780.73904389841482, 2100580.39096206240356 ], [ 3662792.164365296252072, 2100569.983659069985151 ], [ 3662802.09478547051549, 2100562.553320822771639 ], [ 3662818.215488002635539, 2100551.010992636438459 ], [ 3662833.509503371082246, 2100541.550738281570375 ], [ 3662848.803131057880819, 2100532.08995249774307 ], [ 3662854.903629648964852, 2100526.363924581091851 ], [ 3662861.84092573216185, 2100519.83756196545437 ], [ 3662866.075644976459444, 2100512.454958747141063 ], [ 3662872.204764856491238, 2100516.122581258416176 ], [ 3662878.827068026177585, 2100517.349577415734529 ], [ 3662895.890424971003085, 2100510.175679770763963 ], [ 3662906.172742732800543, 2100499.947026043199003 ], [ 3662916.990685914177448, 2100488.383471444249153 ], [ 3662932.285621627233922, 2100511.749636633787304 ], [ 3662957.166824793443084, 2100542.535740808583796 ], [ 3662986.037352429237217, 2100576.627033442724496 ], [ 3662986.481743436772376, 2100624.453673827461898 ], [ 3662950.079030208289623, 2100631.578938065096736 ], [ 3662906.33258165884763, 2100639.399389524944127 ], [ 3662855.875417395494878, 2100655.218881606124341 ] ], [ [ 3663880.737873169127852, 2102252.992157776840031 ], [ 3663909.106991519220173, 2102239.284124150872231 ], [ 3663951.18636864470318, 2102213.254926453810185 ], [ 3663988.149271139875054, 2102213.433965628966689 ], [ 3663994.342497041448951, 2102242.248010197188705 ], [ 3663989.857727831229568, 2102275.746952577494085 ], [ 3663966.733534321654588, 2102307.333660003729165 ], [ 3663922.253854112699628, 2102348.290174617432058 ], [ 3663869.812215466983616, 2102382.649431645870209 ], [ 3663830.765324396081269, 2102401.042298923246562 ], [ 3663760.948807341977954, 2102448.070480232592672 ], [ 3663717.101160637568682, 2102496.317280064802617 ], [ 3663701.622518296353519, 2102530.856075264513493 ], [ 3663683.427773531060666, 2102576.676698318682611 ], [ 3663642.168189231306314, 2102569.554097274318337 ], [ 3663649.053188354708254, 2102521.128174575977027 ], [ 3663679.190398117061704, 2102485.203068312257528 ], [ 3663668.068028969690204, 2102442.155138144269586 ], [ 3663672.236587252002209, 2102405.011044907383621 ], [ 3663717.032251034863293, 2102367.699644724372774 ], [ 3663755.131078117527068, 2102338.371258520055562 ], [ 3663757.719565362203866, 2102283.001815766096115 ], [ 3663796.134332177229226, 2102257.318773626349866 ], [ 3663851.104134311433882, 2102252.119788760319352 ], [ 3663880.737873169127852, 2102252.992157776840031 ] ] ], [ [ [ 3660202.281717362813652, 2097352.579973047599196 ], [ 3660223.811162952333689, 2097368.573346883524209 ], [ 3660240.491047234274447, 2097374.006879365537316 ], [ 3660329.756853697355837, 2097353.037761956453323 ], [ 3660370.296270472928882, 2097348.70057727675885 ], [ 3660459.530523770023137, 2097367.302278916351497 ], [ 3660539.747108964249492, 2097359.210470649413764 ], [ 3660563.261027040891349, 2097355.98388459533453 ], [ 3660617.105570700950921, 2097345.379255516454577 ], [ 3660656.742471640463918, 2097324.098464995156974 ], [ 3660740.066657955292612, 2097292.67372867371887 ], [ 3660792.448661202099174, 2097215.092408332508057 ], [ 3660784.501854225061834, 2097166.259409141726792 ], [ 3660787.572554001584649, 2097122.895382037851959 ], [ 3660845.871845561079681, 2097036.240177438827232 ], [ 3660964.631090318784118, 2096911.809597718063742 ], [ 3660963.411518411245197, 2096903.911238335538656 ], [ 3660962.340315141249448, 2096897.000595255522057 ], [ 3660960.940689005888999, 2096888.117431851336733 ], [ 3660958.484483140520751, 2096880.837182975374162 ], [ 3660955.555389444809407, 2096872.099186200648546 ], [ 3660954.596815683878958, 2096864.67701020441018 ], [ 3660953.893055085558444, 2096858.732948706485331 ], [ 3660954.235263824928552, 2096854.694092720048502 ], [ 3660955.013529872987419, 2096846.606336249038577 ], [ 3660952.300713826902211, 2096815.309362164465711 ], [ 3660951.815119404345751, 2096809.3448216621764 ], [ 3660953.381228951737285, 2096800.181476125726476 ], [ 3660954.300793821457773, 2096794.084123244974762 ], [ 3660954.081178982742131, 2096790.098074166569859 ], [ 3660952.905431666411459, 2096772.178742464631796 ], [ 3660950.892509263008833, 2096759.84770066710189 ], [ 3660948.991457499098033, 2096742.998483795439824 ], [ 3660947.763043276965618, 2096732.096040561562404 ], [ 3660948.216122298035771, 2096719.531405879650265 ], [ 3660948.981627298053354, 2096706.937590210000053 ], [ 3660950.667266368865967, 2096692.253708770498633 ], [ 3660951.640375663526356, 2096683.146007857751101 ], [ 3660953.847225383855402, 2096675.925224584294483 ], [ 3660957.925889954902232, 2096664.520514201605693 ], [ 3660963.59996017627418, 2096650.460767485434189 ], [ 3660965.235741635318846, 2096640.288868000265211 ], [ 3660959.044048861134797, 2096629.855660261120647 ], [ 3660941.083189615048468, 2096606.011537859216332 ], [ 3660924.620609741192311, 2096582.025688959285617 ], [ 3660910.824719872325659, 2096562.294909293530509 ], [ 3660909.141179606784135, 2096555.943508291849867 ], [ 3660901.755266832653433, 2096532.100209072465077 ], [ 3660896.201960388571024, 2096515.596615410409868 ], [ 3660892.671115159988403, 2096503.909957722062245 ], [ 3660889.241612344048917, 2096491.212521777255461 ], [ 3660889.852997370064259, 2096486.646897986996919 ], [ 3660892.109018607065082, 2096474.913875897647813 ], [ 3660893.573039482347667, 2096462.754809470381588 ], [ 3660896.790479025803506, 2096441.414529748726636 ], [ 3660898.728148136287928, 2096434.720046410569921 ], [ 3660903.165669774636626, 2096421.277920276159421 ], [ 3660907.26897030044347, 2096400.354867195012048 ], [ 3660910.121539782267064, 2096386.061014859238639 ], [ 3660907.899797787889838, 2096380.761649254476652 ], [ 3660906.056745319627225, 2096376.929222443373874 ], [ 3660904.198010471183807, 2096371.095049691619352 ], [ 3660902.014681088738143, 2096364.790353351505473 ], [ 3660900.323363948147744, 2096359.440950422082096 ], [ 3660897.16431072819978, 2096350.223592765862122 ], [ 3660897.497908629011363, 2096343.179932782426476 ], [ 3660897.812197138555348, 2096336.639560634735972 ], [ 3660898.251378735061735, 2096330.086642153328285 ], [ 3660902.612253735773265, 2096322.662022109376267 ], [ 3660906.00931129977107, 2096316.831241662381217 ], [ 3660909.594125667586923, 2096310.982682171743363 ], [ 3660914.154026484116912, 2096304.040039505111054 ], [ 3660916.350014642812312, 2096300.326325659872964 ], [ 3660915.911902485415339, 2096296.360931909177452 ], [ 3660915.270340358372778, 2096290.411475725239143 ], [ 3660914.206559806130826, 2096282.498436114750803 ], [ 3660912.572603024542332, 2096271.634035129565746 ], [ 3660912.201068511698395, 2096269.163510000798851 ], [ 3660184.344310001004487, 2096269.163510000798851 ], [ 3660184.344310001004487, 2097337.984531231690198 ], [ 3660202.281717362813652, 2097352.579973047599196 ] ] ] ] } }
]
}
