{
"type": "FeatureCollection",
"name": "Granollers",
"crs": { "type": "name", "properties": { "name": "urn:ogc:def:crs:EPSG::3035" } },
"features": [
{ "type": "Feature", "properties": { "ENP_GRAL": 6.0, "ENP_GRAL_NAME": "Otros Espacios Naturales Protegidos", "color": "#7F8F0D" }, "geometry": { "type": "MultiPolygon", "coordinates": [ [ [ [ 3679110.53429145924747, 2083998.525566859869286 ], [ 3679108.00950776040554, 2083999.291752293240279 ], [ 3679095.477433626540005, 2084001.623028329806402 ], [ 3679048.695581152569503, 2084009.481766067910939 ], [ 3679009.655418170150369, 2084013.158490755828097 ], [ 3678933.773567661643028, 2084019.547190160956234 ], [ 3678935.336711687967181, 2084023.52440564497374 ], [ 3678969.298238919116557, 2084109.929162677843124 ], [ 3678970.06538926018402, 2084111.88124790485017 ], [ 3678986.128068726509809, 2084123.759674384258687 ], [ 3678999.493823756463826, 2084134.031811120454222 ], [ 3679014.710402235854417, 2084145.726242099422961 ], [ 3679113.972699999809265, 2084222.013552241958678 ], [ 3679113.972699999809265, 2083997.863003122154623 ], [ 3679110.53429145924747, 2083998.525566859869286 ] ] ], [ [ [ 3677191.128953652456403, 2091572.546161094913259 ], [ 3677148.08442654972896, 2091381.677480975631624 ], [ 3677146.577494885772467, 2091381.859554763883352 ], [ 3677144.455517117865384, 2091382.129478730028495 ], [ 3677143.991910558193922, 2091380.150081014027819 ], [ 3677131.30468519590795, 2091326.416869996115565 ], [ 3677103.514886113349348, 2091212.106808559037745 ], [ 3677087.233611130155623, 2091154.666039576986805 ], [ 3677052.200169533491135, 2091004.950618501054123 ], [ 3677040.022412536665797, 2090973.746291893767193 ], [ 3677030.158370667137206, 2090937.625995944486931 ], [ 3677020.369786250405014, 2090890.731407896848395 ], [ 3677013.493776981253177, 2090862.252491588238627 ], [ 3677005.45906429272145, 2090832.370165132684633 ], [ 3676999.519055844284594, 2090810.283420082414523 ], [ 3676997.854100252967328, 2090804.080289389472455 ], [ 3676990.458574190735817, 2090778.324393231421709 ], [ 3676972.883753911592066, 2090690.719083255389705 ], [ 3676978.667103764135391, 2090688.608931371942163 ], [ 3676975.319205150939524, 2090665.662366338307038 ], [ 3676968.363138047978282, 2090661.835629390086979 ], [ 3676951.378827329725027, 2090564.256338997511193 ], [ 3676945.952104961033911, 2090530.171736708609387 ], [ 3676906.469329397659749, 2090319.818139629438519 ], [ 3676877.330055768135935, 2090162.42627824167721 ], [ 3676877.080967410467565, 2090161.177972580073401 ], [ 3676863.825672769919038, 2090093.886652513872832 ], [ 3676816.455736638046801, 2089959.668451669160277 ], [ 3676770.119407477788627, 2089862.192162487888709 ], [ 3676766.480203979182988, 2089854.531142316060141 ], [ 3676529.107211827300489, 2089509.015690566506237 ], [ 3676457.852670583873987, 2089413.067433705786243 ], [ 3676432.422139518428594, 2089373.397241182159632 ], [ 3676410.626456408761442, 2089345.353443623986095 ], [ 3676373.143640584312379, 2089297.123530222801492 ], [ 3676325.542890617623925, 2089228.693508277880028 ], [ 3676285.428684758022428, 2089155.631941370898858 ], [ 3676253.251201242208481, 2089078.726662245811895 ], [ 3676229.34666991000995, 2088998.828103174455464 ], [ 3676217.11598404077813, 2088938.021716120187193 ], [ 3676177.169832985382527, 2088689.572803630260751 ], [ 3676154.537412600591779, 2088579.666756509803236 ], [ 3676139.399143950548023, 2088530.653380854055285 ], [ 3676135.535335941240191, 2088518.126707971096039 ], [ 3676114.548532103188336, 2088450.182991320965812 ], [ 3676061.141780376434326, 2088325.690273522865027 ], [ 3675994.897312635555863, 2088207.546215708134696 ], [ 3675947.98763624066487, 2088141.39553073560819 ], [ 3675935.701148374937475, 2088124.074459645431489 ], [ 3675916.542691704351455, 2088097.054254741407931 ], [ 3675874.358865003101528, 2088037.559467911953107 ], [ 3675838.687341294251382, 2087973.93552777194418 ], [ 3675809.933259988203645, 2087906.904715535929427 ], [ 3675788.400092623662204, 2087837.179950849153101 ], [ 3675774.326287195086479, 2087765.540285229217261 ], [ 3675767.869595224503428, 2087692.761730047641322 ], [ 3675767.687841395847499, 2087648.738462686073035 ], [ 3675774.707034023012966, 2087393.700737695442513 ], [ 3675774.774963506497443, 2087391.691232958808541 ], [ 3675776.786605318076909, 2087391.772005182458088 ], [ 3675873.272175230551511, 2087395.837050438858569 ], [ 3675906.879396121948957, 2087395.572758926078677 ], [ 3675858.359971715137362, 2087286.085588653804734 ], [ 3675834.080642409622669, 2087238.294613795587793 ], [ 3675834.91431702580303, 2087160.592635679990053 ], [ 3675842.327509825583547, 2087129.845759497955441 ], [ 3675821.084818247705698, 2086971.593139258911833 ], [ 3675807.708962203934789, 2086863.179709153017029 ], [ 3675782.465299803763628, 2086687.776769284158945 ], [ 3675758.240632926113904, 2086582.389198232907802 ], [ 3675695.639798924326897, 2086295.325757682323456 ], [ 3675593.63847257103771, 2085989.441034938907251 ], [ 3675520.562340568285435, 2085755.94932359829545 ], [ 3675486.48255307553336, 2085623.948481442173943 ], [ 3675427.774057393427938, 2085469.229373656678945 ], [ 3675300.740304715931416, 2085223.298054632497951 ], [ 3675203.785072709433734, 2085092.216782840434462 ], [ 3675067.134412174578756, 2084909.791884747100994 ], [ 3674923.419796006288379, 2084733.04137793998234 ], [ 3674854.87977684661746, 2084639.345604435075074 ], [ 3674756.874606776516885, 2084583.483124292921275 ], [ 3674739.190294488333166, 2084568.010053909849375 ], [ 3674736.829077755101025, 2084566.703539624810219 ], [ 3674577.410988619085401, 2084478.361433665035293 ], [ 3674470.096082825679332, 2084416.416585840051994 ], [ 3674390.671340146102011, 2084354.21583749121055 ], [ 3674304.583841145038605, 2084268.435152504127473 ], [ 3674294.866888849064708, 2084255.429496463853866 ], [ 3674176.224015237297863, 2084096.619161635404453 ], [ 3674095.686572337523103, 2083990.333982578711584 ], [ 3674100.493927566334605, 2083990.481974172173068 ], [ 3674102.51375620951876, 2083990.54169334936887 ], [ 3674103.825393492355943, 2083992.431163943605497 ], [ 3674116.520293599460274, 2084010.634605662897229 ], [ 3674135.066643662750721, 2084014.596712690079585 ], [ 3674082.262329489924014, 2083945.988065146142617 ], [ 3674080.008443655446172, 2083943.098811838077381 ], [ 3674079.514884066302329, 2083943.57303925533779 ], [ 3674078.838341051712632, 2083944.368103238521144 ], [ 3674078.238299213349819, 2083945.236133053665981 ], [ 3674077.743556311819702, 2083946.153948645340279 ], [ 3674077.333922992926091, 2083947.124066181713715 ], [ 3674077.037634900771081, 2083948.123599624726921 ], [ 3674076.844767074100673, 2083949.153275268385187 ], [ 3674076.764190815854818, 2083950.20246308692731 ], [ 3674076.793634740635753, 2083951.241305474890396 ], [ 3674076.923977452330291, 2083952.280775934224948 ], [ 3674077.171997217461467, 2083953.288990555563942 ], [ 3674077.466575049329549, 2083954.132542033446953 ], [ 3674078.48354268912226, 2083955.989987070905045 ], [ 3674076.450234753079712, 2083955.891068828292191 ], [ 3674060.549588135443628, 2083955.126996072474867 ], [ 3674058.526288265828043, 2083955.027237665839493 ], [ 3674057.028424474410713, 2083953.195418951567262 ], [ 3673882.434269717894495, 2083736.071751205949113 ], [ 3673722.376892104744911, 2083535.8812000004109 ], [ 3673624.310016917064786, 2083535.8812000004109 ], [ 3673677.280576535034925, 2083613.420048243133351 ], [ 3673930.851401998661458, 2083949.889572023879737 ], [ 3673932.259561053011566, 2083951.730005942285061 ], [ 3673930.243963160552084, 2083951.719678595894948 ], [ 3673922.573500178288668, 2083951.70144366635941 ], [ 3673961.450307694263756, 2084004.955560659524053 ], [ 3673962.633875196333975, 2084006.314182260073721 ], [ 3673970.537051733583212, 2084006.482260562013835 ], [ 3673988.372693226672709, 2084028.687752693193033 ], [ 3674024.495520015712827, 2084073.667954434175044 ], [ 3674044.731656718067825, 2084098.121447302401066 ], [ 3674073.466708804480731, 2084133.550871249288321 ], [ 3674134.788947909604758, 2084203.949023396475241 ], [ 3674146.211085156071931, 2084219.074954392388463 ], [ 3674234.419641889166087, 2084322.405903024366125 ], [ 3674267.247280179988593, 2084356.649306161561981 ], [ 3674291.726737660355866, 2084382.184726111590862 ], [ 3674395.02787671610713, 2084462.015808082884178 ], [ 3674489.739771593827754, 2084512.408617691369727 ], [ 3674568.926229728851467, 2084548.440875509288162 ], [ 3674636.792312030214816, 2084586.822360642952845 ], [ 3674699.605640173889697, 2084622.916370833292603 ], [ 3674724.55779492482543, 2084637.259858376346529 ], [ 3674739.613535233773291, 2084646.657377466792241 ], [ 3674747.057633652351797, 2084652.266885692020878 ], [ 3674652.762059440370649, 2084774.584101781249046 ], [ 3674675.729633887298405, 2084799.572715253336355 ], [ 3674701.925337706226856, 2084829.694155002944171 ], [ 3674745.286131819244474, 2084880.793161618057638 ], [ 3674823.295269389636815, 2084972.744497994892299 ], [ 3674827.152407948859036, 2084976.697776975575835 ], [ 3674914.12030272744596, 2085089.198903611162677 ], [ 3674997.344366415403783, 2085197.373576911399141 ], [ 3674995.594232174567878, 2085198.664560437435284 ], [ 3675019.262815538793802, 2085229.803356064483523 ], [ 3675021.23309054877609, 2085228.424147473182529 ], [ 3675030.825506958179176, 2085221.708476286847144 ], [ 3675130.862040015868843, 2085151.675027412362397 ], [ 3675202.330061213113368, 2085250.103745769243687 ], [ 3675101.581409204751253, 2085337.224710941314697 ], [ 3675136.925313859246671, 2085396.49128358415328 ], [ 3675296.451231920160353, 2085683.969560808967799 ], [ 3675297.601170831359923, 2085685.033615761669353 ], [ 3675305.289260691963136, 2085690.768917911453173 ], [ 3675313.493885800242424, 2085696.886191458208486 ], [ 3675330.567105191759765, 2085707.015392301371321 ], [ 3675334.437701237853616, 2085708.793718596920371 ], [ 3675348.608037550933659, 2085715.290367676177993 ], [ 3675367.225512712262571, 2085721.571228100918233 ], [ 3675412.430707672145218, 2085728.584011490223929 ], [ 3675413.01115534408018, 2085730.44395874813199 ], [ 3675416.60338618606329, 2085731.055212431820109 ], [ 3675418.522137801162899, 2085737.054190794238821 ], [ 3675420.698616615496576, 2085743.819749116431922 ], [ 3675423.4424017239362, 2085752.365087380399927 ], [ 3675423.871495243161917, 2085753.717063267249614 ], [ 3675464.178403045982122, 2085874.093622660264373 ], [ 3675492.881269158795476, 2085969.072402172489092 ], [ 3675528.408362713642418, 2086084.030753650935367 ], [ 3675577.466689004097134, 2086240.831816002028063 ], [ 3675616.162773342337459, 2086350.032978377304971 ], [ 3675674.67511295247823, 2086596.577307124389336 ], [ 3675706.914486257359385, 2086848.082482354249805 ], [ 3675712.732295427471399, 2087094.687573265051469 ], [ 3675697.507088363170624, 2087647.412439189851284 ], [ 3675697.575383227318525, 2087691.866690907161683 ], [ 3675704.25217801053077, 2087771.966249500866979 ], [ 3675719.325890151783824, 2087850.853387507842854 ], [ 3675742.611332336440682, 2087927.674574168864638 ], [ 3675773.86290114140138, 2088001.571312129497528 ], [ 3675812.730706314090639, 2088071.754978549433872 ], [ 3675858.794802604708821, 2088137.444153861608356 ], [ 3675883.141561754979193, 2088172.158205093583092 ], [ 3675896.447524812072515, 2088191.136185128474608 ], [ 3675932.377532762940973, 2088242.376670798053965 ], [ 3675994.463032886385918, 2088354.482428999152035 ], [ 3676014.684394378215075, 2088398.209183254977688 ], [ 3676031.012771751265973, 2088435.463608849095181 ], [ 3676048.695763675961643, 2088467.558973192237318 ], [ 3676055.397180360741913, 2088501.005989824887365 ], [ 3676058.165711347013712, 2088508.913705001119524 ], [ 3676061.134079120121896, 2088517.378154518315569 ], [ 3676062.090304017998278, 2088521.444489978952333 ], [ 3676076.538604377768934, 2088582.853271879488602 ], [ 3676118.880625604651868, 2088817.68723371764645 ], [ 3676146.324877425096929, 2088926.606211148668081 ], [ 3676181.133401338476688, 2089096.102250491036102 ], [ 3676243.122316765598953, 2089230.483818310545757 ], [ 3676326.087351970840245, 2089345.360022188629955 ], [ 3676425.212872083298862, 2089494.885539717972279 ], [ 3676451.066505112219602, 2089529.99428267753683 ], [ 3676459.92405025428161, 2089542.029938568361104 ], [ 3676470.363692488055676, 2089556.206821501255035 ], [ 3676662.082939338870347, 2089794.460442207753658 ], [ 3676737.340150555595756, 2089907.560051110573113 ], [ 3676794.62939858995378, 2090074.938161143800244 ], [ 3676816.873222730122507, 2090208.850332585163414 ], [ 3676841.814342868514359, 2090337.410993014229462 ], [ 3676867.11631172709167, 2090475.132153231883422 ], [ 3676870.877286309376359, 2090493.688171196030453 ], [ 3676875.441828368697315, 2090516.174851398449391 ], [ 3676888.652103903703392, 2090587.016069241566584 ], [ 3676894.213317358400673, 2090633.828425994608551 ], [ 3676894.220243602059782, 2090633.907704260433093 ], [ 3676896.061802315991372, 2090652.284305629087612 ], [ 3676896.987926444970071, 2090661.47208033176139 ], [ 3676902.466384674422443, 2090715.944601968163624 ], [ 3676902.849732928909361, 2090721.307024545036256 ], [ 3676902.779147044755518, 2090731.550340680871159 ], [ 3676901.614848374389112, 2090741.726303080096841 ], [ 3676897.183577770832926, 2090761.75563356350176 ], [ 3676896.030083648394793, 2090771.940907797543332 ], [ 3676895.948546067345887, 2090782.175150486407802 ], [ 3676896.127795099746436, 2090784.832207820378244 ], [ 3676896.252003849018365, 2090786.613721457542852 ], [ 3676894.552183823660016, 2090787.030401491094381 ], [ 3676915.36415319563821, 2090865.118644096655771 ], [ 3676916.325138974934816, 2090864.710924507817253 ], [ 3676998.068022396415472, 2091158.002874819561839 ], [ 3676997.481110423803329, 2091158.031875529326499 ], [ 3677020.344098408706486, 2091247.478115113684908 ], [ 3677022.899620748590678, 2091247.090158617589623 ], [ 3677109.680036858189851, 2091558.428219259949401 ], [ 3677110.208897986914963, 2091560.351327151991427 ], [ 3677110.672922467812896, 2091562.341039740014821 ], [ 3677113.287982393521816, 2091573.721400000387803 ], [ 3677192.078544860705733, 2091573.721400000387803 ], [ 3677191.128953652456403, 2091572.546161094913259 ] ] ], [ [ [ 3676293.795519050210714, 2083550.54848720296286 ], [ 3676311.239116271026433, 2083553.781846982659772 ], [ 3676367.401082016527653, 2083550.922568624839187 ], [ 3676385.158419914543629, 2083557.782437504734844 ], [ 3676404.925658792257309, 2083559.575107064796612 ], [ 3676442.356374070048332, 2083567.024524936685339 ], [ 3676495.22064599301666, 2083582.764902700437233 ], [ 3676530.108863970264792, 2083589.23214921168983 ], [ 3676621.507556811440736, 2083611.096292732050642 ], [ 3676817.466256637126207, 2083651.150632980745286 ], [ 3676905.008937352336943, 2083670.934721331344917 ], [ 3676923.56802722485736, 2083672.851592634571716 ], [ 3677069.423175917007029, 2083700.551472820574418 ], [ 3677102.69370269170031, 2083702.294507863465697 ], [ 3677117.490245050285012, 2083703.333766917232424 ], [ 3677155.339163813740015, 2083715.621916056144983 ], [ 3677208.89038644451648, 2083725.208553103962913 ], [ 3677227.34390948805958, 2083725.903642587829381 ], [ 3677314.991725725121796, 2083746.900397803401574 ], [ 3677373.889156728517264, 2083754.481174839660525 ], [ 3677395.503388199023902, 2083763.421823754906654 ], [ 3677458.542782813776284, 2083797.704559378325939 ], [ 3677475.092217384371907, 2083804.688722334103659 ], [ 3677510.189001080114394, 2083813.570663218386471 ], [ 3677522.41129503166303, 2083819.089553494937718 ], [ 3677581.124416567850858, 2083839.798599622678012 ], [ 3677616.222224444616586, 2083848.690483398968354 ], [ 3677688.053091632202268, 2083871.178193464875221 ], [ 3677721.558455619495362, 2083889.965634223073721 ], [ 3677752.844638953916728, 2083911.395906230900437 ], [ 3677767.46819003066048, 2083924.651013982715085 ], [ 3677822.017937731929123, 2084002.410958666121587 ], [ 3677880.658226789906621, 2084099.296167331049219 ], [ 3677904.059385969303548, 2084128.790916432393715 ], [ 3677936.208006532862782, 2084174.52835533907637 ], [ 3677999.213457908015698, 2084307.569497362012044 ], [ 3678024.698134972713888, 2084345.081041436875239 ], [ 3678068.97854810487479, 2084391.217840982833877 ], [ 3678091.15090309176594, 2084420.828447646228597 ], [ 3678139.615282074548304, 2084499.162286119535565 ], [ 3678166.58826438523829, 2084548.762626011390239 ], [ 3678184.531575152650476, 2084586.083254731725901 ], [ 3678203.265490005724132, 2084618.451799569884315 ], [ 3678224.438216212205589, 2084650.600464274175465 ], [ 3678267.364068120252341, 2084707.512026359327137 ], [ 3678325.142443259246647, 2084780.090815682895482 ], [ 3678383.712219735607505, 2084847.727658342802897 ], [ 3678430.894200044684112, 2084892.930570518830791 ], [ 3678441.515953204128891, 2084909.066991719882935 ], [ 3678513.939802063629031, 2084970.801546918461099 ], [ 3678576.061468471307307, 2085028.839431231608614 ], [ 3678621.741202821023762, 2085093.254021785454825 ], [ 3678641.799110159277916, 2085126.720053929369897 ], [ 3678675.620254648383707, 2085191.800891392631456 ], [ 3678690.126208494883031, 2085231.889443932566792 ], [ 3678712.935441250912845, 2085268.752059777500108 ], [ 3678727.091537757776678, 2085282.071221031248569 ], [ 3678736.89443581784144, 2085310.403979435097426 ], [ 3678761.063449254725128, 2085362.993528248975053 ], [ 3678793.22444271761924, 2085451.397119737695903 ], [ 3678826.151259236037731, 2085520.228474990464747 ], [ 3678853.9666239884682, 2085572.46421585092321 ], [ 3678875.384021071251482, 2085621.657355815870687 ], [ 3678887.137736680917442, 2085658.339339708909392 ], [ 3678905.885126646142453, 2085733.384147340897471 ], [ 3678914.561407697852701, 2085791.088928108802065 ], [ 3678922.566849119961262, 2085869.579567237058654 ], [ 3678933.006814505904913, 2085905.163616101490334 ], [ 3678945.657189949415624, 2085938.115617755800486 ], [ 3678975.946061588823795, 2086004.751499386271462 ], [ 3678996.212772606872022, 2086040.632232160540298 ], [ 3679011.300748561508954, 2086073.354564885376021 ], [ 3679030.499002355150878, 2086125.180465314304456 ], [ 3679033.286333470605314, 2086143.206810838775709 ], [ 3679043.109440848231316, 2086168.042157677933574 ], [ 3679047.592893710825592, 2086177.375010705320165 ], [ 3679055.114687683992088, 2086206.233338155318052 ], [ 3679070.293905833736062, 2086237.214648493332788 ], [ 3679088.044613141566515, 2086267.061741418903694 ], [ 3679093.884113288950175, 2086298.482094424311072 ], [ 3679101.162289736792445, 2086315.554774376563728 ], [ 3679113.972699999809265, 2086349.264745505759493 ], [ 3679113.972699999809265, 2086141.277677632402629 ], [ 3679086.952248497400433, 2086083.29518024995923 ], [ 3679029.392468913458288, 2086013.128448999719694 ], [ 3678995.141736745834351, 2085943.199311587261036 ], [ 3678984.711354966275394, 2085907.61440420919098 ], [ 3678963.23303060978651, 2085758.459860782139003 ], [ 3678961.001426225528121, 2085718.436869001947343 ], [ 3678954.11341362958774, 2085681.296221294207498 ], [ 3678901.534912723116577, 2085541.171076859114692 ], [ 3678869.968497356865555, 2085471.76108207879588 ], [ 3678833.207612773403525, 2085389.108824459137395 ], [ 3678807.575774259865284, 2085319.600241859443486 ], [ 3678795.610947906505316, 2085280.474311680067331 ], [ 3678784.685704743955284, 2085261.993028368568048 ], [ 3678767.37302866159007, 2085218.923521105665714 ], [ 3678748.194153441116214, 2085176.400907952571288 ], [ 3678730.883401697035879, 2085144.298608620185405 ], [ 3678710.840901468414813, 2085117.882127471733838 ], [ 3678609.542333082295954, 2085002.839542041299865 ], [ 3678558.051810275297612, 2084943.449365619337186 ], [ 3678512.04125961381942, 2084897.695540179032832 ], [ 3678417.467359556816518, 2084792.275900931796059 ], [ 3678291.227580101694912, 2084643.086277844617143 ], [ 3678258.964081864338368, 2084596.137614032719284 ], [ 3678248.882735448423773, 2084578.798841671552509 ], [ 3678235.22399452002719, 2084548.395984185859561 ], [ 3678201.538802334107459, 2084492.106428588740528 ], [ 3678189.124433111399412, 2084476.20944542484358 ], [ 3678180.366811191197485, 2084459.967625800985843 ], [ 3678136.813205234240741, 2084395.794164295308292 ], [ 3678091.449630992021412, 2084339.112767576705664 ], [ 3678071.601243667304516, 2084308.071235516108572 ], [ 3678048.861017364542931, 2084257.7916127841454 ], [ 3678020.139648920856416, 2084209.287115272600204 ], [ 3678005.052816335577518, 2084176.575339561793953 ], [ 3677986.422794688027352, 2084145.409079333301634 ], [ 3677929.968349828384817, 2084073.927969312062487 ], [ 3677875.742362968623638, 2083999.793131546583027 ], [ 3677854.674706339836121, 2083968.856317274272442 ], [ 3677827.173219347372651, 2083920.247493728762493 ], [ 3677805.200042476411909, 2083893.052210189169273 ], [ 3677776.143021248746663, 2083868.977962430100888 ], [ 3677751.328080148436129, 2083854.469622571254149 ], [ 3677674.139104935806245, 2083823.722934905672446 ], [ 3677638.833003823645413, 2083812.416872936300933 ], [ 3677603.84079350810498, 2083804.746607240987942 ], [ 3677550.558051433879882, 2083784.167065116809681 ], [ 3677468.749790986999869, 2083745.54287437396124 ], [ 3677442.277084111701697, 2083730.039320453302935 ], [ 3677405.960438454523683, 2083721.261999594280496 ], [ 3677370.550326142460108, 2083708.753855429124087 ], [ 3677283.006641541142017, 2083688.958829091163352 ], [ 3677247.386738172732294, 2083674.026744125410914 ], [ 3677212.175126643385738, 2083663.933905607555062 ], [ 3677097.084019009955227, 2083651.622746031498536 ], [ 3677069.818374569993466, 2083646.520083136623725 ], [ 3676971.298884905874729, 2083629.332626162096858 ], [ 3676575.620844099670649, 2083548.365723049268126 ], [ 3676539.200480714440346, 2083538.387034460902214 ], [ 3676527.579896218609065, 2083535.8812000004109 ], [ 3676239.465687056072056, 2083535.8812000004109 ], [ 3676293.795519050210714, 2083550.54848720296286 ] ] ] ] } }
]
}
