{
"type": "FeatureCollection",
"name": "Sallent",
"crs": { "type": "name", "properties": { "name": "urn:ogc:def:crs:EPSG::3035" } },
"features": [
{ "type": "Feature", "properties": { "ENP_GRAL": 6.0, "ENP_GRAL_NAME": "Otros Espacios Naturales Protegidos", "color": "#7F8F0D" }, "geometry": { "type": "Polygon", "coordinates": [ [ [ 3654038.454795743338764, 2126927.390270752832294 ], [ 3654047.439076364040375, 2126912.951084272935987 ], [ 3654045.974529767408967, 2126896.117384372279048 ], [ 3654046.783043022733182, 2126885.850415256805718 ], [ 3654032.811737294774503, 2126882.08587826276198 ], [ 3654012.584833060391247, 2126865.328406521119177 ], [ 3653988.972475532442331, 2126848.892014396842569 ], [ 3653973.682577240280807, 2126829.972702417522669 ], [ 3653965.447212199680507, 2126813.780942038167268 ], [ 3653962.001762514468282, 2126793.737916425336152 ], [ 3653966.858281885273755, 2126771.204180661588907 ], [ 3653966.505144404713064, 2126747.471552152186632 ], [ 3653962.609903160482645, 2126722.371658527757972 ], [ 3653964.743567381519824, 2126704.53457700740546 ], [ 3653962.181873094290495, 2126675.089974278118461 ], [ 3653956.407183559145778, 2126642.974011165089905 ], [ 3653952.239371526986361, 2126612.198820175603032 ], [ 3653947.430568846873939, 2126574.049879618454725 ], [ 3653946.92856680508703, 2126534.019535306841135 ], [ 3653941.922738339751959, 2126510.738105531781912 ], [ 3653922.825638948939741, 2126479.88642402458936 ], [ 3653901.414325130172074, 2126456.688229024410248 ], [ 3653894.920438464730978, 2126433.54804909043014 ], [ 3653899.759132380597293, 2126403.401262693107128 ], [ 3653907.808791105635464, 2126375.905827813781798 ], [ 3653904.409923724364489, 2126353.964768692851067 ], [ 3653722.333020125515759, 2126354.997777395416051 ], [ 3653717.405215477570891, 2126106.986523480154574 ], [ 3653234.446852398570627, 2126009.239935171790421 ], [ 3653050.703911221586168, 2125938.325287235435098 ], [ 3652720.528764306101948, 2125842.652819010429084 ], [ 3652595.873069514054805, 2125813.067910386715084 ], [ 3652440.256983221508563, 2125714.638402420561761 ], [ 3652386.566953817848116, 2125639.667705715633929 ], [ 3652337.87943399278447, 2125622.201037048362195 ], [ 3652270.035836983472109, 2125639.682465392164886 ], [ 3651967.282035504002124, 2125795.413265974260867 ], [ 3651807.280939946882427, 2125901.706757510080934 ], [ 3651733.778410033322871, 2126013.596208886243403 ], [ 3651707.879588531330228, 2126162.38099277112633 ], [ 3651686.329051038715988, 2126520.581178434658796 ], [ 3651613.948286183178425, 2126836.671722700819373 ], [ 3651614.330037543084472, 2126929.784174999222159 ], [ 3652665.330368938390166, 2126929.784174999222159 ], [ 3652672.118757859803736, 2126921.683755584061146 ], [ 3652714.497132739052176, 2126899.283539571799338 ], [ 3652733.132937355432659, 2126901.191210030578077 ], [ 3652757.018273027148098, 2126920.979166695848107 ], [ 3652758.425991068128496, 2126929.784174999222159 ], [ 3654034.58857206068933, 2126929.784174999222159 ], [ 3654038.454795743338764, 2126927.390270752832294 ] ] ] } }
]
}
