{
"type": "FeatureCollection",
"name": "Sant_Jordi_Desvalls",
"crs": { "type": "name", "properties": { "name": "urn:ogc:def:crs:EPSG::3035" } },
"features": [
{ "type": "Feature", "properties": { "ENP_GRAL": 6.0, "ENP_GRAL_NAME": "Otros Espacios Naturales Protegidos", "color": "#7F8F0D" }, "geometry": { "type": "Polygon", "coordinates": [ [ [ 3734361.694087226875126, 2134020.60662507545203 ], [ 3734406.158196549396962, 2134063.401442322414368 ], [ 3734497.703857673332095, 2134129.553704459220171 ], [ 3734547.819122245069593, 2134163.286750207655132 ], [ 3734574.281441773753613, 2134171.48740144725889 ], [ 3734617.760037288069725, 2134178.121027826331556 ], [ 3734662.998392147943377, 2134180.303259355947375 ], [ 3734724.904679308179766, 2134176.663641369435936 ], [ 3734888.446362786926329, 2134108.059419990517199 ], [ 3734973.689017633441836, 2134076.62917235866189 ], [ 3735061.529766363091767, 2134025.763686900492758 ], [ 3735107.735753398854285, 2133989.449165213853121 ], [ 3735164.86681829020381, 2133930.769083595834672 ], [ 3735268.825693777762353, 2133867.732575031928718 ], [ 3735346.107135349884629, 2133843.456732541788369 ], [ 3735399.247384985908866, 2133812.897324306424707 ], [ 3735444.344516576267779, 2133763.884436917491257 ], [ 3735470.838772175833583, 2133723.007415960077196 ], [ 3735469.343040752224624, 2133631.387724843807518 ], [ 3735436.110022879205644, 2133544.8611313207075 ], [ 3735413.293062065728009, 2133504.314785894006491 ], [ 3735308.400733937509358, 2133358.325509509071708 ], [ 3735280.84749560803175, 2133337.413730944041163 ], [ 3735231.935454487334937, 2133266.033000733703375 ], [ 3735216.937933984212577, 2133194.004584639333189 ], [ 3735223.251359852962196, 2133167.811164043843746 ], [ 3735240.500876877456903, 2133119.261565764434636 ], [ 3735304.557119029574096, 2133049.8189587732777 ], [ 3735366.231009891722351, 2133011.612333134748042 ], [ 3735379.093120042234659, 2132998.822995202150196 ], [ 3735448.875935402698815, 2132977.313861743547022 ], [ 3735503.173512366600335, 2132953.571769242640585 ], [ 3735586.795863294508308, 2132932.716121069155633 ], [ 3735675.405346705112606, 2132920.96868456993252 ], [ 3735748.322626697365195, 2132932.482173533178866 ], [ 3735871.262832039967179, 2132970.615794814191759 ], [ 3735959.246465341188014, 2132992.014345838222653 ], [ 3736013.175020164810121, 2132992.77662380412221 ], [ 3736030.574642828665674, 2132987.147315870039165 ], [ 3736044.953169830143452, 2132976.751321652438492 ], [ 3736069.291638503782451, 2132950.050310352351516 ], [ 3736082.732621181756258, 2132916.84195808134973 ], [ 3736086.923187031410635, 2132880.77977354824543 ], [ 3736101.643525890540332, 2132847.452427332755178 ], [ 3736110.325178245548159, 2132831.276408486068249 ], [ 3736124.70354888541624, 2132820.880527408327907 ], [ 3736135.798997909296304, 2132801.29410180542618 ], [ 3736141.546756476163864, 2132788.456909480504692 ], [ 3736167.199813616927713, 2132759.379718136042356 ], [ 3736193.817924382165074, 2132741.681813579052687 ], [ 3736247.999954068567604, 2132717.678256965242326 ], [ 3736303.026836451143026, 2132703.783382541500032 ], [ 3736387.437609111890197, 2132705.080500856973231 ], [ 3736416.064769529737532, 2132711.407413211651146 ], [ 3736445.438857363536954, 2132726.600141145288944 ], [ 3736476.827513435389847, 2132750.520408299285918 ], [ 3736511.594584363978356, 2132808.70549806766212 ], [ 3736523.842144161462784, 2132875.851562596857548 ], [ 3736527.943048581015319, 2132948.013967530336231 ], [ 3736539.574567448347807, 2133011.180733699351549 ], [ 3736542.441320529207587, 2133137.972808852791786 ], [ 3736562.077947695273906, 2133168.888829586561769 ], [ 3736573.52120913611725, 2133201.960933179594576 ], [ 3736592.092580725904554, 2133242.913447319995612 ], [ 3736632.483367469161749, 2133288.223136723041534 ], [ 3736665.390785300172865, 2133321.428344442509115 ], [ 3736788.420331487432122, 2133354.777379526756704 ], [ 3736861.587638814467937, 2133382.096327627077699 ], [ 3736931.038314239121974, 2133416.162443080917001 ], [ 3736964.435194169636816, 2133430.119050001725554 ], [ 3736999.288039197679609, 2133461.019426519982517 ], [ 3737052.926233115140349, 2133485.891272611916065 ], [ 3737106.024808335117996, 2133504.412597292102873 ], [ 3737127.305430002510548, 2133502.429049359634519 ], [ 3737185.862443143036216, 2133509.773164028767496 ], [ 3737230.308224277105182, 2133477.892792195081711 ], [ 3737258.748173967003822, 2133434.702157595194876 ], [ 3737316.61398296803236, 2133384.4913101173006 ], [ 3737407.186929709278047, 2133290.702541179955006 ], [ 3737473.138384399469942, 2133209.86725895665586 ], [ 3737517.024861345998943, 2133171.638216844759881 ], [ 3737529.060288177803159, 2133161.981780129484832 ], [ 3737605.976236785762012, 2133133.466822669375688 ], [ 3737625.495169984642416, 2133135.915305205620825 ], [ 3737653.34412307292223, 2133135.463221020065248 ], [ 3737718.295539353042841, 2133142.212260316126049 ], [ 3737768.523309768177569, 2133152.46695801615715 ], [ 3737808.844052892178297, 2133172.179614019580185 ], [ 3737845.467663767747581, 2133198.638241817243397 ], [ 3737867.847617054358125, 2133209.354674584232271 ], [ 3737961.154516610782593, 2133271.080382923595607 ], [ 3738004.580006423406303, 2133325.504161765798926 ], [ 3738061.390189878642559, 2133369.224476099014282 ], [ 3738074.27944556158036, 2133383.159557291306555 ], [ 3738118.347079985775054, 2133440.929264923557639 ], [ 3738203.25799330836162, 2133536.444732347503304 ], [ 3738221.703048035502434, 2133579.663523206021637 ], [ 3738239.714632077608258, 2133614.267578532453626 ], [ 3738278.832711493596435, 2133644.760935128666461 ], [ 3738310.711246599443257, 2133690.86512848129496 ], [ 3738383.470456112641841, 2133763.040892853401601 ], [ 3738460.912404244765639, 2133864.652159309946001 ], [ 3738614.636077228933573, 2134029.566977141425014 ], [ 3738649.386262189596891, 2134083.948219713754952 ], [ 3738662.661697729956359, 2134138.186910214833915 ], [ 3738673.519354127813131, 2134229.654934799298644 ], [ 3738674.407247288618237, 2134318.685657979920506 ], [ 3738669.712775958701968, 2134364.752018997445703 ], [ 3738671.057448884472251, 2134393.666813188232481 ], [ 3738665.048208917956799, 2134428.616204443387687 ], [ 3738666.863668583333492, 2134465.410774076357484 ], [ 3738675.24154229555279, 2134534.741217604838312 ], [ 3738701.052645422052592, 2134680.862837239168584 ], [ 3738703.5048703905195, 2134733.976581461727619 ], [ 3738757.564606547821313, 2134876.464402147568762 ], [ 3738782.966767022386193, 2134981.202603979036212 ], [ 3738823.797081723809242, 2135117.690726389642805 ], [ 3738838.511258070822805, 2135186.451106011401862 ], [ 3738841.276959063019603, 2135219.331175653729588 ], [ 3738832.028383991681039, 2135271.771977194584906 ], [ 3738825.51517913909629, 2135284.950550370849669 ], [ 3738805.797761402092874, 2135332.797688848804682 ], [ 3738771.759267434477806, 2135378.322909897193313 ], [ 3738754.375995595473796, 2135410.666026459075511 ], [ 3738699.689839662984014, 2135547.390254350379109 ], [ 3738699.31305071990937, 2135583.057204720564187 ], [ 3738687.818178909365088, 2135636.419158453121781 ], [ 3738684.508437908720225, 2135708.011206472292542 ], [ 3738696.04434762056917, 2135813.691871969494969 ], [ 3738712.423493966460228, 2135870.73711727000773 ], [ 3738729.4084752202034, 2135919.652246131561697 ], [ 3738746.41213458403945, 2135989.141173932235688 ], [ 3738767.815147719811648, 2136053.49199549574405 ], [ 3738782.804900802671909, 2136077.729708526283503 ], [ 3738850.76217503240332, 2136138.523700625635684 ], [ 3738880.977192151360214, 2136148.540258724242449 ], [ 3738908.649018473923206, 2136143.487636918202043 ], [ 3738989.865413304883987, 2136106.848827357403934 ], [ 3739067.915612586308271, 2136062.842175500001758 ], [ 3739123.251398814842105, 2136022.164210243150592 ], [ 3739150.067265873774886, 2136006.993503490462899 ], [ 3739285.473852777387947, 2135946.34347668569535 ], [ 3739314.61072568083182, 2135925.637361024972051 ], [ 3739386.59211474051699, 2135874.343244520481676 ], [ 3739456.941239999607205, 2135836.015587476082146 ], [ 3739456.941239999607205, 2134285.256006004754454 ], [ 3739423.118934488389641, 2134279.909427061676979 ], [ 3739434.084526254795492, 2134342.48743352573365 ], [ 3739429.146072298754007, 2134381.664124982897192 ], [ 3739428.050468188710511, 2134401.119552837219089 ], [ 3739375.133420270867646, 2134420.304234075825661 ], [ 3739363.306419568136334, 2134445.868441083468497 ], [ 3739356.156162264756858, 2134484.970755009911954 ], [ 3739336.455102585721761, 2134500.780199257191271 ], [ 3739307.989902345929295, 2134496.440328254364431 ], [ 3739263.788422488607466, 2134472.610561201814562 ], [ 3739194.908568702638149, 2134447.583686115220189 ], [ 3739140.555847636889666, 2134428.185626830440015 ], [ 3739067.702856513671577, 2134438.469629887957126 ], [ 3738985.285007514990866, 2134450.887042232789099 ], [ 3738924.288082857616246, 2134407.906448297202587 ], [ 3738862.257460503373295, 2134352.280280373524874 ], [ 3738818.600228008348495, 2134313.213614749256521 ], [ 3738776.625028632115573, 2134260.417098835576326 ], [ 3738753.583375640679151, 2134179.801380375400186 ], [ 3738735.579516973812133, 2134115.384845030494034 ], [ 3738735.189025147352368, 2134094.097050122916698 ], [ 3738706.958350094035268, 2134063.159504915587604 ], [ 3738706.951233875006437, 2134063.077470950316638 ], [ 3738658.78593710064888, 2134019.052028738893569 ], [ 3738582.137843965552747, 2133951.515598873607814 ], [ 3738520.761805456597358, 2133886.813166484236717 ], [ 3738481.206792655400932, 2133826.488524664659053 ], [ 3738428.822430735453963, 2133762.110716362483799 ], [ 3738388.318637485615909, 2133719.915617713704705 ], [ 3738328.398398933000863, 2133672.147249172441661 ], [ 3738297.252704741433263, 2133634.509918632917106 ], [ 3738257.594776419457048, 2133597.665561076719314 ], [ 3738222.071307604201138, 2133507.464763438794762 ], [ 3738180.377442473080009, 2133445.937304864637554 ], [ 3738163.117048198357224, 2133413.377000276464969 ], [ 3738136.310137868393213, 2133388.167557697277516 ], [ 3738089.723654783330858, 2133357.3782724365592 ], [ 3738067.749573903158307, 2133329.123743291944265 ], [ 3738026.346493357792497, 2133272.347756691277027 ], [ 3737942.523036227561533, 2133204.529136888217181 ], [ 3737864.479854175820947, 2133145.658141099847853 ], [ 3737798.79577501444146, 2133130.44266914576292 ], [ 3737717.787666618824005, 2133086.773953684139997 ], [ 3737645.056876705493778, 2133089.284842581488192 ], [ 3737584.005430665798485, 2133077.905189342796803 ], [ 3737498.210170846432447, 2133102.970499747432768 ], [ 3737484.412825522013009, 2133117.058385068550706 ], [ 3737425.813587071374059, 2133158.802103593014181 ], [ 3737386.539956815540791, 2133200.869179730769247 ], [ 3737360.707668779417872, 2133224.613279529847205 ], [ 3737333.295759099535644, 2133254.905734915286303 ], [ 3737263.271679421886802, 2133338.254828282631934 ], [ 3737227.23519241809845, 2133392.821780860424042 ], [ 3737211.49295986816287, 2133409.224877627566457 ], [ 3737132.082390470895916, 2133433.695878162514418 ], [ 3737059.394280266016722, 2133387.128917352296412 ], [ 3737001.724672089796513, 2133315.681825434789062 ], [ 3736924.414068882353604, 2133265.278607985470444 ], [ 3736813.857766484376043, 2133252.113152289763093 ], [ 3736723.929404398892075, 2133254.094782919157296 ], [ 3736704.044382521416992, 2133247.413516615983099 ], [ 3736665.317865668796003, 2133212.60708874091506 ], [ 3736657.38144259667024, 2133196.898501859977841 ], [ 3736637.84292927198112, 2133127.667193615809083 ], [ 3736626.046930457465351, 2133103.322928901296109 ], [ 3736614.971300256904215, 2133073.451978321652859 ], [ 3736595.23406953830272, 2133031.366349539719522 ], [ 3736578.618627801537514, 2132988.10774643253535 ], [ 3736567.653515163809061, 2132935.777778455987573 ], [ 3736567.737744808197021, 2132837.611095066647977 ], [ 3736563.411202110815793, 2132812.409770302474499 ], [ 3736547.162132727447897, 2132773.384817062877119 ], [ 3736509.071706652175635, 2132729.984700781293213 ], [ 3736468.201760014984757, 2132703.922814988531172 ], [ 3736415.519406643696129, 2132674.504443566314876 ], [ 3736383.303426300175488, 2132671.04664280731231 ], [ 3736253.472791842650622, 2132676.998783826828003 ], [ 3736205.626569099258631, 2132694.261053086258471 ], [ 3736144.705844257958233, 2132734.07920152740553 ], [ 3736111.827409676276147, 2132775.560546042397618 ], [ 3736094.847451736219227, 2132809.429277952294797 ], [ 3736070.930527369026095, 2132848.091789710335433 ], [ 3736041.382761825807393, 2132913.504593221470714 ], [ 3736030.025753433816135, 2132928.677768403664231 ], [ 3736014.141633871011436, 2132936.689791390672326 ], [ 3735996.493238403461874, 2132939.797613344155252 ], [ 3735941.83025920111686, 2132931.480606521014124 ], [ 3735876.678488296456635, 2132934.048429464921355 ], [ 3735730.057268843986094, 2132900.76722299773246 ], [ 3735690.243854747153819, 2132888.892230873927474 ], [ 3735639.935938706621528, 2132900.634997367858887 ], [ 3735584.779907437972724, 2132907.911293912213296 ], [ 3735524.827795472927392, 2132909.233308438211679 ], [ 3735486.889295963570476, 2132917.038262545131147 ], [ 3735390.340045948978513, 2132942.939437033608556 ], [ 3735368.510327951982617, 2132960.802280546631664 ], [ 3735274.424094390124083, 2133030.049891115166247 ], [ 3735209.720704399980605, 2133085.848841151222587 ], [ 3735178.154043268412352, 2133216.823932836763561 ], [ 3735198.428499473724514, 2133303.857304572127759 ], [ 3735217.292064840905368, 2133322.002860269043595 ], [ 3735237.920565030537546, 2133337.149365511257201 ], [ 3735250.026367620564997, 2133353.089970915578306 ], [ 3735289.685298858676106, 2133389.94216253887862 ], [ 3735324.241652396973222, 2133442.196025676093996 ], [ 3735372.381201830692589, 2133527.332755875773728 ], [ 3735391.619060431607068, 2133546.869399791583419 ], [ 3735348.374182948842645, 2133522.949624981731176 ], [ 3735346.753494837787002, 2133539.128624415956438 ], [ 3735351.279289831407368, 2133579.777739929966629 ], [ 3735365.20766543596983, 2133647.598938805051148 ], [ 3735364.513503873720765, 2133697.750553145073354 ], [ 3735362.787081574089825, 2133735.977680339012295 ], [ 3735323.131891441531479, 2133760.711711168289185 ], [ 3735291.796532319393009, 2133782.66665127966553 ], [ 3735212.883342780638486, 2133825.085921412333846 ], [ 3735150.523984933272004, 2133860.952875210903585 ], [ 3735101.291463269852102, 2133885.57853539660573 ], [ 3735087.026696560904384, 2133906.943721135612577 ], [ 3735053.502099591307342, 2133950.139605283737183 ], [ 3734992.797071165405214, 2133981.845632874406874 ], [ 3734920.155808344017714, 2134003.645577311515808 ], [ 3734848.552794544957578, 2133979.26914181234315 ], [ 3734762.651486940681934, 2133964.239936223719269 ], [ 3734745.184361834079027, 2133971.87963826302439 ], [ 3734709.88665760261938, 2134006.225316838361323 ], [ 3734638.975734364241362, 2134036.379170950502157 ], [ 3734607.299540422856808, 2134025.309076125267893 ], [ 3734561.335266856942326, 2134012.065328339114785 ], [ 3734523.009589525870979, 2134005.622174303047359 ], [ 3734478.689462300390005, 2133999.738114125560969 ], [ 3734460.502285627182573, 2134031.411532623693347 ], [ 3734456.803081483580172, 2134028.80627035163343 ], [ 3734357.565160000696778, 2133950.611922277137637 ], [ 3734357.565160000696778, 2134017.487307354342192 ], [ 3734361.694087226875126, 2134020.60662507545203 ] ] ] } }
]
}
