{
"type": "FeatureCollection",
"name": "Vilamacolum",
"crs": { "type": "name", "properties": { "name": "urn:ogc:def:crs:EPSG::3035" } },
"features": [
{ "type": "Feature", "properties": { "ENP_GRAL": 1.0, "ENP_GRAL_NAME": "Otros Parques", "color": "#38A800" }, "geometry": { "type": "MultiPolygon", "coordinates": [ [ [ [ 3747500.477315413299948, 2146039.914568855427206 ], [ 3747514.153461114503443, 2146046.656086057424545 ], [ 3747522.576250897720456, 2146050.881157875526696 ], [ 3747532.083931668661535, 2146056.006936724297702 ], [ 3747540.420643838122487, 2146059.238350016996264 ], [ 3747548.929409804753959, 2146064.45709780883044 ], [ 3747556.525172251742333, 2146070.762701641768217 ], [ 3747567.290270011406392, 2146078.77694765618071 ], [ 3747574.886131076142192, 2146085.082534887827933 ], [ 3747583.480905242729932, 2146091.29515375662595 ], [ 3747594.159909636713564, 2146098.315642554312944 ], [ 3747609.007259661797434, 2146106.95178966363892 ], [ 3747619.514061335474253, 2146111.984667550772429 ], [ 3747628.022839559242129, 2146117.203513824380934 ], [ 3747633.19019618909806, 2146118.72618863824755 ], [ 3747643.783104527741671, 2146124.752921873703599 ], [ 3747666.969225112814456, 2146135.703510392457247 ], [ 3747672.134378864429891, 2146138.14298340678215 ], [ 3747689.720670749433339, 2146143.518883823417127 ], [ 3747705.308741382323205, 2146149.080785376951098 ], [ 3747712.388136279769242, 2146149.423823562916368 ], [ 3747714.472151556052268, 2146150.231629267800599 ], [ 3747732.885358963161707, 2146153.527026882395148 ], [ 3747742.450379927176982, 2146155.585553787648678 ], [ 3747752.383468880783767, 2146157.72323344880715 ], [ 3747770.538390117231756, 2146158.037375138141215 ], [ 3747786.695190256461501, 2146158.537501933984458 ], [ 3747805.84911551931873, 2146158.758672463707626 ], [ 3747817.010634706821293, 2146159.723550342489034 ], [ 3747829.257369313854724, 2146161.589284809771925 ], [ 3747833.425691214390099, 2146163.204852327238768 ], [ 3747833.846925126388669, 2146159.455121008679271 ], [ 3747833.994334914721549, 2146158.143086384981871 ], [ 3747834.821272986009717, 2146156.062680047005415 ], [ 3747835.561988580040634, 2146152.988339992240071 ], [ 3747838.473137004300952, 2146151.715709960088134 ], [ 3747842.383081685286015, 2146150.350033885799348 ], [ 3747870.752767640165985, 2146140.69766254350543 ], [ 3747878.57296800147742, 2146137.966367626562715 ], [ 3747880.484909633174539, 2146136.786753491964191 ], [ 3747883.396042271517217, 2146135.51402931753546 ], [ 3747886.393085014540702, 2146135.235188872553408 ], [ 3747904.8922556838952, 2146139.524404407478869 ], [ 3748040.761760070919991, 2146126.881415105424821 ], [ 3748051.923354965634644, 2146127.846323270350695 ], [ 3748055.006484671495855, 2146128.561242991127074 ], [ 3748067.511465355288237, 2146133.40827660728246 ], [ 3748074.935103308409452, 2146137.726375367492437 ], [ 3748081.273642363492399, 2146141.143700062297285 ], [ 3748089.127652972470969, 2146150.430663881823421 ], [ 3748106.461205052211881, 2146165.736280453391373 ], [ 3748106.575613178312778, 2146165.837355609051883 ], [ 3748117.759550889022648, 2146181.425805805716664 ], [ 3748118.029320002533495, 2146181.801835905294865 ], [ 3748118.124436461832374, 2146181.829828192479908 ], [ 3748123.196652084589005, 2146183.324537882581353 ], [ 3748125.711149767972529, 2146189.101297710556537 ], [ 3748127.892326390836388, 2146192.629646333865821 ], [ 3748132.738341961987317, 2146200.468734473921359 ], [ 3748133.521955000702292, 2146201.28254112508148 ], [ 3748133.521955000702292, 2146037.758945000823587 ], [ 3747497.581815497018397, 2146037.758945000823587 ], [ 3747500.477315413299948, 2146039.914568855427206 ] ] ], [ [ [ 3748105.416689314879477, 2148640.360239798203111 ], [ 3748098.509556107688695, 2148642.004876375198364 ], [ 3748091.774701417423785, 2148645.636950134765357 ], [ 3748089.466397251933813, 2148653.866120720282197 ], [ 3748086.589644490741193, 2148667.157178604975343 ], [ 3748076.460121864452958, 2148736.222180831711739 ], [ 3748071.240883693564683, 2148745.724007498472929 ], [ 3748065.505045714322478, 2148749.263179144822061 ], [ 3748059.510857476852834, 2148749.821031076833606 ], [ 3748045.352380943484604, 2148749.13510819664225 ], [ 3748034.190989685244858, 2148748.170211791060865 ], [ 3748026.543204383924603, 2148752.889115538448095 ], [ 3748017.069638891145587, 2148759.781615560874343 ], [ 3747990.388560891151428, 2148777.291674981825054 ], [ 3747987.735863095149398, 2148781.545667617581785 ], [ 3747987.167329920455813, 2148786.607584737706929 ], [ 3747986.512745107524097, 2148790.675716383382678 ], [ 3748001.374217506498098, 2148950.582204730715603 ], [ 3747999.668679141439497, 2148965.767978940159082 ], [ 3747995.56883788947016, 2148988.189091753214598 ], [ 3747995.086385780479759, 2148994.244805646128953 ], [ 3747994.431820804253221, 2148998.312945745885372 ], [ 3747993.863313174340874, 2149003.37487319810316 ], [ 3747992.98455457855016, 2149016.479976281523705 ], [ 3747994.362278981134295, 2149032.380541038699448 ], [ 3747996.911129776388407, 2149050.175755086820573 ], [ 3747997.772220057435334, 2149060.113646451383829 ], [ 3747997.375935122836381, 2149067.163135515991598 ], [ 3747994.723284505773336, 2149071.417247662320733 ], [ 3747990.899496885947883, 2149073.776614405214787 ], [ 3747974.915050831623375, 2149075.264322630595416 ], [ 3747775.593922276049852, 2149087.804099257104099 ], [ 3747776.162317465059459, 2149082.742164432071149 ], [ 3747773.30322895757854, 2149072.990299629978836 ], [ 3747765.484304390847683, 2149017.617046781815588 ], [ 3747545.493401193059981, 2149087.451520893722773 ], [ 3747529.788202446885407, 2149092.436958430334926 ], [ 3747516.780287309549749, 2149097.617033106274903 ], [ 3747525.122641248628497, 2149114.281901626382023 ], [ 3747530.170050758402795, 2149132.786337634548545 ], [ 3747530.913220074959099, 2149143.686949129682034 ], [ 3747528.41645482648164, 2149164.035436532460153 ], [ 3747530.852255525998771, 2149187.381333012133837 ], [ 3747536.432592491619289, 2149205.064567316323519 ], [ 3747546.172743044793606, 2149233.210297984071076 ], [ 3747551.450848476961255, 2149247.285269979387522 ], [ 3747555.439209167845547, 2149258.214330116752535 ], [ 3747596.195182750932872, 2149331.549691992811859 ], [ 3747621.905683801975101, 2149363.047873442992568 ], [ 3747626.971049522049725, 2149369.088158537633717 ], [ 3747445.946921807248145, 2149427.051236265804619 ], [ 3747444.028115327004343, 2149469.295634297654033 ], [ 3747439.004058808553964, 2149510.917580834124237 ], [ 3747435.688485387712717, 2149552.380390048027039 ], [ 3747436.59080906631425, 2149595.454190258868039 ], [ 3747430.039589650463313, 2149650.482019744347781 ], [ 3747422.572753864340484, 2149684.016447747126222 ], [ 3747402.15343754645437, 2149905.463176739402115 ], [ 3747402.250248796772212, 2149939.235173952300102 ], [ 3747396.212115622591227, 2150011.105994049459696 ], [ 3747383.536255865357816, 2150104.232164463959634 ], [ 3747376.127595948986709, 2150190.266050330363214 ], [ 3747375.268349071964622, 2150195.111754999030381 ], [ 3748133.521955000702292, 2150195.111754999030381 ], [ 3748133.521955000702292, 2148647.614828569348902 ], [ 3748105.416689314879477, 2148640.360239798203111 ] ] ] ] } },
{ "type": "Feature", "properties": { "ENP_GRAL": 6.0, "ENP_GRAL_NAME": "Otros Espacios Naturales Protegidos", "color": "#7F8F0D" }, "geometry": { "type": "MultiPolygon", "coordinates": [ [ [ [ 3747500.477315413299948, 2146039.914568855427206 ], [ 3747514.153461114503443, 2146046.656086057424545 ], [ 3747522.576250897720456, 2146050.881157875526696 ], [ 3747532.083931668661535, 2146056.006936724297702 ], [ 3747540.420643838122487, 2146059.238350016996264 ], [ 3747548.929409804753959, 2146064.45709780883044 ], [ 3747556.525172251742333, 2146070.762701641768217 ], [ 3747567.290270011406392, 2146078.77694765618071 ], [ 3747574.886131076142192, 2146085.082534887827933 ], [ 3747583.480905242729932, 2146091.29515375662595 ], [ 3747594.159909636713564, 2146098.315642554312944 ], [ 3747609.007259661797434, 2146106.95178966363892 ], [ 3747619.514061335474253, 2146111.984667550772429 ], [ 3747628.022839559242129, 2146117.203513824380934 ], [ 3747633.19019618909806, 2146118.72618863824755 ], [ 3747643.783104527741671, 2146124.752921873703599 ], [ 3747666.969225112814456, 2146135.703510392457247 ], [ 3747672.134378864429891, 2146138.14298340678215 ], [ 3747689.720670749433339, 2146143.518883823417127 ], [ 3747705.308741382323205, 2146149.080785376951098 ], [ 3747712.388136279769242, 2146149.423823562916368 ], [ 3747714.472151556052268, 2146150.231629267800599 ], [ 3747732.885358963161707, 2146153.527026882395148 ], [ 3747742.450379927176982, 2146155.585553787648678 ], [ 3747752.383468880783767, 2146157.72323344880715 ], [ 3747770.538390117231756, 2146158.037375138141215 ], [ 3747786.695190256461501, 2146158.537501933984458 ], [ 3747805.84911551931873, 2146158.758672463707626 ], [ 3747817.010634706821293, 2146159.723550342489034 ], [ 3747829.257369313854724, 2146161.589284809771925 ], [ 3747833.425691214390099, 2146163.204852327238768 ], [ 3747833.846925126388669, 2146159.455121008679271 ], [ 3747833.994334914721549, 2146158.143086384981871 ], [ 3747834.821272986009717, 2146156.062680047005415 ], [ 3747835.561988580040634, 2146152.988339992240071 ], [ 3747838.473137004300952, 2146151.715709960088134 ], [ 3747842.383081685286015, 2146150.350033885799348 ], [ 3747870.752767640165985, 2146140.69766254350543 ], [ 3747878.57296800147742, 2146137.966367626562715 ], [ 3747880.484909633174539, 2146136.786753491964191 ], [ 3747883.396042271517217, 2146135.51402931753546 ], [ 3747886.393085014540702, 2146135.235188872553408 ], [ 3747904.8922556838952, 2146139.524404407478869 ], [ 3748040.761760070919991, 2146126.881415105424821 ], [ 3748051.923354965634644, 2146127.846323270350695 ], [ 3748055.006484671495855, 2146128.561242991127074 ], [ 3748067.511465355288237, 2146133.40827660728246 ], [ 3748074.935103308409452, 2146137.726375367492437 ], [ 3748081.273642363492399, 2146141.143700062297285 ], [ 3748089.127652972470969, 2146150.430663881823421 ], [ 3748106.461205052211881, 2146165.736280453391373 ], [ 3748106.575613178312778, 2146165.837355609051883 ], [ 3748117.759550889022648, 2146181.425805805716664 ], [ 3748118.029320002533495, 2146181.801835905294865 ], [ 3748118.124436461832374, 2146181.829828192479908 ], [ 3748123.196652084589005, 2146183.324537882581353 ], [ 3748125.711149767972529, 2146189.101297710556537 ], [ 3748127.892326390836388, 2146192.629646333865821 ], [ 3748132.738341961987317, 2146200.468734473921359 ], [ 3748133.521955000702292, 2146201.28254112508148 ], [ 3748133.521955000702292, 2146037.758945000823587 ], [ 3747497.581815497018397, 2146037.758945000823587 ], [ 3747500.477315413299948, 2146039.914568855427206 ] ] ], [ [ [ 3748105.416689314879477, 2148640.360239798203111 ], [ 3748098.509556107688695, 2148642.004876375198364 ], [ 3748091.774701417423785, 2148645.636950134765357 ], [ 3748089.466397251933813, 2148653.866120720282197 ], [ 3748086.589644490741193, 2148667.157178604975343 ], [ 3748076.460121864452958, 2148736.222180831711739 ], [ 3748071.240883693564683, 2148745.724007498472929 ], [ 3748065.505045714322478, 2148749.263179144822061 ], [ 3748059.510857476852834, 2148749.821031076833606 ], [ 3748045.352380943484604, 2148749.13510819664225 ], [ 3748034.190989685244858, 2148748.170211791060865 ], [ 3748026.543204383924603, 2148752.889115538448095 ], [ 3748017.069638891145587, 2148759.781615560874343 ], [ 3747990.388560891151428, 2148777.291674981825054 ], [ 3747987.735863095149398, 2148781.545667617581785 ], [ 3747987.167329920455813, 2148786.607584737706929 ], [ 3747986.512745107524097, 2148790.675716383382678 ], [ 3748001.374217506498098, 2148950.582204730715603 ], [ 3747999.668679141439497, 2148965.767978940159082 ], [ 3747995.56883788947016, 2148988.189091753214598 ], [ 3747995.086385780479759, 2148994.244805646128953 ], [ 3747994.431820804253221, 2148998.312945745885372 ], [ 3747993.863313174340874, 2149003.37487319810316 ], [ 3747992.98455457855016, 2149016.479976281523705 ], [ 3747994.362278981134295, 2149032.380541038699448 ], [ 3747996.911129776388407, 2149050.175755086820573 ], [ 3747997.772220057435334, 2149060.113646451383829 ], [ 3747997.375935122836381, 2149067.163135515991598 ], [ 3747994.723284505773336, 2149071.417247662320733 ], [ 3747990.899496885947883, 2149073.776614405214787 ], [ 3747974.915050831623375, 2149075.264322630595416 ], [ 3747775.593922276049852, 2149087.804099257104099 ], [ 3747776.162317465059459, 2149082.742164432071149 ], [ 3747773.30322895757854, 2149072.990299629978836 ], [ 3747765.484304390847683, 2149017.617046781815588 ], [ 3747545.493401193059981, 2149087.451520893722773 ], [ 3747529.788202446885407, 2149092.436958430334926 ], [ 3747516.780287309549749, 2149097.617033106274903 ], [ 3747525.122641248628497, 2149114.281901626382023 ], [ 3747530.170050758402795, 2149132.786337634548545 ], [ 3747530.913220074959099, 2149143.686949129682034 ], [ 3747528.41645482648164, 2149164.035436532460153 ], [ 3747530.852255525998771, 2149187.381333012133837 ], [ 3747536.432592491619289, 2149205.064567316323519 ], [ 3747546.172743044793606, 2149233.210297984071076 ], [ 3747551.450848476961255, 2149247.285269979387522 ], [ 3747555.439209167845547, 2149258.214330116752535 ], [ 3747596.195182750932872, 2149331.549691992811859 ], [ 3747621.905683801975101, 2149363.047873442992568 ], [ 3747626.971049522049725, 2149369.088158537633717 ], [ 3747445.946921807248145, 2149427.051236265804619 ], [ 3747444.028115327004343, 2149469.295634297654033 ], [ 3747439.004058808553964, 2149510.917580834124237 ], [ 3747435.688485387712717, 2149552.380390048027039 ], [ 3747436.59080906631425, 2149595.454190258868039 ], [ 3747430.039589650463313, 2149650.482019744347781 ], [ 3747422.572753864340484, 2149684.016447747126222 ], [ 3747402.15343754645437, 2149905.463176739402115 ], [ 3747402.250248796772212, 2149939.235173952300102 ], [ 3747396.212115622591227, 2150011.105994049459696 ], [ 3747383.536255865357816, 2150104.232164463959634 ], [ 3747376.127595948986709, 2150190.266050330363214 ], [ 3747375.268349071964622, 2150195.111754999030381 ], [ 3748133.521955000702292, 2150195.111754999030381 ], [ 3748133.521955000702292, 2148647.614828569348902 ], [ 3748105.416689314879477, 2148640.360239798203111 ] ] ] ] } }
]
}
