{
"type": "FeatureCollection",
"name": "Badolatosa",
"crs": { "type": "name", "properties": { "name": "urn:ogc:def:crs:EPSG::3035" } },
"features": [
{ "type": "Feature", "properties": { "ENP_GRAL": 5.0, "ENP_GRAL_NAME": "Espacios Protegidos Red Natura 2000", "color": "#A87000" }, "geometry": { "type": "MultiPolygon", "coordinates": [ [ [ [ 3019754.847286438103765, 1702972.531866488046944 ], [ 3019774.303019755519927, 1702942.839615839999169 ], [ 3019810.228723073378205, 1702908.22270148457028 ], [ 3019859.057766416110098, 1702893.802825346123427 ], [ 3019812.43237357866019, 1702790.92501256428659 ], [ 3019807.666886195540428, 1702794.038052667630836 ], [ 3019791.279703366570175, 1702799.705858041532338 ], [ 3019775.513332002796233, 1702799.709281095303595 ], [ 3019754.489390257745981, 1702799.629925003740937 ], [ 3019733.124287245795131, 1702797.338065626565367 ], [ 3019712.509148872923106, 1702795.166662401985377 ], [ 3019699.485864410176873, 1702797.657157220877707 ], [ 3019661.498887552879751, 1702804.921428548870608 ], [ 3019597.078158468008041, 1702815.526624826714396 ], [ 3019579.630201689898968, 1702828.95682339835912 ], [ 3019555.318488952703774, 1702856.222894918406382 ], [ 3019543.538243252784014, 1702886.833711849991232 ], [ 3019542.909590146038681, 1702931.637750371126458 ], [ 3019522.371731905266643, 1702978.438607375603169 ], [ 3019490.355262639001012, 1703023.981920934282243 ], [ 3019485.021611758507788, 1703038.079247168032452 ], [ 3019469.574907411821187, 1703078.906704806955531 ], [ 3019463.559428363107145, 1703103.198674371466041 ], [ 3019430.876000384800136, 1703164.01074618473649 ], [ 3019419.588162642903626, 1703183.172420882387087 ], [ 3019419.914128151722252, 1703194.982946609379724 ], [ 3019425.665070506744087, 1703228.338294845772907 ], [ 3019426.801079396158457, 1703234.927245391299948 ], [ 3019426.710480036679655, 1703258.679177704732865 ], [ 3019422.248546475544572, 1703293.050070623401552 ], [ 3019418.552353442646563, 1703322.488100457936525 ], [ 3019397.884803379885852, 1703373.605714029399678 ], [ 3019380.460094030480832, 1703396.880135385319591 ], [ 3019369.562199993990362, 1703408.95915281958878 ], [ 3019354.178908857051283, 1703426.009503402048722 ], [ 3019332.085636232048273, 1703447.971783751621842 ], [ 3019317.738565640058368, 1703462.233773166779429 ], [ 3019241.832454850897193, 1703412.748274078825489 ], [ 3019178.313325733877718, 1703365.875651754206046 ], [ 3019087.958852980285883, 1703290.910570831270888 ], [ 3019048.047292185015976, 1703250.984182161977515 ], [ 3019030.365081060677767, 1703223.371165890712291 ], [ 3019018.409026380628347, 1703204.700412596575916 ], [ 3019000.156955872662365, 1703134.944673441583291 ], [ 3018989.071637514978647, 1703082.610978645971045 ], [ 3018969.705762483179569, 1703029.971158904023468 ], [ 3018948.355795954354107, 1703018.081919267773628 ], [ 3018944.529774645809084, 1703022.54456703690812 ], [ 3018933.431990606710315, 1703072.225756192812696 ], [ 3018908.06038554571569, 1703107.254715583054349 ], [ 3018875.688275594264269, 1703130.893291253596544 ], [ 3018842.846740460023284, 1703161.180327807785943 ], [ 3018804.034749100916088, 1703201.611022438155487 ], [ 3018767.162856510840356, 1703244.729713967069983 ], [ 3018725.063048386946321, 1703268.569910948630422 ], [ 3018682.325998720247298, 1703273.836774058407173 ], [ 3018633.164725333452225, 1703261.551232112804428 ], [ 3018598.723660848103464, 1703247.426381256198511 ], [ 3018547.432875380851328, 1703231.224000913323835 ], [ 3018507.507033484987915, 1703230.187381155556068 ], [ 3018479.809547904413193, 1703218.155590178212151 ], [ 3018417.388231316581368, 1703176.141545078484342 ], [ 3018399.201518756337464, 1703174.658376794308424 ], [ 3018376.278754333499819, 1703172.788951092632487 ], [ 3018371.127746059559286, 1703170.462756807683036 ], [ 3018359.524674607440829, 1703165.222861426649615 ], [ 3018343.309077570214868, 1703157.900050616357476 ], [ 3018338.68548211408779, 1703153.816761858761311 ], [ 3018307.800876279827207, 1703126.541074908804148 ], [ 3018270.203934486024082, 1703075.855156575329602 ], [ 3018243.406294988468289, 1703078.789078468456864 ], [ 3018224.939506514929235, 1703080.810986772179604 ], [ 3018188.295965210534632, 1703100.658829043619335 ], [ 3018105.56557961832732, 1703160.958907279884443 ], [ 3018046.063276126049459, 1703196.45538573898375 ], [ 3017969.848204041831195, 1703240.455926222959533 ], [ 3017897.020683064125478, 1703259.618259214796126 ], [ 3017836.663383698090911, 1703272.035325662232935 ], [ 3017793.201009973883629, 1703276.926396718947217 ], [ 3017737.550061419606209, 1703272.857769894180819 ], [ 3017697.173643669113517, 1703259.196642631897703 ], [ 3017688.989684651140124, 1703256.42761920276098 ], [ 3017630.236728328280151, 1703238.008448246400803 ], [ 3017579.025079092476517, 1703233.661855252226815 ], [ 3017545.786307827569544, 1703240.536841091467068 ], [ 3017524.84678715839982, 1703247.16475539188832 ], [ 3017507.930842815432698, 1703252.519161185482517 ], [ 3017488.540009006857872, 1703249.628003236372024 ], [ 3017467.486994391307235, 1703241.727436622837558 ], [ 3017459.426218807697296, 1703237.317005388904363 ], [ 3017433.987079875543714, 1703223.397818049881607 ], [ 3017362.019662332255393, 1703178.01983512705192 ], [ 3017326.003123851493001, 1703160.891895999200642 ], [ 3017336.163796811364591, 1703198.679274656809866 ], [ 3017353.487433158792555, 1703263.105836241971701 ], [ 3017352.228192616254091, 1703336.808182749664411 ], [ 3017335.026011280715466, 1703365.85209708288312 ], [ 3017286.203028681688011, 1703470.421398969367146 ], [ 3017261.819788468070328, 1703558.053343403153121 ], [ 3017260.508857562206686, 1703643.381738383788615 ], [ 3017268.017415779642761, 1703727.153725568205118 ], [ 3017285.881310828961432, 1703854.803601121995598 ], [ 3017301.52821146696806, 1703897.747636287473142 ], [ 3017322.835530353244394, 1703930.602227709023282 ], [ 3017345.241765668615699, 1703970.585809622658417 ], [ 3017362.928570885211229, 1703991.706271279370412 ], [ 3017381.351065680384636, 1704000.071008628234267 ], [ 3017408.041622440330684, 1704015.057303361129016 ], [ 3017437.493345074355602, 1704042.182041055522859 ], [ 3017440.903585984371603, 1704064.306701409863308 ], [ 3017426.017132799141109, 1704084.862046940485016 ], [ 3017414.258582478389144, 1704113.956098315306008 ], [ 3017405.438728683628142, 1704150.359359142603353 ], [ 3017402.236418931279331, 1704170.62061825976707 ], [ 3017404.873144635930657, 1704205.254928160458803 ], [ 3017412.343139490578324, 1704259.490113872801885 ], [ 3017420.658961169421673, 1704325.19178368197754 ], [ 3017422.079722873866558, 1704375.444175699260086 ], [ 3017415.246150793042034, 1704407.204382030060515 ], [ 3017406.295664026401937, 1704431.005151179619133 ], [ 3017383.649120265617967, 1704465.555806503398344 ], [ 3017353.692151962313801, 1704511.244544786168262 ], [ 3017328.815034115687013, 1704537.098128234967589 ], [ 3017314.307724208571017, 1704560.111772361211479 ], [ 3017303.517573148012161, 1704583.732113673351705 ], [ 3017295.655844648368657, 1704603.047956430120394 ], [ 3017293.697245546616614, 1704631.170387443853542 ], [ 3017298.130934284999967, 1704659.932301000924781 ], [ 3017302.87996232137084, 1704696.719177060760558 ], [ 3017317.65585223864764, 1704734.009439709130675 ], [ 3017328.647397459018975, 1704752.523740152362734 ], [ 3017343.4388795690611, 1704772.387678356142715 ], [ 3017380.415008160285652, 1704801.720241775969043 ], [ 3017437.201973166316748, 1704848.010891943005845 ], [ 3017492.08540553227067, 1704899.687491551740095 ], [ 3017502.461986298207194, 1704931.946196603123099 ], [ 3017515.253899677656591, 1705003.171421619597822 ], [ 3017512.549586029723287, 1705032.435604489641264 ], [ 3017505.063707266002893, 1705077.694586042081937 ], [ 3017513.220111173577607, 1705112.870302987284958 ], [ 3017524.372053261846304, 1705161.910987333860248 ], [ 3017535.190270604100078, 1705243.837772740982473 ], [ 3017548.073578828945756, 1705298.128364468226209 ], [ 3017553.589164637960494, 1705322.154317226726562 ], [ 3017573.072969835717231, 1705337.402440332109109 ], [ 3017586.538012745324522, 1705348.66239397553727 ], [ 3017653.510389918461442, 1705396.691026156069711 ], [ 3017701.271192796528339, 1705431.443808319279924 ], [ 3017792.989928741939366, 1705523.08440143475309 ], [ 3017853.556318177841604, 1705582.344756457721815 ], [ 3017905.101983508095145, 1705635.873779269866645 ], [ 3017924.79781580157578, 1705670.023538813227788 ], [ 3017956.349610424600542, 1705693.243282651063055 ], [ 3017991.808123678900301, 1705718.2987491840031 ], [ 3018044.617600954603404, 1705733.222244745353237 ], [ 3018104.330857276916504, 1705745.917536183260381 ], [ 3018157.426143379881978, 1705750.942565015284345 ], [ 3018208.931834260933101, 1705774.934459912357852 ], [ 3018245.949426223058254, 1705815.876211751950905 ], [ 3018351.340571450069547, 1705931.873086226405576 ], [ 3018464.674899479839951, 1706014.651447222335264 ], [ 3018489.956802781671286, 1706032.664932386018336 ], [ 3018569.588256144430488, 1706052.704913940280676 ], [ 3018612.861269558314234, 1706051.130507996538654 ], [ 3018658.846707956399769, 1706047.562395103974268 ], [ 3018730.634174182079732, 1706031.361325843725353 ], [ 3018747.823524994775653, 1706021.005552529823035 ], [ 3018771.375355715863407, 1706003.466825916199014 ], [ 3018785.66179677285254, 1705979.229547950671986 ], [ 3018804.954860523343086, 1705943.755892522400245 ], [ 3018815.50809910800308, 1705904.681108260294423 ], [ 3018817.845028644427657, 1705896.028391944244504 ], [ 3018821.27954781986773, 1705825.727462104521692 ], [ 3018816.289377184584737, 1705754.387757596792653 ], [ 3018807.512499941047281, 1705702.402392383432016 ], [ 3018808.812654137611389, 1705657.224858385976404 ], [ 3018822.725535175763071, 1705601.489127512322739 ], [ 3018836.927262290846556, 1705557.318166210316122 ], [ 3018851.002195389941335, 1705533.395569340791553 ], [ 3018864.280659198760986, 1705510.826901000225917 ], [ 3018907.627381561324, 1705465.806995836319402 ], [ 3018933.263056196272373, 1705447.143420078558847 ], [ 3018940.574471462517977, 1705441.617051159031689 ], [ 3018972.921237694099545, 1705417.167815309250727 ], [ 3019005.540836886502802, 1705375.555715479888022 ], [ 3019074.95857538189739, 1705307.049205528805032 ], [ 3019077.825963102281094, 1705304.219408941222355 ], [ 3019092.203890421893448, 1705285.521920299855992 ], [ 3019175.527214538771659, 1705202.895642423769459 ], [ 3019225.46508648712188, 1705162.820057670585811 ], [ 3019280.389631127938628, 1705118.742728408193216 ], [ 3019194.74740632250905, 1705064.661559714237228 ], [ 3019116.886460970155895, 1705022.086326541146263 ], [ 3019059.057502139359713, 1704987.593017662409693 ], [ 3019013.577078826259822, 1704955.466560988919809 ], [ 3019004.14305226597935, 1704923.546317731263116 ], [ 3019009.096869293600321, 1704907.016394608886912 ], [ 3019027.286428429186344, 1704893.454388834303245 ], [ 3019048.202395739033818, 1704878.401283058803529 ], [ 3019064.876920024864376, 1704869.651864840881899 ], [ 3019078.549085319973528, 1704863.400598241947591 ], [ 3019112.536133130546659, 1704847.860812930390239 ], [ 3019148.006791389547288, 1704829.482584133045748 ], [ 3019165.283375049009919, 1704820.765709795057774 ], [ 3019206.491916200146079, 1704799.974141357233748 ], [ 3019260.037613187916577, 1704762.751578650902957 ], [ 3019290.234194214455783, 1704734.698408941738307 ], [ 3019314.748401959892362, 1704699.062183250673115 ], [ 3019343.793748293071985, 1704673.232197443023324 ], [ 3019390.657903767190874, 1704646.279199014650658 ], [ 3019447.810326519887894, 1704607.915870061842725 ], [ 3019572.152539624832571, 1704528.661654462572187 ], [ 3019631.67529796436429, 1704466.901850483147427 ], [ 3019671.538598956074566, 1704413.912776831304654 ], [ 3019714.744239118881524, 1704372.707487249514088 ], [ 3019759.827931237407029, 1704334.201217719353735 ], [ 3019776.643423495814204, 1704317.952416531043127 ], [ 3019789.237864835187793, 1704305.7825160860084 ], [ 3019815.154940791428089, 1704293.888078674208373 ], [ 3019840.549862749874592, 1704283.348430737154558 ], [ 3019848.328802443575114, 1704281.394637680612504 ], [ 3019850.679276613518596, 1704280.804326373385265 ], [ 3019866.399285237304866, 1704275.758809159277007 ], [ 3019884.558516218326986, 1704262.202854195609689 ], [ 3019917.416150251403451, 1704241.509088899940252 ], [ 3019968.818969454616308, 1704224.614630503114313 ], [ 3019943.951410952955484, 1704202.571457204176113 ], [ 3019935.793868210632354, 1704195.340411190874875 ], [ 3019900.200969274621457, 1704168.791931100655347 ], [ 3019861.508397853001952, 1704136.982275807997212 ], [ 3019815.467452143318951, 1704091.318228893214837 ], [ 3019772.198960289824754, 1704049.205366223119199 ], [ 3019763.42067907564342, 1704037.950809723464772 ], [ 3019753.500536201521754, 1704025.232276932802051 ], [ 3019737.786814157385379, 1704001.237597242929041 ], [ 3019723.414019582793117, 1703976.248983219033107 ], [ 3019713.132197435945272, 1703933.87308126850985 ], [ 3019710.578246924094856, 1703883.063737804768607 ], [ 3019728.274678850080818, 1703847.115893613314256 ], [ 3019754.062761387787759, 1703800.145258145639673 ], [ 3019790.389536052942276, 1703748.538323644315824 ], [ 3019832.095509054139256, 1703702.547864446882159 ], [ 3019834.451018838211894, 1703688.749390058685094 ], [ 3019828.336835552938282, 1703673.414570371154696 ], [ 3019820.480001742020249, 1703661.417347950628027 ], [ 3019808.032514806836843, 1703648.714810904348269 ], [ 3019798.692616534419358, 1703640.990364063763991 ], [ 3019791.675204352475703, 1703635.186784340301529 ], [ 3019775.121370704844594, 1703620.178355362499133 ], [ 3019753.203249150887132, 1703604.601070746546611 ], [ 3019726.246507019735873, 1703585.619770216289908 ], [ 3019722.897673824802041, 1703573.584922305308282 ], [ 3019720.15491358237341, 1703550.837790313642472 ], [ 3019721.161267614923418, 1703489.300278946524486 ], [ 3019717.563879462890327, 1703465.957274612504989 ], [ 3019716.690830912441015, 1703460.292482615448534 ], [ 3019702.568363858386874, 1703417.331636901712045 ], [ 3019670.31592405680567, 1703339.439642445882782 ], [ 3019655.310304291080683, 1703311.629838299471885 ], [ 3019639.835895986296237, 1703282.951063260436058 ], [ 3019638.875600099563599, 1703272.910908291349187 ], [ 3019634.89601837657392, 1703231.300348878605291 ], [ 3019651.843232079409063, 1703180.586805777391419 ], [ 3019654.456131170038134, 1703119.776138126151636 ], [ 3019659.766422560438514, 1703066.570107883773744 ], [ 3019694.109233651310205, 1703026.423904420342296 ], [ 3019733.846308896318078, 1702996.941657796269283 ], [ 3019754.847286438103765, 1702972.531866488046944 ] ] ], [ [ [ 3017144.915140370838344, 1713637.97052872297354 ], [ 3017184.912910669576377, 1713610.453330875607207 ], [ 3017207.200154044665396, 1713590.103328024270013 ], [ 3017214.593811108730733, 1713582.429547119652852 ], [ 3017237.692601419985294, 1713558.455432056449354 ], [ 3017272.337681513279676, 1713510.669374029850587 ], [ 3017309.355579080991447, 1713471.050974266603589 ], [ 3017335.205800966359675, 1713437.94980716239661 ], [ 3017351.274682937189937, 1713413.141672978643328 ], [ 3017382.560589975211769, 1713401.052668981719762 ], [ 3017403.013071092776954, 1713397.442384612513706 ], [ 3017411.176263934001327, 1713394.132787003414705 ], [ 3017421.768653679639101, 1713389.838287123478949 ], [ 3017422.257928439881653, 1713382.31053721322678 ], [ 3017423.728019626811147, 1713359.691838474012911 ], [ 3017431.384834570810199, 1713337.631400380982086 ], [ 3017455.566113859415054, 1713293.71306411921978 ], [ 3017474.294193307869136, 1713271.718641913728788 ], [ 3017476.881365863606334, 1713238.431000648532063 ], [ 3017471.759846529923379, 1713205.241263706237078 ], [ 3017511.5141760581173, 1713203.729751487029716 ], [ 3017626.754522739443928, 1713199.348534621996805 ], [ 3017771.992277573328465, 1713180.278420189162716 ], [ 3017850.857496662065387, 1713168.378385241376236 ], [ 3017975.339653526432812, 1713150.952525202417746 ], [ 3018096.500657412223518, 1713119.212986366357654 ], [ 3018166.188955823890865, 1713083.678961083525792 ], [ 3018215.451874996069819, 1713066.145177956903353 ], [ 3018280.384033050388098, 1713028.420370236504823 ], [ 3018354.442318965680897, 1712992.368029637495056 ], [ 3018422.733819572720677, 1712969.203229781705886 ], [ 3018476.42496980028227, 1712959.727463622111827 ], [ 3018555.136269579641521, 1712945.836091186851263 ], [ 3018647.981495200656354, 1712931.218274370534346 ], [ 3018723.777967628557235, 1712935.267400493612513 ], [ 3018807.585784741677344, 1712962.399528634967282 ], [ 3018855.833778738975525, 1712995.554513644659892 ], [ 3018914.638023458886892, 1713082.911541843321174 ], [ 3019030.198569783940911, 1712950.388268829556182 ], [ 3019106.894555232487619, 1712874.065132564865053 ], [ 3019137.550412779673934, 1712843.558508903719485 ], [ 3019243.846802495419979, 1712751.310496991034597 ], [ 3019339.502541748806834, 1712683.416980251669884 ], [ 3019403.287352862767875, 1712652.463185109663755 ], [ 3019448.071565743070096, 1712620.316607689019293 ], [ 3019468.503073857165873, 1712602.286898125894368 ], [ 3019478.617528014816344, 1712593.36139407241717 ], [ 3019489.92412238009274, 1712583.383878987282515 ], [ 3019510.564354590605944, 1712544.983525553718209 ], [ 3019525.165850577410311, 1712517.817878415808082 ], [ 3019544.321401699446142, 1712448.524434889433905 ], [ 3019535.804038400761783, 1712400.529279661364853 ], [ 3019484.489766423590481, 1712368.924610631540418 ], [ 3019427.34017753507942, 1712320.924582279054448 ], [ 3019341.498674480244517, 1712251.97559219202958 ], [ 3019317.100769445300102, 1712230.016535331495106 ], [ 3019302.594521973282099, 1712214.898396987002343 ], [ 3019299.473404008895159, 1712208.883124169427902 ], [ 3019291.5819590408355, 1712208.002744274679571 ], [ 3019271.89718207763508, 1712223.598240378545597 ], [ 3019248.811773500405252, 1712238.783756895456463 ], [ 3019219.780468618497252, 1712251.482938130619004 ], [ 3019186.424156319350004, 1712257.369160377420485 ], [ 3019151.740211362019181, 1712254.650625716894865 ], [ 3019126.352273428812623, 1712240.695188206620514 ], [ 3019101.516000851988792, 1712223.106776790227741 ], [ 3019080.198565412312746, 1712192.270408614072949 ], [ 3019078.83090627938509, 1712182.259073973400518 ], [ 3019071.844110242556781, 1712131.114421055419371 ], [ 3019066.947517879772931, 1712027.678965596482158 ], [ 3019065.187977322842926, 1711958.793170299148187 ], [ 3019063.642347821965814, 1711898.708713696571067 ], [ 3019062.842414824757725, 1711821.825023544719443 ], [ 3019052.694553041830659, 1711763.258584207855165 ], [ 3019038.424398721195757, 1711720.824673506198451 ], [ 3019028.601276537869126, 1711657.150149570778012 ], [ 3019016.159679472446442, 1711540.651903713354841 ], [ 3019027.889837401919067, 1711480.497873323271051 ], [ 3019020.456239008810371, 1711432.311880520079285 ], [ 3019005.076544238254428, 1711375.679120812565088 ], [ 3018989.849970443174243, 1711355.890088564483449 ], [ 3018980.921969592105597, 1711326.655642968369648 ], [ 3018973.922530198935419, 1711288.494770582998171 ], [ 3018984.803099086973816, 1711251.471806812100112 ], [ 3019010.319123363122344, 1711201.764845072990283 ], [ 3019024.813841254450381, 1711173.953213933389634 ], [ 3019031.583084516227245, 1711138.918568151071668 ], [ 3019027.763945735059679, 1711099.943966190097854 ], [ 3019015.878027905710042, 1711051.53375786007382 ], [ 3018995.141108932904899, 1711010.241234799847007 ], [ 3018992.507651711348444, 1710985.957151066279039 ], [ 3019008.00425314065069, 1710935.998055414762348 ], [ 3019029.668995345477015, 1710868.535662329290062 ], [ 3019029.587781476322562, 1710846.579259385587648 ], [ 3019024.553648616187274, 1710820.951079449383542 ], [ 3019016.770565269049257, 1710799.34354622522369 ], [ 3019001.899785187095404, 1710774.441123877186328 ], [ 3018967.88762138877064, 1710733.218230546452105 ], [ 3018892.188099783845246, 1710665.511701260926202 ], [ 3018875.492546271067113, 1710643.20404139533639 ], [ 3018861.781211588066071, 1710561.52862162142992 ], [ 3018858.924866127315909, 1710521.374234155286103 ], [ 3018863.831837048288435, 1710488.688796111149713 ], [ 3018905.675385602749884, 1710408.827217255719006 ], [ 3018915.803461602889001, 1710388.352423116564751 ], [ 3018921.789024393074214, 1710369.871151823783293 ], [ 3018928.67271614773199, 1710335.574238726403564 ], [ 3018924.946799074299634, 1710304.412167719565332 ], [ 3018948.5462212478742, 1710301.005573584698141 ], [ 3018986.65081472042948, 1710310.444222565740347 ], [ 3019024.140106573700905, 1710329.082676134072244 ], [ 3019038.304791345261037, 1710329.279516777489334 ], [ 3019050.67438263585791, 1710329.451371795497835 ], [ 3019063.798557553440332, 1710318.894301545573398 ], [ 3019065.152093471959233, 1710317.805450118146837 ], [ 3019063.947100979741663, 1710296.804979358101264 ], [ 3019055.587549466174096, 1710268.985943356296048 ], [ 3019026.563306748867035, 1710232.691522691166028 ], [ 3018994.37616469245404, 1710188.873958584386855 ], [ 3018973.26503888797015, 1710164.315163002815098 ], [ 3018949.214228287804872, 1710140.274980313377455 ], [ 3018939.01744643971324, 1710126.922108418075368 ], [ 3018927.121299014426768, 1710102.757548633497208 ], [ 3018918.947195235639811, 1710082.734370741294697 ], [ 3018907.305266041308641, 1710066.606113453628495 ], [ 3018890.560740252491087, 1710050.368075403384864 ], [ 3018878.769645316991955, 1710043.113881090655923 ], [ 3018871.421457847580314, 1710038.593119148164988 ], [ 3018838.914126508403569, 1710019.075757205719128 ], [ 3018842.394191537052393, 1709901.308488335926086 ], [ 3018843.820288395509124, 1709853.0521113302093 ], [ 3018799.194982993416488, 1709839.460972153581679 ], [ 3018786.955184942111373, 1709824.195866454858333 ], [ 3018754.222021245397627, 1709789.818844153312966 ], [ 3018712.934098771773279, 1709764.274782202672213 ], [ 3018681.459202099591494, 1709738.261994186323136 ], [ 3018667.519846027251333, 1709676.325393511215225 ], [ 3018654.04220371413976, 1709581.730488678673282 ], [ 3018625.851712594274431, 1709548.572107838932425 ], [ 3018609.699432255700231, 1709507.733984880615026 ], [ 3018596.551829315256327, 1709465.355370905715972 ], [ 3018575.714755714405328, 1709401.353983223903924 ], [ 3018542.42034294269979, 1709363.54152893088758 ], [ 3018491.98605118598789, 1709335.571962468093261 ], [ 3018450.127740013413131, 1709327.554113299353048 ], [ 3018385.283288259990513, 1709327.127937725512311 ], [ 3018329.28250943031162, 1709327.161479732720181 ], [ 3018284.862502766773105, 1709309.747248211642727 ], [ 3018278.54486611392349, 1709297.225583531428128 ], [ 3018300.455032548867166, 1709254.217174242949113 ], [ 3018314.163886670954525, 1709172.251583956647664 ], [ 3018316.886726282071322, 1709125.810830127680674 ], [ 3018304.76825038716197, 1709075.676023467676714 ], [ 3018285.083420052193105, 1709047.583787709008902 ], [ 3018254.758337513543665, 1709014.8032527344767 ], [ 3018193.281467431690544, 1708972.116080751642585 ], [ 3018134.941756133921444, 1708942.764285266632214 ], [ 3018014.347215463407338, 1709009.753354093758389 ], [ 3017965.146687813103199, 1709036.365469367941841 ], [ 3017903.524788784794509, 1709066.937409279169515 ], [ 3017867.137511094100773, 1709080.177279710769653 ], [ 3017817.944294235669076, 1709107.040916804224253 ], [ 3017768.630172795150429, 1709132.915860841749236 ], [ 3017749.972523394972086, 1709148.582635540515184 ], [ 3017717.794810108840466, 1709181.282046403503045 ], [ 3017706.31054303329438, 1709199.482816254952922 ], [ 3017681.933399001602083, 1709238.11696873488836 ], [ 3017662.695169277489185, 1709282.169470265973359 ], [ 3017660.624097005464137, 1709333.040891853859648 ], [ 3017659.888599010184407, 1709372.896339871222153 ], [ 3017659.829308635089546, 1709376.111337610753253 ], [ 3017657.428529681637883, 1709396.696405292954296 ], [ 3017655.559183455072343, 1709412.724230199819431 ], [ 3017646.305280725006014, 1709444.271263916045427 ], [ 3017643.372420163825154, 1709454.26974213309586 ], [ 3017633.525180987082422, 1709472.445157380076125 ], [ 3017582.556683185510337, 1709566.520504062063992 ], [ 3017556.43272727355361, 1709630.223354572430253 ], [ 3017528.06749793374911, 1709711.747873633401468 ], [ 3017520.079643826931715, 1709726.374634131090716 ], [ 3017498.232853991910815, 1709766.378820894053206 ], [ 3017496.169090250506997, 1709770.157814166508615 ], [ 3017477.146002920344472, 1709799.526679543312639 ], [ 3017475.738359315320849, 1709801.040814439300448 ], [ 3017462.260776495561004, 1709815.538176192436367 ], [ 3017434.884085729718208, 1709822.895561231765896 ], [ 3017409.838460887316614, 1709821.255196741782129 ], [ 3017385.020474599674344, 1709813.261221737368032 ], [ 3017365.546901811845601, 1709799.52576106833294 ], [ 3017343.102248570881784, 1709750.454563344363123 ], [ 3017324.549985753372312, 1709710.545332363806665 ], [ 3017298.869095479603857, 1709620.362368899863213 ], [ 3017297.503978041000664, 1709615.568390848115087 ], [ 3017278.457516776863486, 1709524.230949209304526 ], [ 3017263.265436869114637, 1709441.809277684427798 ], [ 3017257.553029453381896, 1709420.847308451542631 ], [ 3017231.616835886612535, 1709379.302774664480239 ], [ 3017204.868482323363423, 1709336.45732562430203 ], [ 3017195.125207939185202, 1709321.509898242307827 ], [ 3017114.571080367080867, 1709418.305632904171944 ], [ 3017090.506351523566991, 1709463.21069146739319 ], [ 3017068.949161755852401, 1709484.187704690499231 ], [ 3017057.950102851260453, 1709493.452616263413802 ], [ 3017043.374767942354083, 1709519.51059848559089 ], [ 3017024.054844497237355, 1709554.992277741199359 ], [ 3017002.687360807321966, 1709577.198662544367835 ], [ 3016983.164715546183288, 1709595.291441896930337 ], [ 3016952.819058812223375, 1709615.547187487129122 ], [ 3016839.244005558546633, 1709642.917940066428855 ], [ 3016750.291005166247487, 1709661.144983304431662 ], [ 3016682.415172461885959, 1709679.18715325021185 ], [ 3016609.792509102262557, 1709694.830379114253446 ], [ 3016572.005970485508442, 1709702.969882946461439 ], [ 3016530.148299364838749, 1709712.884064302314073 ], [ 3016510.026202145963907, 1709724.862584019312635 ], [ 3016500.599306502379477, 1709730.474343733862042 ], [ 3016482.473491607233882, 1709749.58352295961231 ], [ 3016456.37522293208167, 1709797.373837118269876 ], [ 3016438.617473782971501, 1709851.015249982010573 ], [ 3016437.802627176977694, 1709871.042120464146137 ], [ 3016437.501902481541038, 1709878.433484966866672 ], [ 3016436.806430581025779, 1709895.529069168260321 ], [ 3016436.606019880622625, 1709926.374102986883372 ], [ 3016437.246867758221924, 1709954.678223080700263 ], [ 3016438.525330668315291, 1710011.140591249568388 ], [ 3016407.634711466729641, 1710092.355292752385139 ], [ 3016372.117562717758119, 1710151.405810353579 ], [ 3016343.513301215134561, 1710223.125732149463147 ], [ 3016339.679049688391387, 1710238.449821410700679 ], [ 3016316.426354448311031, 1710296.850644017569721 ], [ 3016293.697401808574796, 1710349.260822759009898 ], [ 3016288.080999846570194, 1710362.211647277697921 ], [ 3016281.033150550443679, 1710379.438191485125571 ], [ 3016277.278649100102484, 1710388.614922428270802 ], [ 3016231.476951433345675, 1710461.350826015230268 ], [ 3016161.054232644848526, 1710535.403035788564011 ], [ 3016152.606647547334433, 1710543.84661312494427 ], [ 3016126.686090875416994, 1710569.7550524037797 ], [ 3016089.621658435091376, 1710626.806604649638757 ], [ 3016076.413135467097163, 1710653.887497880263254 ], [ 3016053.939982816576958, 1710660.885578808141872 ], [ 3016053.803455024026334, 1710660.868265204131603 ], [ 3016017.275462115183473, 1710656.246784684481099 ], [ 3015993.6128214225173, 1710639.463437751634046 ], [ 3015967.264479043893516, 1710613.305247200187296 ], [ 3015945.377393322996795, 1710599.996547911781818 ], [ 3015936.645883260294795, 1710562.18124078004621 ], [ 3015934.171877940185368, 1710551.466826003510505 ], [ 3015917.174071284942329, 1710513.808712851721793 ], [ 3015891.204856414347887, 1710490.109142155852169 ], [ 3015818.727545548696071, 1710462.246023868909106 ], [ 3015745.012647175695747, 1710434.601543248398229 ], [ 3015707.034625276457518, 1710437.518655218183994 ], [ 3015664.541689009405673, 1710437.761531375581399 ], [ 3015661.209408112801611, 1710437.780627484666184 ], [ 3015659.044454495422542, 1710436.476805195910856 ], [ 3015642.077289292123169, 1710426.258664244320244 ], [ 3015633.274940929375589, 1710409.377332538599148 ], [ 3015620.95935028558597, 1710385.792664083186537 ], [ 3015604.778611445333809, 1710377.5377237778157 ], [ 3015591.231946287211031, 1710370.080328020034358 ], [ 3015570.158810389228165, 1710337.940320236142725 ], [ 3015566.989246885757893, 1710343.205410891445354 ], [ 3015538.178168289363384, 1710391.064332216046751 ], [ 3015530.263742316514254, 1710408.371785467723384 ], [ 3015522.429758696816862, 1710415.657648527994752 ], [ 3015507.136893579736352, 1710429.880415331106633 ], [ 3015496.686354349367321, 1710442.07970420923084 ], [ 3015479.404622064903378, 1710455.737732307519764 ], [ 3015476.041568150743842, 1710460.858107411302626 ], [ 3015465.145168198272586, 1710477.448587578255683 ], [ 3015485.727157540619373, 1710542.253121322952211 ], [ 3015492.376246958039701, 1710596.890703459037468 ], [ 3015492.095605914015323, 1710686.33995054429397 ], [ 3015482.567294365726411, 1710716.05433275247924 ], [ 3015492.656195597723126, 1710781.449077716097236 ], [ 3015501.431799297221005, 1710846.570664456812665 ], [ 3015516.944750243797898, 1710947.121268420713022 ], [ 3015531.13020896166563, 1710992.094650142593309 ], [ 3015542.384183232672513, 1711008.795736646745354 ], [ 3015562.493434930685908, 1711045.399379471316934 ], [ 3015586.728407494258136, 1711127.489926797803491 ], [ 3015596.572160095907748, 1711181.816353002330288 ], [ 3015616.965146963484585, 1711229.734415348153561 ], [ 3015644.064571184106171, 1711273.942919708788395 ], [ 3015665.995079188607633, 1711369.320354790659621 ], [ 3015693.229320988524705, 1711498.864940829807892 ], [ 3015701.706053154543042, 1711563.282071982976049 ], [ 3015716.309306276030838, 1711610.959962524473667 ], [ 3015725.185335949063301, 1711668.488038257462904 ], [ 3015723.93431953061372, 1711707.348155215848237 ], [ 3015723.224939187988639, 1711746.123771789949387 ], [ 3015723.200365951750427, 1711747.466180248884484 ], [ 3015723.169526217970997, 1711749.152950574411079 ], [ 3015722.795768122188747, 1711750.90471110958606 ], [ 3015715.36948418058455, 1711785.710782026406378 ], [ 3015710.571118304505944, 1711808.199855883605778 ], [ 3015697.546196076087654, 1711836.259281186386943 ], [ 3015697.518596505746245, 1711836.284761658636853 ], [ 3015671.818377222400159, 1711859.981721019139513 ], [ 3015668.412503902800381, 1711863.12213215441443 ], [ 3015640.397183454129845, 1711906.707931743469089 ], [ 3015626.765295868739486, 1711930.833815586520359 ], [ 3015614.204324274323881, 1711943.153449645033106 ], [ 3015605.920906638726592, 1711940.491776231210679 ], [ 3015605.074387109838426, 1711940.219797706697136 ], [ 3015584.938788436353207, 1711959.685348429717124 ], [ 3015567.360234161838889, 1711977.184275303734466 ], [ 3015550.874974903650582, 1712001.561491150408983 ], [ 3015533.004096506163478, 1712026.435723069589585 ], [ 3015525.099438397213817, 1712040.711343434173614 ], [ 3015495.246545888017863, 1712073.004973286995664 ], [ 3015478.025390358641744, 1712089.935696931788698 ], [ 3015462.127599893603474, 1712098.551472345832735 ], [ 3015455.887950327713042, 1712101.908221404533833 ], [ 3015447.453392384573817, 1712106.445919482968748 ], [ 3015431.603403099812567, 1712106.71922874962911 ], [ 3015424.18138194642961, 1712101.463606331730261 ], [ 3015422.601801269687712, 1712100.392618108307943 ], [ 3015412.360513437539339, 1712093.448983238311484 ], [ 3015405.121528966818005, 1712067.957348009804264 ], [ 3015402.395054879132658, 1712053.302410927833989 ], [ 3015401.209337667562068, 1712046.929276006761938 ], [ 3015398.022862331010401, 1712026.278155172709376 ], [ 3015396.510282487608492, 1712012.150151399197057 ], [ 3015281.433286289684474, 1712034.490527824731544 ], [ 3015153.344316962175071, 1712075.291995876235887 ], [ 3015062.903505947440863, 1712106.920360395684838 ], [ 3015017.895178956445307, 1712124.212416872382164 ], [ 3015002.246057077310979, 1712135.057327394140884 ], [ 3014959.974600965157151, 1712152.371381195262074 ], [ 3014907.779440247453749, 1712181.79223554302007 ], [ 3014883.48028214648366, 1712208.054779038298875 ], [ 3014876.964347558096051, 1712257.69454878475517 ], [ 3014893.344591049477458, 1712353.547717987326905 ], [ 3014896.208868093788624, 1712484.366456713760272 ], [ 3014892.469687093049288, 1712552.204435514984652 ], [ 3014868.152551715262234, 1712619.130648031830788 ], [ 3014843.482688747346401, 1712653.287920499686152 ], [ 3014835.553740627132356, 1712673.376646568300202 ], [ 3014834.2849410334602, 1712716.028902044054121 ], [ 3014827.304318083450198, 1712742.263842769665644 ], [ 3014809.814835765399039, 1712771.870091079268605 ], [ 3014800.111227659508586, 1712790.756979887606576 ], [ 3014793.877161451615393, 1712808.498599257320166 ], [ 3014792.447755809873343, 1712812.566806526156142 ], [ 3014793.028078755363822, 1712846.810995517997071 ], [ 3014794.518221693113446, 1712859.25216272380203 ], [ 3014798.537814875133336, 1712892.811929138377309 ], [ 3014830.120789441280067, 1712913.752032569842413 ], [ 3014881.215349530801177, 1712948.672266284702346 ], [ 3014948.477220119908452, 1713007.002640030812472 ], [ 3015013.467216904740781, 1713080.887274806387722 ], [ 3015067.422810073941946, 1713144.850785494083539 ], [ 3015084.124111169949174, 1713164.539042261894792 ], [ 3015084.750856921076775, 1713165.277833794010803 ], [ 3015097.975020753219724, 1713230.373271198477596 ], [ 3015103.219408894889057, 1713274.653499906882644 ], [ 3015116.165076278615743, 1713297.369752290192991 ], [ 3015122.639957084320486, 1713304.308994117192924 ], [ 3015138.824132496491075, 1713321.653951746644452 ], [ 3015164.651737780775875, 1713335.781616672873497 ], [ 3015182.813156799878925, 1713351.515605814522132 ], [ 3015199.773472532629967, 1713400.040690181776881 ], [ 3015190.678567728027701, 1713432.96310515049845 ], [ 3015186.63809872046113, 1713438.524318003794178 ], [ 3015176.364911416079849, 1713452.664113315055147 ], [ 3015139.093099244870245, 1713476.41942367516458 ], [ 3015107.37679888587445, 1713485.303471733117476 ], [ 3015082.840874254703522, 1713489.636423089075834 ], [ 3015043.668940097093582, 1713480.89591254806146 ], [ 3015011.337308397516608, 1713475.493356270249933 ], [ 3014987.779149542562664, 1713475.865481889341027 ], [ 3014928.748219658620656, 1713522.152438909513876 ], [ 3014899.612386350519955, 1713547.754423465812579 ], [ 3014963.557927525602281, 1713574.091564680449665 ], [ 3015067.534547280054539, 1713635.535506576299667 ], [ 3015219.504882697947323, 1713732.195664655417204 ], [ 3015300.058152690064162, 1713774.289456281810999 ], [ 3015329.29898692574352, 1713800.442060679197311 ], [ 3015338.831548824906349, 1713811.133734736824408 ], [ 3015379.491508303210139, 1713901.185740910936147 ], [ 3015411.285097828134894, 1713964.265243625035509 ], [ 3015453.228613287676126, 1714062.424910178640857 ], [ 3015476.322720130439848, 1714110.119814613834023 ], [ 3015489.892053974792361, 1714128.432954377029091 ], [ 3015508.853799974545836, 1714169.533466388704255 ], [ 3015514.271625676192343, 1714177.897266308544204 ], [ 3015536.893252869136631, 1714212.819573162822053 ], [ 3015561.339624808169901, 1714255.477340082172304 ], [ 3015580.33171749021858, 1714288.74361324775964 ], [ 3015593.29857920575887, 1714312.214199377689511 ], [ 3015595.542850180529058, 1714319.545530332485214 ], [ 3015600.926619603764266, 1714337.132538059493527 ], [ 3015651.407414646819234, 1714434.795355020323768 ], [ 3015727.841745882760733, 1714543.281195563031361 ], [ 3015800.815982144791633, 1714629.14325643889606 ], [ 3015801.488977101165801, 1714628.712771843653172 ], [ 3015846.088605922646821, 1714600.187277974560857 ], [ 3015890.49613003525883, 1714587.042174118105322 ], [ 3015947.209304319694638, 1714574.754981247475371 ], [ 3015968.179886003956199, 1714562.546428558416665 ], [ 3015982.701225053519011, 1714554.092470176052302 ], [ 3015994.809708864428103, 1714532.255417934851721 ], [ 3016008.926873855292797, 1714516.762242181459442 ], [ 3016049.659284848719835, 1714472.06002276414074 ], [ 3016120.070428124628961, 1714412.400169989094138 ], [ 3016174.383040450047702, 1714377.555207346798852 ], [ 3016198.741155866999179, 1714348.626897435402498 ], [ 3016221.093789155595005, 1714322.080487505765632 ], [ 3016293.121290571056306, 1714179.804386092349887 ], [ 3016319.549917066469789, 1714157.459534442750737 ], [ 3016375.397169519215822, 1714089.512464737985283 ], [ 3016397.454908949322999, 1714067.270382796879858 ], [ 3016445.229874720331281, 1714019.096386688761413 ], [ 3016540.615933194756508, 1713935.077267773682252 ], [ 3016600.02328498614952, 1713889.989482840755954 ], [ 3016623.254583893343806, 1713881.206814069068059 ], [ 3016637.623556296341121, 1713875.774598280899227 ], [ 3016673.050863775424659, 1713861.69084580685012 ], [ 3016705.363919935189188, 1713841.84326540841721 ], [ 3016763.17146925535053, 1713815.221914024557918 ], [ 3016771.780388532206416, 1713806.521956179058179 ], [ 3016787.093274728395045, 1713791.047281013103202 ], [ 3016846.049330744426697, 1713757.656940794084221 ], [ 3016895.448405107483268, 1713719.387804001104087 ], [ 3016917.297604254912585, 1713703.408156294142827 ], [ 3016957.519312843680382, 1713691.761501345550641 ], [ 3016980.448030345607549, 1713689.98667611903511 ], [ 3016995.354495694395155, 1713700.487667659297585 ], [ 3017008.436464141122997, 1713713.583669766085222 ], [ 3017030.709798762574792, 1713721.773981935810298 ], [ 3017035.413408773485571, 1713723.713057143148035 ], [ 3017040.146134958602488, 1713725.664166112197563 ], [ 3017065.299447346478701, 1713716.67772625409998 ], [ 3017094.367128090001643, 1713683.008410047506914 ], [ 3017117.147698461543769, 1713665.854320952668786 ], [ 3017144.915140370838344, 1713637.97052872297354 ] ] ] ] } },
{ "type": "Feature", "properties": { "ENP_GRAL": 6.0, "ENP_GRAL_NAME": "Otros Espacios Naturales Protegidos", "color": "#7F8F0D" }, "geometry": { "type": "MultiPolygon", "coordinates": [ [ [ [ 3019310.351491936482489, 1704675.914427642943338 ], [ 3019341.19361867569387, 1704662.990843601757661 ], [ 3019363.779895930085331, 1704641.90291558066383 ], [ 3019410.30517105339095, 1704622.471268818480894 ], [ 3019429.501398025080562, 1704607.326118732104078 ], [ 3019460.632239770144224, 1704585.799968311330304 ], [ 3019474.459930314216763, 1704581.222733893431723 ], [ 3019489.784908220171928, 1704568.898673251038417 ], [ 3019535.080296586733311, 1704524.029069856973365 ], [ 3019583.969260790850967, 1704471.042908999836072 ], [ 3019628.457438961137086, 1704427.919379715574905 ], [ 3019650.284528309013695, 1704398.413923144340515 ], [ 3019660.700891985557973, 1704375.197401742218062 ], [ 3019672.074526902288198, 1704365.173789523541927 ], [ 3019696.313187144696712, 1704344.329416466411203 ], [ 3019738.202958879061043, 1704326.250235081650317 ], [ 3019776.643423495814204, 1704317.952416531043127 ], [ 3019778.836151584051549, 1704317.47910976363346 ], [ 3019814.094233986921608, 1704307.772319895680994 ], [ 3019833.420492778532207, 1704301.437022405676544 ], [ 3019848.328802443575114, 1704281.394637680612504 ], [ 3019850.809676870238036, 1704278.059431206434965 ], [ 3019873.625151058193296, 1704260.910338235320523 ], [ 3019891.858389661647379, 1704253.400755793089047 ], [ 3019916.869072859175503, 1704224.717778092250228 ], [ 3019937.835414559580386, 1704214.071162482257932 ], [ 3019943.951410952955484, 1704202.571457204176113 ], [ 3019945.891695998609066, 1704198.923142102081329 ], [ 3019936.365352618973702, 1704187.072124846279621 ], [ 3019887.4092300189659, 1704140.809661269420758 ], [ 3019849.693297615740448, 1704106.689286992652342 ], [ 3019807.19949463987723, 1704071.961510619148612 ], [ 3019779.16427331417799, 1704050.717440805397928 ], [ 3019763.42067907564342, 1704037.950809723464772 ], [ 3019752.096918081399053, 1704028.768267283216119 ], [ 3019734.504924101755023, 1704001.940575949149206 ], [ 3019720.452845045831054, 1703984.109491164097562 ], [ 3019706.191310048103333, 1703956.881976449862123 ], [ 3019695.310798258055001, 1703922.269282546825707 ], [ 3019691.74511531367898, 1703891.000660625519231 ], [ 3019689.873384605161846, 1703866.039919425500557 ], [ 3019695.167402157559991, 1703848.002795383101329 ], [ 3019709.642358021810651, 1703840.639109563780949 ], [ 3019722.090302130207419, 1703808.632891101529822 ], [ 3019756.036410172469914, 1703733.04300580942072 ], [ 3019771.447294583544135, 1703714.290233377134427 ], [ 3019780.126043514814228, 1703697.259650412015617 ], [ 3019789.179467564448714, 1703665.197820257162675 ], [ 3019796.446580690797418, 1703649.485059128375724 ], [ 3019798.692616534419358, 1703640.990364063763991 ], [ 3019802.227542644366622, 1703627.621019874932244 ], [ 3019791.875266371294856, 1703619.826454956550151 ], [ 3019772.571913893800229, 1703616.817803538404405 ], [ 3019755.413009398151189, 1703603.275826674187556 ], [ 3019744.362670674920082, 1703575.93231175118126 ], [ 3019751.330546990968287, 1703551.220093512674794 ], [ 3019759.555038473103195, 1703534.871852167649195 ], [ 3019757.319611356593668, 1703520.368639445630834 ], [ 3019749.74938955064863, 1703513.118613418424502 ], [ 3019748.461133662611246, 1703504.760431727394462 ], [ 3019745.710050701163709, 1703487.937695641536266 ], [ 3019726.87598876003176, 1703476.499372349586338 ], [ 3019717.563879462890327, 1703465.957274612504989 ], [ 3019713.648588580079377, 1703461.524867648491636 ], [ 3019698.184770090505481, 1703445.011683245655149 ], [ 3019677.978405017405748, 1703411.697343447245657 ], [ 3019675.385734598152339, 1703377.413912014570087 ], [ 3019664.61188058834523, 1703342.435766416601837 ], [ 3019655.310304291080683, 1703311.629838299471885 ], [ 3019645.919331992976367, 1703280.527584288502112 ], [ 3019638.875600099563599, 1703272.910908291349187 ], [ 3019629.771373991854489, 1703263.066077754599974 ], [ 3019627.092935428954661, 1703235.21160300844349 ], [ 3019617.393697019666433, 1703217.681559449527413 ], [ 3019610.297845763154328, 1703197.536114033544436 ], [ 3019604.127185069024563, 1703168.88454064540565 ], [ 3019609.582658446393907, 1703156.52633613627404 ], [ 3019623.860238211229444, 1703144.387111369986087 ], [ 3019625.376395297702402, 1703128.870791873894632 ], [ 3019620.952618681825697, 1703101.073596104048193 ], [ 3019620.572502749040723, 1703070.046098342863843 ], [ 3019632.328059194143862, 1703038.671763467602432 ], [ 3019658.005622448399663, 1703012.689537606900558 ], [ 3019663.677616938948631, 1702991.87247917521745 ], [ 3019680.36710936203599, 1702983.446572301443666 ], [ 3019700.414608187973499, 1702975.009305065963417 ], [ 3019718.125721527263522, 1702965.380676775006577 ], [ 3019730.29678799957037, 1702957.89109122287482 ], [ 3019722.74339286563918, 1702917.066036337520927 ], [ 3019736.483488337136805, 1702899.229749717982486 ], [ 3019757.093997835647315, 1702895.205992943607271 ], [ 3019799.491090769413859, 1702890.000308253103867 ], [ 3019828.28027956513688, 1702889.718698663404211 ], [ 3019853.997042026370764, 1702885.182506544981152 ], [ 3019818.067610434256494, 1702808.195767532801256 ], [ 3019812.33907251432538, 1702803.266041597118601 ], [ 3019794.976822778582573, 1702812.230767234694213 ], [ 3019770.181181251071393, 1702822.48346265242435 ], [ 3019736.777262722142041, 1702811.807606086600572 ], [ 3019699.485864410176873, 1702797.657157220877707 ], [ 3019673.316681860014796, 1702787.727084899321198 ], [ 3019607.631082406267524, 1702773.659407392377034 ], [ 3019567.601495417766273, 1702782.858382957754657 ], [ 3019525.619089609012008, 1702814.314526631729677 ], [ 3019498.17564348783344, 1702859.774647757643834 ], [ 3019483.335352571681142, 1702920.648575724568218 ], [ 3019487.242926579434425, 1702973.939699776237831 ], [ 3019489.033433521166444, 1703025.816075687529519 ], [ 3019485.021611758507788, 1703038.079247168032452 ], [ 3019455.198101631831378, 1703129.243724199011922 ], [ 3019429.780735434032977, 1703212.294651518575847 ], [ 3019425.665070506744087, 1703228.338294845772907 ], [ 3019415.994450046680868, 1703266.035825442755595 ], [ 3019393.869109204038978, 1703343.084784538950771 ], [ 3019369.562199993990362, 1703408.95915281958878 ], [ 3019351.513908037915826, 1703457.871944098966196 ], [ 3019332.085636232048273, 1703447.971783751621842 ], [ 3019320.225181519053876, 1703441.9280368341133 ], [ 3019285.895758111029863, 1703421.723164618480951 ], [ 3019262.922272533643991, 1703397.243406405905262 ], [ 3019251.339695802424103, 1703379.843691301299259 ], [ 3019243.716615261975676, 1703364.13101343344897 ], [ 3019233.716729626990855, 1703340.78355772793293 ], [ 3019206.313543162308633, 1703313.54910499881953 ], [ 3019182.023823216557503, 1703289.806900491239503 ], [ 3019168.606146551202983, 1703278.033148201880977 ], [ 3019160.581446534954011, 1703267.832862064940855 ], [ 3019148.818743246607482, 1703258.545638095820323 ], [ 3019131.335190890356898, 1703253.802668714430183 ], [ 3019105.670423599891365, 1703254.542663908097893 ], [ 3019080.383133049122989, 1703257.741112511372194 ], [ 3019069.662040423136204, 1703246.754709215601906 ], [ 3019056.471839520148933, 1703236.456246143905446 ], [ 3019041.49509892705828, 1703231.269931877497584 ], [ 3019030.365081060677767, 1703223.371165890712291 ], [ 3019024.113018436357379, 1703218.934269485529512 ], [ 3019017.583942841272801, 1703209.985269571887329 ], [ 3019012.955125383101404, 1703196.661300040548667 ], [ 3018996.947117305360734, 1703147.628281426616013 ], [ 3018977.919976041186601, 1703165.784312221221626 ], [ 3018968.045977175235748, 1703167.239760114811361 ], [ 3018957.375672775320709, 1703166.783662853529677 ], [ 3018951.130857103504241, 1703174.024872052716091 ], [ 3018944.885746710002422, 1703181.266135550802574 ], [ 3018922.316653396934271, 1703201.034817100036889 ], [ 3018909.250544074457139, 1703219.419758335920051 ], [ 3018892.727365102618933, 1703232.567354930564761 ], [ 3018878.953912894241512, 1703236.278778793057427 ], [ 3018863.472169509157538, 1703231.881481574149802 ], [ 3018846.812089356593788, 1703223.126224788371474 ], [ 3018833.562079612631351, 1703223.124816791620106 ], [ 3018816.933789548464119, 1703229.859314996050671 ], [ 3018798.690670934505761, 1703243.3103608393576 ], [ 3018761.769008945673704, 1703263.564905426697806 ], [ 3018712.495043856557459, 1703291.553733385168016 ], [ 3018693.567485384643078, 1703306.295133804436773 ], [ 3018672.034047196619213, 1703327.050904267001897 ], [ 3018623.10567601211369, 1703343.242972789332271 ], [ 3018586.836024640128016, 1703361.893842722056434 ], [ 3018578.152385880239308, 1703366.359177648322657 ], [ 3018561.681901350617409, 1703372.406941706081852 ], [ 3018552.566796257160604, 1703364.589914826443419 ], [ 3018551.316773367114365, 1703352.582847895100713 ], [ 3018550.371920994482934, 1703343.508164406288415 ], [ 3018541.031601675786078, 1703320.545360976597294 ], [ 3018529.559353274293244, 1703297.435242602135986 ], [ 3018515.567033021710813, 1703264.821097915293649 ], [ 3018490.558187942951918, 1703232.579128867480904 ], [ 3018434.39466518862173, 1703200.07443429576233 ], [ 3018403.81176927825436, 1703176.147693945327774 ], [ 3018399.201518756337464, 1703174.658376794308424 ], [ 3018384.941792777739465, 1703170.051771758822724 ], [ 3018371.127746059559286, 1703170.462756807683036 ], [ 3018367.09369885083288, 1703170.58282003342174 ], [ 3018359.524674607440829, 1703165.222861426649615 ], [ 3018353.478791298810393, 1703160.941611918155104 ], [ 3018342.110824161209166, 1703155.616713848896325 ], [ 3018338.68548211408779, 1703153.816761858761311 ], [ 3018319.731290938798338, 1703143.856531996047124 ], [ 3018281.363570033106953, 1703127.586853641783819 ], [ 3018271.855356276966631, 1703117.221100358758122 ], [ 3018254.336615210864693, 1703109.124938377412036 ], [ 3018247.003535327967256, 1703085.999732690164819 ], [ 3018243.406294988468289, 1703078.789078468456864 ], [ 3018225.63557124696672, 1703043.167578656692058 ], [ 3018191.070563001558185, 1703061.833001625724137 ], [ 3018123.088170706294477, 1703096.343679225072265 ], [ 3018071.696494923438877, 1703122.167382210725918 ], [ 3018058.856612503528595, 1703131.239832839462906 ], [ 3018055.608444689307362, 1703144.380136826075613 ], [ 3018017.329482406377792, 1703166.319275049725547 ], [ 3018015.186810934916139, 1703179.787967679090798 ], [ 3017965.691763331647962, 1703204.230070431483909 ], [ 3017926.941193696111441, 1703223.110784698510543 ], [ 3017880.961670340038836, 1703246.409110810840502 ], [ 3017843.039237247779965, 1703267.238394504413009 ], [ 3017750.404457032680511, 1703217.084141029510647 ], [ 3017722.042401020880789, 1703231.513807829236612 ], [ 3017697.173643669113517, 1703259.196642631897703 ], [ 3017687.383684370666742, 1703270.094401407055557 ], [ 3017648.769665384665132, 1703265.912142489803955 ], [ 3017580.348329963162541, 1703256.517041844315827 ], [ 3017524.84678715839982, 1703247.16475539188832 ], [ 3017518.945488554891199, 1703246.170401176903397 ], [ 3017484.606689523905516, 1703246.885075595695525 ], [ 3017469.45832470851019, 1703239.403340945020318 ], [ 3017459.426218807697296, 1703237.317005388904363 ], [ 3017452.77498672157526, 1703235.933690262492746 ], [ 3017429.151520006358624, 1703243.309250464430079 ], [ 3017397.673278347589076, 1703245.122760697966442 ], [ 3017366.574484541080892, 1703224.956173544982448 ], [ 3017336.163796811364591, 1703198.679274656809866 ], [ 3017324.968840994872153, 1703189.006175296381116 ], [ 3017277.634438756853342, 1703170.619532491546124 ], [ 3017287.800975590012968, 1703199.306275892537087 ], [ 3017301.649944784119725, 1703219.310302903642878 ], [ 3017320.247111051343381, 1703249.165575270541012 ], [ 3017329.936191762797534, 1703280.593143137637526 ], [ 3017323.57291343761608, 1703326.611249973298982 ], [ 3017306.702964172232896, 1703356.846404723357409 ], [ 3017276.630835637450218, 1703416.669220499927178 ], [ 3017235.431998859159648, 1703481.128538435325027 ], [ 3017231.502211404033005, 1703508.011498352047056 ], [ 3017226.310410777106881, 1703551.151566481683403 ], [ 3017206.884918371681124, 1703603.217389977537096 ], [ 3017210.553672672249377, 1703654.948834559414536 ], [ 3017215.938851501792669, 1703728.290868786396459 ], [ 3017228.64955414365977, 1703761.857939617242664 ], [ 3017232.909367169253528, 1703770.239592219470069 ], [ 3017238.707424034364522, 1703801.869465516414493 ], [ 3017259.068858506157994, 1703868.160211352165788 ], [ 3017268.347204877994955, 1703892.462015189463273 ], [ 3017271.864303659647703, 1703897.334559447132051 ], [ 3017283.362182303331792, 1703908.122471807058901 ], [ 3017291.999373575672507, 1703928.265449821483344 ], [ 3017304.177918066270649, 1703951.445352237904444 ], [ 3017335.114818782545626, 1704000.611210585106164 ], [ 3017326.093116571195424, 1704007.052513540489599 ], [ 3017345.711625349707901, 1704039.770705724833533 ], [ 3017352.273114622570574, 1704042.137967034475878 ], [ 3017348.692352944985032, 1704060.77513502840884 ], [ 3017340.14778133481741, 1704101.039696385385469 ], [ 3017338.478051350452006, 1704118.118608971359208 ], [ 3017342.194085842464119, 1704134.24730711011216 ], [ 3017350.513633420690894, 1704148.342849022941664 ], [ 3017360.860312762670219, 1704159.639272121014073 ], [ 3017370.336872961372137, 1704165.291037247283384 ], [ 3017377.05070024728775, 1704172.956297660479322 ], [ 3017381.783047019504011, 1704183.717464071 ], [ 3017385.294175336137414, 1704196.525267510442063 ], [ 3017400.351749029941857, 1704216.450769212795421 ], [ 3017402.223894152790308, 1704236.567144316388294 ], [ 3017394.332344593945891, 1704240.139834981178865 ], [ 3017387.13705949857831, 1704235.392561489483342 ], [ 3017377.073397791478783, 1704234.902000550879166 ], [ 3017366.478358037769794, 1704235.027207836974412 ], [ 3017358.849756356328726, 1704243.192655267193913 ], [ 3017360.680084223393351, 1704262.926126955077052 ], [ 3017368.962532225064933, 1704279.972686665132642 ], [ 3017382.407082840800285, 1704291.182187066413462 ], [ 3017399.712483141571283, 1704302.01164948195219 ], [ 3017405.201054779812694, 1704308.018428960815072 ], [ 3017404.741754803806543, 1704346.594739329069853 ], [ 3017390.805991541594267, 1704404.47939268196933 ], [ 3017378.220223869197071, 1704464.252395672025159 ], [ 3017355.259690714534372, 1704501.568419941700995 ], [ 3017334.818155723623931, 1704524.183635506080464 ], [ 3017317.287223913706839, 1704541.533399831969291 ], [ 3017295.862793976441026, 1704547.425897797802463 ], [ 3017287.807921135798097, 1704564.159320991486311 ], [ 3017288.468940993770957, 1704585.690570677164942 ], [ 3017274.165366618428379, 1704599.830866908887401 ], [ 3017241.728636716492474, 1704637.762970071053132 ], [ 3017258.897001575678587, 1704680.141389618394896 ], [ 3017272.045210257172585, 1704710.763676821487024 ], [ 3017281.413008967414498, 1704750.517082190839574 ], [ 3017287.98979180585593, 1704793.174959142692387 ], [ 3017304.07700779568404, 1704805.612447707215324 ], [ 3017326.534125506412238, 1704812.101712205447257 ], [ 3017356.298809707164764, 1704816.094997411593795 ], [ 3017399.383608398959041, 1704829.150766314705834 ], [ 3017417.034245716873556, 1704865.460215344792232 ], [ 3017438.974601047113538, 1704915.796529634390026 ], [ 3017451.047320605255663, 1704957.314099935814738 ], [ 3017474.276021090801805, 1704988.415099629666656 ], [ 3017479.71457315934822, 1705028.28793329349719 ], [ 3017497.077551286201924, 1705094.920175523031503 ], [ 3017513.757270655594766, 1705152.521107851993293 ], [ 3017513.215346011333168, 1705167.40085522015579 ], [ 3017506.306921732611954, 1705177.772094694199041 ], [ 3017510.63940210826695, 1705205.872049733763561 ], [ 3017514.819560983218253, 1705297.359109520446509 ], [ 3017524.990671492181718, 1705326.540528276469558 ], [ 3017551.501848492771387, 1705369.734427005518228 ], [ 3017590.54880455089733, 1705402.268062723567709 ], [ 3017630.454500170424581, 1705421.977934272726998 ], [ 3017680.593997726682574, 1705457.48256477015093 ], [ 3017726.007898100651801, 1705494.524714378640056 ], [ 3017742.453690828289837, 1705509.222948004258797 ], [ 3017759.582933879923075, 1705532.952344118850306 ], [ 3017776.028604379855096, 1705547.650414210278541 ], [ 3017802.982455708086491, 1705566.125966341700405 ], [ 3017828.97837576828897, 1705587.586873965337873 ], [ 3017851.206544660031796, 1705607.600724346237257 ], [ 3017861.602388803847134, 1705619.84636712167412 ], [ 3017906.93354913406074, 1705697.73596260510385 ], [ 3017927.619713588152081, 1705721.541986420750618 ], [ 3017962.277981204912066, 1705730.210328111192212 ], [ 3018008.669609877280891, 1705736.808140197535977 ], [ 3018061.31573280505836, 1705756.382520439801738 ], [ 3018092.100590263493359, 1705762.918403298826888 ], [ 3018120.068055675365031, 1705774.175476083531976 ], [ 3018150.528933594934642, 1705787.808647818397731 ], [ 3018174.834509779699147, 1705798.304005312966183 ], [ 3018211.403030034620315, 1705809.72437978698872 ], [ 3018276.389589255675673, 1705885.558313220739365 ], [ 3018280.620063481852412, 1705890.1148485543672 ], [ 3018309.844354713335633, 1705921.320777703309432 ], [ 3018362.699650019407272, 1705969.315167987486348 ], [ 3018424.150689673610032, 1706027.912981193047017 ], [ 3018441.819400155451149, 1706040.45157328620553 ], [ 3018454.459537838585675, 1706043.27158268308267 ], [ 3018478.294846534729004, 1706061.791594917885959 ], [ 3018493.730204747989774, 1706071.189149170415476 ], [ 3018508.634137787856162, 1706077.145072146318853 ], [ 3018537.388666222337633, 1706082.424705180106685 ], [ 3018597.575383235700428, 1706087.459998091915622 ], [ 3018633.434062133543193, 1706093.253997062798589 ], [ 3018669.940277328714728, 1706092.115523899672553 ], [ 3018687.225472078192979, 1706090.833444143878296 ], [ 3018718.008961859159172, 1706075.04825676465407 ], [ 3018761.956514202523977, 1706042.800940185785294 ], [ 3018780.17781613022089, 1706013.576401292812079 ], [ 3018810.57872874988243, 1705961.497308214893565 ], [ 3018816.739547377917916, 1705944.754165180260316 ], [ 3018814.124337633140385, 1705927.792952714720741 ], [ 3018815.50809910800308, 1705904.681108260294423 ], [ 3018817.058155719656497, 1705878.792615725193173 ], [ 3018813.251771898008883, 1705800.368717769393697 ], [ 3018806.048228092957288, 1705771.975341465789825 ], [ 3018798.83157182764262, 1705719.933498586295173 ], [ 3018802.279012904968113, 1705676.83354293811135 ], [ 3018801.527395710349083, 1705630.064700410002843 ], [ 3018804.987629641313106, 1705610.613590294960886 ], [ 3018821.693617532961071, 1705582.812333332607523 ], [ 3018832.540213586762547, 1705548.428203067276627 ], [ 3018851.002195389941335, 1705533.395569340791553 ], [ 3018860.458512392826378, 1705525.695875042816624 ], [ 3018909.995375278405845, 1705484.129576091887429 ], [ 3018940.574471462517977, 1705441.617051159031689 ], [ 3018965.705843199975789, 1705406.678372394992039 ], [ 3018991.170660825446248, 1705388.556410103803501 ], [ 3018998.561160124838352, 1705368.411867316346616 ], [ 3019050.649619788397104, 1705318.7347156109754 ], [ 3019074.95857538189739, 1705307.049205528805032 ], [ 3019113.949859614484012, 1705288.305737904272974 ], [ 3019153.85374900419265, 1705268.056634642649442 ], [ 3019200.003966301679611, 1705237.466416411334649 ], [ 3019230.084274784661829, 1705191.672487126430497 ], [ 3019249.907699915580451, 1705185.031093975063413 ], [ 3019225.46508648712188, 1705162.820057670585811 ], [ 3019164.737865547183901, 1705107.637084314133972 ], [ 3019127.614096038043499, 1705070.754944348009303 ], [ 3019112.599217641167343, 1705058.067428841022775 ], [ 3019096.670144398696721, 1705056.86900532245636 ], [ 3019070.683757489081472, 1705053.022755962563679 ], [ 3019050.056415126658976, 1705032.420256661949679 ], [ 3019041.258890901692212, 1705022.149223964195698 ], [ 3019027.122363364323974, 1705009.009535756427795 ], [ 3019007.916260164231062, 1704983.936789287021384 ], [ 3018991.63818877749145, 1704964.761164632160217 ], [ 3018972.027306579519063, 1704955.393479509279132 ], [ 3018948.390677029266953, 1704953.951699387514964 ], [ 3018929.983128558844328, 1704952.388875019503757 ], [ 3018913.600947326980531, 1704950.869463875191286 ], [ 3018903.422691663727164, 1704939.837827261537313 ], [ 3018922.776427815668285, 1704929.207750237779692 ], [ 3018943.60965392133221, 1704920.320670932531357 ], [ 3018972.323036771267653, 1704883.987699896562845 ], [ 3019028.789250176865608, 1704876.599237515823916 ], [ 3019078.549085319973528, 1704863.400598241947591 ], [ 3019089.272017452400178, 1704860.556357944849879 ], [ 3019133.54320503026247, 1704854.211067371536046 ], [ 3019144.189559706486762, 1704849.890709513099864 ], [ 3019165.283375049009919, 1704820.765709795057774 ], [ 3019166.088041619863361, 1704819.654710591072217 ], [ 3019195.354397275485098, 1704786.165297915460542 ], [ 3019221.820941847749054, 1704753.658179195830598 ], [ 3019253.882326941937208, 1704725.536626658868045 ], [ 3019287.673153814859688, 1704699.063018269138411 ], [ 3019310.351491936482489, 1704675.914427642943338 ] ] ], [ [ [ 3016015.589814847800881, 1714512.264214973896742 ], [ 3016033.505876914598048, 1714502.679311169078574 ], [ 3016044.347255311906338, 1714492.367850681068376 ], [ 3016055.714826379902661, 1714472.57832393120043 ], [ 3016074.082802573218942, 1714453.034612150164321 ], [ 3016098.179656953550875, 1714444.828055707039312 ], [ 3016119.445894809439778, 1714437.615302770631388 ], [ 3016140.044020316563547, 1714426.075050815474242 ], [ 3016146.040929796174169, 1714423.040346250636503 ], [ 3016161.050741127692163, 1714413.534501025686041 ], [ 3016174.760501780547202, 1714397.749804336344823 ], [ 3016183.278875598218292, 1714387.559157598996535 ], [ 3016183.436304742470384, 1714375.503840837627649 ], [ 3016188.880889270454645, 1714367.192214381648228 ], [ 3016197.953763032332063, 1714356.235527225304395 ], [ 3016198.741155866999179, 1714348.626897435402498 ], [ 3016199.573835057206452, 1714340.580837466521189 ], [ 3016202.852934477385134, 1714331.315277428133413 ], [ 3016210.969660982489586, 1714318.522787318332121 ], [ 3016221.40480671916157, 1714303.316318577388301 ], [ 3016226.87815526407212, 1714292.798714886419475 ], [ 3016235.839239690918475, 1714262.678260519402102 ], [ 3016249.196583578828722, 1714227.177236419171095 ], [ 3016258.117985047865659, 1714197.805005629779771 ], [ 3016273.123863399960101, 1714169.496788173215464 ], [ 3016281.449890935793519, 1714153.700556560885161 ], [ 3016291.251196592114866, 1714137.002382388804108 ], [ 3016298.348883689381182, 1714127.1962001521606 ], [ 3016317.09539504814893, 1714112.66053932509385 ], [ 3016343.620731726288795, 1714096.216882655397058 ], [ 3016364.906667231582105, 1714080.698310459731147 ], [ 3016384.295802025124431, 1714070.325595668051392 ], [ 3016397.454908949322999, 1714067.270382796879858 ], [ 3016403.520625803619623, 1714065.862138537690043 ], [ 3016425.127952675800771, 1714052.425150532508269 ], [ 3016445.951158857904375, 1714035.651862887432799 ], [ 3016461.917430334724486, 1714020.538098350167274 ], [ 3016484.056032981723547, 1713993.108844192465767 ], [ 3016504.137228681240231, 1713969.784811243647709 ], [ 3016529.37757620960474, 1713945.015352954389527 ], [ 3016551.550816841423512, 1713928.271221953444183 ], [ 3016588.073094707448035, 1713906.855426218826324 ], [ 3016623.254583893343806, 1713881.206814069068059 ], [ 3016623.872442440129817, 1713880.75638929172419 ], [ 3016653.140014296397567, 1713861.156090539880097 ], [ 3016686.641038103029132, 1713837.601080714957789 ], [ 3016707.99195565097034, 1713821.804167922586203 ], [ 3016724.719532911200076, 1713815.108962306985632 ], [ 3016764.458469241857529, 1713807.558406193507835 ], [ 3016771.780388532206416, 1713806.521956179058179 ], [ 3016795.007514704018831, 1713803.234177846461535 ], [ 3016821.204463364556432, 1713798.609222199767828 ], [ 3016837.170950170606375, 1713783.495593224884942 ], [ 3016851.366721715778112, 1713763.883665313944221 ], [ 3016872.775482708122581, 1713745.671125842025504 ], [ 3016893.943144066259265, 1713725.897501137340441 ], [ 3016930.461989022791386, 1713711.431987900752574 ], [ 3016941.587099161464721, 1713706.795142942573875 ], [ 3016961.657470135483891, 1713704.320966919185594 ], [ 3016977.287704937160015, 1713714.925311012426391 ], [ 3016995.293176407925785, 1713730.45594789320603 ], [ 3017007.360996831208467, 1713733.671050761127844 ], [ 3017023.522834016475827, 1713730.283232687506825 ], [ 3017035.413408773485571, 1713723.713057143148035 ], [ 3017044.847466618288308, 1713718.500258752610534 ], [ 3017054.645470056682825, 1713708.752338040852919 ], [ 3017084.364379138685763, 1713674.63984331372194 ], [ 3017093.596440456807613, 1713668.199084981810302 ], [ 3017105.769482566975057, 1713663.377411494962871 ], [ 3017145.038144782651216, 1713631.855588819133118 ], [ 3017177.774742833338678, 1713606.832520707510412 ], [ 3017208.010260684881359, 1713586.527417621109635 ], [ 3017214.593811108730733, 1713582.429547119652852 ], [ 3017237.620173143222928, 1713568.096871080575511 ], [ 3017256.933339374139905, 1713550.254610795294866 ], [ 3017287.979780567809939, 1713521.253761286847293 ], [ 3017323.906148315407336, 1713485.511376934591681 ], [ 3017365.920961745548993, 1713443.883232741383836 ], [ 3017366.156287722289562, 1713428.427759696030989 ], [ 3017410.742381113581359, 1713394.595668545225635 ], [ 3017411.176263934001327, 1713394.132787003414705 ], [ 3017422.257928439881653, 1713382.31053721322678 ], [ 3017445.696645223535597, 1713357.305487519595772 ], [ 3017445.83278652606532, 1713357.265596237266436 ], [ 3017511.5141760581173, 1713203.729751487029716 ], [ 3017511.866111107170582, 1713202.907168745761737 ], [ 3017658.578302619047463, 1713177.804650366771966 ], [ 3017708.997759035788476, 1713169.706590415677056 ], [ 3017829.089595540892333, 1713100.399397573200986 ], [ 3017858.666678301990032, 1713091.169637284940109 ], [ 3018026.550750621594489, 1713064.74398648692295 ], [ 3018101.757005165796727, 1713032.239256772212684 ], [ 3018115.636291531845927, 1713023.637379256077111 ], [ 3018235.532993892207742, 1712985.110361736966297 ], [ 3018397.434215784072876, 1712921.502560345688835 ], [ 3018463.400460446253419, 1712952.627983595710248 ], [ 3018476.42496980028227, 1712959.727463622111827 ], [ 3018830.099148398265243, 1713152.510425098473206 ], [ 3018817.723459150642157, 1713210.821714918129146 ], [ 3018843.550634599756449, 1713184.614640448708087 ], [ 3018922.128872503060848, 1713092.16869717114605 ], [ 3018982.891444403678179, 1713022.91264861705713 ], [ 3019054.878666318487376, 1712934.837614097399637 ], [ 3019106.894555232487619, 1712874.065132564865053 ], [ 3019108.232416225597262, 1712872.502098191063851 ], [ 3019150.697498113848269, 1712823.313815568108112 ], [ 3019207.378988677635789, 1712756.382363153621554 ], [ 3019246.504719491582364, 1712732.639698905404657 ], [ 3019403.096714140847325, 1712640.861208204878494 ], [ 3019468.503073857165873, 1712602.286898125894368 ], [ 3019474.877358698286116, 1712598.527560525340959 ], [ 3019478.617528014816344, 1712593.36139407241717 ], [ 3019494.176928525324911, 1712571.869436983717605 ], [ 3019510.564354590605944, 1712544.983525553718209 ], [ 3019516.081444896757603, 1712535.931817727396265 ], [ 3019539.259748240932822, 1712492.553227459779009 ], [ 3019554.756351435557008, 1712456.944483576342463 ], [ 3019555.129854785744101, 1712438.436877084663138 ], [ 3019554.356204953975976, 1712417.726506207836792 ], [ 3019547.776661911513656, 1712401.247710095485672 ], [ 3019528.266639892011881, 1712374.22169280378148 ], [ 3019498.964013405609876, 1712346.518390848534182 ], [ 3019436.973937070462853, 1712290.10539111145772 ], [ 3019312.024270668625832, 1712181.459799982374534 ], [ 3019296.374672409147024, 1712168.986976840766147 ], [ 3019281.866215755231678, 1712169.141754949698225 ], [ 3019252.000018230173737, 1712174.412148789735511 ], [ 3019235.070533644407988, 1712179.805107450345531 ], [ 3019219.890335235744715, 1712191.303684044862166 ], [ 3019195.760611051693559, 1712207.588908460922539 ], [ 3019174.052061, 1712218.636163413524628 ], [ 3019153.680718590505421, 1712217.420165164861828 ], [ 3019124.308636230416596, 1712204.963662171270698 ], [ 3019100.679152416996658, 1712193.097472380381078 ], [ 3019078.83090627938509, 1712182.259073973400518 ], [ 3019074.4509621495381, 1712180.086242405464873 ], [ 3019055.055382781662047, 1712164.265526029048488 ], [ 3019045.50967219658196, 1712154.724815997295082 ], [ 3019046.187441078014672, 1712132.956387032521889 ], [ 3019047.163400011602789, 1712118.351585814030841 ], [ 3019046.649063314311206, 1712067.928473524749279 ], [ 3019044.86103188758716, 1712024.946580660995096 ], [ 3019047.896725654602051, 1712002.762109309434891 ], [ 3019060.502921245060861, 1711948.420022571226582 ], [ 3019055.083119788207114, 1711913.295167815638706 ], [ 3019046.474854091648012, 1711852.273553839419037 ], [ 3019022.546431069262326, 1711733.820078787626699 ], [ 3019015.320211912505329, 1711686.987019374733791 ], [ 3019013.887483527883887, 1711656.771307579008862 ], [ 3019009.650163046550006, 1711625.821145027410239 ], [ 3019000.002940042875707, 1711584.226276114815846 ], [ 3018990.000657881610096, 1711529.865201782668009 ], [ 3018984.334016430191696, 1711503.603862766176462 ], [ 3018982.838064438663423, 1711478.210294615942985 ], [ 3018981.10116748791188, 1711451.255440009990707 ], [ 3018980.999700129497796, 1711419.201290234224871 ], [ 3018983.560230036266148, 1711383.470314822625369 ], [ 3018982.666379500180483, 1711361.97940206178464 ], [ 3018975.427961110137403, 1711335.995459661819041 ], [ 3018957.255771018564701, 1711296.70695589017123 ], [ 3018952.977413955144584, 1711274.209673914592713 ], [ 3018958.491754163987935, 1711252.389876315603033 ], [ 3018975.560909505467862, 1711216.5038995903451 ], [ 3018985.613498771563172, 1711187.468817999586463 ], [ 3018987.99674623273313, 1711145.354718694463372 ], [ 3018985.848142197355628, 1711100.031350604258478 ], [ 3018984.114638252649456, 1711067.86438921187073 ], [ 3018973.992477024905384, 1711012.723025015555322 ], [ 3018970.931174225173891, 1710977.182366889435798 ], [ 3018982.264465996064246, 1710930.281917137093842 ], [ 3018987.791657974012196, 1710887.613093682099134 ], [ 3018995.011355078779161, 1710845.447398378746584 ], [ 3018993.636136225890368, 1710820.834469637367874 ], [ 3018983.49487536214292, 1710796.966680340701714 ], [ 3018961.627723005134612, 1710770.357165572466329 ], [ 3018944.777381296735257, 1710744.866857422748581 ], [ 3018937.114542169496417, 1710721.363517318386585 ], [ 3018926.909981681965292, 1710702.317610951839015 ], [ 3018895.493266374338418, 1710680.915441878838465 ], [ 3018869.35886078234762, 1710656.288405160885304 ], [ 3018852.720103725790977, 1710629.617646218976006 ], [ 3018851.344945006072521, 1710605.004653704119846 ], [ 3018851.662161496467888, 1710580.894787925994024 ], [ 3018844.240164912305772, 1710558.952489279210567 ], [ 3018835.791353921405971, 1710535.58789073000662 ], [ 3018836.590220415499061, 1710514.600337703479454 ], [ 3018848.937698851339519, 1710489.971206531161442 ], [ 3018897.421285065822303, 1710390.813013027654961 ], [ 3018906.625028026290238, 1710366.738772100303322 ], [ 3018918.979039467405528, 1710331.685311138397083 ], [ 3018925.102425992488861, 1710303.343866142909974 ], [ 3018934.420007875189185, 1710290.47468242328614 ], [ 3018941.981839759740978, 1710281.924117541871965 ], [ 3018955.888316034339368, 1710277.866554342443123 ], [ 3018974.567573866806924, 1710278.579451822210103 ], [ 3018995.179980443790555, 1710281.356487984070554 ], [ 3019009.625094379298389, 1710286.023677439196035 ], [ 3019019.956348718144, 1710295.42566081462428 ], [ 3019030.649099028669298, 1710307.169291757745668 ], [ 3019036.137701021041721, 1710327.047263242537156 ], [ 3019038.304791345261037, 1710329.279516777489334 ], [ 3019044.776805642060935, 1710335.946186846122146 ], [ 3019054.449240245390683, 1710335.842911205254495 ], [ 3019063.278608018066734, 1710330.275893529644236 ], [ 3019064.311986286193132, 1710321.273988965665922 ], [ 3019063.798557553440332, 1710318.894301545573398 ], [ 3019061.478914826642722, 1710308.143444306682795 ], [ 3019050.729321678169072, 1710290.797236389946193 ], [ 3019020.166435384191573, 1710249.68646716629155 ], [ 3019012.129440987482667, 1710244.690426592016593 ], [ 3019002.159272643271834, 1710237.630061960080639 ], [ 3018986.021889327093959, 1710232.459728049114347 ], [ 3018973.389462748542428, 1710229.07638872275129 ], [ 3018962.753844399936497, 1710222.935193308629096 ], [ 3018956.352282641455531, 1710212.839742198120803 ], [ 3018947.238072028383613, 1710190.394360306439921 ], [ 3018942.528782611712813, 1710180.8020577467978 ], [ 3018933.22417294094339, 1710172.822534803533927 ], [ 3018927.367767557967454, 1710161.027316237334162 ], [ 3018922.056430399883538, 1710147.532440672861412 ], [ 3018913.0562530499883, 1710136.29183832090348 ], [ 3018903.149483100511134, 1710124.409666594816372 ], [ 3018899.296276723966002, 1710099.432330802548677 ], [ 3018896.041442591696978, 1710071.560348296770826 ], [ 3018878.769645316991955, 1710043.113881090655923 ], [ 3018876.530390164814889, 1710039.425845860503614 ], [ 3018868.933326778002083, 1709990.17962975660339 ], [ 3018859.594876247923821, 1709923.522534948308021 ], [ 3018856.790777741931379, 1709896.622921006754041 ], [ 3018842.394191537052393, 1709901.308488335926086 ], [ 3018829.884242781903595, 1709905.379947350826114 ], [ 3018817.480524880811572, 1709909.756312800804153 ], [ 3018762.476768922060728, 1709915.631237745052204 ], [ 3018726.80750014539808, 1709914.198058657580987 ], [ 3018689.40098664816469, 1709895.898849486373365 ], [ 3018655.558112405240536, 1709872.677807765314355 ], [ 3018604.963890213053674, 1709824.936838772147894 ], [ 3018570.558538652025163, 1709770.045965806348249 ], [ 3018558.498642988968641, 1709697.473998524481431 ], [ 3018548.827882312238216, 1709634.783810467459261 ], [ 3018542.248243385460228, 1709597.736261425772682 ], [ 3018508.701530487742275, 1709508.619639753596857 ], [ 3018489.867893051356077, 1709465.617872094968334 ], [ 3018461.417496571317315, 1709420.750457886373624 ], [ 3018441.609260025434196, 1709390.037265302846208 ], [ 3018404.926947069820017, 1709361.58920937590301 ], [ 3018367.483379134908319, 1709346.816547773545608 ], [ 3018314.663749839179218, 1709344.022258972283453 ], [ 3018254.492604407481849, 1709337.70297917467542 ], [ 3018257.840978733729571, 1709323.370978229446337 ], [ 3018270.266364797018468, 1709287.156250288942829 ], [ 3018281.685635296627879, 1709272.905954970279709 ], [ 3018290.579638274386525, 1709259.101278325775638 ], [ 3018298.506903699599206, 1709239.027860025409609 ], [ 3018302.885529180057347, 1709225.375925245229155 ], [ 3018303.044328616000712, 1709205.385637590428814 ], [ 3018299.267747181467712, 1709189.309357638470829 ], [ 3018295.246661406941712, 1709175.852140947943553 ], [ 3018295.303229740820825, 1709163.607042159885168 ], [ 3018284.946592032909393, 1709142.57751091523096 ], [ 3018278.113017332740128, 1709115.721547702327371 ], [ 3018268.807130302302539, 1709094.647121361223981 ], [ 3018265.744407312944531, 1709079.152383163338527 ], [ 3018190.440408418886364, 1708996.986903182696551 ], [ 3018176.169664643704891, 1708986.881454668240622 ], [ 3018099.180377140175551, 1708968.327890578890219 ], [ 3018089.432358444668353, 1708968.170960806775838 ], [ 3018097.868474999442697, 1709030.278266775654629 ], [ 3018055.223158184904605, 1709035.53294216748327 ], [ 3018034.312286511063576, 1709063.071921051712707 ], [ 3018023.710666256025434, 1709038.822992473607883 ], [ 3018006.229037521872669, 1709035.08737876242958 ], [ 3017972.909662466496229, 1709033.185202370630577 ], [ 3017954.43701767642051, 1709041.963257177034393 ], [ 3017906.897729917429388, 1709067.387761970516294 ], [ 3017885.484980941750109, 1709076.845217894762754 ], [ 3017846.001117481850088, 1709092.270605520345271 ], [ 3017825.692318146117032, 1709114.637038077227771 ], [ 3017808.393537070602179, 1709126.796915979357436 ], [ 3017771.675588844809681, 1709148.179210310569033 ], [ 3017759.056388660334051, 1709163.652688016649336 ], [ 3017751.37224627379328, 1709173.287854783935472 ], [ 3017734.512057550251484, 1709182.886588745983317 ], [ 3017716.467480461578816, 1709190.210753954248503 ], [ 3017706.31054303329438, 1709199.482816254952922 ], [ 3017701.852120016701519, 1709203.552847224054858 ], [ 3017690.483219389803708, 1709216.322120250668377 ], [ 3017679.801387315616012, 1709228.142145881894976 ], [ 3017670.618502937722951, 1709238.869642512407154 ], [ 3017666.422282233834267, 1709260.307606867514551 ], [ 3017663.607665996532887, 1709269.083339046686888 ], [ 3017653.29888887424022, 1709283.321251948131248 ], [ 3017636.936124349012971, 1709296.143983860034496 ], [ 3017612.889375580474734, 1709318.601828411919996 ], [ 3017603.830745235085487, 1709330.13533689873293 ], [ 3017598.954439707100391, 1709341.758644089801237 ], [ 3017601.630897229537368, 1709353.704824987100437 ], [ 3017602.304221858270466, 1709374.283345715608448 ], [ 3017605.493531785905361, 1709376.135606058640406 ], [ 3017659.888599010184407, 1709372.896339871222153 ], [ 3017665.888615757226944, 1709372.53908659121953 ], [ 3017657.428529681637883, 1709396.696405292954296 ], [ 3017644.515887797810137, 1709433.56755003798753 ], [ 3017644.471787898801267, 1709436.910681447479874 ], [ 3017646.101986294612288, 1709443.849451749585569 ], [ 3017646.305280725006014, 1709444.271263916045427 ], [ 3017648.571532556787133, 1709448.972569717559963 ], [ 3017637.747323508840054, 1709465.891872976208106 ], [ 3017633.525180987082422, 1709472.445157380076125 ], [ 3017630.069581836462021, 1709477.80878695868887 ], [ 3017618.194933024700731, 1709498.804717290680856 ], [ 3017608.755097010172904, 1709513.812101291725412 ], [ 3017593.021910639479756, 1709538.824580425396562 ], [ 3017559.665663005784154, 1709594.741487863939255 ], [ 3017545.778099247720093, 1709654.6585109885782 ], [ 3017540.884888087399304, 1709674.828779676929116 ], [ 3017534.366704721003771, 1709691.878862833837047 ], [ 3017527.507231372408569, 1709706.717596045928076 ], [ 3017520.818528815172613, 1709722.662091423058882 ], [ 3017520.079643826931715, 1709726.374634131090716 ], [ 3017518.241625402588397, 1709735.609418218024075 ], [ 3017512.154522474855185, 1709748.040664218598977 ], [ 3017502.727514362428337, 1709761.061168282059953 ], [ 3017498.232853991910815, 1709766.378820894053206 ], [ 3017489.188658692408353, 1709777.07906891987659 ], [ 3017475.730748691596091, 1709801.032359327655286 ], [ 3017475.738359315320849, 1709801.040814439300448 ], [ 3017485.399563268758357, 1709811.818256100639701 ], [ 3017483.765361397527158, 1709823.463631307939067 ], [ 3017505.258250965736806, 1709821.941445379052311 ], [ 3017502.681378717534244, 1709834.888785858871415 ], [ 3017486.664859246462584, 1709842.258422527462244 ], [ 3017472.022168030031025, 1709843.707323203096166 ], [ 3017455.664497673977166, 1709848.86589628062211 ], [ 3017441.362860454246402, 1709852.52580871921964 ], [ 3017426.890687750186771, 1709855.080129790818319 ], [ 3017409.07866182923317, 1709858.224017916480079 ], [ 3017374.076119938865304, 1709864.867300229845569 ], [ 3017370.543740132823586, 1709816.571344537427649 ], [ 3017345.385901739820838, 1709765.977615390671417 ], [ 3017315.245218630880117, 1709702.1623816692736 ], [ 3017299.104817520361394, 1709634.599924129899591 ], [ 3017298.869095479603857, 1709620.362368899863213 ], [ 3017298.280088628642261, 1709584.776570215821266 ], [ 3017305.795981614850461, 1709548.630149940494448 ], [ 3017301.782492471393198, 1709522.61270146118477 ], [ 3017292.434520036913455, 1709488.182931371964514 ], [ 3017271.957767407409847, 1709447.031607759883627 ], [ 3017249.592711491510272, 1709404.543227366171777 ], [ 3017236.35688852192834, 1709384.16261848830618 ], [ 3017231.616835886612535, 1709379.302774664480239 ], [ 3017223.569701638072729, 1709371.05225002928637 ], [ 3017211.585260377265513, 1709363.145620903000236 ], [ 3017202.642766340635717, 1709374.833426934666932 ], [ 3017192.538500959053636, 1709382.198065718170255 ], [ 3017177.813552537932992, 1709386.79631259967573 ], [ 3017167.861638948787004, 1709391.885012508835644 ], [ 3017157.203647098038346, 1709401.096845088060945 ], [ 3017130.98153162188828, 1709470.367533330572769 ], [ 3017099.280400548130274, 1709543.271210323320702 ], [ 3017074.576247796416283, 1709596.280204768758267 ], [ 3017068.944286413025111, 1709603.272031471598893 ], [ 3017061.252460523508489, 1709609.961143727879971 ], [ 3017051.753802364692092, 1709613.637033430160955 ], [ 3017033.562429370824248, 1709617.51453768578358 ], [ 3016991.753545954823494, 1709624.894437060924247 ], [ 3016972.15554887149483, 1709628.353865233715624 ], [ 3016932.706896002404392, 1709637.982902870047837 ], [ 3016915.569159831851721, 1709644.340053561842069 ], [ 3016877.527087562717497, 1709654.387281858595088 ], [ 3016859.936297073960304, 1709662.157410551561043 ], [ 3016842.898668574169278, 1709669.163424151251093 ], [ 3016819.475829415954649, 1709682.627903687534854 ], [ 3016799.272019708529115, 1709690.859295189613476 ], [ 3016778.667918149381876, 1709696.495602668030187 ], [ 3016753.543804296292365, 1709698.931429259013385 ], [ 3016730.932543003931642, 1709700.257135467138141 ], [ 3016704.101473364979029, 1709700.328543344279751 ], [ 3016673.703947597183287, 1709699.030437610810623 ], [ 3016652.452071458101273, 1709696.117712826700881 ], [ 3016634.113458052277565, 1709694.690032542916015 ], [ 3016610.648772236891091, 1709694.833786247996613 ], [ 3016609.792509102262557, 1709694.830379114253446 ], [ 3016588.490729324519634, 1709694.746710101142526 ], [ 3016567.18609392689541, 1709695.841987303690985 ], [ 3016541.508765329606831, 1709699.041915970155969 ], [ 3016526.736763349268585, 1709698.983990744454786 ], [ 3016517.338180965743959, 1709703.308876893483102 ], [ 3016511.253217602148652, 1709711.713573865359649 ], [ 3016510.026202145963907, 1709724.862584019312635 ], [ 3016509.48275847826153, 1709730.685905785067007 ], [ 3016506.758849951904267, 1709747.827275160700083 ], [ 3016503.281546379439533, 1709764.435248238500208 ], [ 3016492.771257379557937, 1709778.952639115974307 ], [ 3016478.241426393389702, 1709793.513281241524965 ], [ 3016463.058145330753177, 1709808.189080517739058 ], [ 3016449.629161561839283, 1709829.88601965457201 ], [ 3016443.338730685878545, 1709845.657820416614413 ], [ 3016437.802627176977694, 1709871.042120464146137 ], [ 3016437.443462046794593, 1709872.689222317188978 ], [ 3016437.501902481541038, 1709878.433484966866672 ], [ 3016437.633036245591938, 1709891.316017473349348 ], [ 3016441.836909136734903, 1709918.564081371994689 ], [ 3016439.761212593875825, 1709944.254975954303518 ], [ 3016437.246867758221924, 1709954.678223080700263 ], [ 3016433.212720994837582, 1709971.402026525931433 ], [ 3016426.917140846140683, 1709995.838573640445247 ], [ 3016416.549293778836727, 1710024.326350284507498 ], [ 3016404.732700669206679, 1710039.07463343301788 ], [ 3016400.202522055711597, 1710060.182574436999857 ], [ 3016380.925891269929707, 1710081.759721289621666 ], [ 3016346.055410115513951, 1710128.901243459666148 ], [ 3016320.99308648891747, 1710171.411192727275193 ], [ 3016308.550107749179006, 1710192.18928604805842 ], [ 3016281.9677389934659, 1710216.125367617700249 ], [ 3016265.905241172760725, 1710237.602958716917783 ], [ 3016257.871631150133908, 1710252.250843635061756 ], [ 3016289.597543820273131, 1710269.501202682266012 ], [ 3016256.821476943790913, 1710339.632038416340947 ], [ 3016270.916159126907587, 1710348.569371416699141 ], [ 3016293.697401808574796, 1710349.260822759009898 ], [ 3016297.07551187556237, 1710349.363303206162527 ], [ 3016311.12728319875896, 1710354.098734222818166 ], [ 3016281.033150550443679, 1710379.438191485125571 ], [ 3016265.040861229412258, 1710392.903768153395504 ], [ 3016239.266903216950595, 1710429.92710077483207 ], [ 3016218.170449609402567, 1710454.097382580162957 ], [ 3016189.910278970841318, 1710478.931297084549442 ], [ 3016158.29402833012864, 1710505.560406698845327 ], [ 3016149.94750867318362, 1710536.903957708040252 ], [ 3016152.606647547334433, 1710543.84661312494427 ], [ 3016172.023596700280905, 1710594.541960446862504 ], [ 3016120.067546379752457, 1710653.925830563297495 ], [ 3016104.134426563046873, 1710688.404341600369662 ], [ 3016085.278280510567129, 1710681.309923745691776 ], [ 3016065.579006254673004, 1710668.751743883127347 ], [ 3016053.803455024026334, 1710660.868265204131603 ], [ 3016047.572172003332525, 1710656.696650112513453 ], [ 3016027.936305338516831, 1710639.316539737395942 ], [ 3016002.380416174419224, 1710614.96347700804472 ], [ 3015978.878221796825528, 1710593.45510711078532 ], [ 3015937.850893303751945, 1710563.013911884976551 ], [ 3015936.645883260294795, 1710562.18124078004621 ], [ 3015897.184744783677161, 1710534.914477769751102 ], [ 3015858.572377571370453, 1710509.659639242105186 ], [ 3015822.615677520632744, 1710491.152123622596264 ], [ 3015802.491901865229011, 1710481.074509593192488 ], [ 3015776.080691538751125, 1710472.106938696466386 ], [ 3015740.422181340865791, 1710460.763191971229389 ], [ 3015694.60973565466702, 1710446.401402526069432 ], [ 3015675.088148546405137, 1710440.226436732336879 ], [ 3015664.541689009405673, 1710437.761531375581399 ], [ 3015659.044454495422542, 1710436.476805195910856 ], [ 3015657.499652093276381, 1710436.115771528566256 ], [ 3015638.580272290855646, 1710433.843602501554415 ], [ 3015624.376417309977114, 1710430.738907302729785 ], [ 3015608.119080058299005, 1710424.789527442771941 ], [ 3015592.171943441033363, 1710405.15467827860266 ], [ 3015578.886866158805788, 1710381.84270675200969 ], [ 3015569.049726299010217, 1710354.714661579113454 ], [ 3015566.989246885757893, 1710343.205410891445354 ], [ 3015563.205530471168458, 1710322.070906348293647 ], [ 3015550.865320795215666, 1710336.276694278931245 ], [ 3015548.919792831875384, 1710355.061639583203942 ], [ 3015543.773371974006295, 1710368.799308359157294 ], [ 3015535.667030135169625, 1710379.050369870616123 ], [ 3015530.881953386124223, 1710395.129526370204985 ], [ 3015524.40455170115456, 1710410.705615840852261 ], [ 3015522.429758696816862, 1710415.657648527994752 ], [ 3015516.837160228285939, 1710429.681595905451104 ], [ 3015512.356214667670429, 1710442.499730422860011 ], [ 3015503.888548009563237, 1710450.409227736992761 ], [ 3015479.341139890719205, 1710458.752635785378516 ], [ 3015476.041568150743842, 1710460.858107411302626 ], [ 3015460.231845830567181, 1710470.946585991885513 ], [ 3015448.436799802817404, 1710483.45268221385777 ], [ 3015443.955996625125408, 1710496.270916288951412 ], [ 3015453.311336209531873, 1710520.276803216664121 ], [ 3015462.185195326805115, 1710541.160461333347484 ], [ 3015458.908726564142853, 1710561.784181915223598 ], [ 3015449.103922392707318, 1710581.95691933715716 ], [ 3015453.686843200586736, 1710601.192806526087224 ], [ 3015455.550511522684246, 1710618.503420145716518 ], [ 3015454.574709034059197, 1710633.108223369345069 ], [ 3015455.170824998989701, 1710647.435593862319365 ], [ 3015461.084621135611087, 1710664.832891632337123 ], [ 3015462.707462223246694, 1710680.582412510178983 ], [ 3015462.63810786511749, 1710695.829047584207729 ], [ 3015464.685577229131013, 1710709.09811282181181 ], [ 3015462.923917407169938, 1710723.841782858595252 ], [ 3015460.617197868414223, 1710740.285216697724536 ], [ 3015458.310469481628388, 1710756.728554896544665 ], [ 3015454.672831230796874, 1710775.01071146549657 ], [ 3015456.840754462871701, 1710789.060385263990611 ], [ 3015465.049141811206937, 1710810.863457631086931 ], [ 3015469.270672525279224, 1710827.75780766364187 ], [ 3015469.677088746335357, 1710856.551156328525394 ], [ 3015470.387514104135334, 1710882.083580813370645 ], [ 3015481.492602307349443, 1710912.1950424159877 ], [ 3015486.189909145236015, 1710942.636110010091215 ], [ 3015493.790078202262521, 1710970.961127694230527 ], [ 3015505.503491624258459, 1710994.550791074056178 ], [ 3015508.032859991304576, 1711010.942178623750806 ], [ 3015514.491700457409024, 1711026.639679624699056 ], [ 3015531.345296450424939, 1711046.916210522409528 ], [ 3015549.231807301752269, 1711058.190658272244036 ], [ 3015560.589992877561599, 1711069.014117498882115 ], [ 3015565.2933928091079, 1711089.030601216712967 ], [ 3015566.485832661390305, 1711117.685245086438954 ], [ 3015568.704945755191147, 1711147.762262744596228 ], [ 3015571.475199493113905, 1711165.714678954100236 ], [ 3015571.824461082927883, 1711188.905449658632278 ], [ 3015575.139876040164381, 1711205.158087293151766 ], [ 3015578.696058833505958, 1711222.971852425253019 ], [ 3015589.991040565539151, 1711238.617292875656858 ], [ 3015602.312798674684018, 1711255.685187170049176 ], [ 3015617.778209276497364, 1711272.197845191461965 ], [ 3015632.337418258655816, 1711288.068842257140204 ], [ 3015644.779611386358738, 1711305.917258179746568 ], [ 3015644.343127659521997, 1711329.246788675896823 ], [ 3015640.585045639425516, 1711346.748439473332837 ], [ 3015639.97084560804069, 1711363.6950146057643 ], [ 3015642.620737738441676, 1711380.866955439792946 ], [ 3015647.324240606743842, 1711400.883489651372656 ], [ 3015655.234747309237719, 1711415.523092483403161 ], [ 3015663.145226578228176, 1711430.162501262966543 ], [ 3015669.420547331683338, 1711449.901629472384229 ], [ 3015674.669112064875662, 1711468.218406384577975 ], [ 3015683.90458707883954, 1711491.443948762957007 ], [ 3015691.086247124709189, 1711511.824837980093434 ], [ 3015686.961074504535645, 1711537.409430475207046 ], [ 3015689.186537329107523, 1711557.061850658617914 ], [ 3015693.459477805532515, 1711589.983465422410518 ], [ 3015697.916255061514676, 1711618.863581877201796 ], [ 3015705.155328125692904, 1711644.847157040378079 ], [ 3015710.759427530691028, 1711675.930132992332801 ], [ 3015717.637106060516089, 1711699.572017816826701 ], [ 3015720.344361609313637, 1711722.346592338988557 ], [ 3015723.224939187988639, 1711746.123771789949387 ], [ 3015723.292617057450116, 1711746.682366070803255 ], [ 3015723.200365951750427, 1711747.466180248884484 ], [ 3015722.795768122188747, 1711750.90471110958606 ], [ 3015720.498472469858825, 1711770.428377715637907 ], [ 3015715.36948418058455, 1711785.710782026406378 ], [ 3015712.202908102422953, 1711795.145727265160531 ], [ 3015705.238278159871697, 1711818.024554347153753 ], [ 3015697.551024863496423, 1711836.220042144414037 ], [ 3015697.518596505746245, 1711836.284761658636853 ], [ 3015691.378166634589434, 1711848.535344022093341 ], [ 3015680.55314115062356, 1711856.861206581816077 ], [ 3015671.818377222400159, 1711859.981721019139513 ], [ 3015658.36389045137912, 1711864.788348576519638 ], [ 3015642.88640686776489, 1711869.124838307267055 ], [ 3015633.39240779587999, 1711875.612166446167976 ], [ 3015623.594072658568621, 1711885.360425616614521 ], [ 3015607.445406829938293, 1711901.040971718961373 ], [ 3015603.567208106163889, 1711917.7620959719643 ], [ 3015605.494537874124944, 1711930.250778025249019 ], [ 3015605.920906638726592, 1711940.491776231210679 ], [ 3015606.090992983430624, 1711944.578195962123573 ], [ 3015607.347051371820271, 1711968.410943440860137 ], [ 3015588.840569971594959, 1711984.507830160902813 ], [ 3015579.042374768294394, 1711994.256098779151216 ], [ 3015565.131084575783461, 1712008.73978023044765 ], [ 3015535.616113261319697, 1712037.204119896283373 ], [ 3015518.497988561168313, 1712057.065010768827051 ], [ 3015503.433613118249923, 1712079.770493333460763 ], [ 3015477.676304442808032, 1712090.733246996300295 ], [ 3015459.778141651302576, 1712100.308232534211129 ], [ 3015455.887950327713042, 1712101.908221404533833 ], [ 3015452.945884945336729, 1712103.118359362240881 ], [ 3015436.023076740093529, 1712098.088369400240481 ], [ 3015423.448442907072604, 1712100.308786885580048 ], [ 3015422.601801269687712, 1712100.392618108307943 ], [ 3015413.111209924332798, 1712101.332271001534536 ], [ 3015400.485161358956248, 1712087.525449688080698 ], [ 3015397.594017327297479, 1712068.792316081235185 ], [ 3015402.395054879132658, 1712053.302410927833989 ], [ 3015408.373327480629086, 1712034.014383958419785 ], [ 3015418.601831042207778, 1712011.360859829001129 ], [ 3015422.600392848718911, 1711995.420198339037597 ], [ 3015418.194936973042786, 1711982.567294132197276 ], [ 3015279.724854274652898, 1712014.941955613670871 ], [ 3015225.84249527240172, 1712021.415755942696705 ], [ 3015105.243237972259521, 1712056.568510636687279 ], [ 3015089.76884512975812, 1712074.001182754058391 ], [ 3015060.416893233545125, 1712090.877707909792662 ], [ 3014986.518741418141872, 1712114.923195794923231 ], [ 3014866.539115897379816, 1712205.869637706782669 ], [ 3014863.384067833889276, 1712227.274163417518139 ], [ 3014881.052589209750295, 1712305.138001156970859 ], [ 3014887.018528813496232, 1712338.562853831332177 ], [ 3014882.469527620822191, 1712366.628220053156838 ], [ 3014877.564870862290263, 1712381.927198847057298 ], [ 3014881.4771967260167, 1712412.507400858448818 ], [ 3014873.606905010063201, 1712434.744749182835221 ], [ 3014869.665889258496463, 1712456.288130816305056 ], [ 3014854.722552426159382, 1712479.774537464603782 ], [ 3014841.827058237977326, 1712516.530436761444435 ], [ 3014824.571970794349909, 1712566.885370240081102 ], [ 3014823.115040378645062, 1712578.36822369764559 ], [ 3014823.895185673609376, 1712588.654242564225569 ], [ 3014822.254760108422488, 1712604.178622195962816 ], [ 3014817.591098824515939, 1712621.038673674454913 ], [ 3014801.01282658521086, 1712649.624998651444912 ], [ 3014794.656993156298995, 1712665.982110467972234 ], [ 3014792.569576565176249, 1712725.686015837825835 ], [ 3014783.058799431659281, 1712763.447818595916033 ], [ 3014779.422111990861595, 1712781.730328152421862 ], [ 3014791.922120688483119, 1712805.181216803379357 ], [ 3014793.877161451615393, 1712808.498599257320166 ], [ 3014801.766167000867426, 1712821.884671355830505 ], [ 3014802.787382298149168, 1712833.731820128392428 ], [ 3014799.454749603755772, 1712848.753301938995719 ], [ 3014794.518221693113446, 1712859.25216272380203 ], [ 3014785.475353661458939, 1712878.484255278715864 ], [ 3014776.630241994746029, 1712915.326898158527911 ], [ 3014770.934271832928061, 1712941.189494396327063 ], [ 3014771.886846384033561, 1712968.283442837651819 ], [ 3014787.656720188912004, 1712981.535067405086011 ], [ 3014876.85387970879674, 1713025.919524669647217 ], [ 3014893.472335553728044, 1713034.210313372081146 ], [ 3015016.660656345076859, 1713102.506590699777007 ], [ 3015027.495037556625903, 1713113.339194366708398 ], [ 3015045.513065988197923, 1713142.898724511032924 ], [ 3015064.792900936678052, 1713167.557862381218001 ], [ 3015076.624514434486628, 1713178.832314781844616 ], [ 3015082.016756313852966, 1713174.539096793858334 ], [ 3015084.124111169949174, 1713164.539042261894792 ], [ 3015093.278427373152226, 1713121.099632708122954 ], [ 3015100.094776410143822, 1713091.163539983797818 ], [ 3015112.346657315269113, 1713070.290496780071408 ], [ 3015115.726292467676103, 1713061.675423871725798 ], [ 3015148.467502699699253, 1713064.580034836661071 ], [ 3015146.495070451870561, 1713069.672487922711298 ], [ 3015135.15381252579391, 1713177.516848772065714 ], [ 3015123.243059486150742, 1713295.618393334792927 ], [ 3015122.639957084320486, 1713304.308994117192924 ], [ 3015121.740696711931378, 1713317.265806427923962 ], [ 3015124.838414918165654, 1713326.875345735112205 ], [ 3015128.299566449597478, 1713335.351419718004763 ], [ 3015135.267785756848752, 1713342.139298483263701 ], [ 3015137.925663536414504, 1713345.411795228952542 ], [ 3015133.830093964003026, 1713355.489708768203855 ], [ 3015131.524279868230224, 1713371.933586805593222 ], [ 3015136.431341434828937, 1713389.776512050069869 ], [ 3015147.067243244498968, 1713402.861285165417939 ], [ 3015155.944566132966429, 1713416.859592764871195 ], [ 3015174.212211528792977, 1713426.419825265649706 ], [ 3015186.63809872046113, 1713438.524318003794178 ], [ 3015188.705572496168315, 1713440.538228338817134 ], [ 3015195.392059243284166, 1713476.604787134332582 ], [ 3015200.328259913250804, 1713494.078818609705195 ], [ 3015202.496346795931458, 1713515.377026792615652 ], [ 3015208.856290983967483, 1713534.823387095471844 ], [ 3015224.562823297921568, 1713553.175057861953974 ], [ 3015234.31931970641017, 1713569.241784099023789 ], [ 3015258.707898843102157, 1713574.941525445319712 ], [ 3015271.948264032136649, 1713580.942388531286269 ], [ 3015287.051003972999752, 1713631.644486403791234 ], [ 3015300.319741915445775, 1713663.213116073049605 ], [ 3015307.423127851448953, 1713685.1242294695694 ], [ 3015313.966696018818766, 1713694.39251597225666 ], [ 3015319.879764860495925, 1713715.265028831781819 ], [ 3015329.215583520941436, 1713740.878885111073032 ], [ 3015341.090567469596863, 1713765.50966983800754 ], [ 3015342.574901676736772, 1713778.611433431738988 ], [ 3015367.530112375039607, 1713835.678636486874893 ], [ 3015419.314538422971964, 1713949.749441765714437 ], [ 3015483.05106816533953, 1714095.921238188631833 ], [ 3015509.146746432874352, 1714169.091395501745865 ], [ 3015514.271625676192343, 1714177.897266308544204 ], [ 3015550.899103050120175, 1714240.832783640827984 ], [ 3015595.542850180529058, 1714319.545530332485214 ], [ 3015632.610477308742702, 1714384.900477868970484 ], [ 3015725.293692328501493, 1714534.364028811221942 ], [ 3015748.374548868276179, 1714556.973206368507817 ], [ 3015765.378030459862202, 1714580.099424863001332 ], [ 3015775.051151463761926, 1714595.625410136999562 ], [ 3015800.808819801546633, 1714628.324539139168337 ], [ 3015801.488977101165801, 1714628.712771843653172 ], [ 3015807.29809520021081, 1714632.028654991416261 ], [ 3015826.475957741960883, 1714630.61800885759294 ], [ 3015841.335455073043704, 1714627.006268894299865 ], [ 3015856.123937458731234, 1714616.491631065262482 ], [ 3015870.092712893150747, 1714607.109621241921559 ], [ 3015883.054370272904634, 1714600.869084015488625 ], [ 3015898.917572365142405, 1714600.537763651227579 ], [ 3015917.611389480531216, 1714599.212645004037768 ], [ 3015937.831638510338962, 1714598.111895625246689 ], [ 3015945.577786603942513, 1714596.744021811289713 ], [ 3015954.25654376950115, 1714591.753856833092868 ], [ 3015961.224793262779713, 1714582.126242829021066 ], [ 3015968.179886003956199, 1714562.546428558416665 ], [ 3015970.584910481236875, 1714555.775780300609767 ], [ 3015978.934591966681182, 1714538.988818757468835 ], [ 3015990.818400846794248, 1714528.987153477268293 ], [ 3016008.926873855292797, 1714516.762242181459442 ], [ 3016015.589814847800881, 1714512.264214973896742 ] ] ] ] } }
]
}
