{
"type": "FeatureCollection",
"name": "Campillo_de_Arenas",
"crs": { "type": "name", "properties": { "name": "urn:ogc:def:crs:EPSG::3035" } },
"features": [
{ "type": "Feature", "properties": { "ENP_GRAL": 1.0, "ENP_GRAL_NAME": "Otros Parques", "color": "#38A800" }, "geometry": { "type": "MultiPolygon", "coordinates": [ [ [ [ 3110278.052864416036755, 1728849.642947031883523 ], [ 3110181.984834043309093, 1728790.105733793461695 ], [ 3110131.310190431773663, 1728754.23251552390866 ], [ 3110098.188725737854838, 1728715.055985599057749 ], [ 3110089.691079034470022, 1728681.949505306547508 ], [ 3110104.206235070247203, 1728622.122581324074417 ], [ 3110117.365918254479766, 1728553.696211256552488 ], [ 3110118.096701131202281, 1728481.372028968995437 ], [ 3110115.794983077794313, 1728370.951841848669574 ], [ 3110110.620604979805648, 1728307.984475940931588 ], [ 3110115.670993485487998, 1728230.870669405674562 ], [ 3110114.260293381754309, 1728133.675644287606701 ], [ 3110110.389863555319607, 1728071.743779034353793 ], [ 3110099.253668492194265, 1728043.387155764736235 ], [ 3110072.498666783329099, 1727998.055018749786541 ], [ 3109975.503579140640795, 1727873.803536775289103 ], [ 3109901.634843060746789, 1727767.99881445011124 ], [ 3109852.24747174885124, 1727689.241135209565982 ], [ 3109844.23526550270617, 1727659.079080673167482 ], [ 3109854.113302607554942, 1727591.224253300577402 ], [ 3109861.436837799847126, 1727499.326622325461358 ], [ 3109861.493665819987655, 1727441.004396797157824 ], [ 3109853.090608674101532, 1727401.065577683970332 ], [ 3109827.405499326996505, 1727366.402633952209726 ], [ 3109746.641656218096614, 1727296.38071540906094 ], [ 3109676.726653238758445, 1727241.891135841375217 ], [ 3109601.276981653645635, 1727198.966218440560624 ], [ 3109535.769441877957433, 1727147.497156649595127 ], [ 3109428.169618821702898, 1727064.47013989277184 ], [ 3109358.353121638298035, 1727021.57622921327129 ], [ 3109300.547992382198572, 1726998.051310950657353 ], [ 3109246.617493930272758, 1726904.43308458221145 ], [ 3109164.255910072475672, 1726735.988067427650094 ], [ 3109114.31531383888796, 1726660.861740482738242 ], [ 3109044.300250152591616, 1726646.022919693728909 ], [ 3108961.338865983299911, 1726642.52233646158129 ], [ 3108816.666317435912788, 1726619.458276888821274 ], [ 3108691.035383439622819, 1726609.997493258444592 ], [ 3108574.347488817758858, 1726614.633214892586693 ], [ 3108490.359888785518706, 1726619.137931271921843 ], [ 3108378.755674614571035, 1726645.861925806617364 ], [ 3108128.909602783620358, 1726709.496631125221029 ], [ 3108037.970624352339655, 1726808.107316049747169 ], [ 3107963.361645449884236, 1726888.228344066767022 ], [ 3107802.704899989068508, 1726753.846066215308383 ], [ 3107721.361668809317052, 1726705.891004389617592 ], [ 3107612.164372965693474, 1726641.827356118243188 ], [ 3107484.355538772419095, 1726522.939649235922843 ], [ 3107420.005634091794491, 1726456.88321923580952 ], [ 3107388.162395503371954, 1726415.46756282588467 ], [ 3107339.791811225935817, 1726364.80854120850563 ], [ 3107309.149249453097582, 1726400.42974569927901 ], [ 3107237.556993752717972, 1726496.435508909402415 ], [ 3107047.331348911859095, 1726676.181765434332192 ], [ 3106950.567254962399602, 1726788.178777533350512 ], [ 3106737.297448222991079, 1726748.526795324869454 ], [ 3106581.13673001434654, 1726738.82955110562034 ], [ 3106302.765127510763705, 1726716.056971609825268 ], [ 3106182.812315169721842, 1726692.238051637308672 ], [ 3106077.466445539146662, 1726682.540187333012 ], [ 3106014.792433921247721, 1726664.158040103269741 ], [ 3105937.299027966335416, 1726637.498902767663822 ], [ 3105888.536491123959422, 1726639.669437234522775 ], [ 3105700.710322695318609, 1726673.602500883862376 ], [ 3105568.931771972216666, 1726697.534466085257009 ], [ 3105511.076819465495646, 1726717.695683474419639 ], [ 3105414.826158252544701, 1726756.148279250366613 ], [ 3105290.662612969987094, 1726800.214204425923526 ], [ 3105170.958707483951002, 1726836.689427914097905 ], [ 3105113.293589096516371, 1726858.08035030355677 ], [ 3105025.892922582104802, 1726917.462879688944668 ], [ 3104948.691134260967374, 1726987.9448879417032 ], [ 3104849.504618041217327, 1726996.364830147242174 ], [ 3104703.451402793172747, 1727022.784631756134331 ], [ 3104667.550063539296389, 1726972.987984783481807 ], [ 3104626.20584668405354, 1726924.391114700119942 ], [ 3104573.352272280491889, 1726863.407355153467506 ], [ 3104359.105034813284874, 1726688.883095164550468 ], [ 3104248.966816646978259, 1726604.039065515156835 ], [ 3104019.62872408516705, 1726562.6546349900309 ], [ 3103888.196911343373358, 1726654.945151587715372 ], [ 3103788.000394972506911, 1726720.848584576277062 ], [ 3103639.544974132440984, 1726777.730496002594009 ], [ 3103522.330505346879363, 1726826.652908662799746 ], [ 3103501.023988053202629, 1726834.904300084337592 ], [ 3103478.602783026173711, 1726843.3500896547921 ], [ 3103429.292965189553797, 1726867.582493093097582 ], [ 3103369.388684567064047, 1726903.755494090495631 ], [ 3103259.317746966611594, 1726977.185877537587658 ], [ 3103141.463356706313789, 1727055.000039430102333 ], [ 3103054.107168511487544, 1727118.167001047404483 ], [ 3102983.483919314108789, 1727179.936736581847072 ], [ 3102898.230276229791343, 1727264.196570352418348 ], [ 3102816.782315728720278, 1727351.076199204893783 ], [ 3102751.796457402408123, 1727398.232988965697587 ], [ 3102727.730304878670722, 1727410.247613552724943 ], [ 3102656.867832130752504, 1727456.408784561324865 ], [ 3102672.343509386759251, 1727571.608407987980172 ], [ 3102688.669386831112206, 1727637.180556667270139 ], [ 3102713.439634733833373, 1727724.761026320280507 ], [ 3102744.523813516367227, 1727816.795972514664754 ], [ 3102783.10559771489352, 1727913.332955838181078 ], [ 3102820.727523798588663, 1727996.404868511948735 ], [ 3102884.451917147263885, 1728080.487398748286068 ], [ 3102937.761294830590487, 1728192.132968519581482 ], [ 3102974.888406490441412, 1728238.938142090803012 ], [ 3103027.843291371595114, 1728311.515685354592279 ], [ 3103056.866959070786834, 1728368.06249722559005 ], [ 3103067.812466753646731, 1728409.831595693016425 ], [ 3103076.077601180411875, 1728500.285152187105268 ], [ 3103084.580548961181194, 1728614.175425884081051 ], [ 3103088.472469472326338, 1728686.960776722058654 ], [ 3103077.727338726632297, 1728763.808988970937207 ], [ 3103033.028233361430466, 1728891.503175779012963 ], [ 3102977.339482824318111, 1729006.467882143799216 ], [ 3102952.167126468382776, 1729084.817531827604398 ], [ 3102939.609086499549448, 1729135.221789381699637 ], [ 3102939.902253382373601, 1729181.117135451873764 ], [ 3102946.454518136568367, 1729209.00921006151475 ], [ 3102966.446300909854472, 1729243.649759122403339 ], [ 3103003.284552001859993, 1729277.630693874554709 ], [ 3103052.593034259043634, 1729319.286640995182097 ], [ 3103093.335984229110181, 1729349.306095961248502 ], [ 3103171.788097145967185, 1729389.424413157394156 ], [ 3103224.661298352759331, 1729424.90648925350979 ], [ 3103254.067553061060607, 1729469.269229452125728 ], [ 3103266.296956725418568, 1729515.864270904799923 ], [ 3103302.926806897390634, 1729606.936244894284755 ], [ 3103360.292297323234379, 1729730.247546354774386 ], [ 3103402.369382685050368, 1729835.014066759729758 ], [ 3103452.597437201067805, 1729904.533358148531988 ], [ 3103500.037508886773139, 1729945.000458363210782 ], [ 3103573.036171880550683, 1729993.894360876642168 ], [ 3103633.865140401758254, 1730051.723318661795929 ], [ 3103656.396540012676269, 1730088.194846208672971 ], [ 3103663.196477683726698, 1730111.499131352175027 ], [ 3103943.075253333896399, 1729720.969622702570632 ], [ 3103965.885779624804854, 1729385.025460529141128 ], [ 3104005.926444429904222, 1729303.079962157877162 ], [ 3104060.061267237178981, 1729263.112836414016783 ], [ 3104137.312322317622602, 1729237.805103403516114 ], [ 3104344.62138850800693, 1729216.877418719930574 ], [ 3104529.803076335694641, 1729216.211884401505813 ], [ 3104704.34939041081816, 1729203.259566743625328 ], [ 3104807.311523075215518, 1729166.915676289005205 ], [ 3104900.215591048821807, 1729150.751168329268694 ], [ 3105016.084923998452723, 1729141.447132218629122 ], [ 3105095.858859109226614, 1729125.295195520389825 ], [ 3105327.4635418667458, 1729041.579639823408797 ], [ 3105456.051214017905295, 1729014.916935498826206 ], [ 3105545.817598077002913, 1729006.873467530822381 ], [ 3105795.483475552406162, 1728862.208923275349662 ], [ 3105845.719839447177947, 1728953.691212783334777 ], [ 3106073.932120343670249, 1728833.461818622425199 ], [ 3106134.914199164137244, 1728916.25884748972021 ], [ 3106170.613455570768565, 1728941.605327372672036 ], [ 3106340.44758794689551, 1728990.57326036808081 ], [ 3106581.357920204289258, 1729017.081592418020591 ], [ 3106741.238265168853104, 1729051.374659088207409 ], [ 3106923.217354799620807, 1729065.41512552741915 ], [ 3107164.554443115368485, 1729051.714897528057918 ], [ 3107186.257167843170464, 1729178.454159032087773 ], [ 3107282.48263734485954, 1729390.4343154609669 ], [ 3107320.335833610966802, 1729451.253393685445189 ], [ 3107378.57292958907783, 1729501.964725988451391 ], [ 3107426.29928678739816, 1729519.918212966993451 ], [ 3107439.676086726598442, 1729592.568720565875992 ], [ 3107430.139990403782576, 1729665.921915657818317 ], [ 3107418.11524492315948, 1729808.625528195872903 ], [ 3107402.271026441827416, 1729955.023349923547357 ], [ 3107412.156229216605425, 1730076.246126763522625 ], [ 3107435.911332301329821, 1730223.330358591862023 ], [ 3107487.911181099712849, 1730183.740360557334498 ], [ 3107703.370002229698002, 1730778.39516320056282 ], [ 3107710.461943269707263, 1730831.690590537386015 ], [ 3107707.647317077964544, 1730856.162328680045903 ], [ 3107687.411277829669416, 1730895.52927926229313 ], [ 3107557.105639454908669, 1731245.619155232328922 ], [ 3107246.463119852356613, 1731777.540770883439109 ], [ 3107200.028403625823557, 1731796.473372726235539 ], [ 3107161.952183780260384, 1731812.689256925601512 ], [ 3107132.27571945823729, 1731854.962184694828466 ], [ 3107119.792981990613043, 1731887.680314268451184 ], [ 3107129.969223699532449, 1731946.751294568413869 ], [ 3107137.602780338842422, 1731989.097342675551772 ], [ 3107207.953129240777344, 1732139.944770860485733 ], [ 3107308.745995464734733, 1732317.305883445311338 ], [ 3107428.137259248644114, 1732309.413138596806675 ], [ 3107504.477892259135842, 1732427.915077688638121 ], [ 3107685.108665047213435, 1732269.259974515996873 ], [ 3108399.134739954955876, 1731465.98395115416497 ], [ 3108858.887722600717098, 1730976.816815324593335 ], [ 3108967.904660480096936, 1730951.296748108230531 ], [ 3109091.240771057084203, 1730840.737192600034177 ], [ 3109142.459442980121821, 1730860.105471274117008 ], [ 3109291.25428253877908, 1730665.600420749513432 ], [ 3109514.165539870969951, 1730503.903285351814702 ], [ 3109605.344339710194618, 1730405.249443598324433 ], [ 3109842.324692791793495, 1730135.588404290145263 ], [ 3110078.142523376271129, 1730029.209993284894153 ], [ 3110510.901211407966912, 1729741.931927973637357 ], [ 3110413.142176941968501, 1728978.634469750802964 ], [ 3110332.670413138344884, 1728899.977347706910223 ], [ 3110278.052864416036755, 1728849.642947031883523 ] ] ], [ [ [ 3124878.04218239011243, 1731289.98455512849614 ], [ 3124870.154155297204852, 1731292.867161196423694 ], [ 3124862.809741935692728, 1731297.422249984461814 ], [ 3124783.453072651289403, 1731362.425426119705662 ], [ 3124777.457426698878407, 1731368.513591410126537 ], [ 3124702.766155302524567, 1731464.25908085051924 ], [ 3124696.319571717642248, 1731470.930227892240509 ], [ 3124688.479552704840899, 1731475.571432694327086 ], [ 3124675.786771701648831, 1731481.493073347955942 ], [ 3124668.175011972896755, 1731478.813490267843008 ], [ 3124654.297278406098485, 1731473.928216985194013 ], [ 3124641.302364305593073, 1731454.979789212811738 ], [ 3124635.74274727050215, 1731445.090401379624382 ], [ 3124611.036838243715465, 1731450.890254935482517 ], [ 3124594.190947322640568, 1731455.074311885982752 ], [ 3124583.509869046509266, 1731473.081276163691655 ], [ 3124572.343943388666958, 1731488.143355992622674 ], [ 3124539.673403663560748, 1731503.149451319593936 ], [ 3124523.727092998102307, 1731522.069837043294683 ], [ 3124514.044872135855258, 1731511.633545429212973 ], [ 3124506.011899951845407, 1731494.34849858446978 ], [ 3124471.556402523070574, 1731480.384683965938166 ], [ 3124433.423627078067511, 1731477.6599793266505 ], [ 3124402.560644587036222, 1731487.052009807433933 ], [ 3124388.763663077261299, 1731493.483940583653748 ], [ 3124345.396645692177117, 1731491.667159917997196 ], [ 3124308.278244338929653, 1731495.329383848467842 ], [ 3124288.701511826366186, 1731490.648054823512211 ], [ 3124270.456366753671318, 1731485.735780585324392 ], [ 3124252.528968756087124, 1731474.205675055272877 ], [ 3124232.286492148414254, 1731456.514487208332866 ], [ 3124233.519820575602353, 1731446.961381567409262 ], [ 3124240.176578806713223, 1731437.729434651788324 ], [ 3124239.405690762214363, 1731415.146178510505706 ], [ 3124233.747617387212813, 1731395.934718478005379 ], [ 3124222.991375140845776, 1731387.199318069498986 ], [ 3124209.527362568769604, 1731352.177934013307095 ], [ 3124190.177457454614341, 1731348.971846063388512 ], [ 3124166.576372602954507, 1731353.065735421841964 ], [ 3124143.981838397681713, 1731346.131530801765621 ], [ 3124130.289831748232245, 1731340.429389073047787 ], [ 3124114.110138025134802, 1731331.372674067271873 ], [ 3124101.099551611579955, 1731325.552453015465289 ], [ 3124098.557570483535528, 1731317.916285722516477 ], [ 3124108.452093640342355, 1731312.16132854972966 ], [ 3124119.685301656834781, 1731306.426609684247524 ], [ 3124122.597775077447295, 1731299.106206949101761 ], [ 3124113.051734239328653, 1731298.237993614980951 ], [ 3124098.11185999866575, 1731306.130267801927403 ], [ 3124085.962787537369877, 1731314.800412500044331 ], [ 3124080.448682792950422, 1731322.571967207826674 ], [ 3124069.026393585838377, 1731327.07747861626558 ], [ 3124054.214986520353705, 1731327.122650306439027 ], [ 3124034.547543770633638, 1731330.534444997087121 ], [ 3124013.768222813960165, 1731335.401026045205072 ], [ 3123981.346618794370443, 1731343.549303485546261 ], [ 3123962.700212627649307, 1731353.599099555052817 ], [ 3123945.763880347833037, 1731365.876337145920843 ], [ 3123938.312807378359139, 1731369.945309319533408 ], [ 3123929.840728036127985, 1731367.376421574037522 ], [ 3123913.478503494523466, 1731383.592693042941391 ], [ 3123892.161570551339537, 1731393.853328539524227 ], [ 3123872.214447455480695, 1731404.128806660650298 ], [ 3123858.57559182215482, 1731411.795450059697032 ], [ 3123842.713035115040839, 1731422.371961708180606 ], [ 3123852.304756789468229, 1731440.901106884004548 ], [ 3123857.705137104727328, 1731458.642716840608045 ], [ 3123841.373915529809892, 1731474.853782961843535 ], [ 3123813.589447184465826, 1731495.575758958933875 ], [ 3123794.899893094785511, 1731514.005216714227572 ], [ 3123793.709865212906152, 1731515.178828885080293 ], [ 3123764.367891267873347, 1731525.569671232951805 ], [ 3123742.483943533152342, 1731532.142623457126319 ], [ 3123710.887808536645025, 1731545.448882094584405 ], [ 3123683.769366295076907, 1731552.92995834746398 ], [ 3123691.991543748416007, 1731571.444239629432559 ], [ 3123675.561866029165685, 1731578.333069450454786 ], [ 3123665.531564781442285, 1731596.227687314385548 ], [ 3123633.109508076682687, 1731607.012405118439347 ], [ 3123632.225488706491888, 1731607.30640184530057 ], [ 3123612.535067181568593, 1731628.139061787864193 ], [ 3123588.011568608693779, 1731634.917584309820086 ], [ 3123572.693775318562984, 1731640.351578052388504 ], [ 3123559.849222617223859, 1731653.18146320944652 ], [ 3123547.86764729488641, 1731671.414531067712232 ], [ 3123535.212315197102726, 1731685.473642248660326 ], [ 3123535.726823381148279, 1731697.500247640302405 ], [ 3123545.854962796904147, 1731719.722536403918639 ], [ 3123587.534464980475605, 1731780.643517256947234 ], [ 3123602.043052742257714, 1731804.882458362495527 ], [ 3123605.636100075207651, 1731828.238596370443702 ], [ 3123599.87238138820976, 1731851.955794353969395 ], [ 3123583.684635255020112, 1731866.257125271717086 ], [ 3123574.145656820386648, 1731851.118382793385535 ], [ 3123556.944751156494021, 1731835.423820363590494 ], [ 3123534.478650055360049, 1731820.642811873694882 ], [ 3123520.25776959490031, 1731806.95549076795578 ], [ 3123491.664504155050963, 1731778.597337952582166 ], [ 3123471.808159024454653, 1731780.780181169509888 ], [ 3123458.449013222940266, 1731781.583335986128077 ], [ 3123445.905343087390065, 1731783.75959532125853 ], [ 3123440.113550124689937, 1731784.764403029344976 ], [ 3123429.137236377224326, 1731774.805225743213668 ], [ 3123409.78057571593672, 1731771.348337466130033 ], [ 3123391.225073316134512, 1731773.305465917801484 ], [ 3123378.728984473273158, 1731779.512223694706336 ], [ 3123358.267580281943083, 1731777.761365029495209 ], [ 3123340.785914947278798, 1731778.017880325671285 ], [ 3123328.985582747031003, 1731780.065132207004353 ], [ 3123311.852375423535705, 1731773.698314743116498 ], [ 3123303.501756223849952, 1731763.031148902140558 ], [ 3123284.847676143050194, 1731755.666141738416627 ], [ 3123237.230243519879878, 1731761.151033490197733 ], [ 3123208.11572116240859, 1731773.017572201322764 ], [ 3123183.788423040416092, 1731781.277062765322626 ], [ 3123164.21978546353057, 1731794.011715475702658 ], [ 3123135.036457953043282, 1731805.637841772986576 ], [ 3123112.767629219219089, 1731809.501553336391225 ], [ 3123087.040979664307088, 1731808.664373370818794 ], [ 3123063.727966989390552, 1731823.310817930381745 ], [ 3123049.105974968522787, 1731824.585745434043929 ], [ 3123017.358964719809592, 1731836.909274257021025 ], [ 3122996.647848718333989, 1731851.104292197851464 ], [ 3122975.029432258568704, 1731854.855267922859639 ], [ 3122956.663050756324083, 1731858.041974924504757 ], [ 3122949.40139252319932, 1731863.340617459500208 ], [ 3122931.035002453718334, 1731866.527240438619629 ], [ 3122911.277456571813673, 1731878.032817127648741 ], [ 3122897.638908753171563, 1731885.699926126282662 ], [ 3122878.160842494107783, 1731890.341685837833211 ], [ 3122851.042992773931473, 1731897.823548652231693 ], [ 3122829.6590138040483, 1731898.757345235906541 ], [ 3122811.708742329850793, 1731904.648558122105896 ], [ 3122775.967854837886989, 1731934.829785030102357 ], [ 3122744.788374837953597, 1731950.841391242109239 ], [ 3122719.160455400124192, 1731959.327031083172187 ], [ 3122710.348401704803109, 1731980.797028852859512 ], [ 3122712.073613517917693, 1732000.691306394990534 ], [ 3122727.467120710760355, 1732021.999940123641863 ], [ 3122751.355484319385141, 1732028.456453138729557 ], [ 3122780.705049916170537, 1732035.479972393484786 ], [ 3122782.138097617309541, 1732035.980052592931315 ], [ 3122806.310219629202038, 1732044.415179361123592 ], [ 3122823.632529256865382, 1732052.011198107851669 ], [ 3122837.437371312640607, 1732062.993887257529423 ], [ 3122846.998566932044923, 1732081.528392591280863 ], [ 3122850.518855876289308, 1732093.033426810288802 ], [ 3122852.430223426315933, 1732099.264869081554934 ], [ 3122868.708500365260988, 1732117.643440848449245 ], [ 3122892.006783356424421, 1732137.833059330936521 ], [ 3122904.193663954734802, 1732155.65952292107977 ], [ 3122906.009300365112722, 1732167.460610164096579 ], [ 3122889.927302867174149, 1732176.813939779996872 ], [ 3122870.692100685089827, 1732173.146072258474305 ], [ 3122867.749044162221253, 1732172.58485396951437 ], [ 3122837.930921489838511, 1732171.195812680292875 ], [ 3122805.253187355585396, 1732168.788546830881387 ], [ 3122780.858544127084315, 1732167.720659989630803 ], [ 3122733.0524483891204, 1732171.977214296115562 ], [ 3122677.795678321737796, 1732180.303331386530772 ], [ 3122655.675531042739749, 1732186.113910330925137 ], [ 3122632.500995660200715, 1732192.201647140784189 ], [ 3122605.76161891175434, 1732202.142431659623981 ], [ 3122577.532187766395509, 1732211.079618465621024 ], [ 3122531.821377733722329, 1732220.273659100290388 ], [ 3122506.193713291548193, 1732228.75940094771795 ], [ 3122488.970222553703934, 1732230.486084956675768 ], [ 3122439.636588075198233, 1732233.493525774683803 ], [ 3122410.392915078438818, 1732236.044065784197301 ], [ 3122390.120670514181256, 1732235.523146911291406 ], [ 3122372.987436559051275, 1732229.15666833659634 ], [ 3122369.55662970803678, 1732226.727521137567237 ], [ 3122360.930400024168193, 1732220.647290031425655 ], [ 3122349.598885389510542, 1732217.06043193442747 ], [ 3122339.803579061292112, 1732232.138486196519807 ], [ 3122334.736048655584455, 1732251.697073513176292 ], [ 3122324.837932421825826, 1732259.673133837990463 ], [ 3122302.127787492237985, 1732244.987015020102262 ], [ 3122275.915106822736561, 1732221.76944464771077 ], [ 3122226.774431658908725, 1732189.657306038308889 ], [ 3122212.882801290601492, 1732183.485632664756849 ], [ 3122212.010774384718388, 1732183.200739525258541 ], [ 3122215.005409863777459, 1732189.427790268091485 ], [ 3122218.548457758501172, 1732202.948623539647087 ], [ 3122222.623691316694021, 1732227.988309278385714 ], [ 3122223.476027197670192, 1732238.694522431120276 ], [ 3122223.02063677739352, 1732249.375211840728298 ], [ 3122210.143510672729462, 1732351.063877774169669 ], [ 3122205.389372053556144, 1732369.558434320846573 ], [ 3122196.16867061983794, 1732386.303797530476004 ], [ 3122188.567404715809971, 1732396.810601401142776 ], [ 3122185.325613337568939, 1732401.291532756527886 ], [ 3122143.541213653050363, 1732459.046548065263778 ], [ 3122062.659160166513175, 1732571.778075468493626 ], [ 3122008.732306864112616, 1732659.638987254584208 ], [ 3121989.078578514046967, 1732701.165191360283643 ], [ 3121954.000495723448694, 1732820.590118144871667 ], [ 3121922.760137959383428, 1732938.087201525922865 ], [ 3121921.833100452553481, 1732943.141314999666065 ], [ 3124960.421014999505132, 1732943.141314999666065 ], [ 3124960.421014999505132, 1731269.418268786044791 ], [ 3124878.04218239011243, 1731289.98455512849614 ] ] ] ] } },
{ "type": "Feature", "properties": { "ENP_GRAL": 3.0, "ENP_GRAL_NAME": "Monumentos Naturales", "color": "#AAFF00" }, "geometry": { "type": "Polygon", "coordinates": [ [ [ 3106670.21537833660841, 1722285.550408975686878 ], [ 3106669.924670009873807, 1722285.122415383113548 ], [ 3106669.562618273310363, 1722284.752846545306966 ], [ 3106669.140223887749016, 1722284.452931633451954 ], [ 3106668.670321091078222, 1722284.231783414259553 ], [ 3106668.167187640443444, 1722284.096121352864429 ], [ 3106667.646110995206982, 1722284.05006748624146 ], [ 3106667.122923803515732, 1722284.09502113237977 ], [ 3106666.613522848114371, 1722284.229616404976696 ], [ 3106666.133386017754674, 1722284.449763686629012 ], [ 3106665.697102029807866, 1722284.748773918254301 ], [ 3106665.317927154246718, 1722285.117561824386939 ], [ 3106665.007382427807897, 1722285.544921963475645 ], [ 3106664.774903596378863, 1722286.017869220580906 ], [ 3106664.627554410137236, 1722286.522033327026293 ], [ 3106664.569811999797821, 1722287.042095509590581 ], [ 3106664.603430837392807, 1722287.562253939686343 ], [ 3106664.727389430627227, 1722288.066703871358186 ], [ 3106664.937921359203756, 1722288.540117849828675 ], [ 3106665.228629715275019, 1722288.968111424474046 ], [ 3106665.590681469999254, 1722289.337680224096403 ], [ 3106666.013075864873827, 1722289.637595101958141 ], [ 3106666.482978658750653, 1722289.858743290184066 ], [ 3106666.986112093087286, 1722289.994405320612714 ], [ 3106667.507188714109361, 1722290.040459163254127 ], [ 3106668.030375872738659, 1722289.99550549662672 ], [ 3106668.539776794612408, 1722289.860910230083391 ], [ 3106669.019913590978831, 1722289.640762956347317 ], [ 3106669.45619755005464, 1722289.341752745676786 ], [ 3106669.835372406058013, 1722288.972964868415147 ], [ 3106670.145917123649269, 1722288.545604763319716 ], [ 3106670.378395958803594, 1722288.072657541837543 ], [ 3106670.525745159946382, 1722287.568493467988446 ], [ 3106670.583487596362829, 1722287.048431311966851 ], [ 3106670.549868789501488, 1722286.528272888856009 ], [ 3106670.425910230726004, 1722286.023822959279642 ], [ 3106670.21537833660841, 1722285.550408975686878 ] ] ] } },
{ "type": "Feature", "properties": { "ENP_GRAL": 5.0, "ENP_GRAL_NAME": "Espacios Protegidos Red Natura 2000", "color": "#A87000" }, "geometry": { "type": "MultiPolygon", "coordinates": [ [ [ [ 3124955.77547397557646, 1728099.259282703511417 ], [ 3124944.846439787186682, 1728112.76505353837274 ], [ 3124938.074589435011148, 1728121.258694093674421 ], [ 3124933.067203952930868, 1728123.641509076813236 ], [ 3124926.756902835331857, 1728130.792759170290083 ], [ 3124923.34524582605809, 1728139.209308296209201 ], [ 3124914.053870825562626, 1728148.896558231674135 ], [ 3124897.766690190881491, 1728161.059102189494297 ], [ 3124884.843891084194183, 1728173.396140734665096 ], [ 3124868.447330369614065, 1728183.810883690137416 ], [ 3124865.196906516328454, 1728190.179380524670705 ], [ 3124857.917714967392385, 1728204.061394074466079 ], [ 3124852.36135137360543, 1728214.868846293073148 ], [ 3124835.115515478421003, 1728233.00266634253785 ], [ 3124818.592795281205326, 1728250.254282106412575 ], [ 3124806.396053549833596, 1728262.968896184116602 ], [ 3124786.493485267274082, 1728269.197902887826785 ], [ 3124760.024530320428312, 1728272.020768090616912 ], [ 3124739.857136068865657, 1728276.526812119176611 ], [ 3124718.319372976198792, 1728281.019187682075426 ], [ 3124702.047200743108988, 1728284.597615394741297 ], [ 3124685.352910493966192, 1728285.22109164041467 ], [ 3124672.952756866812706, 1728288.128023365046829 ], [ 3124653.510717703960836, 1728293.013880017912015 ], [ 3124634.758619136177003, 1728293.489684370346367 ], [ 3124638.893837853334844, 1728279.647218064405024 ], [ 3124638.542926205322146, 1728265.573609250131994 ], [ 3124638.075468314811587, 1728249.501206366578117 ], [ 3124624.270147702656686, 1728238.518365339143202 ], [ 3124617.469596633687615, 1728242.474446964683011 ], [ 3124615.086214421782643, 1728250.96405754587613 ], [ 3124606.794601676054299, 1728256.187644229736179 ], [ 3124601.324707518331707, 1728259.912991840159521 ], [ 3124594.713677307590842, 1728260.553829476935789 ], [ 3124591.080458303913474, 1728257.398039166582748 ], [ 3124597.179617136716843, 1728250.534407719271258 ], [ 3124602.952838030643761, 1728244.233941639773548 ], [ 3124602.272465960122645, 1728239.809282467933372 ], [ 3124597.968389111105353, 1728233.740655103931203 ], [ 3124596.334962462075055, 1728227.461243074154481 ], [ 3124597.789615916553885, 1728219.132676777429879 ], [ 3124595.376030914485455, 1728208.192588947247714 ], [ 3124593.137803035788238, 1728197.979941297089681 ], [ 3124587.391902984119952, 1728192.665856319945306 ], [ 3124579.938184337690473, 1728190.930196738801897 ], [ 3124578.173771671485156, 1728197.041156919440255 ], [ 3124579.958476123400033, 1728204.304393001133576 ], [ 3124574.963442521635443, 1728214.004617848433554 ], [ 3124569.56119759939611, 1728224.784404849167913 ], [ 3124564.486304077319801, 1728235.002906599314883 ], [ 3124561.914881702512503, 1728239.99244895670563 ], [ 3124549.242867370601743, 1728240.927556068403646 ], [ 3124544.343264300376177, 1728239.253636549925432 ], [ 3124542.658328794874251, 1728232.226318770553917 ], [ 3124536.04326445562765, 1728233.877924429951236 ], [ 3124528.251874396111816, 1728235.73351195268333 ], [ 3124518.092796308454126, 1728232.952505907276645 ], [ 3124515.163615302182734, 1728229.421214897418395 ], [ 3124509.017810749821365, 1728221.906174299074337 ], [ 3124500.172421908006072, 1728219.400886935880408 ], [ 3124486.813683016225696, 1728215.660244772909209 ], [ 3124483.735255196690559, 1728208.874568123370409 ], [ 3124484.942284294404089, 1728168.534214007668197 ], [ 3124472.055646923370659, 1728175.311466914834455 ], [ 3124459.107429187279195, 1728184.371733979554847 ], [ 3124441.370112688280642, 1728197.038315903162584 ], [ 3124448.197642257902771, 1728200.902550059370697 ], [ 3124454.776585473213345, 1728204.80989185301587 ], [ 3124459.830893792212009, 1728211.000623689265922 ], [ 3124464.560914654284716, 1728216.742156402207911 ], [ 3124467.704719022382051, 1728227.050087654497474 ], [ 3124477.164740468375385, 1728257.969936840236187 ], [ 3124487.179454626049846, 1728274.910437014419585 ], [ 3124494.62363563477993, 1728275.13415427133441 ], [ 3124500.764955500140786, 1728280.126439777435735 ], [ 3124502.466107124928385, 1728291.190077376319095 ], [ 3124498.10135470610112, 1728297.751867807703093 ], [ 3124489.779231183696538, 1728300.70956194261089 ], [ 3124481.122520502656698, 1728306.248812836362049 ], [ 3124472.470399141311646, 1728306.234565426595509 ], [ 3124462.021990059874952, 1728306.531910607591271 ], [ 3124453.678912538103759, 1728311.007733188569546 ], [ 3124448.058843872509897, 1728313.749094648519531 ], [ 3124438.73892308305949, 1728318.898940850747749 ], [ 3124426.286322589032352, 1728321.058326220139861 ], [ 3124417.533434433862567, 1728329.895661126123741 ], [ 3124415.26443634275347, 1728336.85179537977092 ], [ 3124404.415470495354384, 1728340.752218637848273 ], [ 3124391.728529533371329, 1728350.271767245605588 ], [ 3124380.092759503051639, 1728366.424026609398425 ], [ 3124365.140614432282746, 1728379.616780856624246 ], [ 3124358.938556600362062, 1728395.332328895572573 ], [ 3124353.680556878447533, 1728409.116360925836489 ], [ 3124337.490576256997883, 1728435.144834010628983 ], [ 3124334.054840771947056, 1728454.165496326051652 ], [ 3124327.524489455856383, 1728462.365253844764084 ], [ 3124335.187510075978935, 1728468.355913038132712 ], [ 3124337.698436207138002, 1728475.997761146165431 ], [ 3124343.537356157787144, 1728479.023452289868146 ], [ 3124362.953866129741073, 1728481.209012469742447 ], [ 3124379.719136868603528, 1728486.63130468968302 ], [ 3124391.838497128337622, 1728490.58681685407646 ], [ 3124400.312935899477452, 1728498.960320943268016 ], [ 3124410.800342619419098, 1728509.257196393562481 ], [ 3124423.493530364707112, 1728521.695010306313634 ], [ 3124431.381941743660718, 1728533.704860995523632 ], [ 3124440.648585611023009, 1728541.43647059192881 ], [ 3124456.42661832459271, 1728560.911191911669448 ], [ 3124482.159618752077222, 1728585.980171039002016 ], [ 3124512.023582541849464, 1728607.303741476964206 ], [ 3124527.159571864642203, 1728618.055709352949634 ], [ 3124535.517966428771615, 1728619.887587392935529 ], [ 3124542.848157286643982, 1728623.916984273819253 ], [ 3124553.045494070276618, 1728620.129568948410451 ], [ 3124568.432130627799779, 1728619.480427893344313 ], [ 3124580.030305746011436, 1728615.702319196658209 ], [ 3124587.341558661311865, 1728609.890830694464967 ], [ 3124591.39918121509254, 1728606.915883535286412 ], [ 3124597.269134205766022, 1728614.479795991443098 ], [ 3124606.088972859550267, 1728614.969396922038868 ], [ 3124615.682573760394007, 1728607.248563158558682 ], [ 3124622.778546833433211, 1728609.551686024758965 ], [ 3124634.721004673745483, 1728617.323863517958671 ], [ 3124641.612094517797232, 1728626.982039730763063 ], [ 3124637.866588099859655, 1728633.436564439209178 ], [ 3124638.773887453135103, 1728639.337390468921512 ], [ 3124646.708388443104923, 1728642.756377977551892 ], [ 3124652.957957846112549, 1728648.235455561429262 ], [ 3124653.44088435638696, 1728660.267119375057518 ], [ 3124649.604476842097938, 1728670.271014553727582 ], [ 3124645.48173940833658, 1728671.99598255334422 ], [ 3124637.735868659801781, 1728667.533213223097846 ], [ 3124626.49029227020219, 1728661.406994343735278 ], [ 3124613.868119293823838, 1728657.285282394848764 ], [ 3124607.120457864366472, 1728655.17397582787089 ], [ 3124603.572471936233342, 1728654.022416136227548 ], [ 3124600.85871413256973, 1728661.813637700863183 ], [ 3124597.832312694750726, 1728670.668028116924688 ], [ 3124594.281285766046494, 1728680.874661123612896 ], [ 3124589.978307536803186, 1728685.154436246724799 ], [ 3124585.318551305681467, 1728690.000607499852777 ], [ 3124575.72569471411407, 1728693.178672314621508 ], [ 3124559.764034267514944, 1728694.432060253806412 ], [ 3124551.292279319837689, 1728691.862995890667662 ], [ 3124544.490757020190358, 1728695.818297369172797 ], [ 3124540.542015597689897, 1728705.084956898586825 ], [ 3124542.326640285551548, 1728712.347235815599561 ], [ 3124550.336859035305679, 1728716.25860977335833 ], [ 3124558.306404068600386, 1728723.206222638022155 ], [ 3124563.074530309997499, 1728731.465730686439201 ], [ 3124568.172178728505969, 1728740.424838587408885 ], [ 3124576.507807379122823, 1728755.132937256246805 ], [ 3124587.816700648050755, 1728754.434161957586184 ], [ 3124602.06131782848388, 1728750.701656988589093 ], [ 3124611.018816606141627, 1728751.672916893148795 ], [ 3124625.783887100871652, 1728747.597959079314023 ], [ 3124636.81437558401376, 1728744.675135910045356 ], [ 3124650.340093035250902, 1728740.815101955085993 ], [ 3124662.981335575692356, 1728735.342551367124543 ], [ 3124669.40482753701508, 1728728.928270897362381 ], [ 3124680.410161893814802, 1728726.262039458379149 ], [ 3124692.408912192098796, 1728721.152218582341447 ], [ 3124698.974623175337911, 1728720.013695562025532 ], [ 3124708.862553513608873, 1728718.55130069074221 ], [ 3124718.719216072931886, 1728717.095340453088284 ], [ 3124724.573466711677611, 1728716.080192513531074 ], [ 3124731.011588769033551, 1728718.245193489128724 ], [ 3124737.859969981946051, 1728720.591268183663487 ], [ 3124742.562805142253637, 1728727.599733899347484 ], [ 3124746.942492415197194, 1728734.159809280885383 ], [ 3124749.754773509688675, 1728743.768544879974797 ], [ 3124754.640756218228489, 1728744.940317476401106 ], [ 3124761.686797224916518, 1728741.951711482834071 ], [ 3124765.724372008349746, 1728738.222405494889244 ], [ 3124771.624388231895864, 1728733.161196227651089 ], [ 3124774.28911439422518, 1728728.155357352690771 ], [ 3124777.280306564643979, 1728722.588483627187088 ], [ 3124779.917249223217368, 1728721.122280352981761 ], [ 3124788.786735682748258, 1728716.554107451578602 ], [ 3124798.095861355774105, 1728716.707703567575663 ], [ 3124805.037381798028946, 1728716.766311187064275 ], [ 3124809.200361739844084, 1728718.820200256304815 ], [ 3124817.18015965865925, 1728722.736902252072468 ], [ 3124825.009595148265362, 1728723.399398238630965 ], [ 3124829.532788208685815, 1728718.071408241754398 ], [ 3124834.117816464975476, 1728712.732596330344677 ], [ 3124839.148865702562034, 1728716.908403719076887 ], [ 3124845.29671736061573, 1728722.152833442203701 ], [ 3124848.188322131987661, 1728718.622352806851268 ], [ 3124856.178296883124858, 1728709.160534937866032 ], [ 3124861.210784662514925, 1728706.521103420527652 ], [ 3124868.394947771914303, 1728709.817928726086393 ], [ 3124877.82088995911181, 1728714.241732195019722 ], [ 3124882.202801863197237, 1728722.063706318615004 ], [ 3124878.332518916577101, 1728730.811066868482158 ], [ 3124872.817259295843542, 1728743.125057633500546 ], [ 3124873.474081628024578, 1728760.42808176483959 ], [ 3124878.693273975979537, 1728768.103763974504545 ], [ 3124871.779985358938575, 1728769.049302247585729 ], [ 3124862.753467747010291, 1728778.187345412326977 ], [ 3124836.524167273193598, 1728804.693087166175246 ], [ 3124825.425749795511365, 1728819.995357288513333 ], [ 3124811.089763856492937, 1728831.821001914329827 ], [ 3124801.164983996655792, 1728833.0364432586357 ], [ 3124792.14018745534122, 1728839.901880474528298 ], [ 3124784.90699664875865, 1728849.737947846297175 ], [ 3124770.079362687654793, 1728858.366365019232035 ], [ 3124756.061604996211827, 1728863.574067679001018 ], [ 3124748.800537660717964, 1728868.871305899694562 ], [ 3124743.63154315110296, 1728879.106291623320431 ], [ 3124748.267980940639973, 1728891.680123997619376 ], [ 3124761.400169500615448, 1728906.565474552568048 ], [ 3124770.180603082757443, 1728920.439745340729132 ], [ 3124778.212834713514894, 1728933.1813799822703 ], [ 3124796.747151482850313, 1728939.558237304678187 ], [ 3124813.63777094008401, 1728940.415176831418648 ], [ 3124867.126978300511837, 1728942.498419245006517 ], [ 3124890.876173480413854, 1728944.941869428148493 ], [ 3124918.81199328135699, 1728951.456374117406085 ], [ 3124960.421014999505132, 1728965.220442008459941 ], [ 3124960.421014999505132, 1728095.138683876488358 ], [ 3124955.77547397557646, 1728099.259282703511417 ] ] ], [ [ [ 3124878.04218239011243, 1731289.98455512849614 ], [ 3124870.154155297204852, 1731292.867161196423694 ], [ 3124862.809741935692728, 1731297.422249984461814 ], [ 3124783.453072651289403, 1731362.425426119705662 ], [ 3124777.457426698878407, 1731368.513591410126537 ], [ 3124702.766155302524567, 1731464.25908085051924 ], [ 3124696.319571717642248, 1731470.930227892240509 ], [ 3124688.479552704840899, 1731475.571432694327086 ], [ 3124675.786771701648831, 1731481.493073347955942 ], [ 3124668.175011972896755, 1731478.813490267843008 ], [ 3124654.297278406098485, 1731473.928216985194013 ], [ 3124641.302364305593073, 1731454.979789212811738 ], [ 3124635.74274727050215, 1731445.090401379624382 ], [ 3124611.036838243715465, 1731450.890254935482517 ], [ 3124594.190947322640568, 1731455.074311885982752 ], [ 3124583.509869046509266, 1731473.081276163691655 ], [ 3124572.343943388666958, 1731488.143355992622674 ], [ 3124539.673403663560748, 1731503.149451319593936 ], [ 3124523.727092998102307, 1731522.069837043294683 ], [ 3124514.044872135855258, 1731511.633545429212973 ], [ 3124506.011899951845407, 1731494.34849858446978 ], [ 3124471.556402523070574, 1731480.384683965938166 ], [ 3124433.423627078067511, 1731477.6599793266505 ], [ 3124402.560644587036222, 1731487.052009807433933 ], [ 3124388.763663077261299, 1731493.483940583653748 ], [ 3124345.396645692177117, 1731491.667159917997196 ], [ 3124308.278244338929653, 1731495.329383848467842 ], [ 3124288.701511826366186, 1731490.648054823512211 ], [ 3124270.456366753671318, 1731485.735780585324392 ], [ 3124252.528968756087124, 1731474.205675055272877 ], [ 3124232.286492148414254, 1731456.514487208332866 ], [ 3124233.519820575602353, 1731446.961381567409262 ], [ 3124240.176578806713223, 1731437.729434651788324 ], [ 3124239.405690762214363, 1731415.146178510505706 ], [ 3124233.747617387212813, 1731395.934718478005379 ], [ 3124222.991375140845776, 1731387.199318069498986 ], [ 3124209.527362568769604, 1731352.177934013307095 ], [ 3124190.177457454614341, 1731348.971846063388512 ], [ 3124166.576372602954507, 1731353.065735421841964 ], [ 3124143.981838397681713, 1731346.131530801765621 ], [ 3124130.289831748232245, 1731340.429389073047787 ], [ 3124114.110138025134802, 1731331.372674067271873 ], [ 3124101.099551611579955, 1731325.552453015465289 ], [ 3124098.557570483535528, 1731317.916285722516477 ], [ 3124108.452093640342355, 1731312.16132854972966 ], [ 3124119.685301656834781, 1731306.426609684247524 ], [ 3124122.597775077447295, 1731299.106206949101761 ], [ 3124113.051734239328653, 1731298.237993614980951 ], [ 3124098.11185999866575, 1731306.130267801927403 ], [ 3124085.962787537369877, 1731314.800412500044331 ], [ 3124080.448682792950422, 1731322.571967207826674 ], [ 3124069.026393585838377, 1731327.07747861626558 ], [ 3124054.214986520353705, 1731327.122650306439027 ], [ 3124034.547543770633638, 1731330.534444997087121 ], [ 3124013.768222813960165, 1731335.401026045205072 ], [ 3123981.346618794370443, 1731343.549303485546261 ], [ 3123962.700212627649307, 1731353.599099555052817 ], [ 3123945.763880347833037, 1731365.876337145920843 ], [ 3123938.312807378359139, 1731369.945309319533408 ], [ 3123929.840728036127985, 1731367.376421574037522 ], [ 3123913.478503494523466, 1731383.592693042941391 ], [ 3123892.161570551339537, 1731393.853328539524227 ], [ 3123872.214447455480695, 1731404.128806660650298 ], [ 3123858.57559182215482, 1731411.795450059697032 ], [ 3123842.713035115040839, 1731422.371961708180606 ], [ 3123852.304756789468229, 1731440.901106884004548 ], [ 3123857.705137104727328, 1731458.642716840608045 ], [ 3123841.373915529809892, 1731474.853782961843535 ], [ 3123813.589447184465826, 1731495.575758958933875 ], [ 3123794.899893094785511, 1731514.005216714227572 ], [ 3123793.709865212906152, 1731515.178828885080293 ], [ 3123764.367891267873347, 1731525.569671232951805 ], [ 3123742.483943533152342, 1731532.142623457126319 ], [ 3123710.887808536645025, 1731545.448882094584405 ], [ 3123683.769366295076907, 1731552.92995834746398 ], [ 3123691.991543748416007, 1731571.444239629432559 ], [ 3123675.561866029165685, 1731578.333069450454786 ], [ 3123665.531564781442285, 1731596.227687314385548 ], [ 3123633.109508076682687, 1731607.012405118439347 ], [ 3123632.225488706491888, 1731607.30640184530057 ], [ 3123612.535067181568593, 1731628.139061787864193 ], [ 3123588.011568608693779, 1731634.917584309820086 ], [ 3123572.693775318562984, 1731640.351578052388504 ], [ 3123559.849222617223859, 1731653.18146320944652 ], [ 3123547.86764729488641, 1731671.414531067712232 ], [ 3123535.212315197102726, 1731685.473642248660326 ], [ 3123535.726823381148279, 1731697.500247640302405 ], [ 3123545.854962796904147, 1731719.722536403918639 ], [ 3123587.534464980475605, 1731780.643517256947234 ], [ 3123602.043052742257714, 1731804.882458362495527 ], [ 3123605.636100075207651, 1731828.238596370443702 ], [ 3123599.87238138820976, 1731851.955794353969395 ], [ 3123583.684635255020112, 1731866.257125271717086 ], [ 3123574.145656820386648, 1731851.118382793385535 ], [ 3123556.944751156494021, 1731835.423820363590494 ], [ 3123534.478650055360049, 1731820.642811873694882 ], [ 3123520.25776959490031, 1731806.95549076795578 ], [ 3123491.664504155050963, 1731778.597337952582166 ], [ 3123471.808159024454653, 1731780.780181169509888 ], [ 3123458.449013222940266, 1731781.583335986128077 ], [ 3123445.905343087390065, 1731783.75959532125853 ], [ 3123440.113550124689937, 1731784.764403029344976 ], [ 3123429.137236377224326, 1731774.805225743213668 ], [ 3123409.78057571593672, 1731771.348337466130033 ], [ 3123391.225073316134512, 1731773.305465917801484 ], [ 3123378.728984473273158, 1731779.512223694706336 ], [ 3123358.267580281943083, 1731777.761365029495209 ], [ 3123340.785914947278798, 1731778.017880325671285 ], [ 3123328.985582747031003, 1731780.065132207004353 ], [ 3123311.852375423535705, 1731773.698314743116498 ], [ 3123303.501756223849952, 1731763.031148902140558 ], [ 3123284.847676143050194, 1731755.666141738416627 ], [ 3123237.230243519879878, 1731761.151033490197733 ], [ 3123208.11572116240859, 1731773.017572201322764 ], [ 3123183.788423040416092, 1731781.277062765322626 ], [ 3123164.21978546353057, 1731794.011715475702658 ], [ 3123135.036457953043282, 1731805.637841772986576 ], [ 3123112.767629219219089, 1731809.501553336391225 ], [ 3123087.040979664307088, 1731808.664373370818794 ], [ 3123063.727966989390552, 1731823.310817930381745 ], [ 3123049.105974968522787, 1731824.585745434043929 ], [ 3123017.358964719809592, 1731836.909274257021025 ], [ 3122996.647848718333989, 1731851.104292197851464 ], [ 3122975.029432258568704, 1731854.855267922859639 ], [ 3122956.663050756324083, 1731858.041974924504757 ], [ 3122949.40139252319932, 1731863.340617459500208 ], [ 3122931.035002453718334, 1731866.527240438619629 ], [ 3122911.277456571813673, 1731878.032817127648741 ], [ 3122897.638908753171563, 1731885.699926126282662 ], [ 3122878.160842494107783, 1731890.341685837833211 ], [ 3122851.042992773931473, 1731897.823548652231693 ], [ 3122829.6590138040483, 1731898.757345235906541 ], [ 3122811.708742329850793, 1731904.648558122105896 ], [ 3122775.967854837886989, 1731934.829785030102357 ], [ 3122744.788374837953597, 1731950.841391242109239 ], [ 3122719.160455400124192, 1731959.327031083172187 ], [ 3122710.348401704803109, 1731980.797028852859512 ], [ 3122712.073613517917693, 1732000.691306394990534 ], [ 3122727.467120710760355, 1732021.999940123641863 ], [ 3122751.355484319385141, 1732028.456453138729557 ], [ 3122780.705049916170537, 1732035.479972393484786 ], [ 3122782.138097617309541, 1732035.980052592931315 ], [ 3122806.310219629202038, 1732044.415179361123592 ], [ 3122823.632529256865382, 1732052.011198107851669 ], [ 3122837.437371312640607, 1732062.993887257529423 ], [ 3122846.998566932044923, 1732081.528392591280863 ], [ 3122852.430223426315933, 1732099.264869081554934 ], [ 3122868.708500365260988, 1732117.643440848449245 ], [ 3122892.006783356424421, 1732137.833059330936521 ], [ 3122904.193663954734802, 1732155.65952292107977 ], [ 3122906.009300365112722, 1732167.460610164096579 ], [ 3122889.927302867174149, 1732176.813939779996872 ], [ 3122870.692100685089827, 1732173.146072258474305 ], [ 3122867.749044162221253, 1732172.58485396951437 ], [ 3122837.930921489838511, 1732171.195812680292875 ], [ 3122805.253187355585396, 1732168.788546830881387 ], [ 3122780.858544127084315, 1732167.720659989630803 ], [ 3122733.0524483891204, 1732171.977214296115562 ], [ 3122677.795678321737796, 1732180.303331386530772 ], [ 3122655.675531042739749, 1732186.113910330925137 ], [ 3122632.500995660200715, 1732192.201647140784189 ], [ 3122605.76161891175434, 1732202.142431659623981 ], [ 3122577.532187766395509, 1732211.079618465621024 ], [ 3122531.821377733722329, 1732220.273659100290388 ], [ 3122506.193713291548193, 1732228.75940094771795 ], [ 3122488.970222553703934, 1732230.486084956675768 ], [ 3122439.636588075198233, 1732233.493525774683803 ], [ 3122410.392915078438818, 1732236.044065784197301 ], [ 3122390.120670514181256, 1732235.523146911291406 ], [ 3122372.987436559051275, 1732229.15666833659634 ], [ 3122360.930400024168193, 1732220.647290031425655 ], [ 3122349.598885389510542, 1732217.06043193442747 ], [ 3122339.803579061292112, 1732232.138486196519807 ], [ 3122334.736048655584455, 1732251.697073513176292 ], [ 3122324.837932421825826, 1732259.673133837990463 ], [ 3122302.127787492237985, 1732244.987015020102262 ], [ 3122275.915106822736561, 1732221.76944464771077 ], [ 3122226.774431658908725, 1732189.657306038308889 ], [ 3122212.882801290601492, 1732183.485632664756849 ], [ 3122212.010774384718388, 1732183.200739525258541 ], [ 3122215.005409863777459, 1732189.427790268091485 ], [ 3122218.548457758501172, 1732202.948623539647087 ], [ 3122222.623691316694021, 1732227.988309278385714 ], [ 3122223.476027197670192, 1732238.694522431120276 ], [ 3122223.02063677739352, 1732249.375211840728298 ], [ 3122210.143510672729462, 1732351.063877774169669 ], [ 3122205.389372053556144, 1732369.558434320846573 ], [ 3122196.16867061983794, 1732386.303797530476004 ], [ 3122188.567404715809971, 1732396.810601401142776 ], [ 3122185.325613337568939, 1732401.291532756527886 ], [ 3122143.541213653050363, 1732459.046548065263778 ], [ 3122062.659160166513175, 1732571.778075468493626 ], [ 3122008.732306864112616, 1732659.638987254584208 ], [ 3121989.078578514046967, 1732701.165191360283643 ], [ 3121954.000495723448694, 1732820.590118144871667 ], [ 3121922.760137959383428, 1732938.087201525922865 ], [ 3121921.833100452553481, 1732943.141314999666065 ], [ 3124960.421014999505132, 1732943.141314999666065 ], [ 3124960.421014999505132, 1731269.418268786044791 ], [ 3124878.04218239011243, 1731289.98455512849614 ] ] ], [ [ [ 3121862.423533358145505, 1732940.480324065079913 ], [ 3121860.019808812998235, 1732928.779836370842531 ], [ 3121847.499706076458097, 1732897.633172289235517 ], [ 3121824.783144312910736, 1732870.275263292947784 ], [ 3121819.659445147030056, 1732866.115712666418403 ], [ 3121806.101423121988773, 1732857.362078678561375 ], [ 3121792.436155592091382, 1732852.665484092896804 ], [ 3121779.1049536280334, 1732849.930287609808147 ], [ 3121759.727360435761511, 1732850.263593806419522 ], [ 3121747.726817273534834, 1732856.385698516853154 ], [ 3121731.902394760400057, 1732867.208790800767019 ], [ 3121722.620997008867562, 1732865.791119675384834 ], [ 3121715.337362785823643, 1732859.987135040806606 ], [ 3121713.220578364096582, 1732854.295663281576708 ], [ 3121711.966874086298048, 1732841.387500894721597 ], [ 3121718.795712086372077, 1732827.076760756084695 ], [ 3121729.829356481786817, 1732814.054612817475572 ], [ 3121741.495910583995283, 1732805.972212766762823 ], [ 3121774.502476077061146, 1732794.185571069363505 ], [ 3121798.735587297938764, 1732795.028968255966902 ], [ 3121824.975316250696778, 1732797.543437618529424 ], [ 3121838.306441404856741, 1732800.27876823535189 ], [ 3121857.743024571333081, 1732800.94440189236775 ], [ 3121875.290492591448128, 1732797.899337778100744 ], [ 3121865.626376827247441, 1732751.62309157080017 ], [ 3121846.599411758594215, 1732724.201610871357843 ], [ 3121816.612487840466201, 1732669.29450773075223 ], [ 3121791.179381679743528, 1732600.239417972974479 ], [ 3121768.018813672941178, 1732572.199416065821424 ], [ 3121720.45707571040839, 1732543.050652141217142 ], [ 3121672.184797113761306, 1732518.032554937060922 ], [ 3121634.911920045502484, 1732485.76258959597908 ], [ 3121621.930364552885294, 1732462.63525234372355 ], [ 3121595.197260019369423, 1732472.617477302439511 ], [ 3121594.19630438182503, 1732466.112220881739631 ], [ 3121585.03814391605556, 1732450.336237480165437 ], [ 3121571.546143849845976, 1732432.640677560819313 ], [ 3121567.322379263117909, 1732422.687274068593979 ], [ 3121573.787863285280764, 1732412.214811691083014 ], [ 3121581.054097490385175, 1732406.946476146578789 ], [ 3121620.078083351254463, 1732406.853538529714569 ], [ 3121616.765072969719768, 1732394.070552627090365 ], [ 3121631.717744011431932, 1732368.767433614237234 ], [ 3121647.070905039552599, 1732346.066373839508742 ], [ 3121667.754886001348495, 1732326.487570018740371 ], [ 3121668.277451108209789, 1732321.657535293372348 ], [ 3121678.3902887403965, 1732299.961479809368029 ], [ 3121686.158187914639711, 1732289.274068765109405 ], [ 3121691.67265201639384, 1732276.957434953656048 ], [ 3121692.05571867339313, 1732267.047042739344761 ], [ 3121698.193404460325837, 1732253.613148926058784 ], [ 3121704.281847256235778, 1732240.692465376807377 ], [ 3121708.305197399109602, 1732231.917311194818467 ], [ 3121710.234643802512437, 1732220.477138507645577 ], [ 3121710.090425925329328, 1732212.929730183212087 ], [ 3121709.908621951006353, 1732202.863017571158707 ], [ 3121703.735490643419325, 1732197.876473967218772 ], [ 3121701.075877235271037, 1732190.512315695174038 ], [ 3121701.193536945618689, 1732185.696614183718339 ], [ 3121702.992954194545746, 1732127.326724983984604 ], [ 3121705.463531149551272, 1732100.39357097260654 ], [ 3121708.922428030520678, 1732091.46405311813578 ], [ 3121716.168201473541558, 1732073.041632861830294 ], [ 3121717.522087034769356, 1732059.932425669394433 ], [ 3121717.189225270412862, 1732053.427893704501912 ], [ 3121708.951015865430236, 1732048.042906121583655 ], [ 3121706.515927443280816, 1732045.43608314008452 ], [ 3121706.364719031378627, 1732039.909147687256336 ], [ 3121706.220883199945092, 1732034.63316206773743 ], [ 3121693.306474968325347, 1732023.243075458798558 ], [ 3121674.91022250149399, 1732010.532658455660567 ], [ 3121652.368657360784709, 1731995.260979179292917 ], [ 3121637.633352616801858, 1731986.711593990447 ], [ 3121626.090005580335855, 1731973.064268790418282 ], [ 3121608.857981063425541, 1731952.831771033583209 ], [ 3121594.030331718735397, 1731939.754370694281533 ], [ 3121584.086153225973248, 1731931.13050221092999 ], [ 3121574.513515363913029, 1731917.899119125213474 ], [ 3121566.781892713624984, 1731907.124301630072296 ], [ 3121552.976888679899275, 1731896.14204188901931 ], [ 3121535.865840964950621, 1731872.354557693470269 ], [ 3121525.472349243238568, 1731852.954664921620861 ], [ 3121507.390952934511006, 1731825.549425662960857 ], [ 3121500.977862683590502, 1731811.769793267128989 ], [ 3121493.075001214630902, 1731794.714655707124621 ], [ 3121481.278456559404731, 1731784.393012278946117 ], [ 3121465.116839925292879, 1731770.284790826262906 ], [ 3121447.753470234107226, 1731758.909924293635413 ], [ 3121423.728022902272642, 1731742.885642834939063 ], [ 3121404.726931652519852, 1731733.057342507410794 ], [ 3121389.589163235388696, 1731722.305405514547601 ], [ 3121375.209233872592449, 1731711.927532616071403 ], [ 3121363.310480205342174, 1731700.108875599689782 ], [ 3121353.393873183056712, 1731697.034455340588465 ], [ 3121340.117230422329158, 1731689.493495512288064 ], [ 3121324.504528163000941, 1731684.126853643450886 ], [ 3121315.616555023007095, 1731678.85257955850102 ], [ 3121304.563075322657824, 1731679.760599230416119 ], [ 3121297.756633318960667, 1731676.651033458299935 ], [ 3121286.637959386222064, 1731671.764977622078732 ], [ 3121272.990486931055784, 1731662.016820147866383 ], [ 3121252.174118983093649, 1731647.202765873866156 ], [ 3121236.302906922996044, 1731635.821275126887485 ], [ 3121219.517197651788592, 1731627.375525115756318 ], [ 3121211.402714395429939, 1731626.512206079438329 ], [ 3121202.685241105500609, 1731622.976390852360055 ], [ 3121187.045804036315531, 1731616.603305568918586 ], [ 3121170.975964761339128, 1731613.838841806165874 ], [ 3121153.559425386134535, 1731610.801509856712073 ], [ 3121142.76828056992963, 1731605.355106195900589 ], [ 3121128.916938179638237, 1731598.419412629446015 ], [ 3121118.319293536245823, 1731590.919184290105477 ], [ 3121109.241318930406123, 1731584.416582308942452 ], [ 3121097.834322857670486, 1731580.338408574927598 ], [ 3121088.780157439876348, 1731582.666442873189226 ], [ 3121081.708259710110724, 1731584.651589690940455 ], [ 3121070.557312245480716, 1731591.1297592013143 ], [ 3121058.522697169333696, 1731595.995381948538125 ], [ 3121038.016177389770746, 1731598.291630447143689 ], [ 3121021.056780371814966, 1731601.739334980491549 ], [ 3120996.199503901414573, 1731602.014613555977121 ], [ 3120983.642707390710711, 1731603.689286747248843 ], [ 3120974.822017350234091, 1731603.200805132044479 ], [ 3120964.277552798390388, 1731609.069207213819027 ], [ 3120949.572517172433436, 1731609.601918310392648 ], [ 3120932.280364527367055, 1731613.359646219527349 ], [ 3120914.867710626684129, 1731611.586229738779366 ], [ 3120900.509498132392764, 1731610.038517523556948 ], [ 3120891.05418369686231, 1731605.621701698284596 ], [ 3120881.584034014958888, 1731605.245953682810068 ], [ 3120874.993762696161866, 1731602.098943875869736 ], [ 3120865.514127695932984, 1731602.481634071096778 ], [ 3120844.338989469222724, 1731603.127119766781107 ], [ 3120819.502904223278165, 1731604.155735535081476 ], [ 3120800.410653966479003, 1731604.693008068250492 ], [ 3120780.884596028365195, 1731603.033091712277383 ], [ 3120766.666085759643465, 1731601.966755943605676 ], [ 3120747.294246954843402, 1731600.28009299794212 ], [ 3120733.730296981520951, 1731593.546988506801426 ], [ 3120717.707558288704604, 1731585.724913042970002 ], [ 3120710.15134518686682, 1731580.221661285497248 ], [ 3120706.119127048179507, 1731571.582105505047366 ], [ 3120704.53037041425705, 1731561.256029081298038 ], [ 3120707.50077259587124, 1731554.935004073195159 ], [ 3120707.224309938028455, 1731548.167344522662461 ], [ 3120706.944790940731764, 1731541.400316903600469 ], [ 3120698.357123795431107, 1731525.47427522065118 ], [ 3120679.551261864602566, 1731490.874897402711213 ], [ 3120667.660100716166198, 1731474.764390445081517 ], [ 3120653.204434666316956, 1731463.894237812142819 ], [ 3120637.718887789174914, 1731455.223082266747952 ], [ 3120626.546431072056293, 1731443.783134897937998 ], [ 3120619.722818731330335, 1731434.365586531581357 ], [ 3120626.021526662632823, 1731427.9714905268047 ], [ 3120632.566903463564813, 1731426.078746177954599 ], [ 3120653.914038074202836, 1731420.354694770183414 ], [ 3120684.209424719214439, 1731407.272293714107946 ], [ 3120690.025667862035334, 1731401.466505323769525 ], [ 3120687.74101531598717, 1731395.299706303747371 ], [ 3120678.103454051539302, 1731387.632866937434301 ], [ 3120660.040286443196237, 1731381.428390731103718 ], [ 3120642.219225486274809, 1731374.928464596625417 ], [ 3120632.27117039449513, 1731367.315622906666249 ], [ 3120612.436975608579814, 1731352.078999370569363 ], [ 3120603.517871031537652, 1731342.268346308497712 ], [ 3120601.021213027648628, 1731326.041020750300959 ], [ 3120600.696007195860147, 1731310.700407162541524 ], [ 3120594.236348772421479, 1731290.617826440837234 ], [ 3120585.105153997428715, 1731270.74666867707856 ], [ 3120577.706715451553464, 1731261.933456379920244 ], [ 3120556.542002287693322, 1731246.927876214496791 ], [ 3120534.879745707381517, 1731236.551596610574052 ], [ 3120518.272938194684684, 1731225.550272185588256 ], [ 3120494.285403912886977, 1731209.772176082246006 ], [ 3120474.573232327587903, 1731190.98062003729865 ], [ 3120464.020202845335007, 1731174.891191891161725 ], [ 3120458.618578301742673, 1731161.691956513794139 ], [ 3120456.696809316053987, 1731144.860324885230511 ], [ 3120458.655956122092903, 1731135.684440444689244 ], [ 3120452.617360487580299, 1731125.37491467455402 ], [ 3120448.762284071184695, 1731110.646842727437615 ], [ 3120447.898621623404324, 1731107.389128368813545 ], [ 3120456.32044795434922, 1731090.028028047410771 ], [ 3120429.116772799752653, 1731070.705243742326275 ], [ 3120416.974075212609023, 1731063.50525245629251 ], [ 3120399.491029785014689, 1731053.138697741320357 ], [ 3120391.364996740594506, 1731047.851025476120412 ], [ 3120360.597262739669532, 1731027.830169148277491 ], [ 3120356.54391828365624, 1731016.310780512401834 ], [ 3120348.637051654048264, 1730993.839928230736405 ], [ 3120314.126866151578724, 1731014.522925402503461 ], [ 3120305.306654652580619, 1730934.668058290146291 ], [ 3120299.013064248487353, 1730933.688808017410338 ], [ 3120290.203835198655725, 1730932.441581411520019 ], [ 3120283.090028176084161, 1730935.190909799886867 ], [ 3120271.017425475642085, 1730939.80998771940358 ], [ 3120262.445410108193755, 1730939.175997619982809 ], [ 3120264.514218222349882, 1730928.293335886672139 ], [ 3120271.890713633038104, 1730914.99106627353467 ], [ 3120288.265256758779287, 1730881.426223300630227 ], [ 3120292.329029720742255, 1730855.34124013595283 ], [ 3120297.083299693651497, 1730842.494096029549837 ], [ 3120320.503986522555351, 1730819.72842700779438 ], [ 3120330.122744281776249, 1730786.000506391050294 ], [ 3120338.050353109836578, 1730732.529385776259005 ], [ 3120352.934010917320848, 1730680.522678428795189 ], [ 3120345.618157988414168, 1730641.719153716461733 ], [ 3120343.277094539254904, 1730574.001060884213075 ], [ 3120345.539669685997069, 1730536.206836792640388 ], [ 3120359.002217925153673, 1730492.461519044358283 ], [ 3120353.978121303021908, 1730477.304245347157121 ], [ 3120345.841421836987138, 1730450.665214796783403 ], [ 3120329.968452439643443, 1730399.989179762313142 ], [ 3120306.318417538888752, 1730360.013226000359282 ], [ 3120268.756357269361615, 1730317.108746415004134 ], [ 3120263.46259006485343, 1730273.947189594618976 ], [ 3120254.5050342339091, 1730259.472607400966808 ], [ 3120247.879804598167539, 1730233.907068639062345 ], [ 3120243.476573667023331, 1730205.284412679029629 ], [ 3120247.540714931674302, 1730179.199486774625257 ], [ 3120247.38144205044955, 1730143.161477128509432 ], [ 3120219.446836187504232, 1730145.337953033624217 ], [ 3120152.28779155947268, 1730146.307471562875435 ], [ 3120105.541802344843745, 1730142.952213961398229 ], [ 3120105.669166706502438, 1730140.569404002977535 ], [ 3120054.61787754110992, 1730138.827647270169109 ], [ 3120007.216913288459182, 1730135.190080711618066 ], [ 3119965.92857487173751, 1730132.007457324769348 ], [ 3119933.584733444266021, 1730124.746682017343119 ], [ 3119907.05653432989493, 1730118.496802689041942 ], [ 3119868.601767178624868, 1730106.239933436270803 ], [ 3119836.540329607203603, 1730093.378116186941043 ], [ 3119772.486611920408905, 1730067.89366989559494 ], [ 3119678.572129208594561, 1730024.622669002274051 ], [ 3119433.741122502833605, 1729912.131120428908616 ], [ 3119312.406888782046735, 1729858.474167491775006 ], [ 3119280.849226312246174, 1729845.777469098335132 ], [ 3119239.530741130001843, 1729833.512706546578556 ], [ 3119209.506734129972756, 1729829.132325181737542 ], [ 3119172.488709064200521, 1729823.945847638649866 ], [ 3118737.408868591301143, 1729762.149237059988081 ], [ 3118711.368014588020742, 1729762.378826814237982 ], [ 3118687.167603256180882, 1729762.793402563314885 ], [ 3118651.124984914902598, 1729760.215143623529002 ], [ 3118613.024676000699401, 1729757.489569721510634 ], [ 3118584.233933354262263, 1729758.449858169769868 ], [ 3118544.6436210218817, 1729767.340528442757204 ], [ 3118497.114623398054391, 1729782.911327903857455 ], [ 3118467.015826864168048, 1729792.932626782916486 ], [ 3118445.76059396751225, 1729807.72874786099419 ], [ 3118436.377080364152789, 1729821.977715461980551 ], [ 3118424.557111721951514, 1729844.981973722111434 ], [ 3118401.244047612883151, 1729890.426200709072873 ], [ 3118387.121464060619473, 1729912.314550997689366 ], [ 3118373.437554649077356, 1729924.029545958386734 ], [ 3118359.603500572964549, 1729930.217348478967324 ], [ 3118345.820247622206807, 1729932.610083856154233 ], [ 3118333.894962958060205, 1729928.874775122618303 ], [ 3118323.422644024714828, 1729922.614747124956921 ], [ 3118302.635232311207801, 1729910.068312431685627 ], [ 3118285.501857541501522, 1729903.703247767640278 ], [ 3118268.132826547604054, 1729900.155231514014304 ], [ 3118242.513818609993905, 1729899.807302188826725 ], [ 3118226.431926370132715, 1729904.618386756395921 ], [ 3118203.739237760193646, 1729914.615658826194704 ], [ 3118182.187867640517652, 1729927.696506781037897 ], [ 3118165.98492443934083, 1729940.606730220140889 ], [ 3118144.533038701862097, 1729963.00978029682301 ], [ 3118124.585368193686008, 1729986.919733847724274 ], [ 3118110.811168714426458, 1729997.641327745746821 ], [ 3118090.970669753383845, 1730012.949045024812222 ], [ 3118070.531471957452595, 1730024.575567122083157 ], [ 3118043.36809531506151, 1730036.105952377198264 ], [ 3118022.241591950878501, 1730043.055340388324112 ], [ 3118013.186489348299801, 1730049.928406810155138 ], [ 3118005.418406054377556, 1730060.616428405512124 ], [ 3117996.765538684092462, 1730078.779389862669632 ], [ 3117988.513441550545394, 1730108.230587428668514 ], [ 3117986.652685888111591, 1730126.728021309012547 ], [ 3117990.715222923550755, 1730139.906338737346232 ], [ 3118003.098983437754214, 1730159.212499575223774 ], [ 3118018.113195851445198, 1730182.605040870374069 ], [ 3118031.601666141301394, 1730200.205735214985907 ], [ 3118048.16968160495162, 1730217.775326574919745 ], [ 3118068.592021482530981, 1730230.637246547266841 ], [ 3118090.156126203946769, 1730244.311080091632903 ], [ 3118117.31731909699738, 1730253.226911517325789 ], [ 3118152.610069672577083, 1730264.768607414094731 ], [ 3118183.102104485966265, 1730274.873327708803117 ], [ 3118207.111332565546036, 1730280.044596641790122 ], [ 3118225.855603374075145, 1730281.586873542750254 ], [ 3118257.193733066320419, 1730283.971201852429658 ], [ 3118271.854343520477414, 1730287.483820636291057 ], [ 3118296.000606779474765, 1730299.95258018001914 ], [ 3118316.408567449543625, 1730314.584140032297 ], [ 3118330.448022557422519, 1730322.74869139213115 ], [ 3118345.888041094876826, 1730335.465492033166811 ], [ 3118350.6833032425493, 1730349.274537636665627 ], [ 3118349.973393951077014, 1730362.018967879237607 ], [ 3118346.712973361834884, 1730371.418805813184008 ], [ 3118338.845479808282107, 1730377.328749941196293 ], [ 3118325.152589566074312, 1730380.715086663607508 ], [ 3118311.23595177847892, 1730381.617368903709576 ], [ 3118289.20158017706126, 1730382.665509418584406 ], [ 3118267.235071560367942, 1730386.226808149600402 ], [ 3118257.199600958265364, 1730397.056231797439978 ], [ 3118244.988415746018291, 1730410.282647074200213 ], [ 3118236.955721174366772, 1730419.249682487919927 ], [ 3118225.888241087086499, 1730421.928940451471135 ], [ 3118214.890121229924262, 1730420.304409106029198 ], [ 3118191.493000292219222, 1730417.046035405015573 ], [ 3118163.733156818896532, 1730415.806563792750239 ], [ 3118138.308791132178158, 1730416.939908539410681 ], [ 3118118.52661796938628, 1730419.616404017433524 ], [ 3118107.983287384733558, 1730425.485413252608851 ], [ 3118086.501492273528129, 1730443.350831196876243 ], [ 3118073.453712929040194, 1730458.995181648992002 ], [ 3118059.656649662647396, 1730469.973210141528398 ], [ 3118050.760302620008588, 1730473.537040404742584 ], [ 3118040.828753313980997, 1730474.503440813627094 ], [ 3118032.469533244147897, 1730472.672934337286279 ], [ 3118023.056217907462269, 1730467.492594935931265 ], [ 3118010.238326667807996, 1730455.077440808760002 ], [ 3117996.055146295577288, 1730441.63696715165861 ], [ 3117985.483954782597721, 1730435.141859064111486 ], [ 3117972.430998724419624, 1730432.359364909818396 ], [ 3117953.618191347457469, 1730428.305315447971225 ], [ 3117938.043193646240979, 1730427.727641093079001 ], [ 3117920.045978046022356, 1730429.590895077213645 ], [ 3117903.482697886414826, 1730434.990374631481245 ], [ 3117885.524984091054648, 1730440.632070811698213 ], [ 3117868.951652880758047, 1730442.248033170122653 ], [ 3117857.643414733931422, 1730447.493143938714638 ], [ 3117848.9750603614375, 1730447.987944600405172 ], [ 3117827.281455938704312, 1730451.249828596366569 ], [ 3117795.631093753967434, 1730455.734805080108345 ], [ 3117758.616874151863158, 1730460.898892773548141 ], [ 3117707.699314843863249, 1730465.196215958101675 ], [ 3117678.882620369084179, 1730467.42236671410501 ], [ 3117620.442668525502086, 1730472.015796667663381 ], [ 3117591.880354040302336, 1730474.45210456289351 ], [ 3117581.064763617701828, 1730473.804092126898468 ], [ 3117569.74638228258118, 1730466.177466274239123 ], [ 3117555.449621520005167, 1730456.543048146413639 ], [ 3117542.136487574316561, 1730444.214013976277784 ], [ 3117529.989308259449899, 1730436.983537802472711 ], [ 3117519.083974769338965, 1730437.614604296395555 ], [ 3117500.446479191072285, 1730438.831247729482129 ], [ 3117477.544754292350262, 1730440.031627553282306 ], [ 3117460.176785387098789, 1730441.02684851619415 ], [ 3117448.936649880371988, 1730439.698823195882142 ], [ 3117437.809708324726671, 1730435.570943052181974 ], [ 3117426.439700159244239, 1730431.739522517891601 ], [ 3117413.383957191836089, 1730429.967847463674843 ], [ 3117404.103897188790143, 1730430.821306101977825 ], [ 3117396.727427531033754, 1730435.383878836408257 ], [ 3117391.833903597667813, 1730443.048181276302785 ], [ 3117391.055162219330668, 1730451.009353080764413 ], [ 3117393.680251941084862, 1730459.388519244734198 ], [ 3117399.929049093276262, 1730464.866971862036735 ], [ 3117409.643267072271556, 1730468.481326246168464 ], [ 3117423.105572653003037, 1730466.901671934640035 ], [ 3117449.162099091801792, 1730463.891091568162665 ], [ 3117472.659358042292297, 1730465.112326433649287 ], [ 3117487.553307628724724, 1730465.807945242617279 ], [ 3117499.686450566165149, 1730470.264782540034503 ], [ 3117506.319697809405625, 1730478.45155001571402 ], [ 3117510.76826389413327, 1730489.796950738178566 ], [ 3117511.978686325252056, 1730497.663850448094308 ], [ 3117506.654360184445977, 1730511.20962454052642 ], [ 3117496.254008498042822, 1730522.355040649650618 ], [ 3117475.497782174497843, 1730536.056424928596243 ], [ 3117430.605276739224792, 1730559.248695895541459 ], [ 3117389.116051346994936, 1730578.317133981967345 ], [ 3117363.906822378281504, 1730593.044062802102417 ], [ 3117344.335257238708436, 1730606.792188731022179 ], [ 3117326.749574796296656, 1730619.185358112677932 ], [ 3117314.467135715764016, 1730630.91091688349843 ], [ 3117301.871440737508237, 1730636.88326787459664 ], [ 3117293.088881926611066, 1730641.185479092877358 ], [ 3117274.10355247091502, 1730644.482050284044817 ], [ 3117252.181911714375019, 1730650.8123477792833 ], [ 3117235.133000708185136, 1730660.083967218874022 ], [ 3117228.302454797085375, 1730666.318751682760194 ], [ 3117217.712014957796782, 1730676.234836629126221 ], [ 3117206.427883617579937, 1730690.311049088835716 ], [ 3117199.264478711877018, 1730704.933088012505323 ], [ 3117181.633729521650821, 1730725.91698738746345 ], [ 3117167.994736804161221, 1730738.13053037552163 ], [ 3117156.10533934365958, 1730743.729087427258492 ], [ 3117143.509847826790065, 1730749.702495126286522 ], [ 3117128.987926540430635, 1730751.214060760801658 ], [ 3117127.217904613353312, 1730751.366225736215711 ], [ 3117127.406085375230759, 1730758.255928322207183 ], [ 3117129.588433956727386, 1730789.936348634306341 ], [ 3117145.282352732494473, 1730821.942082382272929 ], [ 3117155.131151439622045, 1730850.955362991895527 ], [ 3117166.20097800437361, 1730870.406006335048005 ], [ 3117185.938112134113908, 1730893.69484254415147 ], [ 3117209.00803452078253, 1730912.39759357413277 ], [ 3117219.076798823662102, 1730925.343046049587429 ], [ 3117224.191592414863408, 1730949.835155227454379 ], [ 3117237.683422571979463, 1730967.529462315840647 ], [ 3117256.710094463080168, 1730994.949177826754749 ], [ 3117249.627788282930851, 1731016.955173555528745 ], [ 3117249.424363389611244, 1731017.587256093742326 ], [ 3117238.515486053191125, 1731034.175447151064873 ], [ 3117243.230035154148936, 1731056.06550577422604 ], [ 3117277.299053645227104, 1731067.515069745946676 ], [ 3117292.267222600057721, 1731066.12112084380351 ], [ 3117297.629127486608922, 1731073.05947982869111 ], [ 3117305.468677334487438, 1731079.774400484515354 ], [ 3117314.222977184224874, 1731092.643700113287196 ], [ 3117321.028086255304515, 1731102.569804730359465 ], [ 3117327.9650310697034, 1731112.723131668521091 ], [ 3117332.14493362326175, 1731127.901582406833768 ], [ 3117332.890843485482037, 1731140.393455375218764 ], [ 3117333.784005862660706, 1731154.879147975938395 ], [ 3117337.09020921587944, 1731167.683343247976154 ], [ 3117339.01977264881134, 1731180.223029296379536 ], [ 3117333.278556921985, 1731186.52103082370013 ], [ 3117323.891542576253414, 1731186.888572919880971 ], [ 3117315.494584050960839, 1731184.812574009876698 ], [ 3117310.487968220375478, 1731187.196677963715047 ], [ 3117305.981327852234244, 1731192.017921932740137 ], [ 3117307.379175589885563, 1731197.580819100840017 ], [ 3117310.988179133739322, 1731212.352737689390779 ], [ 3117311.954558873549104, 1731221.524668051162735 ], [ 3117308.243098680861294, 1731238.324577579274774 ], [ 3117304.146851429250091, 1731256.958465625299141 ], [ 3117305.408115057274699, 1731270.117774782702327 ], [ 3117307.140736285597086, 1731287.992741307010874 ], [ 3117308.268234320450574, 1731299.660461738938466 ], [ 3117305.546410235576332, 1731308.211376874241978 ], [ 3117305.225365077145398, 1731318.110437940340489 ], [ 3117308.504673728719354, 1731323.095403974875808 ], [ 3117317.152768712956458, 1731326.390172087354586 ], [ 3117324.192888958845288, 1731324.409750387072563 ], [ 3117350.426228384487331, 1731319.854486556025222 ], [ 3117381.242665042169392, 1731314.503405013121665 ], [ 3117393.982213331386447, 1731309.263809108640999 ], [ 3117405.266115933656693, 1731308.818115100963041 ], [ 3117434.705814209766686, 1731307.744728544959798 ], [ 3117449.003600122407079, 1731303.747376310871914 ], [ 3117483.395612633787096, 1731300.552616452099755 ], [ 3117514.132936786860228, 1731297.991592015838251 ], [ 3117543.258775467984378, 1731300.254570039454848 ], [ 3117564.370958826504648, 1731301.88968138769269 ], [ 3117580.926484834868461, 1731300.782020625192672 ], [ 3117603.628698616288602, 1731294.568485294934362 ], [ 3117648.158816151320934, 1731282.039935282897204 ], [ 3117658.909758671186864, 1731281.435644108103588 ], [ 3117665.753602480515838, 1731287.063163352198899 ], [ 3117671.684054102748632, 1731277.450594005873427 ], [ 3117679.36852098070085, 1731270.562896848889068 ], [ 3117705.674088632687926, 1731260.69433250837028 ], [ 3117721.15984208136797, 1731253.460291023366153 ], [ 3117745.645704518072307, 1731241.889356754953042 ], [ 3117770.147214688826352, 1731234.353384098270908 ], [ 3117796.665642768144608, 1731232.273849260760471 ], [ 3117831.876334564760327, 1731229.441978482995182 ], [ 3117852.148843509610742, 1731229.960684792837128 ], [ 3117878.222551131621003, 1731233.258361417334527 ], [ 3117911.95339087350294, 1731242.295745226321742 ], [ 3117939.320637774653733, 1731249.659862230531871 ], [ 3117965.954497348051518, 1731260.938570853788406 ], [ 3117982.478316935710609, 1731266.653475318104029 ], [ 3117997.808267492800951, 1731275.349635736551136 ], [ 3118013.114511242136359, 1731284.304372710874304 ], [ 3118016.379227668046951, 1731291.056837872369215 ], [ 3118022.279235526919365, 1731303.159371762303635 ], [ 3118038.366601866669953, 1731314.502341749845073 ], [ 3118050.798209780361503, 1731331.023183931130916 ], [ 3118064.591507440432906, 1731349.580129310721532 ], [ 3118077.086236434057355, 1731370.63426281278953 ], [ 3118092.54851221293211, 1731396.726435230113566 ], [ 3118101.57387412711978, 1731416.111237227451056 ], [ 3118110.674790385179222, 1731431.443351216614246 ], [ 3118120.690240454860032, 1731448.384740301640704 ], [ 3118133.927727782167494, 1731460.221451247576624 ], [ 3118149.556161182932556, 1731474.169009424047545 ], [ 3118155.815253793727607, 1731481.783223286271095 ], [ 3118162.358858247287571, 1731482.891141474945471 ], [ 3118179.583849785849452, 1731498.601794481510296 ], [ 3118201.142607145942748, 1731516.231585384113714 ], [ 3118219.168396611697972, 1731537.1463713045232 ], [ 3118229.727968957275152, 1731562.029155356111005 ], [ 3118252.688161386642605, 1731588.766376859508455 ], [ 3118274.24683718662709, 1731606.39622268686071 ], [ 3118296.916505184955895, 1731622.497397978091612 ], [ 3118325.521555186249316, 1731650.926067853346467 ], [ 3118347.881059471517801, 1731673.760170377558097 ], [ 3118376.796211843844503, 1731695.456090463558212 ], [ 3118400.266714642755687, 1731716.761541057145223 ], [ 3118394.679838798940182, 1731734.120986298192292 ], [ 3118397.03454775782302, 1731737.144279862055555 ], [ 3118398.867620155215263, 1731746.165646283188835 ], [ 3118400.87632752628997, 1731755.914433531230316 ], [ 3118403.205163795500994, 1731767.121348154265434 ], [ 3118409.202551998198032, 1731773.653664969140664 ], [ 3118414.622390483506024, 1731779.527434333693236 ], [ 3118428.382356685586274, 1731794.556313275592402 ], [ 3118441.794386947527528, 1731816.208136209053919 ], [ 3118453.218075076583773, 1731828.866457843920216 ], [ 3118466.999069293960929, 1731849.191749133868143 ], [ 3118483.635453760158271, 1731873.818796004168689 ], [ 3118501.042115285992622, 1731899.321256771683693 ], [ 3118509.286773973610252, 1731914.045245483051986 ], [ 3118508.684312045574188, 1731922.731668028514832 ], [ 3118508.259906925261021, 1731928.864227994577959 ], [ 3118504.50814104732126, 1731935.069002692122012 ], [ 3118498.510266705416143, 1731935.352433052379638 ], [ 3118487.78360443841666, 1731935.701079261023551 ], [ 3118469.896446235012263, 1731932.495429962873459 ], [ 3118452.09593578055501, 1731931.295044434955344 ], [ 3118435.106328157708049, 1731930.205203625839204 ], [ 3118417.739776901900768, 1731926.657865120796487 ], [ 3118399.493456164840609, 1731926.291813000338152 ], [ 3118383.570763276424259, 1731923.250710302963853 ], [ 3118368.351079123094678, 1731916.300199903082103 ], [ 3118357.057721109129488, 1731908.416769166011363 ], [ 3118346.110227237455547, 1731902.997151864925399 ], [ 3118338.245005997363478, 1731904.362739057280123 ], [ 3118331.406513588968664, 1731908.073924451135099 ], [ 3118330.016212372109294, 1731916.393587880767882 ], [ 3118331.877342806663364, 1731924.147614953340963 ], [ 3118336.907166595570743, 1731930.594676508335397 ], [ 3118356.375812656246126, 1731943.874570061219856 ], [ 3118373.3378762351349, 1731953.046419449383393 ], [ 3118397.528416248969734, 1731966.011982194380835 ], [ 3118421.061882464215159, 1731978.83839702187106 ], [ 3118427.716969184577465, 1731985.507858849596232 ], [ 3118424.729922878555954, 1731994.610331309493631 ], [ 3118420.678409581072628, 1732006.925043446011841 ], [ 3118417.831593153998256, 1732015.496582709020004 ], [ 3118420.068236252292991, 1732022.176278908737004 ], [ 3118424.103674522601068, 1732034.349407912930474 ], [ 3118426.814929998479784, 1732042.461524996906519 ], [ 3118430.581626598723233, 1732053.924409493803978 ], [ 3118432.170678802765906, 1732064.250660783145577 ], [ 3118431.733421077020466, 1732074.423044405179098 ], [ 3118429.19977557612583, 1732084.203714373288676 ], [ 3118429.570864976383746, 1732095.49824117613025 ], [ 3118427.322145665064454, 1732107.75330993370153 ], [ 3118431.069484199397266, 1732113.917476217728108 ], [ 3118438.308511142618954, 1732126.039880464784801 ], [ 3118438.294939992483705, 1732134.625097009819001 ], [ 3118434.732172204181552, 1732142.058466895716265 ], [ 3118427.056191761046648, 1732144.653683020034805 ], [ 3118419.535947716794908, 1732143.941087542567402 ], [ 3118407.942632710561156, 1732137.622323102783412 ], [ 3118400.2424411252141, 1732126.843488807557151 ], [ 3118394.066236589103937, 1732118.322811208898202 ], [ 3118388.921959334053099, 1732111.138700716663152 ], [ 3118383.891102260444313, 1732109.234966847347096 ], [ 3118377.280680418945849, 1732109.878125333925709 ], [ 3118372.534461135976017, 1732112.721581185236573 ], [ 3118361.758673341013491, 1732127.213979439111426 ], [ 3118345.46353296469897, 1732149.229267652379349 ], [ 3118331.715012643486261, 1732164.236820927588269 ], [ 3118314.57939574867487, 1732182.861927656689659 ], [ 3118301.67036440782249, 1732196.715613082051277 ], [ 3118298.166674930602312, 1732205.149008935550228 ], [ 3118300.719857913441956, 1732214.298737261909992 ], [ 3118304.861931865569204, 1732229.229478077497333 ], [ 3118313.527553272433579, 1732260.541579891229048 ], [ 3118313.94934787042439, 1732281.671599366003647 ], [ 3118314.288917004130781, 1732299.78967619407922 ], [ 3118309.728873701300472, 1732313.958715423708782 ], [ 3118298.890850105322897, 1732335.277821442345157 ], [ 3118283.513998403679579, 1732357.889688026858494 ], [ 3118263.284812377765775, 1732382.858814669074491 ], [ 3118254.292225362733006, 1732398.808776071993634 ], [ 3118253.834422787185758, 1732405.956333611393347 ], [ 3118254.417170383967459, 1732440.942560983588919 ], [ 3118257.887872241437435, 1732459.777290935162455 ], [ 3118264.735292959958315, 1732471.209882598370314 ], [ 3118272.030213244259357, 1732476.254521827213466 ], [ 3118293.805741178337485, 1732482.823597920360044 ], [ 3118316.956960186362267, 1732489.658297914080322 ], [ 3118358.182280824519694, 1732501.936619086191058 ], [ 3118406.054605671204627, 1732516.09145326167345 ], [ 3118426.950042267795652, 1732520.036084196763113 ], [ 3118431.694976614788175, 1732524.008766310755163 ], [ 3118431.140330130234361, 1732529.910744813038036 ], [ 3118427.180012175813317, 1732574.016351375728846 ], [ 3118426.086936395615339, 1732603.488904589554295 ], [ 3118419.938422476872802, 1732649.489220678340644 ], [ 3118413.996204145252705, 1732693.939014860196039 ], [ 3118411.418464033864439, 1732707.765037503093481 ], [ 3118417.036947506014258, 1732714.109931378159672 ], [ 3118427.972706264816225, 1732718.017768927849829 ], [ 3118438.840095621533692, 1732721.684334592428058 ], [ 3118460.800846539903432, 1732735.03606603294611 ], [ 3118485.927911683451384, 1732750.362944541033357 ], [ 3118495.875057597178966, 1732757.975584927946329 ], [ 3118496.019303572364151, 1732767.795859429519624 ], [ 3118487.669974164105952, 1732783.381910201627761 ], [ 3118477.459422250278294, 1732795.756981176324189 ], [ 3118469.42637534532696, 1732809.267708271741867 ], [ 3118457.726692060008645, 1732820.639959921361879 ], [ 3118442.440211429260671, 1732830.614670141832903 ], [ 3118431.847894898615777, 1732843.812867593020201 ], [ 3118418.545870989561081, 1732854.705534358508885 ], [ 3118408.418329646345228, 1732863.279845689656213 ], [ 3118396.979625393170863, 1732866.022870566230267 ], [ 3118386.377473520580679, 1732873.164861022960395 ], [ 3118376.558888250030577, 1732879.413990826811641 ], [ 3118364.971547845285386, 1732891.52259448193945 ], [ 3118348.711342643946409, 1732917.065256357891485 ], [ 3118336.572883466258645, 1732931.794475056929514 ], [ 3118322.454649947118014, 1732943.141314999666065 ], [ 3121862.48490165732801, 1732943.141314999666065 ], [ 3121862.423533358145505, 1732940.480324065079913 ] ] ] ] } }
]
}
