{
"type": "FeatureCollection",
"name": "Granjuela,_La",
"crs": { "type": "name", "properties": { "name": "urn:ogc:def:crs:EPSG::3035" } },
"features": [
{ "type": "Feature", "properties": { "ENP_GRAL": 5.0, "ENP_GRAL_NAME": "Espacios Protegidos Red Natura 2000", "color": "#A87000" }, "geometry": { "type": "Polygon", "coordinates": [ [ [ 2972729.642644939478487, 1838536.978034130297601 ], [ 2972752.967564010992646, 1838516.113574572140351 ], [ 2972774.610071433708072, 1838505.162284181453288 ], [ 2972785.755647499114275, 1838499.122704023728147 ], [ 2972828.886515752412379, 1838471.176867725327611 ], [ 2972872.588355550076813, 1838446.670410535065457 ], [ 2972930.245621252804995, 1838418.65783338341862 ], [ 2972955.03757712058723, 1838402.084662646753713 ], [ 2972977.946105285547674, 1838388.883567989105359 ], [ 2973053.10903643257916, 1838241.380344924749807 ], [ 2973235.729971744120121, 1838208.741724593099207 ], [ 2973350.304526844061911, 1838189.276920558651909 ], [ 2973350.780423401854932, 1838192.523760244715959 ], [ 2973361.573515230789781, 1838266.186772480607033 ], [ 2973364.949235538486391, 1838266.010779260192066 ], [ 2973425.514005309902132, 1838262.854194507002831 ], [ 2973466.160230603069067, 1838265.202566285384819 ], [ 2973468.416849855333567, 1838267.79685863177292 ], [ 2973484.823671288322657, 1838286.65738227404654 ], [ 2973485.854851498268545, 1838286.163676836527884 ], [ 2973559.04581477958709, 1838251.132372095016763 ], [ 2973687.359851382672787, 1838190.763286149362102 ], [ 2973682.667018129024655, 1838186.542727285297588 ], [ 2973684.93652025051415, 1838180.572039682883769 ], [ 2973735.894440238364041, 1838197.267394580179825 ], [ 2973754.521778275258839, 1838204.048704926390201 ], [ 2973772.63558398373425, 1838174.512094115838408 ], [ 2973781.774495301768184, 1838150.61850016284734 ], [ 2973788.150352587923408, 1838139.86665570945479 ], [ 2973802.028313606511801, 1838130.80958496988751 ], [ 2973806.520876771304756, 1838123.429809327004477 ], [ 2973817.774781608954072, 1838092.581246137153357 ], [ 2973823.301579606719315, 1838081.475328613305464 ], [ 2973825.585162417031825, 1838087.194835318485275 ], [ 2973828.580891576595604, 1838094.697632455732673 ], [ 2973835.543096301145852, 1838103.065935307880864 ], [ 2973895.670648499857634, 1838152.525468430947512 ], [ 2973901.212567373178899, 1838157.100137331755832 ], [ 2973901.704364335164428, 1838157.056774420198053 ], [ 2973912.358153668232262, 1838156.120369530981407 ], [ 2973922.083955030422658, 1838146.287578455172479 ], [ 2973962.854169316589832, 1838098.022419423330575 ], [ 2973979.233422039076686, 1838094.589680594392121 ], [ 2974003.423207899089903, 1838109.997870594728738 ], [ 2974046.199899051338434, 1838136.250401360914111 ], [ 2974049.395355120301247, 1838138.56585659366101 ], [ 2974068.043495099525899, 1838152.077784828376025 ], [ 2974028.585212134756148, 1838203.649732551071793 ], [ 2974028.662167993374169, 1838209.201088283210993 ], [ 2974047.788824809715152, 1838228.549688302678987 ], [ 2974102.683400480076671, 1838270.34404735499993 ], [ 2974103.200820926576853, 1838270.532068849541247 ], [ 2974183.867655218578875, 1838299.851835684617981 ], [ 2974216.59476195089519, 1838308.169509794330224 ], [ 2974247.361200424842536, 1838314.307868728414178 ], [ 2974296.112534489948303, 1838311.667439960874617 ], [ 2974362.554817782714963, 1838303.842360638314858 ], [ 2974388.196401321794838, 1838302.801885052584112 ], [ 2974388.079994339495897, 1838305.643687446601689 ], [ 2974387.362519983202219, 1838323.187735038343817 ], [ 2974393.799562431871891, 1838343.792131465859711 ], [ 2974398.15269323810935, 1838361.227365311700851 ], [ 2974403.478306403849274, 1838395.184261769987643 ], [ 2974408.109105321578681, 1838424.711949574295431 ], [ 2974432.530278253369033, 1838498.259808385977522 ], [ 2974450.97386208595708, 1838554.374709999188781 ], [ 2974574.091612481512129, 1838554.374709999188781 ], [ 2974660.416751885786653, 1838481.824253279482946 ], [ 2974737.434540973044932, 1838412.917526460485533 ], [ 2974936.981478825211525, 1838241.677266018465161 ], [ 2974981.951388952787966, 1838204.805069644236937 ], [ 2975048.673311517573893, 1838157.469692674465477 ], [ 2975122.866624541580677, 1838116.894382530124858 ], [ 2975311.994208512362093, 1838027.959434523712844 ], [ 2975377.620387272909284, 1837994.480447114445269 ], [ 2975413.328234411776066, 1837970.393953288439661 ], [ 2975449.993466439656913, 1837937.030013282783329 ], [ 2975489.761852929368615, 1837892.487457005074248 ], [ 2975523.540933246724308, 1837845.979593496769667 ], [ 2975546.590212357230484, 1837818.083808839786798 ], [ 2975564.498551261611283, 1837798.695173264713958 ], [ 2975586.327800815925002, 1837778.606292811920866 ], [ 2975607.972128487192094, 1837762.597570568788797 ], [ 2975631.607858386822045, 1837748.762673930963501 ], [ 2975691.229516574181616, 1837712.815795106813312 ], [ 2975777.450592838227749, 1837661.493015828309581 ], [ 2975845.286056405398995, 1837605.866233182838187 ], [ 2975909.200993381440639, 1837545.880888773594052 ], [ 2975965.273452755995095, 1837487.29677578411065 ], [ 2976010.789827944710851, 1837435.578363497275859 ], [ 2976014.303232436999679, 1837438.581264294218272 ], [ 2976045.62816409021616, 1837465.353831375949085 ], [ 2976133.604909542482346, 1837538.172708628000692 ], [ 2976248.936754379421473, 1837631.4008445055224 ], [ 2976288.409926909953356, 1837662.293058119947091 ], [ 2976349.032252846285701, 1837709.644169667502865 ], [ 2976465.861827459186316, 1837802.099461130332202 ], [ 2976503.005200006067753, 1837802.547585109481588 ], [ 2976529.311142234597355, 1837805.943360249511898 ], [ 2976534.260080776177347, 1837807.345790925202891 ], [ 2976550.198024224489927, 1837815.872028860496357 ], [ 2976558.009264255408198, 1837824.595004423055798 ], [ 2976563.705150063149631, 1837840.27267182758078 ], [ 2976608.025242992676795, 1837886.48873533308506 ], [ 2976640.659170153550804, 1837930.239019511733204 ], [ 2976746.542746735736728, 1838045.392974870046601 ], [ 2976782.8663758947514, 1838086.966637876117602 ], [ 2976786.370056425221264, 1838104.047648369334638 ], [ 2976775.223693738691509, 1838110.085961032193154 ], [ 2976699.793833466712385, 1838127.606511631049216 ], [ 2976685.143200961872935, 1838131.74112011725083 ], [ 2976624.009136542677879, 1838142.660953803919256 ], [ 2976586.229319578502327, 1838150.429544867947698 ], [ 2976588.76373890414834, 1838169.699148509418592 ], [ 2976598.195370207540691, 1838193.816120064584538 ], [ 2976600.093329324852675, 1838216.243193507893011 ], [ 2976605.943739086389542, 1838232.905045516090468 ], [ 2976622.538385949097574, 1838261.813527193851769 ], [ 2976637.805917129851878, 1838276.793293029069901 ], [ 2976638.237898414954543, 1838284.810848291032016 ], [ 2976629.700651001185179, 1838286.841794507112354 ], [ 2976594.054943284019828, 1838280.560949432430789 ], [ 2976577.861052557826042, 1838274.853110967436805 ], [ 2976555.368000572547317, 1838280.388625523075461 ], [ 2976540.09997719572857, 1838280.586385539034382 ], [ 2976533.029431009665132, 1838286.908591281156987 ], [ 2976537.228234226349741, 1838293.241275610402226 ], [ 2976543.650316699407995, 1838298.165205107303336 ], [ 2976539.326469771564007, 1838332.327860709046945 ], [ 2976534.061928620561957, 1838344.904256360605359 ], [ 2976518.14539200393483, 1838346.229698667535558 ], [ 2976505.609978143125772, 1838348.468734702095389 ], [ 2976489.739549867343158, 1838360.410151770105585 ], [ 2976450.681570585817099, 1838378.517148294951767 ], [ 2976428.543218625243753, 1838396.637367709074169 ], [ 2976400.909182824660093, 1838420.798440905986354 ], [ 2976379.265061578713357, 1838431.747615626314655 ], [ 2976370.727938168682158, 1838438.837660767836496 ], [ 2976362.236761611886322, 1838451.484566285507753 ], [ 2976355.057766546029598, 1838467.438588042277843 ], [ 2976337.767048037610948, 1838485.70469310763292 ], [ 2976322.622316872701049, 1838502.069827347295359 ], [ 2976309.638778299093246, 1838517.037084290524945 ], [ 2976290.032476366497576, 1838535.716867238050327 ], [ 2976273.494712511077523, 1838554.374709999188781 ], [ 2980883.155267737805843, 1838554.374709999188781 ], [ 2980885.316662434488535, 1838540.78942412068136 ], [ 2980899.754414228256792, 1838504.316550452494994 ], [ 2980926.020952396094799, 1838425.259914946742356 ], [ 2980928.276803407352418, 1838398.550321147544309 ], [ 2980928.281484884675592, 1838331.770032276399434 ], [ 2980925.304037659429014, 1838302.453166305087507 ], [ 2980914.097417172044516, 1838277.134710233192891 ], [ 2980874.918940405361354, 1838212.289759429637343 ], [ 2980841.31460299808532, 1838136.837638282915577 ], [ 2980825.450139605440199, 1838084.699314557248726 ], [ 2980825.332469724584371, 1838084.725579834310338 ], [ 2980784.642544889822602, 1838093.833923139609396 ], [ 2980756.080386935733259, 1838101.967689799843356 ], [ 2980735.778135881759226, 1838111.156695366604254 ], [ 2980713.823821663390845, 1838120.134708143537864 ], [ 2980647.189817114267498, 1838132.029171473579481 ], [ 2980601.321009875275195, 1838142.746684402693063 ], [ 2980589.633703611791134, 1838145.338937304215506 ], [ 2980556.841049220878631, 1838162.322512616636232 ], [ 2980541.803341654129326, 1838169.054079303750768 ], [ 2980525.114204805344343, 1838170.515603235689923 ], [ 2980500.968224569689482, 1838170.778621803503484 ], [ 2980472.932333928532898, 1838161.618161115562543 ], [ 2980447.320059809833765, 1838157.589824717026204 ], [ 2980436.381108796223998, 1838157.817605983000249 ], [ 2980431.279546562582254, 1838157.923798196017742 ], [ 2980421.334320177324116, 1838154.230199512792751 ], [ 2980406.439397202339023, 1838148.698616052046418 ], [ 2980375.439015677198768, 1838146.138171321945265 ], [ 2980353.748181157745421, 1838141.409876294666901 ], [ 2980327.101148738991469, 1838141.107771452516317 ], [ 2980310.180765469558537, 1838141.092861376935616 ], [ 2980270.148383467458189, 1838142.674365788232535 ], [ 2980224.620335358195007, 1838140.178036350058392 ], [ 2980194.669487102888525, 1838144.512951021082699 ], [ 2980167.250310810282826, 1838149.40785412536934 ], [ 2980139.136916352435946, 1838144.814418487017974 ], [ 2980113.370858897455037, 1838134.743113415548578 ], [ 2980084.022854057140648, 1838127.334793293848634 ], [ 2980069.063418581616133, 1838119.38125489698723 ], [ 2980041.013755434192717, 1838089.481378459138796 ], [ 2980027.62955358158797, 1838076.187698856228963 ], [ 2980010.817549973726273, 1838066.541490868432447 ], [ 2979995.735063401516527, 1838057.598342297365889 ], [ 2979983.230856904760003, 1838039.594439699314535 ], [ 2979971.670431590173393, 1837996.632639675633982 ], [ 2979963.736951776314527, 1837971.741922696586698 ], [ 2979956.420958206988871, 1837945.729168966878206 ], [ 2979951.759571230970323, 1837931.384311816655099 ], [ 2979942.219205054454505, 1837921.957495545269921 ], [ 2979921.208960366435349, 1837900.919118113350123 ], [ 2979904.201721005141735, 1837884.172749093966559 ], [ 2979901.201967294327915, 1837881.219259975245222 ], [ 2979886.638791880570352, 1837860.132112295832485 ], [ 2979886.583101636264473, 1837860.051598755409941 ], [ 2979868.150940316729248, 1837840.070717143593356 ], [ 2979857.067347609438002, 1837825.860493857646361 ], [ 2979856.74547694856301, 1837793.034122726880014 ], [ 2979860.3869888340123, 1837783.645047564757988 ], [ 2979866.595284892246127, 1837767.639278528979048 ], [ 2979867.075747070834041, 1837766.400651985779405 ], [ 2979871.200012801680714, 1837740.200845702784136 ], [ 2979871.910374600440264, 1837735.689366715028882 ], [ 2979878.069241157732904, 1837722.66461485135369 ], [ 2979885.235876952297986, 1837707.509295827709138 ], [ 2979885.941373684443533, 1837699.910049226135015 ], [ 2979887.337274750694633, 1837684.874421251704916 ], [ 2979884.990095648914576, 1837675.472254669992253 ], [ 2979882.984696198254824, 1837667.438956929836422 ], [ 2979873.057751367334276, 1837636.950542620848864 ], [ 2979872.087755003012717, 1837633.971126895863563 ], [ 2979872.790274799335748, 1837630.917850440600887 ], [ 2979874.102472556754947, 1837625.216203102841973 ], [ 2979881.678300366271287, 1837592.292601655237377 ], [ 2979888.84554685652256, 1837540.422770858509466 ], [ 2979889.186114937998354, 1837532.267641309183091 ], [ 2979931.229638927616179, 1837476.701112334849313 ], [ 2979951.870970500633121, 1837446.024457064224407 ], [ 2979889.346857398282737, 1837450.282761943060905 ], [ 2979822.467043935321271, 1837451.092673166655004 ], [ 2979776.182033183053136, 1837454.296743977582082 ], [ 2979775.964094013907015, 1837450.660983296809718 ], [ 2979772.380474569275975, 1837390.865639203228056 ], [ 2979772.312051749322563, 1837389.726220275275409 ], [ 2979866.390439968556166, 1837254.044170378241688 ], [ 2979945.676605293061584, 1837148.321935588493943 ], [ 2979970.713297684676945, 1837118.06178967258893 ], [ 2979971.214470263570547, 1837117.456000861478969 ], [ 2979930.228790258057415, 1837074.688714143121615 ], [ 2979861.57857542578131, 1837014.600561139872298 ], [ 2979828.362396003678441, 1836988.237246953882277 ], [ 2979827.75511281285435, 1836987.755376199493185 ], [ 2979826.722073696553707, 1836971.245125346351415 ], [ 2979811.827112905215472, 1836935.961756776552647 ], [ 2979800.374058817513287, 1836907.652433020295575 ], [ 2979786.304143593180925, 1836797.85474425717257 ], [ 2979781.786268250551075, 1836734.412230922607705 ], [ 2979771.650671449489892, 1836654.77201891457662 ], [ 2979767.668258809484541, 1836607.113309435546398 ], [ 2979767.194039275869727, 1836601.436709094559774 ], [ 2979780.474097216501832, 1836571.747423317516223 ], [ 2979814.432138937991112, 1836485.247628268552944 ], [ 2979841.793950466439128, 1836440.903179221320897 ], [ 2979902.011135826818645, 1836377.54012739029713 ], [ 2979932.475361992605031, 1836343.26570715662092 ], [ 2979963.046833046711981, 1836314.53703663428314 ], [ 2980047.984683687798679, 1836225.008012121310458 ], [ 2980062.576638225466013, 1836203.685131716774777 ], [ 2980073.185907506383955, 1836177.002375297946855 ], [ 2980083.149993045255542, 1836121.093061070889235 ], [ 2980083.571831109002233, 1836116.842720044776797 ], [ 2980086.472849691286683, 1836087.616819723043591 ], [ 2980087.339627732522786, 1836068.238140530884266 ], [ 2980085.80266011506319, 1836003.758159603690729 ], [ 2980081.868056078441441, 1835983.718896428588778 ], [ 2980088.662964668590575, 1835967.329174374463037 ], [ 2980099.254807107150555, 1835960.379438053350896 ], [ 2980093.884185011964291, 1835941.102514684433118 ], [ 2980079.667545451782644, 1835919.863311990862712 ], [ 2980073.863861080724746, 1835907.746096633607522 ], [ 2980075.347083082888275, 1835897.363481060601771 ], [ 2980066.30369586776942, 1835864.576991815352812 ], [ 2980049.499580586329103, 1835787.139871740248054 ], [ 2980040.396784239448607, 1835734.128455097321421 ], [ 2980036.044997970573604, 1835709.850383389741182 ], [ 2980017.294604850932956, 1835650.733101140474901 ], [ 2979992.96968768723309, 1835593.35652708588168 ], [ 2979953.768818603362888, 1835476.916792609263211 ], [ 2979933.055891454219818, 1835426.989813340129331 ], [ 2979910.196132445707917, 1835384.02266032807529 ], [ 2979908.993591483216733, 1835371.084181443089619 ], [ 2979868.474883148446679, 1835302.939596592448652 ], [ 2979851.959246190264821, 1835269.463618045207113 ], [ 2979808.970640802755952, 1835200.748359591234475 ], [ 2979767.911558859515935, 1835134.217981545487419 ], [ 2979740.667557125911117, 1835088.998309808317572 ], [ 2979738.240180386696011, 1835085.179727564798668 ], [ 2979734.353651543613523, 1835084.560631459346041 ], [ 2979710.194461667910218, 1835064.084860617760569 ], [ 2979687.919728093780577, 1835035.1782872218173 ], [ 2979667.130695006810129, 1834979.700516568263993 ], [ 2979661.885788599960506, 1834946.236388406250626 ], [ 2979661.98293065931648, 1834910.806877272669226 ], [ 2979647.408583335578442, 1834910.373242500703782 ], [ 2979643.244250467047095, 1834878.739794230321422 ], [ 2979643.88061404414475, 1834851.814039183082059 ], [ 2979638.03146238066256, 1834835.15221267263405 ], [ 2979626.79406320489943, 1834819.958042462123558 ], [ 2979621.97975605353713, 1834799.570176221895963 ], [ 2979599.338985178619623, 1834737.340583415934816 ], [ 2979563.225361531600356, 1834635.527602017624304 ], [ 2979532.498287741094828, 1834547.423668178031221 ], [ 2979501.511297580786049, 1834457.450632092310116 ], [ 2979499.946376183070242, 1834452.907077642390504 ], [ 2979511.68493731925264, 1834445.408931126119569 ], [ 2979451.477236744016409, 1834302.873607375426218 ], [ 2979419.837702819611877, 1834229.603545694611967 ], [ 2979428.793133730534464, 1834224.969667131779715 ], [ 2979350.882377899251878, 1834046.641798806143925 ], [ 2979317.69978414895013, 1833968.588686649687588 ], [ 2979297.143603906035423, 1833909.528833969961852 ], [ 2979288.273322788067162, 1833863.053410942666233 ], [ 2979277.223082629963756, 1833833.661202675662935 ], [ 2979271.142821055371314, 1833815.523175270995125 ], [ 2979263.254990041255951, 1833806.307637496618554 ], [ 2979261.017556119710207, 1833797.095281400950626 ], [ 2979262.902519420254976, 1833788.664660550886765 ], [ 2979275.053328071720898, 1833783.966135807102546 ], [ 2979282.356197291985154, 1833784.180108734406531 ], [ 2979332.799938381649554, 1833751.398586574010551 ], [ 2979375.090182335115969, 1833733.225597517332062 ], [ 2979398.15678603341803, 1833726.072537873638794 ], [ 2979458.802004877012223, 1833722.329062988515943 ], [ 2979489.602705694269389, 1833723.407211798243225 ], [ 2979509.597228857688606, 1833717.308606983162463 ], [ 2979563.974469892680645, 1833709.625285326736048 ], [ 2979584.58588052354753, 1833707.463661091402173 ], [ 2979603.080841802526265, 1833712.256408585002646 ], [ 2979618.350513051729649, 1833712.059996632859111 ], [ 2979639.919664132408798, 1833705.680391528876498 ], [ 2979648.07193819526583, 1833701.189785286784172 ], [ 2979654.372193921357393, 1833695.006349842995405 ], [ 2979653.292520942632109, 1833688.116736998781562 ], [ 2979649.752272381912917, 1833684.68342337012291 ], [ 2979647.565521620679647, 1833682.56257252395153 ], [ 2979642.487458776682615, 1833680.785125348251313 ], [ 2979639.907943645026535, 1833679.88243210176006 ], [ 2979634.67552059981972, 1833672.216460535302758 ], [ 2979637.517258444800973, 1833664.626961532048881 ], [ 2979640.436283930204809, 1833657.529346236493438 ], [ 2979650.163858495652676, 1833652.757648171391338 ], [ 2979673.925497209653258, 1833644.974843998905271 ], [ 2979683.544096320401877, 1833644.775538501096889 ], [ 2979692.190340447239578, 1833643.232160520972684 ], [ 2979706.346849325112998, 1833651.328690617578104 ], [ 2979720.612489732913673, 1833649.794007139513269 ], [ 2979748.264381397515535, 1833646.375647817272693 ], [ 2979777.226872871164232, 1833656.382252362789586 ], [ 2979839.90776404645294, 1833665.42898898338899 ], [ 2979847.487942163832486, 1833667.617105218116194 ], [ 2979870.59983599325642, 1833671.079790657851845 ], [ 2979886.949028328061104, 1833677.773135648341849 ], [ 2979925.020787951070815, 1833684.130353651707992 ], [ 2979943.671081146690995, 1833684.84839957812801 ], [ 2979979.16628288757056, 1833680.030324542894959 ], [ 2980003.777297706808895, 1833672.602120419731364 ], [ 2980004.3738351482898, 1833672.356929810484871 ], [ 2980021.194003388285637, 1833665.446208097739145 ], [ 2980045.760441209189594, 1833647.402407936053351 ], [ 2980069.586670309770852, 1833624.432054150151089 ], [ 2980095.188889869488776, 1833597.603469429770485 ], [ 2980109.224323481321335, 1833589.53360222093761 ], [ 2980129.218430569395423, 1833588.494356962619349 ], [ 2980140.597601764369756, 1833583.933796397410333 ], [ 2980173.117946093901992, 1833549.799931972287595 ], [ 2980182.107611776329577, 1833524.924938626587391 ], [ 2980188.331432013772428, 1833513.190601960523054 ], [ 2980208.480369616299868, 1833508.076640467392281 ], [ 2980231.129587773233652, 1833508.586873166495934 ], [ 2980251.356433607637882, 1833498.906121829990298 ], [ 2980284.107420044951141, 1833471.307778103044257 ], [ 2980325.519251477904618, 1833447.728228901978582 ], [ 2980364.339290921576321, 1833412.470354289747775 ], [ 2980435.119743835646659, 1833370.496303443331271 ], [ 2980455.501938703004271, 1833356.740956717636436 ], [ 2980487.79058419726789, 1833326.190042546950281 ], [ 2980494.862862791866064, 1833319.869027216918766 ], [ 2980528.494831247255206, 1833355.057771919993684 ], [ 2980534.786686188541353, 1833332.978650571778417 ], [ 2980537.231178804766387, 1833302.189731593476608 ], [ 2980538.268118798267096, 1833288.345980253769085 ], [ 2980551.487256777472794, 1833269.798623178619891 ], [ 2980567.933946865610778, 1833246.122248216532171 ], [ 2980586.774007130414248, 1833222.524714109255001 ], [ 2980612.519496194086969, 1833175.9419819151517 ], [ 2980631.313241496682167, 1833151.846890112152323 ], [ 2980648.036834256723523, 1833135.203545628814027 ], [ 2980661.333277739584446, 1833117.148256749147549 ], [ 2980671.898189352825284, 1833091.99254318093881 ], [ 2980671.194164811633527, 1833056.706796993501484 ], [ 2980677.650581788271666, 1833041.390005734283477 ], [ 2980679.952852611895651, 1833030.355736411642283 ], [ 2980682.288990794215351, 1833004.139167343499139 ], [ 2980694.537556959316134, 1832974.129940823186189 ], [ 2980722.24465197743848, 1832924.668108579469845 ], [ 2980739.740531040355563, 1832907.887044347357005 ], [ 2980756.804604442790151, 1832888.147811099188402 ], [ 2980779.907752118073404, 1832855.695615919306874 ], [ 2980795.428744553588331, 1832831.173067376483232 ], [ 2980800.773863290436566, 1832814.031184035120532 ], [ 2980798.229313269257545, 1832797.791460756445304 ], [ 2980799.099496836774051, 1832767.283741157967597 ], [ 2980804.850239478051662, 1832726.799202878726646 ], [ 2980802.151616843417287, 1832709.575345117365941 ], [ 2980802.834844431374222, 1832688.20673752296716 ], [ 2980801.404395625926554, 1832658.615508657647297 ], [ 2980816.462869059294462, 1832631.140243062283844 ], [ 2980864.772062023635954, 1832553.720197337213904 ], [ 2980901.744667277205735, 1832496.534726794343442 ], [ 2980935.302947723306715, 1832453.617298283847049 ], [ 2980966.97774173785001, 1832409.012470952467993 ], [ 2981003.069031659513712, 1832361.596172306453809 ], [ 2981022.481512375175953, 1832336.379354356555268 ], [ 2981048.778256774879992, 1832319.039800270926207 ], [ 2981090.146485623903573, 1832289.904945927904919 ], [ 2981123.671004879754037, 1832262.169986833818257 ], [ 2981138.972674160264432, 1832256.910025082994252 ], [ 2981149.472613446880132, 1832252.001075590727851 ], [ 2981165.23584025260061, 1832254.752579230349511 ], [ 2981177.617892565205693, 1832256.589953093789518 ], [ 2981183.732537644449621, 1832254.48705232841894 ], [ 2981200.235769860446453, 1832262.165316935628653 ], [ 2981216.385571087244898, 1832262.318609866546467 ], [ 2981246.912989658303559, 1832246.247658029198647 ], [ 2981259.37530175736174, 1832233.400517827598378 ], [ 2981273.927401456981897, 1832192.35754796047695 ], [ 2981290.112960680387914, 1832167.21113725961186 ], [ 2981320.057494836859405, 1832132.021276576444507 ], [ 2981335.39210403803736, 1832116.638166383374482 ], [ 2981346.696915750391781, 1832101.468193024396896 ], [ 2981364.76397187449038, 1832088.12695868848823 ], [ 2981374.447780636604875, 1832072.74039201438427 ], [ 2981407.245030864141881, 1832055.758845675038174 ], [ 2981423.783425704576075, 1832043.196200599428266 ], [ 2981441.465991115663201, 1832022.335409434512258 ], [ 2981464.600138739682734, 1831994.937406541313976 ], [ 2981499.93368674069643, 1831958.280432598199695 ], [ 2981527.729822525754571, 1831935.109196011908352 ], [ 2981553.707593822851777, 1831895.062975105131045 ], [ 2981603.827271689660847, 1831808.72219226625748 ], [ 2981644.83396534062922, 1831741.207104104105383 ], [ 2981676.774523004889488, 1831687.956367103150114 ], [ 2981707.600844278931618, 1831648.05722021497786 ], [ 2981746.426129264757037, 1831602.683650782331824 ], [ 2981792.170055617578328, 1831550.00550833134912 ], [ 2981803.706516603939235, 1831536.312197300605476 ], [ 2981835.457037449814379, 1831507.377281824592501 ], [ 2981850.451645916327834, 1831495.090429201722145 ], [ 2981881.442310483194888, 1831481.972840477479622 ], [ 2981929.774511952884495, 1831456.149830455658957 ], [ 2981970.075957746244967, 1831440.865211836528033 ], [ 2982011.024900425225496, 1831429.512027653865516 ], [ 2982076.631802597548813, 1831416.288756365887821 ], [ 2982094.89759008679539, 1831414.547388191334903 ], [ 2982125.440053351223469, 1831404.039433968719095 ], [ 2982141.18657762883231, 1831413.37059413921088 ], [ 2982150.431539837270975, 1831429.426445062970743 ], [ 2982156.110574303660542, 1831441.565550215076655 ], [ 2982165.266441086772829, 1831442.461306671379134 ], [ 2982192.536058036610484, 1831429.502158163115382 ], [ 2982211.963883509859443, 1831409.848220859887078 ], [ 2982222.019120595417917, 1831392.37247087340802 ], [ 2982218.704356927424669, 1831371.211777119431645 ], [ 2982218.969441388733685, 1831358.518018289469182 ], [ 2982239.507401439361274, 1831345.748130155261606 ], [ 2982270.900206455029547, 1831330.535751169081777 ], [ 2982287.113680833019316, 1831323.59626782219857 ], [ 2982315.311658974736929, 1831302.377727618440986 ], [ 2982344.393086608033627, 1831267.343435962451622 ], [ 2982382.78736337646842, 1831220.024503104388714 ], [ 2982400.053731489926577, 1831200.756574638187885 ], [ 2982411.175129606388509, 1831180.561324269045144 ], [ 2982421.648929254151881, 1831156.434833394363523 ], [ 2982440.123279273975641, 1831120.763787368079647 ], [ 2982464.185351358726621, 1831092.189556796569377 ], [ 2982472.634048722684383, 1831079.047573396004736 ], [ 2982484.975661932025105, 1831057.117213644320145 ], [ 2982487.741532269399613, 1831048.326952941017225 ], [ 2982440.734522309619933, 1831014.424145009601489 ], [ 2982235.446134433615953, 1830873.998496753862128 ], [ 2982258.425004220101982, 1830790.478875814704224 ], [ 2982279.459132015239447, 1830704.27106785774231 ], [ 2982346.996087921317667, 1830564.745800820644945 ], [ 2982363.308219597674906, 1830534.519210126949474 ], [ 2982574.959700996987522, 1830538.240307540865615 ], [ 2982622.468618116341531, 1830539.375992824556306 ], [ 2982638.125047138892114, 1830538.606358651304618 ], [ 2982788.470997364260256, 1830453.105898342328146 ], [ 2982860.877867007162422, 1830421.47239919542335 ], [ 2982802.980757503304631, 1830344.287737152539194 ], [ 2982773.034039420541376, 1830316.243602715199813 ], [ 2982731.277321735862643, 1830279.683344678720459 ], [ 2982684.196363781578839, 1830233.449884442845359 ], [ 2982652.212215672247112, 1830201.722478503128514 ], [ 2982623.90539323259145, 1830160.233696191571653 ], [ 2982604.13408640678972, 1830129.868417515652254 ], [ 2982591.836001216899604, 1830099.181877064052969 ], [ 2982578.860864719841629, 1830059.510647187940776 ], [ 2982569.962560252286494, 1830017.088728384580463 ], [ 2982567.517615675926208, 1829977.562512445030734 ], [ 2982569.659520503599197, 1829933.676862068008631 ], [ 2982577.839750338345766, 1829885.17325676092878 ], [ 2982591.792584815993905, 1829844.745144288288429 ], [ 2982593.58360013877973, 1829839.978074914542958 ], [ 2982556.565191472414881, 1829816.631481942022219 ], [ 2982522.910428644157946, 1829798.354368247324601 ], [ 2982494.424376564100385, 1829793.825050982879475 ], [ 2982471.342164938338101, 1829790.355038984445855 ], [ 2982458.636250166222453, 1829786.045745014213026 ], [ 2982446.054379183333367, 1829777.667297383304685 ], [ 2982392.247974463738501, 1829707.34155896352604 ], [ 2982367.632986333221197, 1829660.641799883451313 ], [ 2982354.915124196559191, 1829641.664838853059337 ], [ 2982351.861952395644039, 1829627.03394107427448 ], [ 2982347.117836019489914, 1829582.353658387437463 ], [ 2982339.448024999815971, 1829567.028715896653011 ], [ 2982320.726436185650527, 1829538.499940899899229 ], [ 2982303.828851394820958, 1829502.563949068076909 ], [ 2982280.263353320304304, 1829457.700492487521842 ], [ 2982249.050325933843851, 1829430.894396900199354 ], [ 2982200.321248202584684, 1829380.281984475208446 ], [ 2982205.233699755743146, 1829362.327840843936428 ], [ 2982215.444917154498398, 1829283.616743981139734 ], [ 2982224.863785426132381, 1829223.763454789994285 ], [ 2982234.585960699710995, 1829185.102023632032797 ], [ 2982237.990212881471962, 1829168.195597392739728 ], [ 2982195.2228800104931, 1829149.632970323786139 ], [ 2982188.454968516714871, 1829146.604380077915266 ], [ 2982160.471285678911954, 1829134.081230253679678 ], [ 2982099.431108746677637, 1829094.38601024239324 ], [ 2982064.033246780280024, 1829069.844248518813401 ], [ 2982016.901677051559091, 1829042.33737153490074 ], [ 2981978.861679590307176, 1829024.843114268267527 ], [ 2981913.526577470358461, 1828996.031544183613732 ], [ 2981869.791312367655337, 1828970.954024431761354 ], [ 2981825.682048102840781, 1828958.083785791415721 ], [ 2981810.197694296017289, 1828950.223502019187436 ], [ 2981780.109975099563599, 1828930.804824007907882 ], [ 2981751.486690973863006, 1828920.736151068005711 ], [ 2981706.637895324267447, 1828902.939389238134027 ], [ 2981643.785542448051274, 1828885.319679965730757 ], [ 2981601.05229358933866, 1828866.639848683960736 ], [ 2981582.788206330500543, 1828860.287408716278151 ], [ 2981537.056983555667102, 1828851.247640090296045 ], [ 2981495.852237120270729, 1828832.801065274979919 ], [ 2981451.838398246560246, 1828810.808931839419529 ], [ 2981430.071591309271753, 1828796.481966288061813 ], [ 2981376.397162454668432, 1828755.97956430632621 ], [ 2981329.887530347332358, 1828713.187075075460598 ], [ 2981325.78107491042465, 1828710.884661707794294 ], [ 2981304.886575347278267, 1828726.247282503871247 ], [ 2981282.155059825628996, 1828739.408438764512539 ], [ 2981253.847926225047559, 1828760.140602663857862 ], [ 2981234.265057924203575, 1828778.810208379523829 ], [ 2981209.413083300925791, 1828812.07805491425097 ], [ 2981189.131497140042484, 1828845.542053897632286 ], [ 2981164.173057625070214, 1828873.264401020482183 ], [ 2981128.328849610406905, 1828903.435181726701558 ], [ 2981110.213981129229069, 1828917.290308599360287 ], [ 2981085.521408025175333, 1828932.319118700688705 ], [ 2981016.511013788171113, 1828966.384563215309754 ], [ 2980965.058162455912679, 1828992.764510188484564 ], [ 2980921.020244592800736, 1829013.938731067813933 ], [ 2980904.415824932511896, 1828970.199147761333734 ], [ 2980876.244258587248623, 1828886.19601975241676 ], [ 2980847.40843465924263, 1828802.817451186245307 ], [ 2980843.096594166476279, 1828793.027599306544289 ], [ 2980842.720998292788863, 1828792.175689866999164 ], [ 2980841.538787070196122, 1828789.491146780084819 ], [ 2980720.634154942352325, 1828789.523615735350177 ], [ 2980569.244714330416173, 1828791.751426270464435 ], [ 2980317.418896497692913, 1828795.209980849642307 ], [ 2980193.359632315114141, 1828794.585675462847576 ], [ 2980153.863902907818556, 1828796.575442054774612 ], [ 2980080.00698005547747, 1828828.4725461024791 ], [ 2979987.744129894301295, 1828867.701339908177033 ], [ 2979873.183504243846983, 1828917.991991363698617 ], [ 2979773.827629127539694, 1828964.086535087320954 ], [ 2979771.095902093686163, 1828965.353791157249361 ], [ 2979767.119509913958609, 1828950.579137608176097 ], [ 2979770.879773410502821, 1828917.027583711314946 ], [ 2979775.976519347168505, 1828848.839322231709957 ], [ 2979774.528628596104681, 1828834.933806524379179 ], [ 2979777.034125014673918, 1828817.287611090578139 ], [ 2979789.131731176748872, 1828784.271472975611687 ], [ 2979799.881486946251243, 1828771.224199208896607 ], [ 2979826.341637878678739, 1828724.515970420092344 ], [ 2979856.353476921562105, 1828676.162437944440171 ], [ 2979871.645669319666922, 1828649.152262896997854 ], [ 2979875.979950069915503, 1828604.875401007477194 ], [ 2979872.267554610501975, 1828571.645805475534871 ], [ 2979867.643220691010356, 1828542.119936570292339 ], [ 2979877.99442513845861, 1828517.003410396631807 ], [ 2979882.364742738660425, 1828497.459790766239166 ], [ 2979846.023627345450222, 1828437.726010244572535 ], [ 2979831.563195347320288, 1828412.484834867529571 ], [ 2979841.351947707124054, 1828235.207508761202917 ], [ 2979843.169397090561688, 1828193.909259319771081 ], [ 2979849.727237121202052, 1828092.07473429129459 ], [ 2979852.204898525960743, 1828007.155665489612147 ], [ 2979854.373424854129553, 1827982.487896306440234 ], [ 2979862.13378936983645, 1827945.693427708465606 ], [ 2979879.978894381783903, 1827901.535119233420119 ], [ 2979886.176520424894989, 1827878.677596016786993 ], [ 2979885.283246118575335, 1827854.264907146571204 ], [ 2979885.257007747888565, 1827853.549261306645349 ], [ 2979874.430738269351423, 1827847.895507385022938 ], [ 2979872.983840418048203, 1827847.140101155498996 ], [ 2979849.70584431476891, 1827828.025262649171054 ], [ 2979846.716555150225759, 1827824.251938417553902 ], [ 2979844.087633982300758, 1827820.934315251884982 ], [ 2979827.471688373014331, 1827829.969791176496074 ], [ 2979819.747340915258974, 1827829.374162319116294 ], [ 2979817.574791567400098, 1827829.206760003464296 ], [ 2979804.999676625709981, 1827809.705718809505925 ], [ 2979804.703459765296429, 1827809.246461122529581 ], [ 2979750.64706490887329, 1827774.879510291386396 ], [ 2979748.789887975901365, 1827773.698663071263582 ], [ 2979706.909951358567923, 1827741.210679240524769 ], [ 2979702.838172710034996, 1827724.738604305312037 ], [ 2979840.44224993372336, 1827601.035206712083891 ], [ 2979845.12296239938587, 1827592.612284113653004 ], [ 2979852.155496298801154, 1827565.558963235467672 ], [ 2979760.644447571132332, 1827393.715112037258223 ], [ 2979739.33286271803081, 1827353.509866204578429 ], [ 2979745.665201101452112, 1827182.921513005392626 ], [ 2979754.692943995818496, 1826981.501827700529248 ], [ 2979755.812475664541125, 1826954.99815419036895 ], [ 2979831.01390677317977, 1826979.516164616681635 ], [ 2979905.58071967959404, 1827009.711957754800096 ], [ 2979925.712094007991254, 1827018.259601251222193 ], [ 2979929.227700642775744, 1827020.824712828267366 ], [ 2979945.208817793056369, 1827032.484994929283857 ], [ 2979945.570511779747903, 1827032.66376066673547 ], [ 2979964.753153177909553, 1827042.149105450604111 ], [ 2979993.838511122856289, 1827055.16915845638141 ], [ 2980013.322519822046161, 1827059.785721992375329 ], [ 2980028.854348223190755, 1827063.084187384461984 ], [ 2980064.381289220415056, 1827064.331972852814943 ], [ 2980084.221481715328991, 1827066.355794319650158 ], [ 2980102.793533977121115, 1827074.676149419974536 ], [ 2980177.141732504591346, 1827113.004786647623405 ], [ 2980290.270785700064152, 1827168.694074757630005 ], [ 2980310.189032000955194, 1827180.588779642945156 ], [ 2980311.11829300923273, 1827157.892172346822917 ], [ 2980311.496211216785014, 1827131.520866632927209 ], [ 2980293.398521239869297, 1827115.297141582239419 ], [ 2980293.142911476548761, 1827115.067979106679559 ], [ 2980270.741063225083053, 1827099.530769894365221 ], [ 2980267.038949888199568, 1827096.963094546692446 ], [ 2980253.965671699959785, 1827080.579729846678674 ], [ 2980238.472984121181071, 1827048.946957358391955 ], [ 2980220.925140457227826, 1827023.245203660568222 ], [ 2980208.764190550893545, 1827003.158260899130255 ], [ 2980205.83602818287909, 1826984.458739960100502 ], [ 2980209.468843570444733, 1826969.141039037145674 ], [ 2980216.685695904772729, 1826948.125363764120266 ], [ 2980213.478710046038032, 1826932.510562628507614 ], [ 2980203.866139308549464, 1826909.439680480863899 ], [ 2980199.041018374729902, 1826883.49114264221862 ], [ 2980197.072374531067908, 1826856.526947112288326 ], [ 2980206.850273887626827, 1826842.135984797496349 ], [ 2980249.486705496907234, 1826821.8817656384781 ], [ 2980316.195462788455188, 1826796.826292294543236 ], [ 2980364.183803897351027, 1826796.356648094719276 ], [ 2980460.14375820569694, 1826799.973315401235595 ], [ 2980475.58136813621968, 1826807.33542124950327 ], [ 2980476.527137122116983, 1826808.6603109522257 ], [ 2980483.267632087692618, 1826818.104113322915509 ], [ 2980537.712909706868231, 1826911.580869877710938 ], [ 2980544.551484222989529, 1826916.936577517539263 ], [ 2980544.864877723157406, 1826916.893809288972989 ], [ 2980580.605463139712811, 1826912.020859447773546 ], [ 2980606.226305327843875, 1826908.636270598275587 ], [ 2980593.945657872129232, 1826757.382310309214517 ], [ 2980578.71923153847456, 1826560.798200248042122 ], [ 2980566.65101744607091, 1826388.436972646042705 ], [ 2980564.001889566890895, 1826366.652749650646001 ], [ 2980556.131418702658266, 1826184.161199657479301 ], [ 2980552.496693620923907, 1826173.958003770094365 ], [ 2980544.228853633627295, 1826162.034498462220654 ], [ 2980542.820159104652703, 1826160.003612553235143 ], [ 2980524.910998745355755, 1826155.105632734484971 ], [ 2980465.588708041235805, 1826157.597247157013044 ], [ 2980390.162862859666348, 1826157.398057835176587 ], [ 2980326.473718677647412, 1826151.058178518433124 ], [ 2980297.834027253556997, 1826144.534252977930009 ], [ 2980212.843989048618823, 1826116.703522501280531 ], [ 2980141.196019751951098, 1826083.457185896812007 ], [ 2980073.80866823438555, 1826053.497314361156896 ], [ 2979967.365505293942988, 1825998.13332252856344 ], [ 2979798.043585879728198, 1825913.017379499040544 ], [ 2979714.30949052143842, 1825869.282566303154454 ], [ 2979523.853651939891279, 1825773.270043234340847 ], [ 2979345.378288059495389, 1825682.202059528324753 ], [ 2979158.644275956787169, 1825586.032918829238042 ], [ 2979089.776712390594184, 1825551.280695546651259 ], [ 2979008.474077612161636, 1825512.807490000501275 ], [ 2975102.279086832888424, 1825512.807490000501275 ], [ 2975101.251042819581926, 1825523.299467508913949 ], [ 2975093.34176888037473, 1825541.442004140466452 ], [ 2975079.591773674823344, 1825556.611895290901884 ], [ 2975044.47553685028106, 1825576.936474443878978 ], [ 2975003.752953516319394, 1825597.927348629804328 ], [ 2974970.98749206867069, 1825611.80928310053423 ], [ 2974938.713894402608275, 1825620.249725540634245 ], [ 2974915.285040453076363, 1825625.103009633719921 ], [ 2974883.275447900872678, 1825639.519183906493708 ], [ 2974839.890230005607009, 1825649.944063223898411 ], [ 2974818.260529932565987, 1825649.122715469449759 ], [ 2974802.843154626432806, 1825636.484618634916842 ], [ 2974775.726242696400732, 1825609.206190875032917 ], [ 2974746.702256097458303, 1825571.895770672010258 ], [ 2974712.503152649849653, 1825525.136925526428968 ], [ 2974705.622040153946728, 1825512.807490000501275 ], [ 2974585.051914564333856, 1825512.807490000501275 ], [ 2974584.79990116879344, 1825514.149989251280203 ], [ 2974576.194993688724935, 1825536.431936097564176 ], [ 2974557.683834551367909, 1825559.813808759441599 ], [ 2974524.097434318624437, 1825589.903473903657869 ], [ 2974499.541727463714778, 1825609.011470621917397 ], [ 2974480.544690395705402, 1825616.419707895023748 ], [ 2974459.425081389490515, 1825618.853154615033418 ], [ 2974429.951578764244914, 1825619.432768047321588 ], [ 2974419.2898791981861, 1825619.998820672277361 ], [ 2974409.095911425538361, 1825627.84214357775636 ], [ 2974394.746141390874982, 1825632.747264142846689 ], [ 2974379.508955243509263, 1825634.130232042865828 ], [ 2974358.880752537865192, 1825631.122677457984537 ], [ 2974316.461029583588243, 1825621.969291260000318 ], [ 2974279.372354190796614, 1825612.532818998908624 ], [ 2974254.192326344549656, 1825597.623299972619861 ], [ 2974224.215263547375798, 1825573.532834908924997 ], [ 2974214.555028904695064, 1825571.912261061370373 ], [ 2974187.246424665208906, 1825573.44397645117715 ], [ 2974151.633060767315328, 1825584.154521989636123 ], [ 2974124.097253349609673, 1825597.103213887196034 ], [ 2974100.051504066213965, 1825619.466431252891198 ], [ 2974066.609466569498181, 1825646.184743676800281 ], [ 2974051.330507976468652, 1825651.590549633605406 ], [ 2974031.559651299845427, 1825649.768425237387419 ], [ 2973992.71441073063761, 1825641.984372111735865 ], [ 2973940.819809043779969, 1825623.816579414531589 ], [ 2973885.189626707229763, 1825598.954982138471678 ], [ 2973883.336036019958556, 1825597.644284473499283 ], [ 2973863.268466473557055, 1825588.592024314682931 ], [ 2973857.37307948153466, 1825579.528067723847926 ], [ 2973848.912908082827926, 1825578.004029817413539 ], [ 2973830.032578369602561, 1825571.765309770125896 ], [ 2973806.147103550843894, 1825576.537621853640303 ], [ 2973779.573689478449523, 1825587.860377908684313 ], [ 2973771.297112798783928, 1825592.373762822942808 ], [ 2973756.548825746402144, 1825607.654400870669633 ], [ 2973744.40677897632122, 1825635.115867769345641 ], [ 2973733.965071754530072, 1825654.179920541355386 ], [ 2973732.090147137641907, 1825680.313199411146343 ], [ 2973729.615467796102166, 1825697.954157069791108 ], [ 2973720.63809419889003, 1825726.36792955128476 ], [ 2973709.378247344866395, 1825745.072203499963507 ], [ 2973698.906945693306625, 1825759.083175061037764 ], [ 2973661.938151874579489, 1825789.967549876309931 ], [ 2973645.476783246733248, 1825804.036838721018285 ], [ 2973621.219027804676443, 1825815.957737257238477 ], [ 2973565.802922952454537, 1825838.502995296148583 ], [ 2973532.189960211981088, 1825848.048281855182722 ], [ 2973505.479075196199119, 1825853.831306843552738 ], [ 2973463.095504053868353, 1825868.990200768224895 ], [ 2973433.957507274579257, 1825887.853359263390303 ], [ 2973415.428207846358418, 1825898.245276376139373 ], [ 2973389.658787120133638, 1825905.37788104522042 ], [ 2973354.351723581552505, 1825899.038706893101335 ], [ 2973305.968326720409095, 1825890.48282866878435 ], [ 2973256.164693956263363, 1825882.180623784195632 ], [ 2973195.477158920839429, 1825871.270331247476861 ], [ 2973149.346719472203404, 1825867.370512607041746 ], [ 2973117.190046351868659, 1825857.433755133766681 ], [ 2973091.489481581375003, 1825836.226417270256206 ], [ 2973082.04892594832927, 1825804.526743409922346 ], [ 2973075.091143137775362, 1825784.017951622605324 ], [ 2973071.099931837059557, 1825753.873960249358788 ], [ 2973062.674170512706041, 1825738.180197814013809 ], [ 2973053.705537465400994, 1825733.206317883683369 ], [ 2973035.565320055466145, 1825731.894208940211684 ], [ 2973014.553115039132535, 1825731.09527953946963 ], [ 2972992.616188306827098, 1825724.391433327225968 ], [ 2972953.929689100477844, 1825711.068471327191219 ], [ 2972938.260551944375038, 1825706.279944332782179 ], [ 2972911.318674981594086, 1825710.587320641381666 ], [ 2972888.701174498535693, 1825709.063442301237956 ], [ 2972861.005134182516485, 1825703.894289042800665 ], [ 2972841.122969932854176, 1825691.258867481024936 ], [ 2972822.538247764110565, 1825677.380063007818535 ], [ 2972803.66168759111315, 1825656.977323600323871 ], [ 2972791.605290248524398, 1825651.543536843731999 ], [ 2972787.084170592017472, 1825641.728242585901171 ], [ 2972786.839996363501996, 1825630.643112865043804 ], [ 2972778.847157068550587, 1825612.848562569124624 ], [ 2972765.698728291317821, 1825590.916755392216146 ], [ 2972753.227357718162239, 1825577.969132855068892 ], [ 2972747.271441421471536, 1825563.857611369108781 ], [ 2972731.113827818073332, 1825536.899050562642515 ], [ 2972717.400307353120297, 1825512.807490000501275 ], [ 2972166.181290000677109, 1825512.807490000501275 ], [ 2972166.181290000677109, 1838554.374709999188781 ], [ 2972712.974876559805125, 1838554.374709999188781 ], [ 2972729.642644939478487, 1838536.978034130297601 ] ] ] } }
]
}
