{
"type": "FeatureCollection",
"name": "Ibros",
"crs": { "type": "name", "properties": { "name": "urn:ogc:def:crs:EPSG::3035" } },
"features": [
{ "type": "Feature", "properties": { "ENP_GRAL": 5.0, "ENP_GRAL_NAME": "Espacios Protegidos Red Natura 2000", "color": "#A87000" }, "geometry": { "type": "MultiPolygon", "coordinates": [ [ [ [ 3124945.414782978594303, 1768795.524439683416858 ], [ 3124972.937070465646684, 1768790.741765447892249 ], [ 3124999.349781474564224, 1768787.488253899617121 ], [ 3125054.692501123994589, 1768788.562004392268136 ], [ 3125103.787545017898083, 1768784.039679202716798 ], [ 3125137.661743223667145, 1768776.817043898394331 ], [ 3125171.938112971372902, 1768772.197205472271889 ], [ 3125223.855351869016886, 1768768.521070455433801 ], [ 3125261.15516297146678, 1768766.048693996388465 ], [ 3125291.804936524480581, 1768755.377446747850627 ], [ 3125306.318399121053517, 1768762.20987374894321 ], [ 3125342.307569128926843, 1768759.965327228186652 ], [ 3125396.645046502817422, 1768754.53248193860054 ], [ 3125413.675573417916894, 1768768.945701829856262 ], [ 3125430.110072663985193, 1768762.08096694201231 ], [ 3125459.948467348236591, 1768763.577942406525835 ], [ 3125487.768962360918522, 1768769.434629932278767 ], [ 3125497.84436085447669, 1768782.383658090839162 ], [ 3125542.501427075825632, 1768783.978464352432638 ], [ 3125585.348921834956855, 1768773.860778774134815 ], [ 3125613.072463699150831, 1768770.379971094895154 ], [ 3125657.625472554005682, 1768780.011113628279418 ], [ 3125693.108466009609401, 1768783.200140031054616 ], [ 3125711.352706821169704, 1768788.048157502431422 ], [ 3125732.523296080064029, 1768785.706034953473136 ], [ 3125776.972213649190962, 1768803.373404612299055 ], [ 3125816.483929206617177, 1768815.21697257948108 ], [ 3125847.424733066931367, 1768832.558717421721667 ], [ 3125883.302755048498511, 1768855.724337813910097 ], [ 3125919.2849042089656, 1768870.853892655810341 ], [ 3125954.864813076332211, 1768883.380732264602557 ], [ 3125987.823671328369528, 1768896.362998548196629 ], [ 3126032.979983638040721, 1768909.898681503953412 ], [ 3126103.946115743368864, 1768916.277408091584221 ], [ 3126190.438382505439222, 1768918.622539720730856 ], [ 3126241.447676398325711, 1768917.778213588753715 ], [ 3126285.903887779451907, 1768918.072474066866562 ], [ 3126331.670796213671565, 1768918.139074092498049 ], [ 3126423.308730041608214, 1768910.236482759006321 ], [ 3126477.44558790139854, 1768903.50378453056328 ], [ 3126502.756468790583313, 1768884.40686526009813 ], [ 3126523.733465045690536, 1768863.390176720218733 ], [ 3126539.467955778352916, 1768843.284388802712783 ], [ 3126571.734060763381422, 1768825.651848424458876 ], [ 3126627.784844508394599, 1768822.595950486138463 ], [ 3126673.350855113938451, 1768821.361608651466668 ], [ 3126719.817938951775432, 1768834.67038408271037 ], [ 3126759.426842554472387, 1768855.852278435602784 ], [ 3126808.001526109874249, 1768891.512664716225117 ], [ 3126837.721368880942464, 1768935.793825444532558 ], [ 3126850.805534879211336, 1768985.637604004470631 ], [ 3126879.311769787222147, 1769039.484019610099494 ], [ 3126884.636455551721156, 1769082.65786964353174 ], [ 3126890.571826038416475, 1769112.362433260772377 ], [ 3126889.336337557528168, 1769174.048224482918158 ], [ 3126887.005909133236855, 1769202.51614431058988 ], [ 3126892.94123305240646, 1769232.220652356510982 ], [ 3126902.905388089828193, 1769270.579669303959236 ], [ 3126921.842658342793584, 1769306.043453367659822 ], [ 3126929.795972687192261, 1769331.388477748958394 ], [ 3126934.420793706551194, 1769361.320788769517094 ], [ 3126918.277086873538792, 1769396.19729499402456 ], [ 3126902.237529100384563, 1769423.037839493714273 ], [ 3126923.304104431532323, 1769428.732389566488564 ], [ 3126927.332927966956049, 1769437.386803383938968 ], [ 3126942.948807363864034, 1769460.064377196598798 ], [ 3126959.459019349887967, 1769514.658604968804866 ], [ 3126950.062369582243264, 1769567.071907051606104 ], [ 3126944.500590759329498, 1769609.464604709530249 ], [ 3126902.554451425559819, 1769634.12406363314949 ], [ 3126862.432202787138522, 1769635.749086221214384 ], [ 3126882.985405210405588, 1769664.250529950018972 ], [ 3126914.827799745835364, 1769696.136240525636822 ], [ 3126944.153086961712688, 1769720.441136092180386 ], [ 3126955.532183951698244, 1769750.536401186138391 ], [ 3126962.799480627756566, 1769727.892450564075261 ], [ 3126984.254227449651808, 1769770.93716192105785 ], [ 3127015.001159250736237, 1769769.604731085011736 ], [ 3127023.349849948659539, 1769814.926207755925134 ], [ 3127029.084421248175204, 1769843.329554988304153 ], [ 3127045.296821441501379, 1769887.284947827458382 ], [ 3127054.047814802732319, 1769935.209436583099887 ], [ 3127060.281700726598501, 1769975.553088158601895 ], [ 3127085.751487877685577, 1770061.999718457926065 ], [ 3127095.813186021521688, 1770109.696489013498649 ], [ 3127092.567914940416813, 1770158.36871256516315 ], [ 3127104.932072510011494, 1770247.09228522493504 ], [ 3127103.205540312454104, 1770279.464602121617645 ], [ 3127093.012205619364977, 1770309.298755152150989 ], [ 3127101.368252956774086, 1770337.24672472383827 ], [ 3127096.507600797340274, 1770392.881470455788076 ], [ 3127093.17232858389616, 1770414.84248537523672 ], [ 3127091.140876407269388, 1770453.94960174523294 ], [ 3127089.310545947402716, 1770494.358027758542448 ], [ 3127090.087843425571918, 1770569.058707224437967 ], [ 3127094.706637746654451, 1770616.364989662077278 ], [ 3127109.109541145153344, 1770648.607962322188541 ], [ 3127123.297992923762649, 1770714.297073110472411 ], [ 3127146.563315196894109, 1770769.054753551259637 ], [ 3127171.437602988444269, 1770834.223833676427603 ], [ 3127181.499989671632648, 1770881.920964200282469 ], [ 3127221.582018280401826, 1770984.538732372689992 ], [ 3127252.496683013159782, 1771071.376737347338349 ], [ 3127274.257186154369265, 1771107.687094386201352 ], [ 3127286.233784367796034, 1771159.060719712637365 ], [ 3127292.364741469733417, 1771207.44090786902234 ], [ 3127305.249759920407087, 1771255.984183071646839 ], [ 3127318.945788307581097, 1771292.359201728133485 ], [ 3127332.038470080588013, 1771324.830025314586237 ], [ 3127330.714862174354494, 1771359.805395369185135 ], [ 3127348.946117594838142, 1771399.401781315915287 ], [ 3127361.130549785681069, 1771434.703117980156094 ], [ 3127373.814511205069721, 1771481.944987977622077 ], [ 3127381.554793037474155, 1771540.736710831290111 ], [ 3127394.245332784019411, 1771570.604686354054138 ], [ 3127402.498222646303475, 1771606.589211374986917 ], [ 3127409.946502340957522, 1771637.368045889539644 ], [ 3127420.613015469163656, 1771688.969546336214989 ], [ 3127429.670406776480377, 1771730.159740409580991 ], [ 3127433.24836493190378, 1771746.792983335675672 ], [ 3127439.649684806354344, 1771786.754735134309158 ], [ 3127447.743386199232191, 1771832.146897447528318 ], [ 3127453.040198983624578, 1771874.103517964016646 ], [ 3127452.477144312113523, 1771918.776796837104484 ], [ 3127454.652053053956479, 1771981.983878340106457 ], [ 3127455.695974133908749, 1772003.750954781658947 ], [ 3127456.853068697266281, 1772009.898841116577387 ], [ 3127459.858209522906691, 1772021.0179376474116 ], [ 3127473.796794142574072, 1772079.777963082073256 ], [ 3127475.765886493958533, 1772085.57840619655326 ], [ 3127475.617070141248405, 1772088.29807973629795 ], [ 3127476.095346090383828, 1772089.757011685520411 ], [ 3127477.097585184965283, 1772091.328968570567667 ], [ 3127478.050465528853238, 1772092.616450478555635 ], [ 3127478.586684648878872, 1772094.348264422733337 ], [ 3127479.192564905621111, 1772096.484064902178943 ], [ 3127481.450651841238141, 1772096.457544688368216 ], [ 3127481.328145118430257, 1772097.599308292614296 ], [ 3127480.561445889063179, 1772100.576338551007211 ], [ 3127482.895988160744309, 1772102.568188982550055 ], [ 3127481.843589606229216, 1772104.624081419082358 ], [ 3127482.365959151182324, 1772107.869616752956063 ], [ 3127481.947955586481839, 1772110.200169124407694 ], [ 3127484.270493522752076, 1772116.347115679876879 ], [ 3127491.894057666882873, 1772132.810234137577936 ], [ 3127495.505881085060537, 1772139.64436508435756 ], [ 3127498.395268941763788, 1772145.208355848910287 ], [ 3127500.094024387188256, 1772147.938686926616356 ], [ 3127501.651198510546237, 1772152.221800835104659 ], [ 3127503.105632286053151, 1772155.128022170625627 ], [ 3127505.677809363231063, 1772158.952253100462258 ], [ 3127508.883473116438836, 1772161.931629396509379 ], [ 3127509.789684566669166, 1772165.269481634022668 ], [ 3127512.559517846442759, 1772173.885260823182762 ], [ 3127515.812203059438616, 1772183.852000046987087 ], [ 3127521.55996290082112, 1772198.533499269280583 ], [ 3127521.850982890464365, 1772198.476777728181332 ], [ 3127527.377630428876728, 1772214.324145109392703 ], [ 3127546.828745378181338, 1772226.981328546302393 ], [ 3127573.423567632678896, 1772277.152343090623617 ], [ 3127604.553702882956713, 1772330.544632756849751 ], [ 3127626.211223335005343, 1772374.89158770442009 ], [ 3127651.39818802755326, 1772415.952578389085829 ], [ 3127666.106776161119342, 1772441.461154281627387 ], [ 3127660.65722991572693, 1772458.444396123988554 ], [ 3127675.658412637189031, 1772511.966173356864601 ], [ 3127700.144469349645078, 1772539.785207268549129 ], [ 3127768.256847594864666, 1772632.189581051003188 ], [ 3127789.518310313113034, 1772656.559803297976032 ], [ 3127829.517836687620729, 1772715.093390182359144 ], [ 3127864.884645560756326, 1772761.06795051228255 ], [ 3127939.543963255360723, 1772869.708283487940207 ], [ 3127974.709704456385225, 1772914.381528758211061 ], [ 3127985.08453370584175, 1772937.970435395138338 ], [ 3128007.973559169098735, 1772920.63021599734202 ], [ 3128018.756709823384881, 1772929.448011646047235 ], [ 3128016.434263862669468, 1772940.542472028639168 ], [ 3128016.227101947180927, 1772956.615006050793454 ], [ 3128040.219416473060846, 1772955.119778361171484 ], [ 3128060.993271945975721, 1772932.801502804039046 ], [ 3128089.630486723966897, 1772909.117210332769901 ], [ 3128124.101214978843927, 1772923.174602692713961 ], [ 3128141.43716642819345, 1772930.854066024534404 ], [ 3128170.26341590564698, 1772943.219238970894367 ], [ 3128187.099582829512656, 1772938.958099996205419 ], [ 3128210.787171406671405, 1772944.19772721384652 ], [ 3128222.478656276129186, 1772950.185056355316192 ], [ 3128258.260045791044831, 1772964.014873139560223 ], [ 3128290.414454164914787, 1772971.79278858890757 ], [ 3128324.080693867523223, 1772980.644661640981212 ], [ 3128359.356079201214015, 1772999.907903933199123 ], [ 3128371.352308644913137, 1772999.160336648114026 ], [ 3128388.993032440077513, 1773000.105062045622617 ], [ 3128402.397378165274858, 1773008.467610334511846 ], [ 3128415.301829017698765, 1773004.889467291999608 ], [ 3128421.348731196019799, 1773009.184574423823506 ], [ 3128435.460141947492957, 1773013.415128490421921 ], [ 3128455.118578816764057, 1773010.000203755218536 ], [ 3128471.144013300072402, 1773017.907457259250805 ], [ 3128489.388211046345532, 1773022.756473348010331 ], [ 3128514.49008251959458, 1773019.732350875623524 ], [ 3128543.621154890861362, 1773025.363041276112199 ], [ 3128543.322438481263816, 1773014.723866046639159 ], [ 3128573.160684878006577, 1773016.222562734270468 ], [ 3128613.885600934270769, 1773018.502893375465646 ], [ 3128641.407440108247101, 1773013.722138116369024 ], [ 3128663.68710626848042, 1773009.852005612570792 ], [ 3128672.556254999246448, 1773014.993260810850188 ], [ 3128691.51373334787786, 1772998.336466970620677 ], [ 3128707.0393334813416, 1772994.303229819051921 ], [ 3128762.893895332701504, 1772972.573652073042467 ], [ 3128809.269707216881216, 1772959.172632495174184 ], [ 3128848.489230833016336, 1772943.005471599986777 ], [ 3128888.415889402851462, 1772922.706477737054229 ], [ 3128908.074434930458665, 1772919.29180862638168 ], [ 3128917.345898407511413, 1772927.036040021339431 ], [ 3128931.256203559692949, 1772929.965355803724378 ], [ 3128939.223239150829613, 1772920.563180655008182 ], [ 3128950.914755516685545, 1772926.550708612659946 ], [ 3128962.404995637014508, 1772931.236646435922012 ], [ 3128971.377900793217123, 1772928.341726807178929 ], [ 3128985.891667563933879, 1772935.175400597741827 ], [ 3129010.585127138998359, 1772946.922667515929788 ], [ 3129026.708091735839844, 1772964.167762863915414 ], [ 3129045.251013538334519, 1772979.656177303288132 ], [ 3129059.758624451234937, 1773003.863628305727616 ], [ 3129082.032155748456717, 1773017.367718509398401 ], [ 3129088.779933910816908, 1773034.904907451942563 ], [ 3129103.793515221681446, 1773053.679082097252831 ], [ 3129120.519950099289417, 1773074.828457003924996 ], [ 3129135.630971738137305, 1773102.940396026009694 ], [ 3129150.035005937796086, 1773135.184205250581726 ], [ 3129176.22790140658617, 1773182.753185156732798 ], [ 3129188.614248746074736, 1773219.356647402513772 ], [ 3129208.358071743510664, 1773260.027600411558524 ], [ 3129223.261951701249927, 1773304.212049384834245 ], [ 3129236.355534564703703, 1773336.683545659761876 ], [ 3129241.585652992129326, 1773370.520882816286758 ], [ 3129250.747432127594948, 1773403.675328495912254 ], [ 3129262.128106410615146, 1773433.771662913262844 ], [ 3129265.950146216899157, 1773458.498899369500577 ], [ 3129277.940423289313912, 1773475.125583177432418 ], [ 3129291.137571543920785, 1773499.560896641109139 ], [ 3129298.2877959581092, 1773519.700990163022652 ], [ 3129300.902897686697543, 1773536.619629731634632 ], [ 3129304.627503884024918, 1773552.009300944628194 ], [ 3129307.846111733932048, 1773572.832299985224381 ], [ 3129311.477939108852297, 1773593.717176102567464 ], [ 3129317.439585506916046, 1773611.391016813227907 ], [ 3129323.642717816401273, 1773630.626467457041144 ], [ 3129332.910645658150315, 1773648.79510400025174 ], [ 3129342.337069910485297, 1773674.954579826211557 ], [ 3129350.678510431200266, 1773690.611327209277079 ], [ 3129363.898812664672732, 1773706.489823280600831 ], [ 3129362.162866499274969, 1773712.671474373200908 ], [ 3129354.616577168460935, 1773730.018749271519482 ], [ 3129365.620587618555874, 1773742.005827822489664 ], [ 3129378.838560064788908, 1773764.83393868082203 ], [ 3129385.731517168693244, 1773771.120366950985044 ], [ 3129394.438645206391811, 1773778.695342459483072 ], [ 3129411.448052811902016, 1773798.192198132164776 ], [ 3129423.900482370983809, 1773819.549642097204924 ], [ 3129429.21843958646059, 1773833.058847940992564 ], [ 3129439.783446011133492, 1773831.758376138284802 ], [ 3129450.42404520791024, 1773844.877670638496056 ], [ 3129458.887346537783742, 1773857.840561079792678 ], [ 3129465.982805971056223, 1773861.953690937720239 ], [ 3129478.961739112623036, 1773876.270500278333202 ], [ 3129494.598537000827491, 1773900.816669235005975 ], [ 3129512.290835464373231, 1773928.213237822754309 ], [ 3129518.496293876785785, 1773940.499240365577862 ], [ 3129524.216608708258718, 1773956.611306482926011 ], [ 3129534.413643801119179, 1773970.342256225878373 ], [ 3129550.133278576657176, 1773988.459542977390811 ], [ 3129567.267054868862033, 1773998.312830597395077 ], [ 3129577.222576646134257, 1774010.481982621131465 ], [ 3129582.342936528846622, 1774012.265458296518773 ], [ 3129589.074979517608881, 1774017.510800494579598 ], [ 3129595.928940825629979, 1774020.062240584520623 ], [ 3129603.587578522507101, 1774027.819372952682897 ], [ 3129608.747052595950663, 1774033.337856142316014 ], [ 3129621.487022107467055, 1774039.143350746016949 ], [ 3129630.95975198969245, 1774048.189158778171986 ], [ 3129640.917609204538167, 1774053.40880884625949 ], [ 3129652.084911529440433, 1774059.4874660638161 ], [ 3129660.95301264943555, 1774068.103711520088837 ], [ 3129671.637503100559115, 1774071.058918898925185 ], [ 3129682.563400608487427, 1774075.575856375042349 ], [ 3129695.344718647189438, 1774078.166878089541569 ], [ 3129706.270617340691388, 1774082.683821555227041 ], [ 3129721.994999301619828, 1774086.901923591271043 ], [ 3129731.511491568759084, 1774085.783628564327955 ], [ 3129741.349849502090365, 1774086.747573608299717 ], [ 3129751.500338159501553, 1774088.860126497223973 ], [ 3129756.433182343840599, 1774108.583602002589032 ], [ 3129779.295590791851282, 1774110.225592977600172 ], [ 3129799.196533041540533, 1774104.898162547731772 ], [ 3129818.81593760009855, 1774097.748695191228762 ], [ 3129837.727117260918021, 1774098.206038941629231 ], [ 3129856.919842595234513, 1774100.485440645366907 ], [ 3129889.101124808192253, 1774089.28329620952718 ], [ 3129925.515209064818919, 1774081.087926033884287 ], [ 3129954.87184047466144, 1774075.989275618456304 ], [ 3129976.044467671774328, 1774066.699301647022367 ], [ 3130000.178332208655775, 1774064.378620234085247 ], [ 3130030.243257909081876, 1774051.673347142059356 ], [ 3130061.153097226284444, 1774044.434095282806084 ], [ 3130085.150365752168, 1774029.040800067363307 ], [ 3130100.255354028195143, 1774017.06283225864172 ], [ 3130119.166474360972643, 1774017.520242236321792 ], [ 3130143.163875385187566, 1774002.126978721702471 ], [ 3130159.395309272222221, 1773997.43707810738124 ], [ 3130171.538984399288893, 1773978.48969019879587 ], [ 3130195.391395605169237, 1773974.347201696364209 ], [ 3130227.146216543857008, 1773972.574194810818881 ], [ 3130254.659733352251351, 1773992.117935605579987 ], [ 3130277.940385233610868, 1774008.655033566057682 ], [ 3130292.755368807353079, 1774019.17860715277493 ], [ 3130315.472858593799174, 1774032.07164934463799 ], [ 3130320.968875923193991, 1774055.439184297341853 ], [ 3130337.47367178928107, 1774076.894949404289946 ], [ 3130348.61904547829181, 1774088.055837434716523 ], [ 3130368.093560724984854, 1774092.157404644181952 ], [ 3130388.694617140106857, 1774103.547100134193897 ], [ 3130404.072882906533778, 1774117.714770025806502 ], [ 3130420.441054104361683, 1774126.097710549132898 ], [ 3130452.614144789986312, 1774139.219647766789421 ], [ 3130472.933475372381508, 1774148.787369181634858 ], [ 3130487.885202174540609, 1774172.383745319209993 ], [ 3130525.135988526046276, 1774193.978522006189451 ], [ 3130570.434301771689206, 1774206.692113765515387 ], [ 3130592.025280904956162, 1774212.297173198545352 ], [ 3130622.081949927844107, 1774223.915840306784958 ], [ 3130671.621555547229946, 1774215.312764014583081 ], [ 3130719.744525437243283, 1774221.923179830191657 ], [ 3130779.294634972233325, 1774241.516656443942338 ], [ 3130833.912086497060955, 1774241.386587864719331 ], [ 3130900.38315390329808, 1774244.810988443205133 ], [ 3130948.361257112119347, 1774262.672362376702949 ], [ 3131000.444017664529383, 1774246.14447416481562 ], [ 3131033.188898966647685, 1774238.587387571344152 ], [ 3131065.660545917227864, 1774204.884910765103996 ], [ 3131105.053343297913671, 1774155.01330097950995 ], [ 3131122.846635991241783, 1774123.85979290260002 ], [ 3131131.747670141980052, 1774096.121341782389209 ], [ 3131141.920202929526567, 1774064.420257807942107 ], [ 3131149.703195803798735, 1774005.070402642944828 ], [ 3131167.36875625513494, 1773936.520853901281953 ], [ 3131169.06709843268618, 1773923.129568592645228 ], [ 3131157.921752212569118, 1773911.968498644186184 ], [ 3131158.212030592374504, 1773889.467190960422158 ], [ 3131158.937659078277647, 1773833.213859371142462 ], [ 3131179.837667023763061, 1773797.779252316569909 ], [ 3131200.020702638663352, 1773794.274652156746015 ], [ 3131209.903137951623648, 1773785.074973088921979 ], [ 3131204.543817282654345, 1773774.780135580105707 ], [ 3131209.348652047105134, 1773757.10762902488932 ], [ 3131216.124657432548702, 1773752.189201772678643 ], [ 3131224.035863982979208, 1773730.235574960010126 ], [ 3131234.90834001917392, 1773715.251346397679299 ], [ 3131264.274262451101094, 1773685.830544928321615 ], [ 3131306.901962659321725, 1773669.0742055142764 ], [ 3131335.132725602015853, 1773656.688762861071154 ], [ 3131348.821283323690295, 1773659.924598895246163 ], [ 3131383.119786931667477, 1773650.227463387185708 ], [ 3131402.60321151278913, 1773630.00634103291668 ], [ 3131421.514686673413962, 1773630.464417481794953 ], [ 3131436.338527618907392, 1773616.665127211948857 ], [ 3131458.783239373005927, 1773603.413540470181033 ], [ 3131479.538354345597327, 1773579.229856160935014 ], [ 3131498.467567395884544, 1773531.04156532487832 ], [ 3131525.290487387217581, 1773509.546322801150382 ], [ 3131543.084574095904827, 1773478.393304457888007 ], [ 3131576.69260625122115, 1773427.656510191038251 ], [ 3131584.604060925543308, 1773405.702980341156945 ], [ 3131583.48669889010489, 1773374.091746903490275 ], [ 3131574.330521901138127, 1773327.03830593614839 ], [ 3131576.183363282121718, 1773278.073345577344298 ], [ 3131613.325150055810809, 1773213.626996763050556 ], [ 3131671.49501652084291, 1773151.142556098755449 ], [ 3131746.033371950965375, 1773097.041733187390491 ], [ 3131770.177077933214605, 1773070.399271902628243 ], [ 3131803.358852003701031, 1773029.091611583484337 ], [ 3131836.540679341182113, 1772987.783912020735443 ], [ 3131872.819972205907106, 1772966.518260558135808 ], [ 3131938.039105828851461, 1772925.261326218722388 ], [ 3131972.619648365769535, 1772917.386888165958226 ], [ 3132019.199567176867276, 1772901.816718852845952 ], [ 3132068.177411152981222, 1772889.572006071684882 ], [ 3132119.834958342369646, 1772882.474827372003347 ], [ 3132141.435519112274051, 1772863.757851128932089 ], [ 3132172.628088501282036, 1772858.342693072510883 ], [ 3132209.043613923713565, 1772850.149958575842902 ], [ 3132228.236911120824516, 1772852.430621403036639 ], [ 3132240.517773810774088, 1772846.556867894949391 ], [ 3132263.526201946195215, 1772836.949917759047821 ], [ 3132280.185448292642832, 1772822.832648709416389 ], [ 3132304.038585821166635, 1772818.691748417448252 ], [ 3132338.900967232417315, 1772812.639676693128422 ], [ 3132372.210051055066288, 1772808.72817470296286 ], [ 3132410.315026238560677, 1772811.467590313637629 ], [ 3132440.371982023119926, 1772823.087677701376379 ], [ 3132461.963296110741794, 1772828.693844663677737 ], [ 3132473.817130215000361, 1772832.248730746097863 ], [ 3132482.428284077905118, 1772827.012115071294829 ], [ 3132505.291372200939804, 1772828.655868139816448 ], [ 3132536.620095698162913, 1772836.313489679479972 ], [ 3132567.104059205390513, 1772838.505233225179836 ], [ 3132593.7729278113693, 1772852.584358969470486 ], [ 3132600.539833436254412, 1772871.989287544274703 ], [ 3132611.685028365813196, 1772883.150656135519966 ], [ 3132629.888168300967664, 1772891.215950649930164 ], [ 3132648.518296529538929, 1772889.852821003179997 ], [ 3132669.537037783302367, 1772916.138095045927912 ], [ 3132694.788664661813527, 1772945.430363159393892 ], [ 3132707.196155266836286, 1772976.952149189077318 ], [ 3132722.564892931841314, 1773015.443441136274487 ], [ 3132744.98207953106612, 1773075.161732589360327 ], [ 3132766.00088320299983, 1773101.447062818333507 ], [ 3132795.33988066855818, 1773144.996873993426561 ], [ 3132817.203398448415101, 1773176.748160675866529 ], [ 3132842.164185365661979, 1773228.541470560943708 ], [ 3132870.65854087844491, 1773266.625313846860081 ], [ 3132890.687252341769636, 1773298.695254609221593 ], [ 3132898.298982819076627, 1773323.566191601101309 ], [ 3132908.308643043972552, 1773351.76266338583082 ], [ 3132933.133417773060501, 1773390.483560587279499 ], [ 3132960.356234290637076, 1773432.52999169845134 ], [ 3132964.579852889757603, 1773459.85998353920877 ], [ 3132966.123882667161524, 1773482.04245005804114 ], [ 3132976.279024251736701, 1773498.988466497743502 ], [ 3132983.046095496509224, 1773518.393400182947516 ], [ 3132987.269755420275033, 1773545.723408361664042 ], [ 3133018.180752354674041, 1773538.486898654373363 ], [ 3133028.762876873835921, 1773546.004353153752163 ], [ 3133046.539084797725081, 1773563.498375763418153 ], [ 3133066.713309602811933, 1773584.31783038424328 ], [ 3133090.975038874894381, 1773619.394807049073279 ], [ 3133117.207760001067072, 1773667.225921460660174 ], [ 3133130.887374933809042, 1773694.785353040555492 ], [ 3133155.294434488285333, 1773718.611892904853448 ], [ 3133180.69172942917794, 1773736.653978646267205 ], [ 3133154.440625463612378, 1773737.468939835904166 ], [ 3133175.032693222165108, 1773773.182981243822724 ], [ 3133200.711484325118363, 1773793.047111809486523 ], [ 3133229.914633285719901, 1773823.524660633411258 ], [ 3133259.263266837224364, 1773842.751807569526136 ], [ 3133278.592700195498765, 1773858.105329993879423 ], [ 3133312.037906181998551, 1773867.266949745127931 ], [ 3133348.871264425572008, 1773873.969589169602841 ], [ 3133378.646747989580035, 1773883.768251420464367 ], [ 3133410.538689584936947, 1773895.070459486451 ], [ 3133433.256297778338194, 1773907.965144677087665 ], [ 3133441.304305464029312, 1773899.084720723563805 ], [ 3133455.983150464482605, 1773896.536817468469962 ], [ 3133485.903904684819281, 1773895.084982003783807 ], [ 3133526.688623310998082, 1773902.972822292940691 ], [ 3133538.542495908681303, 1773906.527974483091384 ], [ 3133566.773875063285232, 1773894.144183464813977 ], [ 3133606.577579273376614, 1773883.493673549965024 ], [ 3133649.487870158627629, 1773868.562121130293235 ], [ 3133690.708720553200692, 1773842.698631059378386 ], [ 3133738.133484203368425, 1773832.596407659584656 ], [ 3133762.205250209197402, 1773821.791389323771 ], [ 3133778.791259681805968, 1773803.08901383401826 ], [ 3133813.799139560665935, 1773785.787633458385244 ], [ 3133842.875401276163757, 1773778.870141070568934 ], [ 3133889.037843434605747, 1773748.40762010589242 ], [ 3133936.74441686924547, 1773740.127587017137557 ], [ 3133940.277958718594164, 1773726.418219833867624 ], [ 3133971.616181346587837, 1773709.75385513715446 ], [ 3134063.932135871611536, 1773673.152175913564861 ], [ 3134219.206577495206147, 1773605.044640064705163 ], [ 3134370.666167754679918, 1773548.825173667632043 ], [ 3134443.925380147993565, 1773523.015366366598755 ], [ 3134461.711005900986493, 1773516.187035611830652 ], [ 3134486.836217170581222, 1773508.084982463624328 ], [ 3134530.873412503860891, 1773500.442671286640689 ], [ 3134563.047110176645219, 1773513.567810100736097 ], [ 3134605.239952153526247, 1773530.566761202178895 ], [ 3134648.422943415120244, 1773541.781418202910572 ], [ 3134651.393540093675256, 1773524.428185046417639 ], [ 3134618.53034222079441, 1773470.263827213086188 ], [ 3134586.793398118577898, 1773423.387528539635241 ], [ 3134596.540521232876927, 1773401.116585481213406 ], [ 3134573.414920743554831, 1773349.004184877034277 ], [ 3134546.056459142360836, 1773293.884650250896811 ], [ 3134514.610870368778706, 1773224.507615676848218 ], [ 3134507.009166846983135, 1773175.313898461172357 ], [ 3134507.455752693582326, 1773117.240068981423974 ], [ 3134521.581581921316683, 1773086.725980681600049 ], [ 3134539.804353689774871, 1773046.146644968306646 ], [ 3134566.910357496701181, 1773026.475991679122671 ], [ 3134597.540526579134166, 1773017.41895398311317 ], [ 3134646.509738423395902, 1773029.500349410111085 ], [ 3134666.683810428716242, 1773050.320523702073842 ], [ 3134680.071598896291107, 1773100.380929157836363 ], [ 3134704.080702037550509, 1773060.668453973019496 ], [ 3134698.449975133873522, 1773024.228722529951483 ], [ 3134687.324403956532478, 1772964.421508510829881 ], [ 3134663.636147398501635, 1772908.665211964165792 ], [ 3134660.257769873831421, 1772886.801414738874882 ], [ 3134673.529318386223167, 1772875.144210125785321 ], [ 3134697.101455178577453, 1772869.182857596082613 ], [ 3134704.868360719643533, 1772858.480795289389789 ], [ 3134707.286144418641925, 1772813.161177126225084 ], [ 3134717.033636367879808, 1772790.8904292085208 ], [ 3134743.984147438779473, 1772806.792996786767617 ], [ 3134774.740356516093016, 1772835.130944401258603 ], [ 3134806.341083742678165, 1772868.935024603735656 ], [ 3134836.106894291006029, 1772903.057436843868345 ], [ 3134851.75656825164333, 1772943.371105249971151 ], [ 3134887.444495199248195, 1772991.432641020976007 ], [ 3134925.39461635472253, 1773029.747495885007083 ], [ 3134967.30599775351584, 1773044.924862683052197 ], [ 3135004.421334478072822, 1773053.451185279060155 ], [ 3135037.721243002451956, 1773073.864725024672225 ], [ 3135078.642237272579223, 1773094.826617030194029 ], [ 3135127.320254914462566, 1773129.409268353832886 ], [ 3135156.377482828684151, 1773171.138180387206376 ], [ 3135174.425265085883439, 1773214.77757911849767 ], [ 3135200.239960389211774, 1773247.715108607430011 ], [ 3135231.840834230650216, 1773281.519397868076339 ], [ 3135271.490041351877153, 1773306.443857267266139 ], [ 3135306.061826191842556, 1773322.895097319269553 ], [ 3135327.50779418181628, 1773339.753160412190482 ], [ 3135337.944269631057978, 1773358.52146382513456 ], [ 3135356.419367101043463, 1773392.732640760950744 ], [ 3135379.273046373389661, 1773418.700650239130482 ], [ 3135407.631357077043504, 1773443.713432286400348 ], [ 3135413.407867198809981, 1773468.903011625632644 ], [ 3135421.863904853351414, 1773499.240027765277773 ], [ 3135432.863626810722053, 1773521.652453594375402 ], [ 3135462.493800647556782, 1773542.702974362997338 ], [ 3135490.716263394337147, 1773554.643584484234452 ], [ 3135506.793426531832665, 1773585.529111796058714 ], [ 3135519.627983494661748, 1773607.623195910360664 ], [ 3135545.025359048042446, 1773625.66650645295158 ], [ 3135575.917667968198657, 1773667.077456563012674 ], [ 3135598.771432710811496, 1773693.045586383203045 ], [ 3135624.450276360381395, 1773712.910965727642179 ], [ 3135644.061407251283526, 1773730.087559707229957 ], [ 3135642.643977189436555, 1773745.300278458511457 ], [ 3135660.565807681996375, 1773751.544834141153842 ], [ 3135679.332292627543211, 1773763.255420560948551 ], [ 3135682.147791421972215, 1773781.475401449715719 ], [ 3135683.545868234708905, 1773814.908009327016771 ], [ 3135693.273863659240305, 1773841.282810835167766 ], [ 3135706.39004818815738, 1773865.198970248224214 ], [ 3135724.166285124141723, 1773882.693879964528605 ], [ 3135738.82631321111694, 1773928.79232910880819 ], [ 3135768.592553452588618, 1773962.91539722494781 ], [ 3135792.155104582197964, 1773981.277319609420374 ], [ 3135821.076691481284797, 1774009.934392179828137 ], [ 3135828.552304225042462, 1774021.733250230550766 ], [ 3135842.522787260822952, 1774026.792703237617388 ], [ 3135860.444628654047847, 1774033.037330303573981 ], [ 3135874.007059573195875, 1773998.87967330403626 ], [ 3135876.841823525261134, 1773968.454228139715269 ], [ 3135889.686088218353689, 1773966.225659953895956 ], [ 3135909.578825103119016, 1773985.224380350671709 ], [ 3135937.646147287450731, 1774032.738263203995302 ], [ 3135958.101999047212303, 1774055.380929182749242 ], [ 3135982.673923426307738, 1774019.313224639277905 ], [ 3136006.401216811034828, 1773977.779429950052872 ], [ 3136036.730574370361865, 1774015.546678151236847 ], [ 3136060.720276561565697, 1774024.480325815500692 ], [ 3136074.700415889266878, 1774005.217203738400713 ], [ 3136104.058709212578833, 1774000.123503009788692 ], [ 3136116.048779592849314, 1774016.75161015545018 ], [ 3136147.523645702749491, 1774013.161575596313924 ], [ 3136179.988677273970097, 1774003.787202319363132 ], [ 3136196.357203903608024, 1774012.172438670648262 ], [ 3136221.210827691480517, 1773977.926868120906875 ], [ 3136246.481965662911534, 1773958.575653690611944 ], [ 3136269.908592437393963, 1773963.865408847574145 ], [ 3136278.364656798541546, 1773994.20267751137726 ], [ 3136295.150655584875494, 1774017.482176548102871 ], [ 3136319.849111279472709, 1774018.809686342254281 ], [ 3136339.741842397488654, 1774037.808486427180469 ], [ 3136340.722434607334435, 1774056.346829761983827 ], [ 3136319.82020662445575, 1774091.777643717825413 ], [ 3136300.471279338002205, 1774125.068144254153594 ], [ 3136303.286807919386774, 1774143.288054736563936 ], [ 3136321.771800064481795, 1774153.176896662916988 ], [ 3136334.888025662396103, 1774177.093122957041487 ], [ 3136341.383019947446883, 1774170.35379031766206 ], [ 3136339.557732021436095, 1774146.349496032577008 ], [ 3136335.188833966851234, 1774130.26984744425863 ], [ 3136346.343815036583692, 1774117.109460150590166 ], [ 3136378.527409925125539, 1774105.913211638573557 ], [ 3136377.265251509845257, 1774085.55285427113995 ], [ 3136397.167568661272526, 1774080.229075964540243 ], [ 3136414.536053369753063, 1774058.507404289208353 ], [ 3136410.293431681580842, 1774079.822688782121986 ], [ 3136422.710590015165508, 1774087.022688597906381 ], [ 3136430.322132399305701, 1774111.893941481830552 ], [ 3136417.613771485630423, 1774127.194651738740504 ], [ 3136429.885427482426167, 1774145.644943986088037 ], [ 3136433.118460172321647, 1774178.759185357484967 ], [ 3136448.215189971961081, 1774191.106780651491135 ], [ 3136459.642093841917813, 1774204.091068288078532 ], [ 3136459.914030493237078, 1774230.235717704286799 ], [ 3136472.331296202726662, 1774237.435712352395058 ], [ 3136487.573603561148047, 1774238.532908714842051 ], [ 3136517.63110908260569, 1774250.155816388083622 ], [ 3136549.805089781526476, 1774263.282416268251836 ], [ 3136590.027320525608957, 1774267.529318653047085 ], [ 3136631.657344185747206, 1774280.886319193523377 ], [ 3136672.724262744188309, 1774290.599336829734966 ], [ 3136718.305675657466054, 1774305.141666576033458 ], [ 3136749.489422942511737, 1774324.052683174377307 ], [ 3136775.595673131756485, 1774334.490402385126799 ], [ 3136805.934773797169328, 1774347.935521136736497 ], [ 3136831.497099697589874, 1774306.084052201360464 ], [ 3136842.924015264492482, 1774319.068429781123996 ], [ 3136859.428531107492745, 1774340.526118523441255 ], [ 3136892.738413004204631, 1774336.618318751454353 ], [ 3136898.832302287220955, 1774334.279090948868543 ], [ 3136905.728349451441318, 1774323.139778410317376 ], [ 3136900.941962824203074, 1774292.165787789039314 ], [ 3136913.931903430260718, 1774278.687160945031792 ], [ 3136938.222547203302383, 1774240.798166007036343 ], [ 3136971.124642604030669, 1774197.673517765011638 ], [ 3137007.405364728998393, 1774176.412936785025522 ], [ 3137015.821284999605268, 1774176.702921922318637 ], [ 3137015.821284999605268, 1772472.181969076395035 ], [ 3137002.530827971175313, 1772470.877275266451761 ], [ 3136953.661320311017334, 1772446.614345872076228 ], [ 3136926.484695070423186, 1772461.667373031377792 ], [ 3136875.521505276672542, 1772468.784372872672975 ], [ 3136838.866976223886013, 1772456.188020073343068 ], [ 3136811.824876967817545, 1772460.878886294085532 ], [ 3136799.609920523129404, 1772449.212460694368929 ], [ 3136773.614714227151126, 1772438.213412603829056 ], [ 3136750.087429765146226, 1772431.955690371803939 ], [ 3136732.024334764108062, 1772416.134330436587334 ], [ 3136722.411818525753915, 1772398.847175546223298 ], [ 3136676.38463943079114, 1772415.447129831183702 ], [ 3136648.430282883346081, 1772425.465879945550114 ], [ 3136610.604208120144904, 1772416.519137400668114 ], [ 3136582.784342195373029, 1772416.175673197256401 ], [ 3136536.497990972362459, 1772431.097751395776868 ], [ 3136498.143651251681149, 1772441.197514175903052 ], [ 3136456.418753448873758, 1772429.48098900122568 ], [ 3136437.568202983122319, 1772431.027964948676527 ], [ 3136419.620200119446963, 1772449.649904362857342 ], [ 3136391.790770610794425, 1772471.709314274601638 ], [ 3136332.511666868813336, 1772469.930876344675198 ], [ 3136302.75217595230788, 1772445.799801595043391 ], [ 3136310.569033137522638, 1772406.534274009522051 ], [ 3136320.076118714176118, 1772366.975450896192342 ], [ 3136278.485726261511445, 1772344.896915311925113 ], [ 3136251.712747847661376, 1772328.863593129906803 ], [ 3136252.116236507892609, 1772297.776739710243419 ], [ 3136284.238245031796396, 1772269.803186343517154 ], [ 3136313.23934418335557, 1772244.09423295664601 ], [ 3136321.958962549455464, 1772221.903698375448585 ], [ 3136331.072357791941613, 1772191.029070489807054 ], [ 3136343.306834687013179, 1772157.889888870762661 ], [ 3136310.935165878385305, 1772161.782487041782588 ], [ 3136247.104155333247036, 1772164.239988909568638 ], [ 3136211.995528027415276, 1772184.115943544311449 ], [ 3136176.368477576412261, 1772200.635502212215215 ], [ 3136157.393025395460427, 1772190.142072753747925 ], [ 3136153.91726827993989, 1772111.479919692734256 ], [ 3136127.144323286600411, 1772095.4466674819123 ], [ 3136087.253919113893062, 1772050.672284193104133 ], [ 3136029.559702459722757, 1771991.755131789715961 ], [ 3135956.510157127398998, 1771968.241912773111835 ], [ 3135907.506368146277964, 1771954.342399683780968 ], [ 3135846.162950441241264, 1771916.736339703435078 ], [ 3135821.0899268980138, 1771878.007355950772762 ], [ 3135816.682427821680903, 1771849.478357111569494 ], [ 3135765.604553796350956, 1771822.153623181395233 ], [ 3135748.050222176127136, 1771832.091781135182828 ], [ 3135734.923040583729744, 1771825.753431779332459 ], [ 3135691.642662037629634, 1771803.968546598451212 ], [ 3135666.031584772281349, 1771806.688731285510585 ], [ 3135640.804424367845058, 1771823.127544180024415 ], [ 3135589.313198640476912, 1771849.292585893766955 ], [ 3135583.081051833927631, 1771831.419085537083447 ], [ 3135564.758707156404853, 1771813.92004255251959 ], [ 3135546.695728271268308, 1771798.09914902690798 ], [ 3135473.252566749695688, 1771783.270866327686235 ], [ 3135407.731668732129037, 1771786.022865530569106 ], [ 3135333.894690819084644, 1771779.878885329933837 ], [ 3135286.187388638500124, 1771774.370985128683969 ], [ 3135232.497394911944866, 1771775.070600625593215 ], [ 3135175.436926925554872, 1771753.954018038697541 ], [ 3135136.698704564012587, 1771750.336398972198367 ], [ 3135037.519975380040705, 1771726.188994717318565 ], [ 3134958.872041145339608, 1771722.603630544617772 ], [ 3134928.978298439644277, 1771708.835762951057404 ], [ 3134886.351083111949265, 1771680.045786604518071 ], [ 3134851.00290227914229, 1771653.439123950432986 ], [ 3134805.37966505298391, 1771638.954352405155078 ], [ 3134750.912012665066868, 1771634.620125198503956 ], [ 3134700.083840048871934, 1771631.377605591434985 ], [ 3134676.556774291675538, 1771625.121016706805676 ], [ 3134662.267766826786101, 1771600.029775665374473 ], [ 3134649.150329921860248, 1771571.288957736687735 ], [ 3134637.06998554430902, 1771549.260880114277825 ], [ 3134628.898183717392385, 1771507.599788744701073 ], [ 3134628.658474246039987, 1771461.116052218945697 ], [ 3134614.110264672432095, 1771434.346685241442174 ], [ 3134599.302802843041718, 1771405.899168120231479 ], [ 3134589.690396608784795, 1771388.612323529552668 ], [ 3134560.584277089685202, 1771357.476496221031994 ], [ 3134562.284255188889802, 1771334.780448955716565 ], [ 3134562.956897130701691, 1771282.968947618966922 ], [ 3134561.286534705664963, 1771238.456700592301786 ], [ 3134558.703778306953609, 1771199.272215005941689 ], [ 3134558.858157244510949, 1771144.104446641402319 ], [ 3134570.200256755575538, 1771071.487106400774792 ], [ 3134577.364532519131899, 1771039.22720819269307 ], [ 3134590.377017060294747, 1771011.122077415930107 ], [ 3134585.451244230847806, 1770979.236894313013181 ], [ 3134563.748856065329164, 1770962.324783645104617 ], [ 3134534.38364305254072, 1770929.510759565979242 ], [ 3134515.782303555402905, 1770955.139380477834493 ], [ 3134510.597300596535206, 1770921.576054995181039 ], [ 3134494.214525399729609, 1770927.865031084511429 ], [ 3134465.462540290318429, 1770977.656092322198674 ], [ 3134450.231555697042495, 1771025.100954328430817 ], [ 3134427.203093359712511, 1771067.006230864673853 ], [ 3134403.790738635696471, 1771095.192947159521282 ], [ 3134339.152814155910164, 1771159.827041479060426 ], [ 3134326.006004758644849, 1771198.29474986763671 ], [ 3134319.494974940083921, 1771223.548795393900946 ], [ 3134302.065496712457389, 1771245.528059758245945 ], [ 3134283.982987900264561, 1771274.513244436820969 ], [ 3134233.653905408456922, 1771319.433149691671133 ], [ 3134191.39134281873703, 1771349.16810184228234 ], [ 3134180.463187472429127, 1771368.296164607163519 ], [ 3134169.016495425254107, 1771384.067821306874976 ], [ 3134146.257622999604791, 1771405.248919983394444 ], [ 3134118.428386468440294, 1771427.309823650401086 ], [ 3134100.346104749012738, 1771456.295288638677448 ], [ 3134096.56247572787106, 1771487.9689179812558 ], [ 3134078.605068814940751, 1771528.994830262847245 ], [ 3134041.538014260586351, 1771569.890706256963313 ], [ 3133997.854576173238456, 1771579.194701117230579 ], [ 3133979.253890217281878, 1771604.823875465895981 ], [ 3133983.786501904018223, 1771645.393348987912759 ], [ 3134006.007558353245258, 1771665.661618902115151 ], [ 3134050.209421060048044, 1771659.714044351130724 ], [ 3134080.112677732482553, 1771651.078294530510902 ], [ 3134117.429388768039644, 1771634.263553679222241 ], [ 3134159.02886502770707, 1771633.937199909705669 ], [ 3134188.404061399400234, 1771644.348190409597009 ], [ 3134205.295467181131244, 1771663.818172468803823 ], [ 3134218.547427737154067, 1771682.19657219434157 ], [ 3134213.457981709390879, 1771727.882202914683148 ], [ 3134189.652569263242185, 1771764.753533982206136 ], [ 3134188.077871, 1771799.490246430039406 ], [ 3134198.333781944587827, 1771832.173943471629173 ], [ 3134204.172416182700545, 1771858.73157054791227 ], [ 3134180.232871186453849, 1771905.965327599085867 ], [ 3134181.654115993529558, 1771926.396711406530812 ], [ 3134170.851182038430125, 1771957.56545448070392 ], [ 3134138.998650594614446, 1771964.816234142519534 ], [ 3134123.394106199033558, 1771976.140134715707973 ], [ 3134100.376342373900115, 1771995.643284451682121 ], [ 3134066.699441410601139, 1772013.549826218513772 ], [ 3134054.090918687172234, 1772010.56833033519797 ], [ 3134016.524575788993388, 1772003.302245824364945 ], [ 3134002.350959083065391, 1772012.654727670829743 ], [ 3133955.806207137182355, 1772025.901758363470435 ], [ 3133917.587078385055065, 1772025.641723870299757 ], [ 3133880.539452577475458, 1772021.732087320415303 ], [ 3133837.90293178614229, 1772015.346092102117836 ], [ 3133806.050531549844891, 1772022.597178648924455 ], [ 3133783.551396250259131, 1772045.456922721583396 ], [ 3133744.017187031917274, 1772081.61225444287993 ], [ 3133736.335354376584291, 1772110.516357159242034 ], [ 3133759.334407303482294, 1772135.81903656385839 ], [ 3133793.126853680238128, 1772152.355752059258521 ], [ 3133864.75403053779155, 1772155.433549154782668 ], [ 3133916.359590835869312, 1772163.709431957919151 ], [ 3133964.19132720772177, 1772181.256153245689347 ], [ 3134016.699728042818606, 1772206.607363850343972 ], [ 3134058.155504846479744, 1772239.046148142544553 ], [ 3134096.883935261517763, 1772265.065609199227765 ], [ 3134118.711449665948749, 1772294.018119394080713 ], [ 3134128.324142216704786, 1772311.304972671438009 ], [ 3134140.395576582290232, 1772355.736047420185059 ], [ 3134114.89145011594519, 1772415.304059380665421 ], [ 3134093.554852812550962, 1772456.917076219338924 ], [ 3134066.235856732353568, 1772504.737878078361973 ], [ 3134064.008820041082799, 1772546.480954054975882 ], [ 3134106.001580001786351, 1772537.470132609596476 ], [ 3134107.94182612746954, 1772561.258052350254729 ], [ 3134112.484280054923147, 1772579.424753110855818 ], [ 3134079.979213609360158, 1772593.681834634859115 ], [ 3134050.594989169389009, 1772605.674165919190273 ], [ 3134027.702638133428991, 1772637.218099137768149 ], [ 3134009.61226890143007, 1772688.607130336342379 ], [ 3133995.152399836108088, 1772763.490860848454759 ], [ 3133978.492834427393973, 1772812.908415659330785 ], [ 3133938.181377635337412, 1772844.02928404789418 ], [ 3133957.541231254115701, 1772868.240559837082401 ], [ 3133962.208998652175069, 1772898.447952153393999 ], [ 3133971.169008829630911, 1772922.740975417662412 ], [ 3133991.297839547507465, 1772974.389964018948376 ], [ 3133999.864433337934315, 1773007.367208701791242 ], [ 3133988.794177698437124, 1773059.261365430895239 ], [ 3133984.868674069643021, 1773123.701168017461896 ], [ 3134007.859216175973415, 1773171.407115719281137 ], [ 3134053.464518536813557, 1773230.697231750702485 ], [ 3134046.302020863629878, 1773262.957912777317688 ], [ 3134025.49377951445058, 1773285.524551222100854 ], [ 3134009.881000497378409, 1773319.251955835381523 ], [ 3133993.230906702112406, 1773346.266551141394302 ], [ 3133977.743505159392953, 1773392.034701268654317 ], [ 3133963.436223407741636, 1773411.749963256064802 ], [ 3133959.260637236759067, 1773452.108435695758089 ], [ 3133960.808012840338051, 1773484.580883532995358 ], [ 3133938.703235389664769, 1773498.756623790366575 ], [ 3133917.752477893605828, 1773554.0892212332692 ], [ 3133891.212996911723167, 1773606.945471366867423 ], [ 3133862.339467287994921, 1773644.697896174620837 ], [ 3133827.358375909738243, 1773676.617521887179464 ], [ 3133780.413040194194764, 1773720.953099224250764 ], [ 3133719.688080959487706, 1773765.957380263134837 ], [ 3133690.56390914414078, 1773779.628425512695685 ], [ 3133664.041880470700562, 1773787.678334935568273 ], [ 3133617.883313658181578, 1773814.645446446957067 ], [ 3133537.932408847846091, 1773825.076276938198134 ], [ 3133476.312644383870065, 1773830.602253784891218 ], [ 3133411.321237069554627, 1773814.311556838918477 ], [ 3133369.605720827821642, 1773780.195003502769396 ], [ 3133291.75502625387162, 1773736.841821788111702 ], [ 3133221.568110135383904, 1773709.390683921286836 ], [ 3133186.478965820744634, 1773684.463448225520551 ], [ 3133159.589046086650342, 1773633.987872120691463 ], [ 3133108.787650796584785, 1773563.537840410834178 ], [ 3133063.315858239773661, 1773493.885960117215291 ], [ 3133065.014375116676092, 1773471.189237191807479 ], [ 3133068.796308972407132, 1773439.514744877349585 ], [ 3133042.550671190489084, 1773404.436422307509929 ], [ 3132997.982488317415118, 1773351.860066032735631 ], [ 3132995.522944142110646, 1773324.715429414296523 ], [ 3132986.428691448643804, 1773310.785110578406602 ], [ 3132970.448702093213797, 1773285.987423196202144 ], [ 3132940.81451581697911, 1773273.899333184584975 ], [ 3132930.030123909935355, 1773260.262310190359131 ], [ 3132906.905287820845842, 1773222.919162604259327 ], [ 3132874.426900058984756, 1773169.967553609516472 ], [ 3132870.796091023366898, 1773146.472777028102428 ], [ 3132876.778290970250964, 1773140.264643526170403 ], [ 3132869.892688389867544, 1773129.397373494924977 ], [ 3132849.612173312343657, 1773132.917793670203537 ], [ 3132848.31545482436195, 1773124.526775405276567 ], [ 3132827.140076093841344, 1773088.568597416393459 ], [ 3132807.529485246166587, 1773040.27620094944723 ], [ 3132798.184585211332887, 1773002.264339985558763 ], [ 3132795.072528105229139, 1772982.126052439911291 ], [ 3132775.712573220022023, 1772957.915191851789132 ], [ 3132744.397040414623916, 1772923.717186404857785 ], [ 3132728.157956924289465, 1772897.241508909733966 ], [ 3132738.825651557650417, 1772876.434342888416722 ], [ 3132735.838930137921125, 1772868.336708300979808 ], [ 3132718.428496121428907, 1772845.510771574918181 ], [ 3132688.660203475505114, 1772843.785301034338772 ], [ 3132675.273824759293348, 1772835.769735157024115 ], [ 3132672.161799668334424, 1772815.631369727896526 ], [ 3132654.223890144377947, 1772811.852402192540467 ], [ 3132611.722020334564149, 1772795.105216930620372 ], [ 3132562.853185756132007, 1772770.847333554644138 ], [ 3132510.72969338670373, 1772759.2169818978291 ], [ 3132484.475639764219522, 1772746.542419426143169 ], [ 3132457.184145185165107, 1772727.155070567969233 ], [ 3132429.365353130269796, 1772726.814563784515485 ], [ 3132395.045674150809646, 1772729.325905864825472 ], [ 3132336.671861281618476, 1772744.629018638283014 ], [ 3132303.255565562285483, 1772764.215843867510557 ], [ 3132271.403978403657675, 1772771.468463773606345 ], [ 3132231.102146284189075, 1772780.18808730901219 ], [ 3132202.505306403152645, 1772774.813226182479411 ], [ 3132181.57206839742139, 1772785.340198753867298 ], [ 3132150.757883214391768, 1772799.305658458033577 ], [ 3132129.574054003227502, 1772785.751112796599045 ], [ 3132109.812175918370485, 1772792.628272459842265 ], [ 3132080.294750979170203, 1772814.984906582161784 ], [ 3132051.045276632066816, 1772816.616288126213476 ], [ 3131989.032364745158702, 1772830.82872156961821 ], [ 3131940.021107195876539, 1772839.337537940358743 ], [ 3131887.370583992451429, 1772846.755038500530645 ], [ 3131825.34915476758033, 1772883.371094803558663 ], [ 3131780.872470264788717, 1772932.450366772944108 ], [ 3131752.384115738794208, 1772983.92354458454065 ], [ 3131715.454195784870535, 1773014.460421483963728 ], [ 3131672.282977882307023, 1773049.527508172905073 ], [ 3131631.186679536942393, 1773098.020267466083169 ], [ 3131601.401846875436604, 1773141.102662722812966 ], [ 3131549.906196448486298, 1773189.677972392179072 ], [ 3131517.51959640160203, 1773238.382026673061773 ], [ 3131509.70541653688997, 1773277.649954052176327 ], [ 3131494.486862888559699, 1773302.694401090033352 ], [ 3131498.770537273958325, 1773319.183069088030607 ], [ 3131500.586100118234754, 1773330.930500841001049 ], [ 3131484.070843337569386, 1773347.583898827433586 ], [ 3131470.801717240363359, 1773374.013137927046046 ], [ 3131488.605570192448795, 1773388.154327969299629 ], [ 3131510.5676379208453, 1773406.743217163020745 ], [ 3131527.59348024148494, 1773415.84973269328475 ], [ 3131515.888810907490551, 1773429.944663942558691 ], [ 3131484.673912479542196, 1773474.99906318122521 ], [ 3131466.85361401271075, 1773505.665130513021722 ], [ 3131450.087141718249768, 1773498.236833764007315 ], [ 3131420.311127765569836, 1773518.916026561753824 ], [ 3131420.043612023815513, 1773539.641418749466538 ], [ 3131409.117232287302613, 1773558.770978571614251 ], [ 3131377.391917644068599, 1773578.065574256470427 ], [ 3131334.882126382552087, 1773583.723491322482005 ], [ 3131298.739229949191213, 1773596.892097139498219 ], [ 3131279.245367420837283, 1773583.044520779978484 ], [ 3131256.363207065500319, 1773592.187397556379437 ], [ 3131225.148673119954765, 1773637.242167927324772 ], [ 3131197.314191021956503, 1773681.70999814523384 ], [ 3131174.424090872518718, 1773713.256697377655655 ], [ 3131154.135954644531012, 1773739.181815264746547 ], [ 3131137.094152076169848, 1773774.882782581495121 ], [ 3131118.755451411008835, 1773802.192688746610656 ], [ 3131111.853768752887845, 1773836.132949102204293 ], [ 3131113.394148508086801, 1773891.009631031891331 ], [ 3131120.397701890673488, 1773936.321495001204312 ], [ 3131106.209400649182498, 1773990.482859303476289 ], [ 3131089.686643891502172, 1774029.540457038208842 ], [ 3131054.566061060409993, 1774094.229827660368755 ], [ 3131013.479445074684918, 1774120.320348920300603 ], [ 3130949.770414834842086, 1774157.23233035672456 ], [ 3130881.39236166421324, 1774163.93658958026208 ], [ 3130807.818465679883957, 1774159.480324488366023 ], [ 3130746.334074362181127, 1774154.648125091101974 ], [ 3130674.450227010063827, 1774149.898633348057047 ], [ 3130573.844326794613153, 1774127.734824377577752 ], [ 3130500.278374791610986, 1774100.875298917992041 ], [ 3130436.074194695800543, 1774067.220330702373758 ], [ 3130382.795799909159541, 1774014.435295290779322 ], [ 3130353.429088617675006, 1773981.623477662913501 ], [ 3130319.251746291760355, 1773951.3702826006338 ], [ 3130269.471580776385963, 1773932.443291910225525 ], [ 3130203.703238343354315, 1773911.123175492044538 ], [ 3130144.946591833606362, 1773912.711160187842324 ], [ 3130111.139117455109954, 1773940.985089825000614 ], [ 3130082.409284412395209, 1773945.974711551796645 ], [ 3130034.696633798070252, 1773962.877583484863862 ], [ 3129956.304946553893387, 1773983.385446042520925 ], [ 3129875.0521400263533, 1774007.8370451470837 ], [ 3129809.921069069765508, 1774024.319010837003589 ], [ 3129759.355097393970937, 1774022.761837641010061 ], [ 3129735.302481305785477, 1774035.555811551399529 ], [ 3129713.340320722665638, 1774016.967736145015806 ], [ 3129675.916547515429556, 1773976.939201806671917 ], [ 3129635.364686151500791, 1773961.57994955801405 ], [ 3129598.719175213947892, 1773926.586189202498645 ], [ 3129591.188702187035233, 1773900.321791012771428 ], [ 3129566.365453170612454, 1773885.677248613210395 ], [ 3129537.517473122105002, 1773856.222340701846406 ], [ 3129493.082147244364023, 1773793.285986954346299 ], [ 3129456.185060646384954, 1773734.210246752714738 ], [ 3129421.103747407905757, 1773686.882069072686136 ], [ 3129393.69419729989022, 1773633.051639579236507 ], [ 3129376.943494380451739, 1773580.816403936594725 ], [ 3129361.489738971926272, 1773536.972300740657374 ], [ 3129349.549516402184963, 1773482.178222998278216 ], [ 3129340.722226219251752, 1773447.522823419421911 ], [ 3129341.508206459693611, 1773430.153676885878667 ], [ 3129335.274898935575038, 1773412.280366813763976 ], [ 3129330.865165854804218, 1773383.750709395622835 ], [ 3129337.892356590367854, 1773361.850932438857853 ], [ 3129326.455447753425688, 1773355.221057811519131 ], [ 3129318.139092306606472, 1773346.325923401163891 ], [ 3129293.724700952414423, 1773278.189347602892667 ], [ 3129284.378737108781934, 1773240.177507883869112 ], [ 3129284.905381741933525, 1773221.130091368220747 ], [ 3129271.912152627948672, 1773204.431055429158732 ], [ 3129252.945059915073216, 1773171.536842762492597 ], [ 3129250.610564272850752, 1773156.432988504413515 ], [ 3129239.566695348825306, 1773141.118527729529887 ], [ 3129204.23439691727981, 1773069.708601142978296 ], [ 3129174.357200663536787, 1773011.137295247521251 ], [ 3129122.38444019947201, 1772944.341043512802571 ], [ 3129072.746183426119387, 1772892.648785695200786 ], [ 3129027.258157665841281, 1772867.807834958191961 ], [ 3128984.238159197382629, 1772847.707981548039243 ], [ 3128928.735790196340531, 1772836.669405379099771 ], [ 3128887.272121351212263, 1772826.638997324742377 ], [ 3128836.957448407076299, 1772849.164690017467365 ], [ 3128767.78570854710415, 1772895.645171213662252 ], [ 3128720.591728835366666, 1772915.905766784911975 ], [ 3128678.601441016886383, 1772924.922927955398336 ], [ 3128640.250517603941262, 1772935.031314992113039 ], [ 3128605.287511333823204, 1772922.148668153444305 ], [ 3128525.866151708643883, 1772913.542363665997982 ], [ 3128499.085852039977908, 1772919.917624603258446 ], [ 3128464.248536938335747, 1772919.076137453084812 ], [ 3128395.886905016377568, 1772880.97665071929805 ], [ 3128350.13164420472458, 1772876.862095199059695 ], [ 3128305.044508395250887, 1772820.933417988009751 ], [ 3128309.186890508048236, 1772870.18857971765101 ], [ 3128291.634643954690546, 1772880.130801148945466 ], [ 3128256.152918208390474, 1772863.892054676776752 ], [ 3128202.993270202539861, 1772845.554448361275718 ], [ 3128147.365404362790287, 1772822.475922994548455 ], [ 3128125.151970908045769, 1772779.806555318180472 ], [ 3128075.238677251618356, 1772771.244880156358704 ], [ 3128033.256422499194741, 1772757.858856164617464 ], [ 3128008.433395393192768, 1772743.215172211872414 ], [ 3127987.517027287278324, 1772708.936817290261388 ], [ 3127963.605809918604791, 1772688.964992373250425 ], [ 3127929.30320023233071, 1772646.672656435519457 ], [ 3127904.354438856244087, 1772619.98799578147009 ], [ 3127887.06956160441041, 1772609.204680581111461 ], [ 3127855.753979028202593, 1772575.009758083615452 ], [ 3127825.735247519332916, 1772549.205931793432683 ], [ 3127809.888869717251509, 1772514.046995148994029 ], [ 3127787.935069217346609, 1772473.055984832346439 ], [ 3127768.968164759688079, 1772440.162349312566221 ], [ 3127752.08430515229702, 1772398.290588720235974 ], [ 3127730.515556601807475, 1772371.018848430830985 ], [ 3127707.131149793975055, 1772331.999696669867262 ], [ 3127651.912558502517641, 1772255.429422247223556 ], [ 3127617.492627050727606, 1772178.692500194534659 ], [ 3127599.697075425647199, 1772142.148994285380468 ], [ 3127590.870251497719437, 1772107.493968329392374 ], [ 3127573.342191497329623, 1772050.224858124973252 ], [ 3127585.046447011176497, 1772036.128666010219604 ], [ 3127578.043401031754911, 1771990.817262457916513 ], [ 3127567.78606565669179, 1771958.13405440072529 ], [ 3127559.09309440292418, 1771913.116173615213484 ], [ 3127561.577595456503332, 1771873.049647083971649 ], [ 3127536.645457403734326, 1771801.557687078602612 ], [ 3127526.262635522987694, 1771756.833452000282705 ], [ 3127518.866659716702998, 1771720.206742222653702 ], [ 3127508.609374016523361, 1771687.523613882483914 ], [ 3127497.448563971091062, 1771637.764871497638524 ], [ 3127484.338461064733565, 1771586.621561751933768 ], [ 3127483.828039758838713, 1771560.861468778224662 ], [ 3127475.386344831902534, 1771539.925734771881253 ], [ 3127463.573098986409605, 1771497.173357415478677 ], [ 3127453.449880007654428, 1771454.127495986176655 ], [ 3127444.891180798411369, 1771398.747110214782879 ], [ 3127452.303672397509217, 1771390.566324068233371 ], [ 3127447.769299933686852, 1771349.996147543890402 ], [ 3127434.525477344170213, 1771309.215714008780196 ], [ 3127425.054983212612569, 1771259.163510223152116 ], [ 3127419.608661354985088, 1771223.921511347871274 ], [ 3127427.155187976546586, 1771205.377973347436637 ], [ 3127425.607565176673234, 1771172.905152856605127 ], [ 3127411.970611525233835, 1771140.809335842728615 ], [ 3127399.505059929098934, 1771105.063468395499513 ], [ 3127384.178151366300881, 1771073.261262726504356 ], [ 3127372.490574726369232, 1771042.550051513593644 ], [ 3127371.712553209625185, 1771037.515529528260231 ], [ 3127368.859781235456467, 1771019.055420397780836 ], [ 3127357.556971041485667, 1771002.063301915070042 ], [ 3127351.458172909915447, 1770973.827653469284996 ], [ 3127337.946707411669195, 1770953.772790536284447 ], [ 3127311.057745224796236, 1770903.300350840669125 ], [ 3127294.04962747450918, 1770849.388155150925741 ], [ 3127290.937578078359365, 1770829.249897845787928 ], [ 3127270.942754768766463, 1770767.240390695864335 ], [ 3127243.275936650112271, 1770711.733517611166462 ], [ 3127215.349817389622331, 1770654.548404654487967 ], [ 3127223.674559142440557, 1770641.039523678831756 ], [ 3127221.867928418330848, 1770606.888652150752023 ], [ 3127209.688272078987211, 1770505.610356622608379 ], [ 3127214.516539245843887, 1770458.244260731618851 ], [ 3127215.329729919321835, 1770373.664540441008285 ], [ 3127211.20714670419693, 1770279.602976855123416 ], [ 3127218.128035894129425, 1770200.855345090851188 ], [ 3127226.604954100213945, 1770132.176848961273208 ], [ 3127235.582626174204051, 1770111.661716382252052 ], [ 3127259.24290575273335, 1770107.551441542105749 ], [ 3127272.897180146537721, 1770094.840061876457185 ], [ 3127283.44877890124917, 1770039.587057223310694 ], [ 3127310.256982303690165, 1769966.0010782093741 ], [ 3127338.755252026952803, 1769892.121621492318809 ], [ 3127326.5679343608208, 1769813.247349322075024 ], [ 3127310.213690522126853, 1769752.329222692875192 ], [ 3127311.13492682389915, 1769724.597756198607385 ], [ 3127288.530066880397499, 1769690.613726860377938 ], [ 3127253.969855696428567, 1769646.644142135744914 ], [ 3127214.483006891328841, 1769570.789224983425811 ], [ 3127176.936463537625968, 1769518.722400118829682 ], [ 3127161.619559557177126, 1769464.517043924191967 ], [ 3127113.682827198412269, 1769390.130283573642373 ], [ 3127091.337306773290038, 1769357.824555268278345 ], [ 3127059.513820798136294, 1769297.870800392935053 ], [ 3127049.785844092257321, 1769246.141159452497959 ], [ 3127043.178674388211221, 1769192.146211853483692 ], [ 3127035.400117107667029, 1769141.801272918237373 ], [ 3127026.843733646906912, 1769086.421703769592568 ], [ 3126995.279789889696985, 1769028.146314970683306 ], [ 3126985.014585307333618, 1769017.867022617720068 ], [ 3126970.466571976430714, 1768991.099824393633753 ], [ 3126961.76657537650317, 1768968.486299769021571 ], [ 3126932.411289395298809, 1768913.273589419201016 ], [ 3126898.245257339440286, 1768860.61992307449691 ], [ 3126877.849270668346435, 1768829.698913672938943 ], [ 3126837.047989962622523, 1768790.260402870131657 ], [ 3126788.18066755309701, 1768766.008781638229266 ], [ 3126749.837686695624143, 1768753.714513671817258 ], [ 3126711.494827170390636, 1768741.420361414784566 ], [ 3126668.600332217290998, 1768733.363252034643665 ], [ 3126626.483783989213407, 1768730.3407104073558 ], [ 3126564.998867761343718, 1768725.513454683823511 ], [ 3126505.857006651815027, 1768713.386378265684471 ], [ 3126477.644878933671862, 1768721.734035838395357 ], [ 3126471.921810398343951, 1768729.62117145746015 ], [ 3126472.824566368944943, 1768746.696355068590492 ], [ 3126462.03144019190222, 1768755.464318838901818 ], [ 3126446.82115226611495, 1768758.106814662925899 ], [ 3126417.706290899775922, 1768749.379338953411207 ], [ 3126374.54320685332641, 1768762.047749179648235 ], [ 3126340.742525410838425, 1768767.920066943857819 ], [ 3126292.25005678134039, 1768779.791294440394267 ], [ 3126251.689242642372847, 1768786.838182998355478 ], [ 3126197.089657633099705, 1768792.877803370822221 ], [ 3126164.719781075138599, 1768796.77852059295401 ], [ 3126100.632928684353828, 1768797.573720190208405 ], [ 3126051.237862813286483, 1768792.370041213929653 ], [ 3125992.48979651555419, 1768771.559268643381074 ], [ 3125981.446769890375435, 1768756.245746713597327 ], [ 3125953.76281396811828, 1768745.546806045109406 ], [ 3125923.735869777388871, 1768742.147763508604839 ], [ 3125900.862660077400506, 1768728.889710441464558 ], [ 3125848.48120056046173, 1768715.58906033821404 ], [ 3125792.853929354809225, 1768692.513138376642019 ], [ 3125768.550020225346088, 1768681.22704001958482 ], [ 3125779.352373931091279, 1768650.055446170968935 ], [ 3125761.683639428112656, 1768625.554002073593438 ], [ 3125744.255414985585958, 1768647.537444713292643 ], [ 3125730.216659762896597, 1768646.53028885088861 ], [ 3125694.860430270899087, 1768642.334182719001547 ], [ 3125624.925762402825058, 1768638.976626783842221 ], [ 3125561.357678328640759, 1768643.128979195607826 ], [ 3125523.927199139725417, 1768625.507734545273706 ], [ 3125504.559042321518064, 1768623.703379772137851 ], [ 3125511.30989140458405, 1768644.932196584064513 ], [ 3125446.445445077493787, 1768640.693996984278783 ], [ 3125378.978877959772944, 1768642.07766788220033 ], [ 3125349.086308770813048, 1768628.316399567294866 ], [ 3125311.905901960097253, 1768634.776952396146953 ], [ 3125266.27529472252354, 1768642.705889404052868 ], [ 3125196.984578063711524, 1768654.746213504811749 ], [ 3125168.12000166811049, 1768670.101260542869568 ], [ 3125133.148278202395886, 1768679.624739549122751 ], [ 3125120.568059251643717, 1768680.078084514010698 ], [ 3125118.495971294585615, 1768682.007208293303847 ], [ 3125092.661518410779536, 1768694.826309956843033 ], [ 3125041.923357927240431, 1768709.342457381077111 ], [ 3125007.824133473914117, 1768714.39113778877072 ], [ 3124972.933397680521011, 1768714.316449151840061 ], [ 3124948.361752302385867, 1768712.448500478873029 ], [ 3124941.484704646747559, 1768707.944201703881845 ], [ 3124926.599685463123024, 1768714.476576286135241 ], [ 3124922.360014999751002, 1768715.431141019333154 ], [ 3124922.360014999751002, 1768799.530792467296124 ], [ 3124945.414782978594303, 1768795.524439683416858 ] ] ], [ [ [ 3136997.891122017987072, 1774322.118073113262653 ], [ 3137009.17253770167008, 1774346.352855933597311 ], [ 3137007.192007111385465, 1774357.921461843652651 ], [ 3136995.328282465226948, 1774378.688012641156092 ], [ 3136985.716992880683392, 1774414.030473581515253 ], [ 3136990.085907718166709, 1774430.110165440943092 ], [ 3137015.821284999605268, 1774434.43079614196904 ], [ 3137015.821284999605268, 1774292.119226466631517 ], [ 3136997.891122017987072, 1774322.118073113262653 ] ] ], [ [ [ 3137011.094070558436215, 1771919.708383376710117 ], [ 3137004.602802759967744, 1771900.156637327512726 ], [ 3136990.064688945189118, 1771850.984140838496387 ], [ 3136959.901357385329902, 1771857.939352760789916 ], [ 3136955.72335062827915, 1771898.29620315390639 ], [ 3136945.43780560977757, 1771932.819969584932551 ], [ 3136944.505436306353658, 1771982.952843256760389 ], [ 3136943.189286624547094, 1772019.367099174298346 ], [ 3136944.724896732717752, 1772074.241319045890123 ], [ 3136946.644532199949026, 1772142.834197482792661 ], [ 3136941.679060129448771, 1772200.559300309047103 ], [ 3136950.503794915042818, 1772235.214619285427034 ], [ 3136961.153321587014943, 1772259.21463214722462 ], [ 3136984.132594102062285, 1772329.323950128396973 ], [ 3137015.821284999605268, 1772415.246906141750515 ], [ 3137015.821284999605268, 1771928.790328158298507 ], [ 3137011.094070558436215, 1771919.708383376710117 ] ] ] ] } }
]
}
