{
"type": "FeatureCollection",
"name": "Valdemoro",
"crs": { "type": "name", "properties": { "name": "urn:ogc:def:crs:EPSG::3035" } },
"features": [
{ "type": "Feature", "properties": { "SITE_NAME": "Ejes de los Cursos Bajos de los Ríos Manzanares y Jarama", "ODESIGNATE": "Parque Regional", "NUT2": 30, "SITE_CODE_": "ES310007", "DESIG_ABBR": "ES11", "SITE_CDDA": "349236_CDDA", "Sup_ha": 31471.758547900001 }, "geometry": { "type": "MultiPolygon", "coordinates": [ [ [ [ 3166536.555253126192838, 1998454.653473943006247 ], [ 3166519.446198895573616, 1998450.049939866177738 ], [ 3166493.686538212001324, 1998436.327255638083443 ], [ 3166471.882198739796877, 1998422.925871331477538 ], [ 3166443.834886786527932, 1998398.972271896898746 ], [ 3166407.065714810509235, 1998369.455696189543232 ], [ 3166400.32356065325439, 1998355.953338264254853 ], [ 3166390.135901314206421, 1998304.07370889512822 ], [ 3166371.598989982623607, 1998257.196788596687838 ], [ 3166342.284938543103635, 1998204.609727693255991 ], [ 3166321.681775409262627, 1998169.737047292524949 ], [ 3166309.218705510720611, 1998153.184700796380639 ], [ 3166295.68778183311224, 1998125.681958500295877 ], [ 3166272.917496412992477, 1998097.768957519438118 ], [ 3166241.051356049720198, 1998052.715132169425488 ], [ 3166210.827203136868775, 1998020.029975021257997 ], [ 3166187.866873695515096, 1997989.112864556489512 ], [ 3166167.561544151045382, 1997966.337568578310311 ], [ 3166127.340813956223428, 1997923.250098864082247 ], [ 3166102.241115984506905, 1997897.262924242066219 ], [ 3166090.16857600864023, 1997883.173428308451548 ], [ 3166080.503269582055509, 1997867.650820449460298 ], [ 3166058.633887457195669, 1997832.999548371648416 ], [ 3166034.075585777871311, 1997797.805723580997437 ], [ 3166019.566048393491656, 1997776.548814705573022 ], [ 3166001.069865414407104, 1997754.976124023552984 ], [ 3165987.26256961748004, 1997738.15254742000252 ], [ 3165976.817326880060136, 1997717.703996237833053 ], [ 3165958.537479287944734, 1997676.857023500138894 ], [ 3165950.573031562846154, 1997662.049778789281845 ], [ 3165939.183342892676592, 1997649.865901656448841 ], [ 3165925.148165705148131, 1997635.613197775324807 ], [ 3165907.330215419642627, 1997622.527868489734828 ], [ 3165884.854629585519433, 1997604.687986939447001 ], [ 3165874.523153940215707, 1997597.381460508564487 ], [ 3165853.260448103770614, 1997574.77360562956892 ], [ 3165841.368187503423542, 1997557.615417593391612 ], [ 3165843.216723939403892, 1997602.346198035636917 ], [ 3165843.161727181635797, 1997635.260415275581181 ], [ 3165844.307922054082155, 1997675.558029037900269 ], [ 3165841.077827495988458, 1997713.0769446012564 ], [ 3165831.892995923757553, 1997746.067993756383657 ], [ 3165821.314499312080443, 1997777.277701045153663 ], [ 3165813.985884676687419, 1997792.732773670693859 ], [ 3165807.873290889896452, 1997805.444208766566589 ], [ 3165801.599732023663819, 1997823.752178211463615 ], [ 3165793.453286825679243, 1997830.238090182421729 ], [ 3165776.848463979084045, 1997841.23962496384047 ], [ 3165758.923337692394853, 1997847.91585176740773 ], [ 3165737.605437662452459, 1997858.222367532085627 ], [ 3165716.035654542502016, 1997875.153780340217054 ], [ 3165699.094311827793717, 1997888.239084259606898 ], [ 3165651.490060827694833, 1997893.521195287350565 ], [ 3165589.294778996612877, 1997855.793144793016836 ], [ 3165552.528821087442338, 1997818.683071731356904 ], [ 3165519.194607193116099, 1997754.143394598271698 ], [ 3165485.730322713963687, 1997695.194894592510536 ], [ 3165451.747981578111649, 1997659.623445983976126 ], [ 3165404.868712654337287, 1997635.417931847274303 ], [ 3165380.601378455758095, 1997608.273157811257988 ], [ 3165346.71978754689917, 1997577.746348139597103 ], [ 3165322.148234912659973, 1997534.45548291457817 ], [ 3165266.47516978206113, 1997440.915482846088707 ], [ 3165235.409200659487396, 1997384.079089903039858 ], [ 3165182.489899385720491, 1997216.149080441799015 ], [ 3165174.231232033576816, 1997191.268838375341147 ], [ 3165172.777696611359715, 1997161.655615894589573 ], [ 3165175.323710833676159, 1997140.455490498337895 ], [ 3165183.31738198408857, 1997106.153891180641949 ], [ 3165190.049442112911493, 1997094.346624894067645 ], [ 3165206.66432451736182, 1997070.181566081708297 ], [ 3165216.005858571268618, 1997047.793761803302914 ], [ 3165221.198382548987865, 1997029.674738618312404 ], [ 3165227.114452433772385, 1997019.528774855658412 ], [ 3165237.174411273561418, 1997011.695969480788335 ], [ 3165268.359225222840905, 1996998.146352405427024 ], [ 3165294.526787668466568, 1996986.992258144076914 ], [ 3165317.694718096405268, 1996983.955771890934557 ], [ 3165319.858518714550883, 1996994.208245256915689 ], [ 3165337.34475270844996, 1997002.795422500930727 ], [ 3165393.046763661317527, 1997018.371822888264433 ], [ 3165431.28879099432379, 1997022.319237699266523 ], [ 3165464.970256893895566, 1997024.532551266951486 ], [ 3165486.48520668502897, 1997021.278798509156331 ], [ 3165507.240630146116018, 1997016.639217659831047 ], [ 3165528.594539970625192, 1997018.981996085029095 ], [ 3165536.809262711089104, 1997016.533984031993896 ], [ 3165545.996269814670086, 1997013.409838611260056 ], [ 3165573.484130294527858, 1996996.962965985760093 ], [ 3165586.799055053852499, 1996986.030329512199387 ], [ 3165609.789930176921189, 1996978.468936642864719 ], [ 3165640.164936834946275, 1996980.247761344071478 ], [ 3165657.495035513304174, 1996987.849889465374872 ], [ 3165660.949517408385873, 1997013.06351728993468 ], [ 3165681.565554678440094, 1997017.560209684306756 ], [ 3165703.971016939729452, 1997030.35011029872112 ], [ 3165727.165261993184686, 1997033.890054275514558 ], [ 3165738.385863265022635, 1997036.991487859748304 ], [ 3165754.119737673550844, 1997041.329023516504094 ], [ 3165790.703458517789841, 1997051.641115362057462 ], [ 3165813.665113065391779, 1997064.333768055541441 ], [ 3165836.402279520407319, 1997072.003526807064191 ], [ 3165870.423789737280458, 1997093.394108580425382 ], [ 3165889.199169797822833, 1997106.312111161882058 ], [ 3165938.765883550047874, 1997110.812011968111619 ], [ 3165990.634931891225278, 1997105.797733704792336 ], [ 3166077.853599102236331, 1997093.087567292619497 ], [ 3166203.386052043642849, 1997071.151357710361481 ], [ 3166245.80139125417918, 1997057.158687402727082 ], [ 3166259.683670984581113, 1997053.214267434319481 ], [ 3166295.527876497246325, 1997045.432097838958725 ], [ 3166340.126772410236299, 1997024.983440687647089 ], [ 3166391.942337216343731, 1997005.80485662794672 ], [ 3166436.895675943233073, 1996994.406276456080377 ], [ 3166508.147061705589294, 1996975.881469414336607 ], [ 3166543.858985000289977, 1996965.758744064485654 ], [ 3166543.858985000289977, 1996729.812214999459684 ], [ 3159113.635034311097115, 1996729.812214999459684 ], [ 3159103.671099023893476, 1996736.478149266447872 ], [ 3159022.504670770838857, 1996791.174972605891526 ], [ 3158939.329296727199107, 1996807.748824217123911 ], [ 3158898.952011966146529, 1996856.829964011907578 ], [ 3158887.290986059233546, 1996870.141576252644882 ], [ 3158855.15841299854219, 1996908.918713262071833 ], [ 3158810.210890464484692, 1996968.375346444780007 ], [ 3158791.22860363079235, 1996994.134981089038774 ], [ 3158776.128764169290662, 1997013.459269271465018 ], [ 3158739.573897338472307, 1997061.814438116969541 ], [ 3158726.664454452227801, 1997066.469593749614432 ], [ 3158678.207092747092247, 1997084.780069235479459 ], [ 3158606.555185087956488, 1997109.970209570368752 ], [ 3158572.913603226654232, 1997121.912637916859239 ], [ 3158544.353820119053125, 1997132.211427839007229 ], [ 3158532.889612301252782, 1997136.120858878362924 ], [ 3158530.642943600658327, 1997136.918361018411815 ], [ 3158462.325033537112176, 1997160.513094999594614 ], [ 3158312.759567881003022, 1997235.277462387690321 ], [ 3158312.135616836603731, 1997240.95537121524103 ], [ 3158349.950100906658918, 1997249.021441236371174 ], [ 3158380.277973649092019, 1997251.309699627105147 ], [ 3158415.516777488403022, 1997252.738993344362825 ], [ 3158450.937542416155338, 1997252.111382469534874 ], [ 3158480.08524373639375, 1997250.556159381754696 ], [ 3158495.409852722659707, 1997250.912900181021541 ], [ 3158507.244529558345675, 1997251.880144416354597 ], [ 3158533.588219939731061, 1997254.865467681316659 ], [ 3158562.460011265706271, 1997263.989814753876999 ], [ 3158569.977750053163618, 1997279.380985992494971 ], [ 3158555.257551819086075, 1997308.280998392961919 ], [ 3158545.900237573310733, 1997338.774147359421477 ], [ 3158535.187460124492645, 1997399.373214772436768 ], [ 3158530.168065117672086, 1997409.363781303400174 ], [ 3158501.640652454458177, 1997421.441764972172678 ], [ 3158495.632898748386651, 1997431.60523746162653 ], [ 3158500.757820440456271, 1997447.92125615873374 ], [ 3158525.646224345080554, 1997476.97993036895059 ], [ 3158552.776495665311813, 1997507.165298009989783 ], [ 3158589.470626970753074, 1997482.521187246544287 ], [ 3158645.203021004796028, 1997443.409253362100571 ], [ 3158659.191299293190241, 1997438.937190427677706 ], [ 3158684.368965873494744, 1997437.570395112270489 ], [ 3158730.739983595907688, 1997435.533714870223776 ], [ 3158773.469466048292816, 1997426.540335279423743 ], [ 3158797.731748490594327, 1997422.802384259179235 ], [ 3158814.560494423378259, 1997426.43985979212448 ], [ 3158824.496501315385103, 1997428.245553069049492 ], [ 3158840.25880841165781, 1997431.563233334105462 ], [ 3158854.950113179627806, 1997441.143362406408414 ], [ 3158866.577559553552419, 1997456.82808546978049 ], [ 3158874.979793268255889, 1997474.595829979283735 ], [ 3158889.62555455416441, 1997512.533836354501545 ], [ 3158900.629088487941772, 1997533.896561536006629 ], [ 3158914.202880729455501, 1997558.859693886246532 ], [ 3158924.89418953936547, 1997578.251941647613421 ], [ 3158947.498682150617242, 1997608.722909265896305 ], [ 3158959.230068775825202, 1997621.858227993827313 ], [ 3158970.467189466580749, 1997635.080109411850572 ], [ 3158988.254176061600447, 1997648.168672310188413 ], [ 3158996.733995784074068, 1997656.810369505779818 ], [ 3159009.427931415848434, 1997672.814933226909488 ], [ 3159025.606895916163921, 1997685.172287059482187 ], [ 3159044.876166234724224, 1997698.001686396542937 ], [ 3159064.202302694320679, 1997707.783541182987392 ], [ 3159077.962052136659622, 1997714.489178425632417 ], [ 3159084.485776845365763, 1997717.39794474770315 ], [ 3159091.408027194440365, 1997718.212100698146969 ], [ 3159107.851302217226475, 1997722.423339808592573 ], [ 3159129.464160521049052, 1997723.198967859847471 ], [ 3159150.631604382302612, 1997725.571370566496626 ], [ 3159158.392722735647112, 1997729.276203165762126 ], [ 3159179.887571386061609, 1997742.728856334462762 ], [ 3159198.41595992166549, 1997755.687804983230308 ], [ 3159220.61322825960815, 1997773.573861678363755 ], [ 3159239.851866397541016, 1997786.408589506987482 ], [ 3159250.181338894180954, 1997792.701788427308202 ], [ 3159308.685392655432224, 1997831.574518766021356 ], [ 3159352.588900410570204, 1997859.838767230510712 ], [ 3159384.171528788283467, 1997882.664300615433604 ], [ 3159413.114755935966969, 1997916.076631652424112 ], [ 3159451.606907472014427, 1997950.856243236456066 ], [ 3159463.029702490195632, 1997964.045753534417599 ], [ 3159483.587251091375947, 1997989.812389329075813 ], [ 3159494.619366400875151, 1998000.538989725522697 ], [ 3159507.963010490871966, 1998007.823671244550496 ], [ 3159521.830158729571849, 1998014.004388765897602 ], [ 3159538.351906170137227, 1998018.708185482304543 ], [ 3159584.192184405401349, 1998031.952598583651707 ], [ 3159595.810750216245651, 1998032.957884285598993 ], [ 3159634.983520742505789, 1998031.16845507058315 ], [ 3159652.583010260947049, 1998033.658883993979543 ], [ 3159664.380517444573343, 1998040.201641465304419 ], [ 3159693.23847425263375, 1998059.454030671156943 ], [ 3159717.583225906360894, 1998077.470832113875076 ], [ 3159752.351329579949379, 1998111.383176119765267 ], [ 3159779.05378152616322, 1998135.062629696680233 ], [ 3159807.458424642682076, 1998160.469373652944341 ], [ 3159833.372589573264122, 1998183.780482179950923 ], [ 3159851.213570937048644, 1998201.416248308727518 ], [ 3159880.562758440151811, 1998228.176577806007117 ], [ 3159894.45285034365952, 1998238.909534368198365 ], [ 3159906.086549670435488, 1998249.024749707663432 ], [ 3159938.089963297825307, 1998292.533291486091912 ], [ 3159953.072916811332107, 1998310.162727088201791 ], [ 3159970.515611924231052, 1998329.893100225832313 ], [ 3159986.480183174367994, 1998343.300750559894368 ], [ 3160011.42850133497268, 1998361.718475881731138 ], [ 3160030.878206440713257, 1998371.479073363821954 ], [ 3160049.726468037348241, 1998381.851122977677733 ], [ 3160098.448053971398622, 1998399.654538110364228 ], [ 3160115.750451745465398, 1998409.284484886564314 ], [ 3160143.117174982093275, 1998423.735434636240825 ], [ 3160160.973701579496264, 1998432.255977703956887 ], [ 3160182.289649426937103, 1998440.171575152082369 ], [ 3160208.040251561440527, 1998448.830212916713208 ], [ 3160236.507931545376778, 1998465.619907717918977 ], [ 3160281.78689862601459, 1998466.306745008099824 ], [ 3160318.640729216858745, 1998472.517262443667278 ], [ 3160344.602299253921956, 1998478.101573553169146 ], [ 3160385.461974096484482, 1998487.155287149362266 ], [ 3160412.914500727318227, 1998497.541374333901331 ], [ 3160412.617788069881499, 1998504.680768397636712 ], [ 3160415.185079392045736, 1998515.875412894878536 ], [ 3160417.665383749641478, 1998530.122874298831448 ], [ 3160422.375888890586793, 1998548.030288418987766 ], [ 3160422.516215812414885, 1998558.130751530872658 ], [ 3160417.346468916162848, 1998579.791181094944477 ], [ 3160418.829726167023182, 1998589.150524927536026 ], [ 3160422.124160480685532, 1998600.72425420768559 ], [ 3160433.515640543308109, 1998613.919453124981374 ], [ 3160444.462377619929612, 1998628.711088796146214 ], [ 3160456.821535827592015, 1998647.812059017363936 ], [ 3160468.704623430967331, 1998668.514946647454053 ], [ 3160478.198325995355844, 1998692.166983898961917 ], [ 3160485.498631129972637, 1998706.583974240347743 ], [ 3160491.408595389686525, 1998721.244129955302924 ], [ 3160500.957523442804813, 1998740.836511442670599 ], [ 3160508.866769330576062, 1998750.084497459465638 ], [ 3160520.261841340921819, 1998765.303995417896658 ], [ 3160530.720810834318399, 1998784.231074577197433 ], [ 3160547.098126675933599, 1998813.260497698793188 ], [ 3160561.398933750577271, 1998838.603088035946712 ], [ 3160578.096645361278206, 1998874.664011819753796 ], [ 3160581.040183462202549, 1998888.830497215734795 ], [ 3160582.624417527578771, 1998903.23471864592284 ], [ 3160587.988162703812122, 1998914.446568090468645 ], [ 3160594.27339169755578, 1998922.459848036756739 ], [ 3160602.758496330585331, 1998934.138397275935858 ], [ 3160614.066786956973374, 1998962.029396491590887 ], [ 3160627.438422186300159, 1998995.128307074075565 ], [ 3160631.890146666206419, 1999005.993522180011496 ], [ 3160642.461450902745128, 1999045.657231295481324 ], [ 3160647.051835897378623, 1999065.610638241283596 ], [ 3160655.526306613348424, 1999061.597244499949738 ], [ 3160718.908290194347501, 1999042.918205489171669 ], [ 3160901.24193620774895, 1998997.866813923697919 ], [ 3160978.156828199513257, 1998988.465272942790762 ], [ 3161048.128256542608142, 1998992.934335914673284 ], [ 3161081.688975166529417, 1999006.808799493126571 ], [ 3161093.261537935119122, 1999026.553625623695552 ], [ 3161109.735462010838091, 1999067.210067354375497 ], [ 3161122.734806100837886, 1999099.361653321189806 ], [ 3161160.351550184190273, 1999182.895601694239303 ], [ 3161169.908348278142512, 1999197.930471223313361 ], [ 3161178.527995179407299, 1999207.05432209582068 ], [ 3161205.840108173433691, 1999225.565279132686555 ], [ 3161221.510733479633927, 1999238.518461509840563 ], [ 3161235.228993764147162, 1999229.538133901543915 ], [ 3161286.121715526562184, 1999187.731608822476119 ], [ 3161431.282977893017232, 1999056.539707701187581 ], [ 3161459.221357561647892, 1999006.091481566196308 ], [ 3161470.029647326096892, 1998975.345212348736823 ], [ 3161490.98784599499777, 1998926.117922778008506 ], [ 3161521.712310313247144, 1998897.457567129516974 ], [ 3161542.864857008680701, 1998890.721019200747833 ], [ 3161587.511893819086254, 1998892.025968951405957 ], [ 3161631.078609691467136, 1998903.1384870512411 ], [ 3161672.974248975515366, 1998922.136978622991592 ], [ 3161735.806225335691124, 1998980.505412311991677 ], [ 3161804.137384793721139, 1999057.149633739376441 ], [ 3161821.91090200189501, 1999062.141535233007744 ], [ 3161870.358372586779296, 1998980.263894009403884 ], [ 3161897.657159957103431, 1998962.834073508856818 ], [ 3161921.267913179006428, 1998957.186612132005394 ], [ 3161944.059789310209453, 1998960.794803282478824 ], [ 3161989.829337059520185, 1998977.59742450946942 ], [ 3161990.145808462519199, 1998991.210757525404915 ], [ 3161985.224113726057112, 1999004.221297785872594 ], [ 3161981.582029849756509, 1999025.108044745866209 ], [ 3161982.096537725999951, 1999037.167912917910144 ], [ 3161988.149324608966708, 1999044.715724635170773 ], [ 3162000.114472925662994, 1999049.710855758050457 ], [ 3162018.531595163047314, 1999051.552909499267116 ], [ 3162037.027061184868217, 1999053.887417677557096 ], [ 3162052.959335892926902, 1999066.28882866166532 ], [ 3162067.492390599101782, 1999092.097341552842408 ], [ 3162080.456828333437443, 1999112.6114258072339 ], [ 3162089.785849849693477, 1999130.217466627946123 ], [ 3162101.314765527844429, 1999151.488921603187919 ], [ 3162107.600882903207093, 1999169.120799641357735 ], [ 3162106.444058770313859, 1999179.448034021537751 ], [ 3162100.6623879596591, 1999195.646443806122988 ], [ 3162088.20625867927447, 1999210.986959007801488 ], [ 3162064.283967291004956, 1999252.126122036483139 ], [ 3162061.088726514019072, 1999262.809809191152453 ], [ 3162049.308063250500709, 1999294.232195123797283 ], [ 3162043.471633571665734, 1999314.490207398775965 ], [ 3162028.792657208628953, 1999349.456820542924106 ], [ 3162037.417213916778564, 1999351.99870305811055 ], [ 3162184.359344373457134, 1999389.078475448070094 ], [ 3162342.359556238166988, 1999433.843847122741863 ], [ 3162382.408598551526666, 1999447.59705416765064 ], [ 3162394.107023634947836, 1999450.107768629910424 ], [ 3162412.668703882023692, 1999473.693135611247271 ], [ 3162429.999956601299345, 1999500.531245959922671 ], [ 3162452.39200824033469, 1999551.290536946384236 ], [ 3162476.844710585661232, 1999614.852004843065515 ], [ 3162486.386248254682869, 1999666.845806789351627 ], [ 3162492.328918609768152, 1999682.512925543123856 ], [ 3162504.951824324205518, 1999674.23067755671218 ], [ 3162519.82556174416095, 1999663.529977029189467 ], [ 3162550.832520631141961, 1999628.239566236268729 ], [ 3162574.089512633159757, 1999586.710671609966084 ], [ 3162587.900800125673413, 1999559.489602508256212 ], [ 3162597.014630797319114, 1999540.683618030278012 ], [ 3162608.09407428978011, 1999524.065194140188396 ], [ 3162619.435695270542055, 1999516.513395139714703 ], [ 3162634.065053359605372, 1999516.486605095211416 ], [ 3162664.40130596421659, 1999514.21974621177651 ], [ 3162670.608502706047148, 1999613.877432019682601 ], [ 3162671.259581168182194, 1999698.306847028667107 ], [ 3162662.73036375362426, 1999798.516585840843618 ], [ 3162642.827922221738845, 1999914.889960811240599 ], [ 3162632.732280208729208, 1999974.36759454710409 ], [ 3162621.456936267204583, 2000039.620305900927633 ], [ 3162628.101768395397812, 2000068.327112125698477 ], [ 3162635.394891858566552, 2000096.920569173526019 ], [ 3162651.648168915882707, 2000098.128631128696725 ], [ 3162668.026830588467419, 2000100.327175139449537 ], [ 3162709.210135859902948, 2000108.819735551718622 ], [ 3162742.553351432085037, 2000121.720683633117005 ], [ 3162772.201190491672605, 2000132.736540564335883 ], [ 3162802.473582215607166, 2000147.693214911967516 ], [ 3162819.795071257278323, 2000168.458221689099446 ], [ 3162821.312620138283819, 2000179.83663925435394 ], [ 3162839.512653793208301, 2000190.323030622676015 ], [ 3162831.793535680510104, 2000202.303977170027792 ], [ 3162826.883024586364627, 2000212.781341398600489 ], [ 3162826.537247288972139, 2000218.410557912662625 ], [ 3162826.161364539060742, 2000233.663701521931216 ], [ 3162792.797367349732667, 2000245.066381886601448 ], [ 3162749.783806471154094, 2000259.674994959728792 ], [ 3162727.781100858002901, 2000266.053583960980177 ], [ 3162708.285447870381176, 2000275.031328058568761 ], [ 3162698.772321467287838, 2000276.694732904434204 ], [ 3162665.061858661938459, 2000284.108106683241203 ], [ 3162642.19952036999166, 2000293.674570265226066 ], [ 3162592.781247165985405, 2000311.934640265302733 ], [ 3162582.058986417017877, 2000411.515992872416973 ], [ 3162572.961473781615496, 2000503.725922722602263 ], [ 3162549.544923997484148, 2000641.977506929077208 ], [ 3162533.583823858294636, 2000721.719011215725914 ], [ 3162514.944459724705666, 2000780.160079168621451 ], [ 3162489.948855474591255, 2000815.918794414727017 ], [ 3162471.708746838849038, 2000863.658790432382375 ], [ 3162444.704729730263352, 2000926.60024020425044 ], [ 3162415.123515534214675, 2000981.892339781858027 ], [ 3162380.731023633852601, 2001042.076008151751012 ], [ 3162340.136494765989482, 2001116.000646032625809 ], [ 3162298.752387184649706, 2001206.769899590872228 ], [ 3162272.251378149725497, 2001256.461149749811739 ], [ 3162269.663844785653055, 2001260.963704383932054 ], [ 3162226.984361571725458, 2001334.747082570334896 ], [ 3162205.878869178239256, 2001368.81343669584021 ], [ 3162157.427804734557867, 2001437.025072726653889 ], [ 3162115.304106149822474, 2001492.486355981789529 ], [ 3162073.891764004249126, 2001539.216816272120923 ], [ 3162046.124576779082417, 2001570.904667185852304 ], [ 3162002.915438232943416, 2001614.912041938863695 ], [ 3161969.556322378106415, 2001646.565409074537456 ], [ 3161953.287967280950397, 2001661.276541094528511 ], [ 3161950.097313432022929, 2002018.986410403857008 ], [ 3161944.408945627976209, 2002068.628695664694533 ], [ 3161941.604835254140198, 2002081.775691330665722 ], [ 3161939.354976500850171, 2002093.813229874940589 ], [ 3161936.685240847989917, 2002104.405410774052143 ], [ 3161936.464524125214666, 2002119.631824772106484 ], [ 3161939.650009717792273, 2002166.15716679347679 ], [ 3161936.204643393401057, 2002201.691852098098025 ], [ 3161932.65667621139437, 2002284.833268906921148 ], [ 3161931.695279306266457, 2002318.414785581640899 ], [ 3161924.500624400097877, 2002382.956001144833863 ], [ 3161924.492454100400209, 2002396.120328429853544 ], [ 3161931.052276328206062, 2002437.499166671652347 ], [ 3161933.855738040059805, 2002468.397232117131352 ], [ 3161935.910674839280546, 2002489.319531438173726 ], [ 3161932.758011147379875, 2002503.715557098621503 ], [ 3161928.852667742408812, 2002520.260491204215214 ], [ 3161924.196604764088988, 2002547.511409172322601 ], [ 3161915.09037750121206, 2002577.573907430982217 ], [ 3161907.801493577193469, 2002603.658474462106824 ], [ 3161902.538562634028494, 2002624.507909802021459 ], [ 3161897.17087653465569, 2002642.122098966501653 ], [ 3161894.26833460573107, 2002657.27158047654666 ], [ 3161894.458711175248027, 2002673.91370333195664 ], [ 3161895.631222743541002, 2002691.60406103823334 ], [ 3161899.394569981843233, 2002707.621295565972105 ], [ 3161901.841323480010033, 2002723.054922634037212 ], [ 3161901.305019359569997, 2002742.410870739724487 ], [ 3161896.578305809292942, 2002769.057083674008027 ], [ 3161886.956679037772119, 2002797.065774900838733 ], [ 3161879.16200061654672, 2002809.566921475576237 ], [ 3161873.258858083747327, 2002817.18083960772492 ], [ 3161851.716501501854509, 2002830.061449000844732 ], [ 3161830.315937190782279, 2002844.436079859733582 ], [ 3161811.961821731179953, 2002860.809148912550882 ], [ 3161789.904792273417115, 2002879.855043243616819 ], [ 3161773.011358379386365, 2002901.035357642918825 ], [ 3161767.387310010846704, 2002918.21959766978398 ], [ 3161764.47405873471871, 2002939.486143044894561 ], [ 3161761.638702152762562, 2002961.245238033356145 ], [ 3161759.615683367475867, 2002987.9250523080118 ], [ 3161760.982051814906299, 2003018.568389483494684 ], [ 3161761.411748421378434, 2003043.300328582292423 ], [ 3161761.927152699790895, 2003055.360648788744584 ], [ 3161763.139976091682911, 2003068.817698091268539 ], [ 3161768.651404150761664, 2003084.560534591553733 ], [ 3161778.593783723190427, 2003107.628707918338478 ], [ 3161793.238001639023423, 2003125.31810192624107 ], [ 3161806.155921337194741, 2003153.940995083888993 ], [ 3161817.738752790726721, 2003178.747346037533134 ], [ 3161827.087631369940937, 2003189.26259506540373 ], [ 3161835.44454672653228, 2003197.926362581318244 ], [ 3161843.926613602787256, 2003207.580681038554758 ], [ 3161856.016743500716984, 2003222.172918961383402 ], [ 3161875.339345247484744, 2003238.537718790117651 ], [ 3161912.031843200325966, 2003267.558808150468394 ], [ 3161977.49772884696722, 2003319.898422011407092 ], [ 3161994.66448614327237, 2003322.464859627885744 ], [ 3162005.817749635316432, 2003322.539158671163023 ], [ 3162017.134743375703692, 2003319.041036484297365 ], [ 3162024.945292183198035, 2003315.649914627429098 ], [ 3162044.486632925923914, 2003315.775884007336572 ], [ 3162069.345776965841651, 2003318.009519557934254 ], [ 3162086.131154883652925, 2003323.174042697064579 ], [ 3162092.707471408881247, 2003329.617818746482953 ], [ 3162108.421504698693752, 2003358.258130200672895 ], [ 3162118.629318712279201, 2003374.192174532217905 ], [ 3162131.055723827332258, 2003386.700581876328215 ], [ 3162147.90244728885591, 2003400.460880186175928 ], [ 3162165.163236122112721, 2003412.630057816393673 ], [ 3162197.396349868737161, 2003426.737000693799928 ], [ 3162233.964096327777952, 2003437.554416814586148 ], [ 3162276.358712278306484, 2003449.884135608328506 ], [ 3162299.500359621830285, 2003459.506033389829099 ], [ 3162317.627965512685478, 2003472.536099617369473 ], [ 3162332.483244218397886, 2003487.151112747611478 ], [ 3162344.206547445617616, 2003503.832692867377773 ], [ 3162357.046714193653315, 2003523.356566230300814 ], [ 3162371.56006707623601, 2003545.625337606761605 ], [ 3162385.296674285084009, 2003556.385853374144062 ], [ 3162395.035818797536194, 2003569.364298693137243 ], [ 3162408.219743901863694, 2003582.246558869956061 ], [ 3162426.730479021091014, 2003602.297436926746741 ], [ 3162439.320529039483517, 2003611.233408074826002 ], [ 3162451.730759189929813, 2003614.631962417624891 ], [ 3162468.866617466323078, 2003617.203959585633129 ], [ 3162490.548268008045852, 2003622.01847547898069 ], [ 3162515.806693948339671, 2003631.77653648937121 ], [ 3162546.477855511475354, 2003680.076738038100302 ], [ 3162574.040324838832021, 2003726.389386044815183 ], [ 3162581.499263503588736, 2003751.410861615557224 ], [ 3162588.325522301718593, 2003785.655856276396662 ], [ 3162597.846183236222714, 2003814.873209808021784 ], [ 3162598.7522037550807, 2003829.396502519724891 ], [ 3162595.839212981052697, 2003850.663043811451644 ], [ 3162599.119657252915204, 2003871.352604530286044 ], [ 3162603.915182111784816, 2003892.789741755928844 ], [ 3162608.843466565944254, 2003910.659768061479554 ], [ 3162616.153807294089347, 2003921.53168139164336 ], [ 3162620.957291724160314, 2003929.804489352274686 ], [ 3162632.60284562734887, 2003937.38687534048222 ], [ 3162647.465493526309729, 2003947.444261546945199 ], [ 3162660.914983409456909, 2003953.192355578066781 ], [ 3162678.176161259412766, 2003965.361634107772261 ], [ 3162688.595058416947722, 2003978.221268441528082 ], [ 3162692.164202115964144, 2003996.329002384562045 ], [ 3162700.037122731097043, 2004028.365831047529355 ], [ 3162706.738496371079236, 2004053.013586702756584 ], [ 3162714.119694398716092, 2004068.935840582940727 ], [ 3162717.931095383130014, 2004075.357078011147678 ], [ 3162708.387060411274433, 2004094.239434513729066 ], [ 3162699.514955461956561, 2004117.560732842655852 ], [ 3162694.156596275046468, 2004127.610734526766464 ], [ 3162717.845432253554463, 2004140.680896097561345 ], [ 3162793.605919528752565, 2004196.283775743329898 ], [ 3162858.080468222498894, 2004246.772794348187745 ], [ 3162910.203001708257943, 2004291.827977462206036 ], [ 3163015.162677471525967, 2004366.625571708660573 ], [ 3163094.320563219953328, 2004421.634739940520376 ], [ 3163147.962060691323131, 2004460.855529985157773 ], [ 3163185.701883985195309, 2004487.669277156703174 ], [ 3163216.646428848616779, 2004515.671497016446665 ], [ 3163248.63035321328789, 2004546.023230489110574 ], [ 3163282.629055438563228, 2004580.072822819231078 ], [ 3163304.208399129100144, 2004597.056051417952403 ], [ 3163340.55074429884553, 2004628.670745283132419 ], [ 3163385.546449828892946, 2004661.809737886767834 ], [ 3163431.6431341515854, 2004697.28759694378823 ], [ 3163493.454836543649435, 2004744.192880010232329 ], [ 3163571.043451386503875, 2004802.514818575233221 ], [ 3163606.846290067303926, 2004834.730313919717446 ], [ 3163623.651875070761889, 2004833.816492053447291 ], [ 3163654.313787910621613, 2004833.010877630440518 ], [ 3163687.386720494367182, 2004832.796216456685215 ], [ 3163698.925338175147772, 2004832.297183731803671 ], [ 3163732.329067497514188, 2004826.961992794880643 ], [ 3163779.947430736385286, 2004823.191333463415504 ], [ 3163809.388757681939751, 2004822.093002123059705 ], [ 3163828.521758853923529, 2004818.240920264972374 ], [ 3163849.665463191457093, 2004816.062331912340596 ], [ 3163877.729665721766651, 2004813.686046872986481 ], [ 3163892.656541512347758, 2004816.138482050038874 ], [ 3163906.449681692756712, 2004815.245272794971243 ], [ 3163965.060007372871041, 2004807.527551429346204 ], [ 3164026.29364681430161, 2004798.338560565840453 ], [ 3164050.366461073979735, 2004792.610268955118954 ], [ 3164090.449163959827274, 2004781.551065627019852 ], [ 3164127.181537432596087, 2004771.58400880987756 ], [ 3164182.256644631735981, 2004756.384460292058066 ], [ 3164198.266764232888818, 2004751.0536431199871 ], [ 3164219.410535771865398, 2004748.875141930067912 ], [ 3164236.523143847472966, 2004746.895352161023766 ], [ 3164283.936494861729443, 2004749.236278148600832 ], [ 3164346.401672618463635, 2004755.020536999218166 ], [ 3164372.789001952391118, 2004756.481790120247751 ], [ 3164392.330750526860356, 2004748.002095002681017 ], [ 3164401.302307088859379, 2004745.927039031637833 ], [ 3164433.906823354307562, 2004742.757266923552379 ], [ 3164455.129059473052621, 2004741.071538083720952 ], [ 3164466.667875136248767, 2004740.572790062287822 ], [ 3164484.101949909701943, 2004737.01808967301622 ], [ 3164497.738956911489367, 2004735.139845801284537 ], [ 3164507.540923125110567, 2004730.894544424023479 ], [ 3164519.088747989851981, 2004726.850356302689761 ], [ 3164528.694072360172868, 2004725.17078635469079 ], [ 3164552.483369447756559, 2004725.061339557636529 ], [ 3164560.946168541908264, 2004723.581544472137466 ], [ 3164582.695612451061606, 2004714.2096786161419 ], [ 3164593.765412427484989, 2004710.755363854812458 ], [ 3164602.493666557595134, 2004710.747969374060631 ], [ 3164616.911651152186096, 2004713.795899133896455 ], [ 3164629.015338804572821, 2004709.654555964516476 ], [ 3164641.31536543276161, 2004702.947446910664439 ], [ 3164652.229358015581965, 2004698.507856140844524 ], [ 3164668.326373019255698, 2004690.124340749112889 ], [ 3164676.164356944151223, 2004684.703776119509712 ], [ 3164681.718674152623862, 2004672.088481776881963 ], [ 3164687.498184527270496, 2004664.496392467990518 ], [ 3164695.639384982176125, 2004664.591763392789289 ], [ 3164704.258510036394, 2004664.097205382538959 ], [ 3164710.819090300239623, 2004661.43133373837918 ], [ 3164715.924423808697611, 2004656.994832107098773 ], [ 3164719.331083405762911, 2004652.85533148702234 ], [ 3164722.972058391664177, 2004650.193665661849082 ], [ 3164728.546106699854136, 2004648.712719020666555 ], [ 3164735.419109715148807, 2004648.01729771331884 ], [ 3164744.359787496272475, 2004645.947827345458791 ], [ 3164751.085878276266158, 2004640.721588056534529 ], [ 3164757.499369748868048, 2004633.525038073537871 ], [ 3164759.88155903108418, 2004626.527059716638178 ], [ 3164764.24400730850175, 2004621.207920675864443 ], [ 3164773.333683300763369, 2004616.074805443175137 ], [ 3164786.227750905789435, 2004613.314033197471872 ], [ 3164794.652641907334328, 2004607.79088836396113 ], [ 3164800.704342097043991, 2004605.720174598740414 ], [ 3164806.709087263792753, 2004603.151505854912102 ], [ 3164813.785475240088999, 2004603.939340956974775 ], [ 3164820.155374688562006, 2004606.875665384344757 ], [ 3164820.399703339673579, 2004631.639926261501387 ], [ 3164823.607165007386357, 2004654.873585857218131 ], [ 3164829.486003266647458, 2004668.527479111682624 ], [ 3164839.676084838341922, 2004682.946298479102552 ], [ 3164852.93831360898912, 2004696.321619678055868 ], [ 3164871.214762590825558, 2004714.895571306347847 ], [ 3164885.055238276254386, 2004723.107229324057698 ], [ 3164899.046123065985739, 2004729.267423381330445 ], [ 3164909.111213584896177, 2004734.089133642148226 ], [ 3164931.459859182592481, 2004740.306882757460698 ], [ 3164945.023652859963477, 2004749.579465389018878 ], [ 3164960.644834227859974, 2004751.404603128088638 ], [ 3164976.505427506286651, 2004757.744292273884639 ], [ 3164998.34327654633671, 2004763.545110329985619 ], [ 3165029.970489027909935, 2004766.621873918687925 ], [ 3165065.956040529534221, 2004770.961738063255325 ], [ 3165095.411642384715378, 2004777.9620879329741 ], [ 3165103.060878720134497, 2004770.549540491541848 ], [ 3165110.673512681387365, 2004768.712227556854486 ], [ 3165169.15848351502791, 2004777.218590213451535 ], [ 3165190.840163755696267, 2004782.034368782537058 ], [ 3165207.513026669621468, 2004784.688256454886869 ], [ 3165345.732555756345391, 2004806.592691213591024 ], [ 3165434.797948563471437, 2004820.384465448558331 ], [ 3165462.582508615218103, 2004825.652122783474624 ], [ 3165502.223470784723759, 2004835.428357799770311 ], [ 3165530.554772267583758, 2004844.144330377923325 ], [ 3165550.059969768859446, 2004849.847039457876235 ], [ 3165575.288067940622568, 2004859.611815919866785 ], [ 3165614.548811536282301, 2004881.604883474064991 ], [ 3165654.18953007273376, 2004899.987795132678002 ], [ 3165664.843175056390464, 2004905.719293955247849 ], [ 3165675.215322466101497, 2004909.474843436852098 ], [ 3165683.682317680679262, 2004848.761700275354087 ], [ 3165680.141232840251178, 2004846.849529136903584 ], [ 3165685.509781995788217, 2004807.434959830949083 ], [ 3165667.573710426688194, 2004762.981850613141432 ], [ 3165662.577975742053241, 2004750.69242314551957 ], [ 3165650.94047518633306, 2004721.338685374474153 ], [ 3165768.931663663126528, 2004659.703677573939785 ], [ 3165784.89460995234549, 2004653.875513311242685 ], [ 3165838.059833183884621, 2004764.565235286951065 ], [ 3165862.808607341721654, 2004765.301208376185969 ], [ 3165931.036091949325055, 2004761.980158161139116 ], [ 3166009.534358569886535, 2004757.369931828696281 ], [ 3165989.606394124217331, 2004871.725156679749489 ], [ 3165975.137639451771975, 2004954.244062570622191 ], [ 3165997.413402088917792, 2004963.006367594469339 ], [ 3166012.652903978712857, 2004967.429903337731957 ], [ 3166074.045050017070025, 2004977.454234147211537 ], [ 3166120.306746456772089, 2004983.542271890677512 ], [ 3166146.576218069996685, 2004988.062651646323502 ], [ 3166185.839594816789031, 2004993.855339102912694 ], [ 3166162.857342139817774, 2004881.938922784291208 ], [ 3166172.971895744092762, 2004879.664548903005198 ], [ 3166255.675061817746609, 2004859.13176580122672 ], [ 3166347.319129565730691, 2004836.530105409678072 ], [ 3166492.362331245560199, 2004802.568922250298783 ], [ 3166504.856634764932096, 2004800.891082552727312 ], [ 3166509.923258451744914, 2004774.186184737365693 ], [ 3166512.83273977227509, 2004759.502280565910041 ], [ 3166519.870387922972441, 2004738.021641929633915 ], [ 3166527.32918834220618, 2004718.998701967997476 ], [ 3166537.529949483927339, 2004695.446288431994617 ], [ 3166542.759524963796139, 2004682.381900634616613 ], [ 3166527.600740482099354, 2004662.250069783069193 ], [ 3166543.858985000289977, 2004651.985964876366779 ], [ 3166543.858985000289977, 1998457.85462853545323 ], [ 3166536.555253126192838, 1998454.653473943006247 ] ] ], [ [ [ 3166541.060606196522713, 2008262.503186939982697 ], [ 3166510.782396215479821, 2008278.935078669339418 ], [ 3166501.195021966472268, 2008282.130182375898585 ], [ 3166490.107202062848955, 2008284.068771188613027 ], [ 3166456.883567325305194, 2008286.3335291526746 ], [ 3166430.622034288011491, 2008285.862273329636082 ], [ 3166385.349351332522929, 2008288.208729103440419 ], [ 3166354.360281311441213, 2008287.551590034738183 ], [ 3166313.838840999174863, 2008286.029657481238246 ], [ 3166296.539210655726492, 2008287.029317800421268 ], [ 3166250.540088876150548, 2008288.996543348999694 ], [ 3166220.848424726165831, 2008288.112666617147624 ], [ 3166204.228561702184379, 2008288.993415295844898 ], [ 3166174.849051722325385, 2008290.080120068741962 ], [ 3166118.559825577307492, 2008290.809007335221395 ], [ 3166080.796060001477599, 2008293.867961559677497 ], [ 3166062.012285279110074, 2008294.11464417539537 ], [ 3166002.79268956836313, 2008297.381265237228945 ], [ 3165980.742281196638942, 2008302.249288068851456 ], [ 3165949.003486377187073, 2008313.874306251993403 ], [ 3165911.865255206357688, 2008329.481013817247003 ], [ 3165883.407580459490418, 2008344.58256891486235 ], [ 3165850.996644823811948, 2008360.375366404419765 ], [ 3165798.746847748756409, 2008390.775320273125544 ], [ 3165774.259065260179341, 2008405.689033974194899 ], [ 3165756.029694566968828, 2008413.43308267951943 ], [ 3165733.745698255486786, 2008425.430181911215186 ], [ 3165689.419028369709849, 2008454.951157827628776 ], [ 3165618.033635963685811, 2008495.785417899955064 ], [ 3165583.28665277082473, 2008518.062391062499955 ], [ 3165554.071679769083858, 2008532.790398820536211 ], [ 3165523.325144492089748, 2008546.267382852733135 ], [ 3165485.250038799829781, 2008564.569951452082023 ], [ 3165447.697737172245979, 2008581.768477655947208 ], [ 3165413.185323695652187, 2008596.916637177113444 ], [ 3165385.759492245037109, 2008601.712623640662059 ], [ 3165366.327124199829996, 2008602.07296567526646 ], [ 3165330.611147676128894, 2008601.230607592966408 ], [ 3165306.482910446356982, 2008601.399634056724608 ], [ 3165284.690673081204295, 2008603.691626016050577 ], [ 3165254.584975150879472, 2008604.399632670683786 ], [ 3165214.74372692592442, 2008611.366744060069323 ], [ 3165203.12707778159529, 2008611.3730424111709 ], [ 3165132.068453159183264, 2008619.242799304891378 ], [ 3165116.800290322396904, 2008624.444233664544299 ], [ 3165101.634572735987604, 2008634.690631731878966 ], [ 3165064.575037385337055, 2008650.790928116533905 ], [ 3164983.681502028834075, 2008686.707644853973761 ], [ 3164946.567097385879606, 2008698.261081445263699 ], [ 3164896.545061363838613, 2008713.084333418635651 ], [ 3164848.108778158202767, 2008725.099006982287392 ], [ 3164803.072118707932532, 2008737.531708614435047 ], [ 3164773.645850294735283, 2008738.121370141627267 ], [ 3164727.303549279458821, 2008729.51845313841477 ], [ 3164698.698316801339388, 2008722.8764361620415 ], [ 3164676.640707449987531, 2008715.089394826907665 ], [ 3164627.594375974033028, 2008689.239433990092948 ], [ 3164541.919807324185967, 2008729.031077507417649 ], [ 3164498.36772741843015, 2008750.824007920920849 ], [ 3164462.769595445133746, 2008771.732165853260085 ], [ 3164433.711130023933947, 2008787.446352606872097 ], [ 3164411.193205520976335, 2008797.966394144808874 ], [ 3164389.690281088463962, 2008806.283678496954963 ], [ 3164365.640597715973854, 2008815.552764628781006 ], [ 3164339.254432455636561, 2008822.699037007056177 ], [ 3164306.375097868964076, 2008826.930685498053208 ], [ 3164283.020966852083802, 2008827.977426352445036 ], [ 3164232.865862202830613, 2008829.155198238557205 ], [ 3164196.556513729505241, 2008832.974130076589063 ], [ 3164167.05286797741428, 2008841.678427496924996 ], [ 3164145.886447329074144, 2008847.911840198095888 ], [ 3164128.876335020642728, 2008854.937229126691818 ], [ 3164106.803333876654506, 2008863.860781118040904 ], [ 3164071.690293249674141, 2008879.621613122522831 ], [ 3164041.41332533955574, 2008896.055550683522597 ], [ 3164006.386209873948246, 2008924.965133971534669 ], [ 3163979.297084803227335, 2008936.284961035242304 ], [ 3163946.551030589267612, 2008945.556443669600412 ], [ 3163886.059169816318899, 2008953.60548587446101 ], [ 3163815.276857431046665, 2008951.80979633401148 ], [ 3163754.261765960603952, 2008952.356146232225001 ], [ 3163624.886235832702368, 2008957.771622756030411 ], [ 3163570.059311492368579, 2008963.311315363040194 ], [ 3163486.213739530649036, 2008972.408153768861666 ], [ 3163416.869265802204609, 2008979.474839842645451 ], [ 3163355.573199977166951, 2008986.652753518661484 ], [ 3163336.789845837745816, 2008986.900655118748546 ], [ 3163323.725960238836706, 2008989.185816946672276 ], [ 3163285.916519036516547, 2009000.356216905871406 ], [ 3163249.920723390765488, 2009014.753388880053535 ], [ 3163222.652648573741317, 2009029.142857432365417 ], [ 3163199.205049366690218, 2009046.408152436837554 ], [ 3163177.444928413257003, 2009057.302642750786617 ], [ 3163160.357300195842981, 2009063.835766341537237 ], [ 3163128.494161482900381, 2009074.472519940463826 ], [ 3163092.185781490523368, 2009086.899462089408189 ], [ 3163058.916648391634226, 2009097.275820325594395 ], [ 3163036.039373778738081, 2009105.328141465084627 ], [ 3163013.365218272432685, 2009114.863737455103546 ], [ 3162999.86373880552128, 2009122.794830713421106 ], [ 3162989.113111304584891, 2009131.257334684487432 ], [ 3162979.924605058506131, 2009140.965482128318399 ], [ 3162962.267107686027884, 2009156.711745540145785 ], [ 3162942.66378987301141, 2009172.798396104481071 ], [ 3162920.075690913479775, 2009186.875791680300608 ], [ 3162897.94876270275563, 2009199.859837581403553 ], [ 3162864.320677219890058, 2009216.374866966158152 ], [ 3162840.248062355443835, 2009229.6994123600889 ], [ 3162795.486679965164512, 2009264.869898459175602 ], [ 3162765.835624924860895, 2009285.245928435120732 ], [ 3162706.994854905642569, 2009324.904786238214001 ], [ 3162659.787101911380887, 2009348.858675038907677 ], [ 3162626.10488220769912, 2009369.433744730427861 ], [ 3162590.117139430716634, 2009387.880775608355179 ], [ 3162561.911594835110009, 2009396.359253420727327 ], [ 3162535.447655159048736, 2009403.014181369449943 ], [ 3162490.669585037510842, 2009404.266070114448667 ], [ 3162453.836982734035701, 2009400.58382536447607 ], [ 3162414.489209818653762, 2009406.454924499616027 ], [ 3162375.086750906892121, 2009407.778923420468345 ], [ 3162345.23999157641083, 2009405.912360792048275 ], [ 3162294.070449981838465, 2009400.687980296323076 ], [ 3162226.820885474793613, 2009395.745267922524363 ], [ 3162182.558455803897232, 2009391.844156056642532 ], [ 3162147.406626268755645, 2009386.349114592885599 ], [ 3162130.896682132035494, 2009387.718677726807073 ], [ 3162111.855839350260794, 2009390.543625647202134 ], [ 3162064.82037943881005, 2009398.772605598904192 ], [ 3162031.629367743618786, 2009401.035443154396489 ], [ 3162002.876140988897532, 2009397.458793163998052 ], [ 3161973.958933332934976, 2009388.847930604359135 ], [ 3161930.109967882744968, 2009374.74859116692096 ], [ 3161882.159753036219627, 2009373.011869432870299 ], [ 3161844.265058475080878, 2009371.034749843645841 ], [ 3161796.729285342618823, 2009367.706604481907561 ], [ 3161760.444153518415987, 2009367.473165816627443 ], [ 3161734.965369270183146, 2009371.930946876527742 ], [ 3161696.045416229404509, 2009383.297208905452862 ], [ 3161648.669093552045524, 2009399.180953060742468 ], [ 3161624.712356446310878, 2009375.019531636266038 ], [ 3161589.808426874689758, 2009337.078147683758289 ], [ 3161542.065845535136759, 2009273.03018297906965 ], [ 3161517.623376457951963, 2009220.600942207966 ], [ 3161471.178102783858776, 2009156.326086710439995 ], [ 3161438.913764637894928, 2009092.607873191824183 ], [ 3161392.460226043593138, 2009015.677005765028298 ], [ 3161342.240334443747997, 2008931.810644742101431 ], [ 3161272.791335926391184, 2008832.575690930243582 ], [ 3161208.795985118485987, 2008733.905466312076896 ], [ 3161145.781835371628404, 2008655.82211881596595 ], [ 3161102.544967353809625, 2008588.961034480016679 ], [ 3161047.864344614557922, 2008514.988960365299135 ], [ 3161015.641885238699615, 2008489.74257615651004 ], [ 3160940.218281736597419, 2008441.67729073530063 ], [ 3160851.238739656284451, 2008396.996596043463796 ], [ 3160678.368499098345637, 2008311.301854045595974 ], [ 3160555.250360410660505, 2008249.305290313670412 ], [ 3160418.125560297630727, 2008180.646566866664216 ], [ 3160319.64530073851347, 2008143.704819867853075 ], [ 3160177.699936313554645, 2008091.079180302098393 ], [ 3160051.834807636216283, 2008046.778643200406805 ], [ 3159892.903918346390128, 2007997.126154941972345 ], [ 3159734.20762392366305, 2007948.952029949054122 ], [ 3159669.865373348817229, 2007936.921864569187164 ], [ 3159578.793153939768672, 2007912.861567095853388 ], [ 3159304.516456348821521, 2007843.398621838772669 ], [ 3159258.161326645873487, 2007884.927187507040799 ], [ 3159211.538063341751695, 2007832.330286255571991 ], [ 3159167.018410463817418, 2007831.008238543290645 ], [ 3159105.747026207391173, 2007825.529670355143026 ], [ 3159027.325808870606124, 2007817.989737745607272 ], [ 3158942.185000171419233, 2007810.106936670839787 ], [ 3158811.61054406594485, 2007799.543757330626249 ], [ 3158765.091128148138523, 2007802.622543398058042 ], [ 3158684.290103120729327, 2007860.306486068293452 ], [ 3158593.074370988178998, 2007924.370231671491638 ], [ 3158529.149587241467088, 2007969.987444308353588 ], [ 3158443.442005956545472, 2008030.556325941812247 ], [ 3158356.406934158410877, 2008091.357939090579748 ], [ 3158286.979787460062653, 2008093.890109566273168 ], [ 3158187.636178894899786, 2008098.11469900351949 ], [ 3158124.263819101266563, 2008100.599969340022653 ], [ 3158061.305810273624957, 2008101.493883047252893 ], [ 3157989.589621083345264, 2008102.401976990746334 ], [ 3157945.461358488537371, 2008103.544207863975316 ], [ 3157952.221546205691993, 2008149.954090194078162 ], [ 3157956.770213630516082, 2008170.422893594717607 ], [ 3157957.428059718105942, 2008191.572748168837279 ], [ 3157959.280447643250227, 2008207.450518620200455 ], [ 3157955.835635208059102, 2008223.749101426219568 ], [ 3157945.641644858755171, 2008256.924777196254581 ], [ 3157944.35367204900831, 2008278.415249194949865 ], [ 3157938.174134959466755, 2008286.079054020578042 ], [ 3157927.220303105190396, 2008293.059526956174523 ], [ 3157911.375597725622356, 2008294.820487331598997 ], [ 3157860.966518864035606, 2008307.188483089907095 ], [ 3157833.261654774192721, 2008318.620277113979682 ], [ 3157828.715139618143439, 2008323.97291359375231 ], [ 3157832.309674005955458, 2008338.026726389070973 ], [ 3157851.047199532389641, 2008363.100248643895611 ], [ 3157865.080791199579835, 2008383.934062303276733 ], [ 3157877.871652421541512, 2008400.934924449073151 ], [ 3157896.663959657773376, 2008430.555678171105683 ], [ 3157893.891119946725667, 2008442.686201863223687 ], [ 3157870.937364421784878, 2008458.855683904141188 ], [ 3157849.077043598052114, 2008473.314851517789066 ], [ 3157830.170206712558866, 2008481.18130356259644 ], [ 3157835.921820896677673, 2008500.426977474940941 ], [ 3157845.048796970397234, 2008524.144931331975386 ], [ 3157854.624830911401659, 2008548.290596494916826 ], [ 3157872.030611432157457, 2008571.572020037798211 ], [ 3157872.710778871085495, 2008580.060263723833486 ], [ 3157870.774689672049135, 2008601.66437445092015 ], [ 3157866.650711852591485, 2008618.081934984074906 ], [ 3157860.533579119481146, 2008634.342181938001886 ], [ 3157844.049729110207409, 2008657.480213567847386 ], [ 3157822.644700921606272, 2008700.213272022316232 ], [ 3157817.403120968490839, 2008713.788719538832083 ], [ 3157806.225128619000316, 2008749.162162451306358 ], [ 3157798.959839315153658, 2008762.585454760119319 ], [ 3157782.296584945637733, 2008788.79284998960793 ], [ 3157763.452318518422544, 2008805.255778695456684 ], [ 3157742.108700624667108, 2008823.168862440623343 ], [ 3157716.951893812045455, 2008842.25588341220282 ], [ 3157706.33484713640064, 2008855.759632685920224 ], [ 3157694.554325857199728, 2008874.530299600213766 ], [ 3157680.584458580240607, 2008895.709484048653394 ], [ 3157671.117827574256808, 2008913.062490223208442 ], [ 3157662.689767982810736, 2008940.359990295488387 ], [ 3157645.239733000285923, 2008999.615728966193274 ], [ 3157635.927613865584135, 2009016.941724523901939 ], [ 3157599.640722759999335, 2009071.900511804502457 ], [ 3157583.790440906770527, 2009103.02898056525737 ], [ 3157579.821864256635308, 2009111.82475899416022 ], [ 3157542.39396057697013, 2009167.996271027717739 ], [ 3157525.964384106919169, 2009187.074631341034546 ], [ 3157541.988564002327621, 2009182.244094378082082 ], [ 3157559.887814844958484, 2009180.629532251041383 ], [ 3157571.178161118645221, 2009180.171916694613174 ], [ 3157600.219327629543841, 2009181.163640152662992 ], [ 3157634.682852191850543, 2009182.72521504200995 ], [ 3157661.255141675937921, 2009185.161904165288433 ], [ 3157683.888929372187704, 2009187.781747133471072 ], [ 3157703.257801401428878, 2009187.428928860230371 ], [ 3157757.097263869363815, 2009184.079713477054611 ], [ 3157746.871184532530606, 2009200.046761117177084 ], [ 3157717.544594572857022, 2009243.660706182476133 ], [ 3157677.835705702658743, 2009302.256518669426441 ], [ 3157666.781847765669227, 2009321.406429228605703 ], [ 3157709.325835678260773, 2009405.095848862547427 ], [ 3157736.056406697724015, 2009441.934491268126294 ], [ 3157739.839377139694989, 2009449.373332390096039 ], [ 3159159.711157063953578, 2009203.368038219632581 ], [ 3159729.410125924274325, 2009105.6869816405233 ], [ 3159747.175388420466334, 2009106.628360842820257 ], [ 3159763.863322110380977, 2009125.985482478281483 ], [ 3159733.823576360940933, 2009152.5076051838696 ], [ 3159699.033590012229979, 2009182.899038383737206 ], [ 3159634.726911614648998, 2009238.708619733573869 ], [ 3159620.734166601207107, 2009247.739579762564972 ], [ 3159540.113894401583821, 2009302.354038851102814 ], [ 3159495.401086607016623, 2009329.419257237808779 ], [ 3159469.58779236022383, 2009344.569512295303866 ], [ 3159445.235580328386277, 2009364.527188909472898 ], [ 3159408.969448745250702, 2009398.215246649924666 ], [ 3159365.016193065792322, 2009442.868645781418309 ], [ 3159346.195684615522623, 2009463.883641212014481 ], [ 3159327.094559751451015, 2009491.529719017678872 ], [ 3159302.775161776691675, 2009528.696415981976315 ], [ 3159277.728338939603418, 2009556.876946464646608 ], [ 3159240.258940785191953, 2009583.18120715697296 ], [ 3159208.242338666692376, 2009601.442686833441257 ], [ 3159162.904637109022588, 2009624.567355211358517 ], [ 3159018.554737384431064, 2009687.806421345099807 ], [ 3158877.269050394650549, 2009762.154947640607134 ], [ 3158732.593697690404952, 2009848.742812259588391 ], [ 3158632.599784034304321, 2009908.270215377910063 ], [ 3158582.90338883921504, 2009937.728280468145385 ], [ 3158506.6987642981112, 2009981.952906002756208 ], [ 3158485.613037012051791, 2009997.289188801078126 ], [ 3158453.707168617285788, 2010024.645930816186592 ], [ 3158423.355702279135585, 2010049.199038144433871 ], [ 3158396.879215413238853, 2010072.567569363163784 ], [ 3158381.903556640259922, 2010092.403904570965096 ], [ 3158361.320874761790037, 2010136.512489760993049 ], [ 3158344.564735182095319, 2010170.331134183565155 ], [ 3158335.823359933681786, 2010187.05095311626792 ], [ 3158327.897444130852818, 2010202.108976205345243 ], [ 3158320.551791067235172, 2010214.220785000361502 ], [ 3166543.858985000289977, 2010214.220785000361502 ], [ 3166543.858985000289977, 2008260.93466829508543 ], [ 3166541.060606196522713, 2008262.503186939982697 ] ] ] ] } }
]
}
