{
"type": "FeatureCollection",
"name": "Calatañazor",
"crs": { "type": "name", "properties": { "name": "urn:ogc:def:crs:EPSG::3035" } },
"features": [
{ "type": "Feature", "properties": { "ENP_GRAL": 2.0, "ENP_GRAL_NAME": "Reservas Naturales", "color": "#FFD37F" }, "geometry": { "type": "Polygon", "coordinates": [ [ [ 3254476.696657686494291, 2159275.418120440095663 ], [ 3254505.192278918810189, 2159261.335471028462052 ], [ 3254542.126249833963811, 2159190.549573428928852 ], [ 3254576.028702285140753, 2159140.049852144904435 ], [ 3254578.01507021067664, 2159137.293283106293529 ], [ 3254588.47994610061869, 2159122.781355874612927 ], [ 3254635.361848887056112, 2159127.685405357740819 ], [ 3254686.59023589361459, 2159105.387951869517565 ], [ 3254770.759071053005755, 2159121.845779182389379 ], [ 3254819.390779999084771, 2159094.112824053503573 ], [ 3254870.465096857398748, 2159056.942812251858413 ], [ 3254876.760575355496258, 2159044.679612195119262 ], [ 3254887.779714013449848, 2159023.218612456228584 ], [ 3254882.957669505849481, 2158976.224688573740423 ], [ 3254814.820980973541737, 2158887.683832184877247 ], [ 3254807.526889610104263, 2158740.869746100623161 ], [ 3254816.961104012094438, 2158717.056228592991829 ], [ 3254836.40296844439581, 2158667.945098462514579 ], [ 3254822.355366910342127, 2158654.80976739525795 ], [ 3254778.815521742217243, 2158614.122620563954115 ], [ 3254750.825412129517645, 2158606.740877573378384 ], [ 3254720.282893056049943, 2158572.662084545008838 ], [ 3254541.946521174628288, 2158607.043249372392893 ], [ 3254407.875235222280025, 2158629.991337699815631 ], [ 3254333.568941229023039, 2158646.379615294747055 ], [ 3254208.473268604837358, 2158684.792029438540339 ], [ 3254097.959472205955535, 2158709.615331585519016 ], [ 3253995.070001935586333, 2158773.036967468447983 ], [ 3253809.484150053933263, 2158864.548190948087722 ], [ 3253753.299277651123703, 2158885.694449036382139 ], [ 3253736.076307298615575, 2158915.550299706868827 ], [ 3253703.637975635007024, 2158924.334282978437841 ], [ 3253649.009638371877372, 2158939.130208116956055 ], [ 3253559.14400730561465, 2158940.397725251503289 ], [ 3253424.200343151576817, 2158989.340963548049331 ], [ 3253326.635000068694353, 2159004.991664987057447 ], [ 3253299.208800749853253, 2159009.393720014952123 ], [ 3253224.140457822941244, 2159024.199333060532808 ], [ 3253290.619924183469266, 2159046.86692783376202 ], [ 3253326.605567289981991, 2159077.457805039361119 ], [ 3253344.247791261412203, 2159092.451312426477671 ], [ 3253358.385862339287996, 2159130.757250655908138 ], [ 3253375.743126233108342, 2159177.770153524819762 ], [ 3253460.065079577732831, 2159248.817222612444311 ], [ 3253517.376265509054065, 2159284.536654239520431 ], [ 3253595.016541151329875, 2159332.934606031514704 ], [ 3253803.171715400181711, 2159284.611928386148065 ], [ 3253830.344085526186973, 2159283.22188758617267 ], [ 3253907.361709710210562, 2159380.069963767193258 ], [ 3253913.808672029525042, 2159378.434875026810914 ], [ 3253947.976825337857008, 2159356.779875509440899 ], [ 3253972.531137753278017, 2159339.562738807871938 ], [ 3253983.557685657404363, 2159331.832197073847055 ], [ 3254026.586004800163209, 2159315.316169372294098 ], [ 3254070.424435548018664, 2159296.936720996163785 ], [ 3254129.265707545448095, 2159289.728392355609685 ], [ 3254168.474955265410244, 2159287.489975235890597 ], [ 3254189.823103160597384, 2159286.271825544536114 ], [ 3254237.773277455940843, 2159290.893503619357944 ], [ 3254282.910160264000297, 2159295.701460053678602 ], [ 3254295.918899076525122, 2159294.339069889858365 ], [ 3254332.134288026019931, 2159290.568965797312558 ], [ 3254388.167686593718827, 2159280.930858594831079 ], [ 3254423.808466321788728, 2159274.802717651240528 ], [ 3254440.0077835470438, 2159274.991231524385512 ], [ 3254476.696657686494291, 2159275.418120440095663 ] ] ] } },
{ "type": "Feature", "properties": { "ENP_GRAL": 3.0, "ENP_GRAL_NAME": "Monumentos Naturales", "color": "#AAFF00" }, "geometry": { "type": "Polygon", "coordinates": [ [ [ 3253363.014834625646472, 2161751.954639871139079 ], [ 3253361.273259699810296, 2161748.426652032881975 ], [ 3253359.731835276819766, 2161745.196108307689428 ], [ 3253357.121371465735137, 2161739.582879446446896 ], [ 3253355.968213638290763, 2161737.167015052400529 ], [ 3253354.86032666452229, 2161734.989536923356354 ], [ 3253353.755437971558422, 2161733.033791259396821 ], [ 3253352.611587107181549, 2161731.283171249553561 ], [ 3253351.386714869178832, 2161729.721087261568755 ], [ 3253350.048837814480066, 2161728.334261474199593 ], [ 3253348.607227702625096, 2161727.122902633622289 ], [ 3253347.081200311426073, 2161726.090334095526487 ], [ 3253345.490300650708377, 2161725.240041979122907 ], [ 3253343.85377749055624, 2161724.575564020313323 ], [ 3253342.191159975714982, 2161724.100287734530866 ], [ 3253340.521894377656281, 2161723.817716451827437 ], [ 3253338.865213599521667, 2161723.731289323419333 ], [ 3253337.237107907421887, 2161723.839436369482428 ], [ 3253335.63841220503673, 2161724.120222438126802 ], [ 3253334.066635874100029, 2161724.546819048933685 ], [ 3253332.519173676148057, 2161725.092316327616572 ], [ 3253329.486656119115651, 2161726.432292098645121 ], [ 3253323.573402969166636, 2161729.445986657403409 ], [ 3253320.505552384536713, 2161731.234399824403226 ], [ 3253318.874061362817883, 2161732.331984327640384 ], [ 3253317.149797913618386, 2161733.620152551215142 ], [ 3253315.312002185266465, 2161735.140222972258925 ], [ 3253313.339866735972464, 2161736.933218330144882 ], [ 3253311.216603210195899, 2161739.030441169627011 ], [ 3253308.942019814625382, 2161741.422499659005553 ], [ 3253303.953372026327997, 2161747.013299915008247 ], [ 3253295.427886980120093, 2161757.124470462556928 ], [ 3253267.47802482964471, 2161791.032276920974255 ], [ 3253263.061950507108122, 2161796.345557745080441 ], [ 3253259.517208142206073, 2161800.426347945351154 ], [ 3253257.971967935562134, 2161802.077467763796449 ], [ 3253256.524919791147113, 2161803.50797261018306 ], [ 3253255.136203556787223, 2161804.74710423592478 ], [ 3253253.766041975468397, 2161805.823988635092974 ], [ 3253252.382556036580354, 2161806.763841873500496 ], [ 3253250.987106727436185, 2161807.57575078913942 ], [ 3253249.589083762373775, 2161808.265072273090482 ], [ 3253248.197928005829453, 2161808.83685025991872 ], [ 3253246.822930424008518, 2161809.296458828728646 ], [ 3253245.473531883209944, 2161809.648941929452121 ], [ 3253244.15920498361811, 2161809.899540646001697 ], [ 3253242.889323577750474, 2161810.05351329408586 ], [ 3253241.671979452483356, 2161810.118875240907073 ], [ 3253239.406198119744658, 2161810.062775671482086 ], [ 3253236.45674711605534, 2161809.840507256798446 ], [ 3253235.512970861978829, 2161809.818676593713462 ], [ 3253234.811180709861219, 2161809.855927838012576 ], [ 3253234.07982278149575, 2161809.984476506710052 ], [ 3253233.35751824406907, 2161810.255057207774371 ], [ 3253232.585314033553004, 2161810.725879502482712 ], [ 3253231.703747480642051, 2161811.455140399746597 ], [ 3253230.653668040409684, 2161812.501083886250854 ], [ 3253229.375893453136086, 2161813.921756794676185 ], [ 3253225.900475217029452, 2161818.120399981737137 ], [ 3253220.877550963312387, 2161824.435442083515227 ], [ 3253195.771203199401498, 2161856.346415336243808 ], [ 3253184.155224449932575, 2161870.966730821877718 ], [ 3253171.974300886504352, 2161886.082167304120958 ], [ 3253160.408701374195516, 2161900.078133494127542 ], [ 3253155.22553225653246, 2161906.151834576390684 ], [ 3253150.638691867701709, 2161911.340035645756871 ], [ 3253146.757421304471791, 2161915.495192519389093 ], [ 3253143.53683330770582, 2161918.685326728969812 ], [ 3253140.893860433716327, 2161921.032644747756422 ], [ 3253138.745269591920078, 2161922.659584728069603 ], [ 3253137.00776430638507, 2161923.688190578483045 ], [ 3253135.598277393728495, 2161924.240668987855315 ], [ 3253134.433544212020934, 2161924.43926111375913 ], [ 3253133.430513503961265, 2161924.406272287014872 ], [ 3253132.51541883405298, 2161924.2422218285501 ], [ 3253131.653584997169673, 2161923.961259562522173 ], [ 3253130.819704484660178, 2161923.555633498355746 ], [ 3253129.988517383113503, 2161923.017887376714498 ], [ 3253129.134846663102508, 2161922.340449157170951 ], [ 3253128.233499432913959, 2161921.515648225322366 ], [ 3253124.99961272533983, 2161918.088065403979272 ], [ 3253120.968327797017992, 2161913.445217477157712 ], [ 3253114.301248678006232, 2161905.052775777410716 ], [ 3253112.178968301042914, 2161902.00036533549428 ], [ 3253110.455480584874749, 2161899.124741890467703 ], [ 3253109.748885442502797, 2161897.735045467037708 ], [ 3253109.148863635025918, 2161896.367926240433007 ], [ 3253108.657579050399363, 2161895.016014170832932 ], [ 3253108.281739886384457, 2161893.668005596846342 ], [ 3253108.045910704415292, 2161892.295499465893954 ], [ 3253107.979299135506153, 2161890.866143932100385 ], [ 3253108.110915312543511, 2161889.347621537744999 ], [ 3253108.46983639523387, 2161887.707400479353964 ], [ 3253109.085155414417386, 2161885.913047526031733 ], [ 3253109.985866665840149, 2161883.932146689388901 ], [ 3253111.201079072896391, 2161881.732363337650895 ], [ 3253112.742680073715746, 2161879.296728088986129 ], [ 3253114.553600546438247, 2161876.670555425807834 ], [ 3253118.686597065534443, 2161871.089659322518855 ], [ 3253125.050791341811419, 2161862.809361192397773 ], [ 3253126.919153752736747, 2161860.316790581680834 ], [ 3253129.969138024374843, 2161856.002946892287582 ], [ 3253134.001858719624579, 2161849.869649021886289 ], [ 3253134.74977058544755, 2161848.796288648154587 ], [ 3253135.451942364685237, 2161847.886568342335522 ], [ 3253136.134902599267662, 2161847.124920083675534 ], [ 3253137.054841002449393, 2161846.263197880703956 ], [ 3253137.500061936676502, 2161845.895867239683867 ], [ 3253139.728947411291301, 2161844.16605681180954 ], [ 3253141.300189438741654, 2161842.778059191070497 ], [ 3253141.47792640235275, 2161842.605101302731782 ], [ 3253142.469556272961199, 2161841.587075065821409 ], [ 3253146.157652575522661, 2161837.594699488021433 ], [ 3253147.700319868512452, 2161835.995101344771683 ], [ 3253149.437438882887363, 2161834.282873964868486 ], [ 3253151.39175304537639, 2161832.471283575985581 ], [ 3253153.585974045563489, 2161830.573399228975177 ], [ 3253156.033273960463703, 2161828.597263282164931 ], [ 3253158.709329441189766, 2161826.529884891118854 ], [ 3253164.612713720649481, 2161822.04965609498322 ], [ 3253167.772482364438474, 2161819.600538989994675 ], [ 3253171.026048487517983, 2161816.98802319355309 ], [ 3253174.339549131691456, 2161814.194091114215553 ], [ 3253177.679204233456403, 2161811.200609401799738 ], [ 3253181.01340935472399, 2161807.999808432068676 ], [ 3253184.319613508880138, 2161804.624400329776108 ], [ 3253187.577180354855955, 2161801.117101044859737 ], [ 3253190.765552869066596, 2161797.521119425073266 ], [ 3253193.864193426445127, 2161793.879154188092798 ], [ 3253199.710484229028225, 2161786.629019067622721 ], [ 3253204.960074676200747, 2161779.701970162801445 ], [ 3253207.361405301839113, 2161776.417749820277095 ], [ 3253214.015059147495776, 2161767.235522547736764 ], [ 3253216.14959093183279, 2161764.380783626344055 ], [ 3253218.292303341440856, 2161761.620392978191376 ], [ 3253220.473512307275087, 2161758.949068272020668 ], [ 3253222.714249686803669, 2161756.3606111635454 ], [ 3253225.000930895097554, 2161753.844416185747832 ], [ 3253227.31103111570701, 2161751.389205981045961 ], [ 3253234.158472266048193, 2161744.27385017927736 ], [ 3253238.429993242025375, 2161739.62414526194334 ], [ 3253240.418027316220105, 2161737.297922824043781 ], [ 3253242.318665321916342, 2161734.981861265841872 ], [ 3253247.73011177778244, 2161728.275734711438417 ], [ 3253249.515501082874835, 2161726.181537862401456 ], [ 3253251.330818154849112, 2161724.188135963864625 ], [ 3253253.199583834968507, 2161722.313625819981098 ], [ 3253255.15327233960852, 2161720.559921660460532 ], [ 3253257.255088523030281, 2161718.864323377609253 ], [ 3253259.57642342383042, 2161717.14750240277499 ], [ 3253262.188518201000988, 2161715.330460335593671 ], [ 3253272.481895545497537, 2161708.486888182349503 ], [ 3253276.969761279411614, 2161705.477808157913387 ], [ 3253282.059206620790064, 2161702.003112289123237 ], [ 3253287.594557414762676, 2161698.134417184628546 ], [ 3253293.374239666387439, 2161693.973532069474459 ], [ 3253299.196959674358368, 2161689.622115837875754 ], [ 3253304.86145537905395, 2161685.182024412322789 ], [ 3253310.166251252405345, 2161680.755049419589341 ], [ 3253314.910053308587521, 2161676.442849356215447 ], [ 3253318.891599204391241, 2161672.347279777750373 ], [ 3253321.96524239750579, 2161668.542972611729056 ], [ 3253324.209490834735334, 2161664.996080237906426 ], [ 3253325.758452517446131, 2161661.645432966761291 ], [ 3253326.746200217399746, 2161658.430272727273405 ], [ 3253327.307138281874359, 2161655.289378345012665 ], [ 3253327.575240809470415, 2161652.162009030580521 ], [ 3253327.770094909705222, 2161645.703244390431792 ], [ 3253327.938999753445387, 2161642.264186077285558 ], [ 3253328.194213230162859, 2161638.680162263102829 ], [ 3253328.512392723932862, 2161634.975813684053719 ], [ 3253329.609712236560881, 2161623.386185840703547 ], [ 3253330.225492886267602, 2161615.508999888785183 ], [ 3253330.429391761310399, 2161611.592884453944862 ], [ 3253330.5389255117625, 2161607.69219777546823 ], [ 3253330.537490732036531, 2161603.795238797087222 ], [ 3253330.408649780787528, 2161599.890074865892529 ], [ 3253330.135815124027431, 2161595.96510350657627 ], [ 3253329.702434511855245, 2161592.008310704026371 ], [ 3253329.092102043796331, 2161588.007960975635797 ], [ 3253328.288313077762723, 2161583.952336072456092 ], [ 3253327.280501669738442, 2161579.837601516395807 ], [ 3253326.082232268061489, 2161575.69189940392971 ], [ 3253324.713237242307514, 2161571.551418361719698 ], [ 3253323.193067322485149, 2161567.452480025589466 ], [ 3253321.541340246796608, 2161563.431191660929471 ], [ 3253319.777772494126111, 2161559.523643314838409 ], [ 3253317.921997653320432, 2161555.766040834132582 ], [ 3253315.993467677384615, 2161552.194723063148558 ], [ 3253314.011105707846582, 2161548.84085089713335 ], [ 3253311.989607131108642, 2161545.716255153995007 ], [ 3253309.94285814743489, 2161542.82773889740929 ], [ 3253307.884942466858774, 2161540.182070801965892 ], [ 3253305.829647546634078, 2161537.78607114776969 ], [ 3253303.79089133348316, 2161535.646740179974586 ], [ 3253301.782658791169524, 2161533.770863772835582 ], [ 3253299.81883613858372, 2161532.165245000738651 ], [ 3253297.905594838317484, 2161530.837321721483022 ], [ 3253296.01809742115438, 2161529.797401070129126 ], [ 3253294.123842812143266, 2161529.056112019810826 ], [ 3253292.190180044621229, 2161528.62441369658336 ], [ 3253290.184608058072627, 2161528.512935088947415 ], [ 3253288.07467339746654, 2161528.732600918971002 ], [ 3253285.827808006666601, 2161529.294254570268095 ], [ 3253283.411313356366009, 2161530.208559455350041 ], [ 3253280.801535606849939, 2161531.47740743169561 ], [ 3253278.010280185379088, 2161533.066918538417667 ], [ 3253275.057938735932112, 2161534.934115746058524 ], [ 3253271.965116259641945, 2161537.036086177453399 ], [ 3253265.440069058910012, 2161541.772862557321787 ], [ 3253248.188185423612595, 2161554.852242737542838 ], [ 3253241.577369342558086, 2161560.050809533335268 ], [ 3253238.487847172655165, 2161562.585164424963295 ], [ 3253235.59409141773358, 2161565.05794412875548 ], [ 3253232.935261664912105, 2161567.455737839918584 ], [ 3253230.534366669133306, 2161569.768860978074372 ], [ 3253226.335033183917403, 2161574.173991488292813 ], [ 3253220.719807173591107, 2161580.397524009924382 ], [ 3253218.811435010284185, 2161582.414535045158118 ], [ 3253216.793456080835313, 2161584.421658907085657 ], [ 3253214.623394041787833, 2161586.428729060105979 ], [ 3253212.308406220283359, 2161588.440477939788252 ], [ 3253207.321142071392387, 2161592.492076696828008 ], [ 3253204.687742420937866, 2161594.538834594190121 ], [ 3253193.678910231217742, 2161602.942047500051558 ], [ 3253185.68938225787133, 2161609.320145784877241 ], [ 3253181.073274737223983, 2161613.334543701261282 ], [ 3253179.102066248655319, 2161615.207749220076948 ], [ 3253177.410288833081722, 2161616.963958052918315 ], [ 3253176.026692870538682, 2161618.590052833314985 ], [ 3253174.930290044285357, 2161620.104487292468548 ], [ 3253174.087681161705405, 2161621.533755825832486 ], [ 3253173.465336562134326, 2161622.904172870330513 ], [ 3253173.029710721224546, 2161624.241954287048429 ], [ 3253172.747404472902417, 2161625.57359450077638 ], [ 3253172.584986920468509, 2161626.925390764605254 ], [ 3253172.508829672820866, 2161628.323674739338458 ], [ 3253172.487540510483086, 2161629.789118410088122 ], [ 3253172.521909029688686, 2161634.540987242478877 ], [ 3253172.493295786902308, 2161636.216381575446576 ], [ 3253172.252042081672698, 2161639.589404972270131 ], [ 3253172.244342475198209, 2161639.655102206859738 ], [ 3253171.980379153974354, 2161641.402212893590331 ], [ 3253171.597310940735042, 2161643.15548272896558 ], [ 3253171.089439227711409, 2161644.899689052719623 ], [ 3253170.45401556044817, 2161646.61838575406 ], [ 3253169.688228017650545, 2161648.294732385315001 ], [ 3253168.789608522783965, 2161649.912132620811462 ], [ 3253167.755376880057156, 2161651.453943170141429 ], [ 3253166.582883378956467, 2161652.903700712602586 ], [ 3253165.269414834678173, 2161654.244547579437494 ], [ 3253163.820746725425124, 2161655.464430591091514 ], [ 3253162.276517489459366, 2161656.569314145483077 ], [ 3253160.684510380029678, 2161657.569722996558994 ], [ 3253159.092789027839899, 2161658.476031675003469 ], [ 3253154.799067643936723, 2161660.734766913112253 ], [ 3253153.688233312219381, 2161661.369183695409447 ], [ 3253152.804320806637406, 2161661.964669039007276 ], [ 3253152.128984898794442, 2161662.546006460208446 ], [ 3253151.630660312715918, 2161663.140992440283298 ], [ 3253151.277848787605762, 2161663.777209084481001 ], [ 3253151.039115531370044, 2161664.482632824219763 ], [ 3253150.861454493366182, 2161665.426223257556558 ], [ 3253150.777266579680145, 2161666.211336110252887 ], [ 3253149.793064763769507, 2161681.047506743576378 ], [ 3253149.615532190073282, 2161682.479468662291765 ], [ 3253149.249503655359149, 2161683.848501374479383 ], [ 3253148.593966205604374, 2161685.165314107667655 ], [ 3253147.547741123009473, 2161686.440847666934133 ], [ 3253146.009700853377581, 2161687.685729930177331 ], [ 3253143.878666701260954, 2161688.910901756025851 ], [ 3253141.053609888069332, 2161690.126973876729608 ], [ 3253137.481056300923228, 2161691.337892537470907 ], [ 3253133.298709741327912, 2161692.519967917352915 ], [ 3253128.691895657218993, 2161693.642631266731769 ], [ 3253123.845923600252718, 2161694.675215164199471 ], [ 3253118.946348190307617, 2161695.587313477881253 ], [ 3253114.178463052026927, 2161696.348160069435835 ], [ 3253109.727609374560416, 2161696.927284466568381 ], [ 3253105.779195347800851, 2161697.294001767877489 ], [ 3253102.47418500110507, 2161697.426587370224297 ], [ 3253099.776737398467958, 2161697.338887258432806 ], [ 3253097.606389404740185, 2161697.053232104051858 ], [ 3253095.882642614189535, 2161696.592364146839827 ], [ 3253094.525148530956358, 2161695.97869548201561 ], [ 3253093.453705017920583, 2161695.234916764311492 ], [ 3253092.58776609506458, 2161694.383474549744278 ], [ 3253091.847015013918281, 2161693.446978140622377 ], [ 3253091.167243431787938, 2161692.445939474273473 ], [ 3253090.549478924367577, 2161691.393050648737699 ], [ 3253090.010790457949042, 2161690.299120749346912 ], [ 3253089.568396892398596, 2161689.174628712702543 ], [ 3253089.239383061416447, 2161688.030482210684568 ], [ 3253089.040869074873626, 2161686.877177379094064 ], [ 3253088.9901372641325, 2161685.725587491877377 ], [ 3253089.104208992794156, 2161684.586225892417133 ], [ 3253089.394960235804319, 2161683.466651271563023 ], [ 3253089.852364740334451, 2161682.36070555774495 ], [ 3253090.461432497017086, 2161681.259143016301095 ], [ 3253091.206845519132912, 2161680.152572378050536 ], [ 3253092.913803565315902, 2161678.036563629284501 ], [ 3253093.045925599522889, 2161677.887364376336336 ], [ 3253094.109087168704718, 2161676.710124436765909 ], [ 3253097.705434716306627, 2161672.850899371318519 ], [ 3253100.370428316295147, 2161669.70995064638555 ], [ 3253101.770160427317023, 2161667.859291418455541 ], [ 3253103.20908341743052, 2161665.772758098784834 ], [ 3253104.682859070599079, 2161663.413303982932121 ], [ 3253106.187493032775819, 2161660.744126508012414 ], [ 3253107.721855929121375, 2161657.741808531805873 ], [ 3253109.298284961842, 2161654.436327583156526 ], [ 3253114.435783429071307, 2161643.135395540855825 ], [ 3253118.356500502675772, 2161634.88238800317049 ], [ 3253120.51220498746261, 2161630.670565182808787 ], [ 3253122.811751220375299, 2161626.456786520779133 ], [ 3253125.233746746089309, 2161622.269609672948718 ], [ 3253127.749879772774875, 2161618.134338634088635 ], [ 3253130.33167273690924, 2161614.076508981175721 ], [ 3253132.950565171428025, 2161610.12177206389606 ], [ 3253135.578130630776286, 2161606.295350460335612 ], [ 3253140.745417776051909, 2161599.129891090095043 ], [ 3253143.239949777722359, 2161595.831766484305263 ], [ 3253145.700130418874323, 2161592.703709190711379 ], [ 3253148.168498677201569, 2161589.711044629570097 ], [ 3253150.687281432561576, 2161586.819051260128617 ], [ 3253153.29890307970345, 2161583.992973152548075 ], [ 3253156.045969658531249, 2161581.1979213883169 ], [ 3253158.970641084946692, 2161578.399388861376792 ], [ 3253162.1155234281905, 2161575.562486684415489 ], [ 3253165.504796967376024, 2161572.662732230965048 ], [ 3253172.807247309945524, 2161566.751365347765386 ], [ 3253176.588397059589624, 2161563.793668595142663 ], [ 3253187.660147244110703, 2161555.23446637019515 ], [ 3253194.164813727140427, 2161550.050028481520712 ], [ 3253197.016751878894866, 2161547.640375019516796 ], [ 3253199.58813507296145, 2161545.32055039703846 ], [ 3253201.871535252779722, 2161543.06458636559546 ], [ 3253203.859326875768602, 2161540.8465491309762 ], [ 3253205.543836804106832, 2161538.640209126286209 ], [ 3253206.917439508251846, 2161536.419632555451244 ], [ 3253207.972592344507575, 2161534.158769832458347 ], [ 3253208.716113246046007, 2161531.83879854157567 ], [ 3253209.213415652513504, 2161529.46940120216459 ], [ 3253209.544372324831784, 2161527.067470310255885 ], [ 3253210.026494419202209, 2161522.233316498808563 ], [ 3253210.3372907564044, 2161519.834797214716673 ], [ 3253210.801315301097929, 2161517.471198593266308 ], [ 3253211.498128710314631, 2161515.159366191364825 ], [ 3253212.487385025247931, 2161512.915458887815475 ], [ 3253213.746844125911593, 2161510.752675772178918 ], [ 3253215.234078886918724, 2161508.683679445181042 ], [ 3253216.906302466057241, 2161506.720789799466729 ], [ 3253218.721119461581111, 2161504.876866589300334 ], [ 3253220.635940516833216, 2161503.164195263758302 ], [ 3253222.608223869465292, 2161501.595357023645192 ], [ 3253224.595344871282578, 2161500.183048849925399 ], [ 3253226.561043102759868, 2161498.934095479082316 ], [ 3253228.494033651426435, 2161497.832626052666456 ], [ 3253232.240764730609953, 2161495.987546682357788 ], [ 3253234.044364127330482, 2161495.20111089758575 ], [ 3253239.114094194956124, 2161493.130276505835354 ], [ 3253240.672421861439943, 2161492.467452239245176 ], [ 3253243.543778380844742, 2161491.109446367248893 ], [ 3253244.837520096451044, 2161490.400396291166544 ], [ 3253246.023641217965633, 2161489.662262126337737 ], [ 3253247.092596926726401, 2161488.88809242611751 ], [ 3253248.034562023356557, 2161488.071085961069912 ], [ 3253248.839991685934365, 2161487.204291285481304 ], [ 3253249.500259681604803, 2161486.283941369503736 ], [ 3253250.010832063853741, 2161485.317819154355675 ], [ 3253250.368275100365281, 2161484.316758999601007 ], [ 3253250.569368425756693, 2161483.291659432463348 ], [ 3253250.610579554922879, 2161482.253372014965862 ], [ 3253250.488490622490644, 2161481.212829686235636 ], [ 3253250.1998495250009, 2161480.180733814369887 ], [ 3253249.741123779676855, 2161479.167935975827277 ], [ 3253249.116173368878663, 2161478.175081104971468 ], [ 3253247.504852313082665, 2161476.074480629526079 ], [ 3253246.597968027926981, 2161474.863902488723397 ], [ 3253245.676585679873824, 2161473.478087453637272 ], [ 3253244.780448460951447, 2161471.865619253367186 ], [ 3253243.94928370648995, 2161469.974983042106032 ], [ 3253243.222767617553473, 2161467.754976948723197 ], [ 3253242.635430302936584, 2161465.168470873497427 ], [ 3253242.199665675871074, 2161462.235703070648015 ], [ 3253241.92299838270992, 2161458.991442098747939 ], [ 3253241.812625090591609, 2161455.470310974400491 ], [ 3253241.87582534365356, 2161451.706816909834743 ], [ 3253242.119926284998655, 2161447.735762895084918 ], [ 3253242.552207451779395, 2161443.591656148433685 ], [ 3253243.179980107117444, 2161439.309201065916568 ], [ 3253244.009624612051994, 2161434.919210351537913 ], [ 3253245.043829489499331, 2161430.437127119861543 ], [ 3253246.284565734677017, 2161425.874566964339465 ], [ 3253247.73362270090729, 2161421.243278469424695 ], [ 3253249.392955510411412, 2161416.554778646677732 ], [ 3253251.264468133915216, 2161411.820897480472922 ], [ 3253253.349902317859232, 2161407.053087800741196 ], [ 3253255.651229040697217, 2161402.262965217232704 ], [ 3253258.163637299556285, 2161397.463529706001282 ], [ 3253260.855704902671278, 2161392.672113883309066 ], [ 3253263.689113049767911, 2161387.907353360205889 ], [ 3253266.625855044461787, 2161383.18793069338426 ], [ 3253269.627777822315693, 2161378.532249883748591 ], [ 3253275.674396395217627, 2161369.487277292646468 ], [ 3253284.315717338584363, 2161356.829095497261733 ], [ 3253286.994233934208751, 2161352.864301701076329 ], [ 3253291.981728745624423, 2161345.272739916108549 ], [ 3253294.269407832529396, 2161341.63032563123852 ], [ 3253296.405320521909744, 2161338.080027923919261 ], [ 3253298.378759949468076, 2161334.613982967101038 ], [ 3253300.181667718105018, 2161331.226905875373632 ], [ 3253301.815911019220948, 2161327.922829200513661 ], [ 3253303.286171274259686, 2161324.708132865838706 ], [ 3253304.596932407002896, 2161321.589231199584901 ], [ 3253305.75259546097368, 2161318.572654346935451 ], [ 3253306.757908874191344, 2161315.664567856118083 ], [ 3253307.617305422201753, 2161312.87169902632013 ], [ 3253308.335237297229469, 2161310.200265044812113 ], [ 3253308.916645498946309, 2161307.64879688853398 ], [ 3253309.367398273199797, 2161305.183739688713104 ], [ 3253309.693524698726833, 2161302.763706835918128 ], [ 3253309.901251359842718, 2161300.347277293913066 ], [ 3253309.996804852969944, 2161297.893030046485364 ], [ 3253309.986297169700265, 2161295.3594627128914 ], [ 3253309.875856172759086, 2161292.705171473324299 ], [ 3253309.379909775685519, 2161286.867040171287954 ], [ 3253308.562550619244576, 2161280.00951792113483 ], [ 3253306.860490639694035, 2161266.925032601226121 ], [ 3253305.492970729246736, 2161255.743222298100591 ], [ 3253304.00358461169526, 2161242.35524293128401 ], [ 3253300.822532409802079, 2161212.276671653613448 ], [ 3253300.013110421597958, 2161204.802290737628937 ], [ 3253297.622814590577036, 2161184.312517522834241 ], [ 3253293.876371085643768, 2161157.287240190431476 ], [ 3253292.478439531289041, 2161148.638228381983936 ], [ 3253291.738601963035762, 2161144.583636443596333 ], [ 3253290.891241655685008, 2161140.522644866257906 ], [ 3253289.873282878659666, 2161136.309966773726046 ], [ 3253288.621977925300598, 2161131.800460865721107 ], [ 3253287.07423528842628, 2161126.848741717636585 ], [ 3253285.167093995958567, 2161121.309603890404105 ], [ 3253282.837806505151093, 2161115.037906113546342 ], [ 3253280.052718633785844, 2161107.971508477348834 ], [ 3253276.896236833184958, 2161100.38129994366318 ], [ 3253273.48223627358675, 2161092.621612054295838 ], [ 3253269.924627237021923, 2161085.046364777721465 ], [ 3253266.336988305673003, 2161078.009941219352186 ], [ 3253262.833344059530646, 2161071.866342657245696 ], [ 3253259.527537351474166, 2161066.969703353010118 ], [ 3253256.533213495276868, 2161063.674191955476999 ], [ 3253253.934398097917438, 2161062.236980360932648 ], [ 3253250.758269944693893, 2161049.881930852308869 ], [ 3253247.921091968659312, 2161039.694820072967559 ], [ 3253245.405541256070137, 2161031.401482318527997 ], [ 3253243.194180653430521, 2161024.727670572698116 ], [ 3253241.269605029374361, 2161019.399335082620382 ], [ 3253239.614559369161725, 2161015.142095963936299 ], [ 3253237.043454844970256, 2161008.744806700386107 ], [ 3253236.092761139851063, 2161006.094327867031097 ], [ 3253235.343622944783419, 2161003.646591917145997 ], [ 3253234.780196947511286, 2161001.355510167311877 ], [ 3253234.386556956917048, 2160999.175109713803977 ], [ 3253234.147057176567614, 2160997.059267450589687 ], [ 3253234.045886042527854, 2160994.962091854307801 ], [ 3253234.067085658200085, 2160992.8374128700234 ], [ 3253234.19494322873652, 2160990.639321779366583 ], [ 3253234.724449229426682, 2160985.927069563418627 ], [ 3253236.322626810986549, 2160977.577456588391215 ], [ 3253237.488481493666768, 2160973.122118384111673 ], [ 3253239.108488625846803, 2160968.013623392209411 ], [ 3253240.944534090347588, 2160963.077376566827297 ], [ 3253242.889294923748821, 2160958.323361474554986 ], [ 3253245.772217028774321, 2160951.549012137576938 ], [ 3253246.670730568468571, 2160949.386403173208237 ], [ 3253248.318732811138034, 2160945.142587411683053 ], [ 3253249.724053270183504, 2160940.89403058681637 ], [ 3253250.319189903326333, 2160938.725499600172043 ], [ 3253250.833953082561493, 2160936.504793087951839 ], [ 3253251.261635843664408, 2160934.214837234001607 ], [ 3253251.597176311071962, 2160931.841210628859699 ], [ 3253251.841144306119531, 2160929.37925338326022 ], [ 3253251.995525514706969, 2160926.826795294415206 ], [ 3253252.062305620871484, 2160924.181666143704206 ], [ 3253252.04347030678764, 2160921.441695714835078 ], [ 3253251.757192413322628, 2160915.668498575687408 ], [ 3253251.49372120667249, 2160912.630931429099292 ], [ 3253251.131710710003972, 2160909.501484238542616 ], [ 3253250.56766377389431, 2160906.335991999600083 ], [ 3253249.67726420937106, 2160903.202227547764778 ], [ 3253248.336116479709744, 2160900.167470800224692 ], [ 3253246.419706856831908, 2160897.299528990872204 ], [ 3253243.803556898608804, 2160894.665797858964652 ], [ 3253240.363417397718877, 2160892.333835939876735 ], [ 3253235.974742919206619, 2160890.371253462508321 ], [ 3253230.557145722210407, 2160888.826717499643564 ], [ 3253224.205928843934089, 2160887.673590008169413 ], [ 3253217.060604156926274, 2160886.865976746194065 ], [ 3253209.260466611012816, 2160886.358527971431613 ], [ 3253200.944846442900598, 2160886.105482365936041 ], [ 3253192.253303097561002, 2160886.061241297051311 ], [ 3253183.325182623229921, 2160886.180141858756542 ], [ 3253174.299732285551727, 2160886.416538270190358 ], [ 3253156.540580669417977, 2160887.036838499829173 ], [ 3253148.121235330589116, 2160887.2980678351596 ], [ 3253140.220412866212428, 2160887.443008456379175 ], [ 3253132.996860614046454, 2160887.409035947173834 ], [ 3253126.609507508110255, 2160887.133392795920372 ], [ 3253121.216970365028828, 2160886.55327450344339 ], [ 3253116.97817811742425, 2160885.605923516210169 ], [ 3253113.996112044900656, 2160884.250593425706029 ], [ 3253112.150183202698827, 2160882.533429030328989 ], [ 3253111.264250003732741, 2160880.522517522331327 ], [ 3253111.161957520060241, 2160878.285882004536688 ], [ 3253111.66704957652837, 2160875.891528386622667 ], [ 3253112.603301717434078, 2160873.407659776508808 ], [ 3253113.794358980841935, 2160870.90229929657653 ], [ 3253116.266863196156919, 2160866.081056728027761 ], [ 3253118.415947051718831, 2160861.538115598727018 ], [ 3253120.284023587591946, 2160856.968025164678693 ], [ 3253121.135469892993569, 2160854.57159932050854 ], [ 3253121.944244323298335, 2160852.046905292663723 ], [ 3253122.71928055677563, 2160849.353570741601288 ], [ 3253123.459567541256547, 2160846.405829815194011 ], [ 3253124.122419624123722, 2160842.937179753556848 ], [ 3253124.654941987711936, 2160838.635973113123327 ], [ 3253125.004322834312916, 2160833.190446695312858 ], [ 3253125.117553057149053, 2160826.288871764205396 ], [ 3253124.941722565330565, 2160817.619502454996109 ], [ 3253124.423905758187175, 2160806.870494410395622 ], [ 3253123.51133970823139, 2160793.730380506254733 ], [ 3253124.653863825369626, 2160791.245134232100099 ], [ 3253125.027234183158726, 2160788.285213910974562 ], [ 3253124.702866584993899, 2160784.930401819758117 ], [ 3253123.751714807003736, 2160781.260763423983008 ], [ 3253122.244997137226164, 2160777.356115444097668 ], [ 3253120.253880692180246, 2160773.296587548218668 ], [ 3253117.849469118751585, 2160769.161915094591677 ], [ 3253115.095908522140235, 2160765.018249057233334 ], [ 3253112.02892954647541, 2160760.876288815401495 ], [ 3253108.677012627013028, 2160756.732592287939042 ], [ 3253105.068867430090904, 2160752.583880148362368 ], [ 3253101.233021994121373, 2160748.427006074693054 ], [ 3253097.198284739628434, 2160744.258673533797264 ], [ 3253092.993053227197379, 2160740.075556235387921 ], [ 3253084.190587056800723, 2160731.656716825906187 ], [ 3253079.677464045584202, 2160727.4440404381603 ], [ 3253066.349639145191759, 2160715.097314763814211 ], [ 3253062.163058700971305, 2160711.166343095246702 ], [ 3253058.19721701182425, 2160707.371227214112878 ], [ 3253054.507729381322861, 2160703.738356281071901 ], [ 3253051.134385215118527, 2160700.287248987704515 ], [ 3253045.224167083855718, 2160693.898247201461345 ], [ 3253042.607244437560439, 2160690.934166773222387 ], [ 3253035.630187345668674, 2160682.807995648123324 ], [ 3253033.462558675557375, 2160680.311181102879345 ], [ 3253029.158741710241884, 2160675.581048112828285 ], [ 3253026.989516206551343, 2160673.35439804662019 ], [ 3253024.789706494659185, 2160671.226619883906096 ], [ 3253022.544734482653439, 2160669.202381906565279 ], [ 3253020.240464680828154, 2160667.286579372361302 ], [ 3253017.862350736744702, 2160665.484077760949731 ], [ 3253015.396043795160949, 2160663.799708151258528 ], [ 3253012.825447612907737, 2160662.236275104805827 ], [ 3253010.127014381811023, 2160660.788760337978601 ], [ 3253007.275563516654074, 2160659.450200424995273 ], [ 3253004.245701075531542, 2160658.213567783590406 ], [ 3253001.012313499115407, 2160657.071684630122036 ], [ 3252997.549923968501389, 2160656.017639191821218 ], [ 3252993.833450661972165, 2160655.044450870715082 ], [ 3252989.83759839925915, 2160654.145074906758964 ], [ 3252985.546439322642982, 2160653.307591331191361 ], [ 3252980.982518212869763, 2160652.500505793839693 ], [ 3252971.16356038954109, 2160650.832235085777938 ], [ 3252965.972379585262388, 2160649.898507874459028 ], [ 3252960.635705973953009, 2160648.849867698270828 ], [ 3252955.185649130959064, 2160647.649910490959883 ], [ 3252949.653955365996808, 2160646.262498196214437 ], [ 3252944.074958872050047, 2160644.664419542998075 ], [ 3252938.492580047808588, 2160642.885722906328738 ], [ 3252932.953244296833873, 2160640.969499251805246 ], [ 3252927.503325861878693, 2160638.959152494091541 ], [ 3252922.189135526772588, 2160636.897692216560245 ], [ 3252912.153882250189781, 2160632.794664873741567 ], [ 3252895.435509339906275, 2160625.625583068467677 ], [ 3252885.580055479891598, 2160621.161145583260804 ], [ 3252877.305509973783046, 2160617.097641238942742 ], [ 3252874.81098839500919, 2160615.762163298204541 ], [ 3252872.442722267471254, 2160614.401241021230817 ], [ 3252870.200511820148677, 2160612.992815607227385 ], [ 3252868.084093827754259, 2160611.514433953911066 ], [ 3252866.093596507329494, 2160609.944182823877782 ], [ 3252864.228657888248563, 2160608.259626310318708 ], [ 3252862.489176963455975, 2160606.438688429072499 ], [ 3252860.870922067202628, 2160604.473998757079244 ], [ 3252859.352950144559145, 2160602.418359535746276 ], [ 3252856.517031282186508, 2160598.304761276114732 ], [ 3252855.148984463885427, 2160596.382113605737686 ], [ 3252853.780677021481097, 2160594.638895000331104 ], [ 3252852.386999908369035, 2160593.143024811055511 ], [ 3252850.942780619952828, 2160591.962028064299375 ], [ 3252849.423339431639761, 2160591.149459431879222 ], [ 3252847.805146027356386, 2160590.702932644635439 ], [ 3252846.0648507704027, 2160590.606044122483581 ], [ 3252844.179269796703011, 2160590.842158697545528 ], [ 3252842.125168105587363, 2160591.394954198040068 ], [ 3252839.87937771808356, 2160592.247894063126296 ], [ 3252837.418647782877088, 2160593.384557534009218 ], [ 3252834.719794471748173, 2160594.788309493102133 ], [ 3252831.76209882600233, 2160596.448368851561099 ], [ 3252828.535383847542107, 2160598.375934175215662 ], [ 3252825.032170200254768, 2160600.58761213067919 ], [ 3252821.244796924293041, 2160603.100142359733582 ], [ 3252817.165504328906536, 2160605.930281753186136 ], [ 3252812.786911876406521, 2160609.094619805924594 ], [ 3252808.101390390656888, 2160612.610093386843801 ], [ 3252803.101247257553041, 2160616.493245062418282 ], [ 3252797.788109918124974, 2160620.749770922120661 ], [ 3252792.199704517610371, 2160625.341578910127282 ], [ 3252780.38496913947165, 2160635.334022609516978 ], [ 3252755.518177756108344, 2160657.175933102145791 ], [ 3252726.382178539410233, 2160683.688736320473254 ], [ 3252712.966862220317125, 2160696.398406972177327 ], [ 3252709.541351702995598, 2160699.772893906570971 ], [ 3252706.601527861319482, 2160702.767124688718468 ], [ 3252704.052559729665518, 2160705.484477105550468 ], [ 3252701.799810343421996, 2160708.02890333533287 ], [ 3252699.748496435582638, 2160710.504077028948814 ], [ 3252697.80391766410321, 2160713.01355609530583 ], [ 3252695.871223819442093, 2160715.661228644195944 ], [ 3252689.30227043107152, 2160725.383529636543244 ], [ 3252683.910184462554753, 2160733.908280202187598 ], [ 3252677.5509994472377, 2160744.434404352214187 ], [ 3252670.096124727278948, 2160757.271831253543496 ], [ 3252661.538025951012969, 2160772.458259386010468 ], [ 3252647.710792986210436, 2160797.261331284418702 ], [ 3252643.135907243005931, 2160805.407971002161503 ], [ 3252634.484991584904492, 2160820.528499043080956 ], [ 3252630.539992439560592, 2160827.213924634736031 ], [ 3252626.852357817348093, 2160833.319089819677174 ], [ 3252620.115570731926709, 2160844.132986994925886 ], [ 3252616.999861393589526, 2160849.01354574225843 ], [ 3252608.26448274590075, 2160862.582184057217091 ], [ 3252599.751955392770469, 2160875.97112369351089 ], [ 3252593.768881089054048, 2160885.039747068658471 ], [ 3252590.588203655555844, 2160889.624448626302183 ], [ 3252587.238456974271685, 2160894.246110468171537 ], [ 3252583.687565316911787, 2160898.907281365245581 ], [ 3252579.908012941479683, 2160903.612350575160235 ], [ 3252575.891326313838363, 2160908.373638835269958 ], [ 3252571.633805251680315, 2160913.205371513497084 ], [ 3252567.131800731644034, 2160918.121461037080735 ], [ 3252562.381529707461596, 2160923.13624859508127 ], [ 3252557.379359045065939, 2160928.263745217584074 ], [ 3252552.121505717746913, 2160933.5182921057567 ], [ 3252546.604352477937937, 2160938.913998886942863 ], [ 3252528.861793319229037, 2160955.735145459882915 ], [ 3252522.821108681149781, 2160961.351605026051402 ], [ 3252500.309567478951067, 2160982.145129392389208 ], [ 3252491.080483462661505, 2160990.761574254371226 ], [ 3252479.76698281802237, 2161001.509847784414887 ], [ 3252473.488051648251712, 2161007.577379601076245 ], [ 3252465.220804558135569, 2161015.635843274183571 ], [ 3252462.593978331889957, 2161018.162579354830086 ], [ 3252457.234240320045501, 2161023.152345285285264 ], [ 3252451.398569859564304, 2161028.252408456988633 ], [ 3252448.17679550871253, 2161030.916971170343459 ], [ 3252444.697359072044492, 2161033.689977323636413 ], [ 3252440.968758491799235, 2161036.566196363419294 ], [ 3252432.845649347640574, 2161042.580105807166547 ], [ 3252419.301081977318972, 2161052.073017172049731 ], [ 3252414.50496079493314, 2161055.314744856208563 ], [ 3252399.67471046699211, 2161065.159904353320599 ], [ 3252389.872455550357699, 2161071.822659821249545 ], [ 3252385.135775216855109, 2161075.185178300831467 ], [ 3252380.570553272031248, 2161078.569102118723094 ], [ 3252376.223069115541875, 2161081.974981371313334 ], [ 3252372.129708073101938, 2161085.399921521544456 ], [ 3252368.285205438733101, 2161088.827610799111426 ], [ 3252364.674730409868062, 2161092.238438345957547 ], [ 3252361.282958436757326, 2161095.612879352644086 ], [ 3252358.094663714058697, 2161098.931391797494143 ], [ 3252347.074091202579439, 2161111.266763959079981 ], [ 3252342.379765764810145, 2161116.925439240410924 ], [ 3252340.17566778883338, 2161119.791517540812492 ], [ 3252338.043076930567622, 2161122.761279973667115 ], [ 3252335.964298800565302, 2161125.894463191740215 ], [ 3252333.921393937431276, 2161129.250542535446584 ], [ 3252331.896422901190817, 2161132.888993350788951 ], [ 3252329.87423330405727, 2161136.848130433820188 ], [ 3252327.849852806888521, 2161141.08128825109452 ], [ 3252325.820949729066342, 2161145.520362156443298 ], [ 3252319.683070090599358, 2161159.39388179499656 ], [ 3252317.612191529944539, 2161163.977091217413545 ], [ 3252315.524847668595612, 2161168.426452253013849 ], [ 3252313.410825210623443, 2161172.697428733110428 ], [ 3252311.228235117159784, 2161176.840088785625994 ], [ 3252308.927042406983674, 2161180.928317874670029 ], [ 3252306.457543671131134, 2161185.035538362339139 ], [ 3252303.769771018531173, 2161189.235421390272677 ], [ 3252300.813985830172896, 2161193.601800900883973 ], [ 3252297.540105685591698, 2161198.20826674811542 ], [ 3252293.898459075018764, 2161203.128438578918576 ], [ 3252289.864286730065942, 2161208.407170151360333 ], [ 3252285.512892552651465, 2161213.973672585561872 ], [ 3252276.260831565596163, 2161225.57180811651051 ], [ 3252262.518128998577595, 2161242.637583675794303 ], [ 3252254.587822774425149, 2161252.665586050599813 ], [ 3252247.810547303408384, 2161261.500065869186074 ], [ 3252244.640216385014355, 2161265.713510544970632 ], [ 3252231.302080383524299, 2161283.601786294020712 ], [ 3252223.158063414506614, 2161294.346175661310554 ], [ 3252214.054896953515708, 2161306.01710960175842 ], [ 3252209.265339270234108, 2161311.975784776266664 ], [ 3252204.381924225948751, 2161317.896899701096117 ], [ 3252199.453348662704229, 2161323.690687451511621 ], [ 3252194.528309358283877, 2161329.267381074372679 ], [ 3252189.647970735095441, 2161334.562950974795967 ], [ 3252184.824161574244499, 2161339.615570900030434 ], [ 3252170.736577937379479, 2161353.953431447036564 ], [ 3252166.183470977470279, 2161358.672067947220057 ], [ 3252161.709004182368517, 2161363.466795776505023 ], [ 3252157.317837490700185, 2161368.40126018691808 ], [ 3252153.007062727585435, 2161373.53434442775324 ], [ 3252148.744719414040446, 2161378.905265525914729 ], [ 3252144.491938462480903, 2161384.548160904087126 ], [ 3252140.209538704715669, 2161390.497121037915349 ], [ 3252135.858568237628788, 2161396.786399183329195 ], [ 3252131.399731351528317, 2161403.45000450918451 ], [ 3252126.794107954949141, 2161410.522387491539121 ], [ 3252116.996256060898304, 2161426.014847707934678 ], [ 3252095.16650908626616, 2161461.624742660671473 ], [ 3252071.529665731359273, 2161500.585773114115 ], [ 3252059.783701640088111, 2161520.186189341824502 ], [ 3252054.220650793984532, 2161529.781990216113627 ], [ 3252048.991152222733945, 2161539.148590962402523 ], [ 3252044.190131090581417, 2161548.216646677814424 ], [ 3252039.912745258305222, 2161556.916366439778358 ], [ 3252036.254085505381227, 2161565.178173646796495 ], [ 3252033.280487, 2161572.949360521510243 ], [ 3252030.943317383527756, 2161580.243773126043379 ], [ 3252029.165255814790726, 2161587.09191205445677 ], [ 3252027.868981515057385, 2161593.524277979508042 ], [ 3252026.977023868821561, 2161599.571701805107296 ], [ 3252026.411931715905666, 2161605.264504336751997 ], [ 3252026.0965307764709, 2161610.633464925456792 ], [ 3252025.953385835513473, 2161615.709003025665879 ], [ 3252025.858345152810216, 2161625.089239738881588 ], [ 3252025.730029752943665, 2161629.436945501714945 ], [ 3252025.428803165443242, 2161633.583912601228803 ], [ 3252024.865514884702861, 2161637.550845768302679 ], [ 3252023.950816930271685, 2161641.358484184835106 ], [ 3252022.595428353175521, 2161645.027352669741958 ], [ 3252020.710214574821293, 2161648.578254616353661 ], [ 3252018.245842621661723, 2161652.057894209399819 ], [ 3252015.313762323465198, 2161655.616912106983364 ], [ 3252012.065091108903289, 2161659.43227846454829 ], [ 3252008.651293849106878, 2161663.680598860606551 ], [ 3252005.223555092699826, 2161668.538629053626209 ], [ 3252001.933288695290685, 2161674.183287551160902 ], [ 3251998.931663506198674, 2161680.791231514886022 ], [ 3251996.370093581732363, 2161688.539379418827593 ], [ 3251994.36446319334209, 2161697.551045898348093 ], [ 3251992.888870211783797, 2161707.737200471106917 ], [ 3251991.882261685561389, 2161718.955041363835335 ], [ 3251991.283450580202043, 2161731.0621955730021 ], [ 3251991.031004682183266, 2161743.91602873429656 ], [ 3251991.063835524953902, 2161757.374150591902435 ], [ 3251991.32080693077296, 2161771.293875138275325 ], [ 3251991.740502216853201, 2161785.532666525337845 ], [ 3251992.267549146898091, 2161799.954638008028269 ], [ 3251992.868718787096441, 2161814.449840345885605 ], [ 3251993.516546297818422, 2161828.915123610757291 ], [ 3251995.465123295783997, 2161871.098068922758102 ], [ 3251996.024662000127137, 2161884.410500094760209 ], [ 3251996.493421736173332, 2161897.176572058815509 ], [ 3251996.845950558315963, 2161909.303121399134398 ], [ 3251997.06485920958221, 2161920.738247384317219 ], [ 3251997.134985263459384, 2161931.440100117586553 ], [ 3251997.040854183956981, 2161941.36678275372833 ], [ 3251996.767252397723496, 2161950.476758351549506 ], [ 3251996.298871133476496, 2161958.727898459881544 ], [ 3251995.620398096274585, 2161966.078683386091143 ], [ 3251994.716572145931423, 2161972.487280428875238 ], [ 3251993.579438691493124, 2161977.944636784493923 ], [ 3251992.230032955296338, 2161982.573873748537153 ], [ 3251990.697044152766466, 2161986.530527900438756 ], [ 3251989.008798324037343, 2161989.970401858445257 ], [ 3251987.193949551321566, 2161993.049443781375885 ], [ 3251985.280875134281814, 2161995.92314336868003 ], [ 3251981.274255242664367, 2162001.678278546780348 ], [ 3251979.237140809185803, 2162004.841561568900943 ], [ 3251977.213161456398666, 2162008.245387419126928 ], [ 3251975.227778731845319, 2162011.868190966546535 ], [ 3251973.30676628742367, 2162015.688454037997872 ], [ 3251971.475767279975116, 2162019.684478485025465 ], [ 3251969.760456594638526, 2162023.834763308055699 ], [ 3251968.186493235640228, 2162028.117708931677043 ], [ 3251966.77955206669867, 2162032.511814344208688 ], [ 3251965.556917387526482, 2162037.019134807866067 ], [ 3251964.501782290637493, 2162041.736448259558529 ], [ 3251963.588981105480343, 2162046.784286119043827 ], [ 3251962.793415227904916, 2162052.282965437043458 ], [ 3251962.089836232829839, 2162058.353133470751345 ], [ 3251961.453161533921957, 2162065.115205906331539 ], [ 3251960.858111144509166, 2162072.689632896333933 ], [ 3251960.279602690134197, 2162081.196830216795206 ], [ 3251958.590543856378645, 2162112.026178609579802 ], [ 3251957.675386209972203, 2162135.024839559569955 ], [ 3251957.338325299322605, 2162146.623267514165491 ], [ 3251957.107089973054826, 2162158.005623860284686 ], [ 3251957.000649145804346, 2162168.960533388890326 ], [ 3251957.036762831732631, 2162179.31767507083714 ], [ 3251957.227966340258718, 2162189.072938486002386 ], [ 3251957.585321791470051, 2162198.263516305480152 ], [ 3251958.120088851079345, 2162206.926566786598414 ], [ 3251958.843215115368366, 2162215.099201251752675 ], [ 3251959.766090817283839, 2162222.818757943343371 ], [ 3251960.899663633201271, 2162230.122348214499652 ], [ 3251962.255094634369016, 2162237.047147596254945 ], [ 3251963.839111896697432, 2162243.629279908258468 ], [ 3251965.640485704876482, 2162249.899890644941479 ], [ 3251967.643454592209309, 2162255.889090800657868 ], [ 3251969.832174236886203, 2162261.627107163425535 ], [ 3251972.191163589246571, 2162267.143900544382632 ], [ 3251974.704479613341391, 2162272.469714946579188 ], [ 3251977.356443800032139, 2162277.634545597247779 ], [ 3251980.131492271553725, 2162282.668469119351357 ], [ 3251983.023018789477646, 2162287.610541319940239 ], [ 3251986.062732218299061, 2162292.535403269808739 ], [ 3251989.291464829351753, 2162297.526443645358086 ], [ 3251992.74988317117095, 2162302.667282758280635 ], [ 3252000.519876951351762, 2162313.732284457888454 ], [ 3252009.699696984607726, 2162326.398272474296391 ], [ 3252025.989183499477804, 2162348.67576543148607 ], [ 3252031.60823578434065, 2162356.396924149710685 ], [ 3252042.257198925130069, 2162371.203282909933478 ], [ 3252046.99592041131109, 2162377.928765717428178 ], [ 3252051.150244521908462, 2162383.962631952948868 ], [ 3252054.613854095339775, 2162389.176048214547336 ], [ 3252057.438052227720618, 2162393.644294703844935 ], [ 3252059.713470870628953, 2162397.493363946676254 ], [ 3252061.530560395680368, 2162400.849381500389427 ], [ 3252062.980099191889167, 2162403.83861848525703 ], [ 3252064.152537696063519, 2162406.587200494483113 ], [ 3252065.138508000411093, 2162409.221120115369558 ], [ 3252066.028689817525446, 2162411.86666570045054 ], [ 3252067.866673466749489, 2162417.889083952177316 ], [ 3252071.946297527290881, 2162432.683815896511078 ], [ 3252083.090618994552642, 2162474.369916375726461 ], [ 3252087.200224545318633, 2162489.581649645231664 ], [ 3252091.691787943709642, 2162505.930137834046036 ], [ 3252096.447809090837836, 2162522.83424984337762 ], [ 3252101.350688487291336, 2162539.712871627882123 ], [ 3252106.282482109032571, 2162555.984644872136414 ], [ 3252111.125901253893971, 2162571.068502185866237 ], [ 3252115.763016586191952, 2162584.383183563593775 ], [ 3252120.098969494923949, 2162595.52228959929198 ], [ 3252124.129810450598598, 2162604.777887152973562 ], [ 3252127.873954378068447, 2162612.616925711277872 ], [ 3252134.576997647061944, 2162625.912917702458799 ], [ 3252137.573107523843646, 2162632.303603027947247 ], [ 3252140.357055979780853, 2162639.145274485461414 ], [ 3252142.947654264979064, 2162646.904813012108207 ], [ 3252145.363144111819565, 2162655.92068806104362 ], [ 3252147.621842275373638, 2162666.017211311496794 ], [ 3252149.741495592519641, 2162676.890282866545022 ], [ 3252151.739981188904494, 2162688.235982766840607 ], [ 3252153.635325834620744, 2162699.750060788821429 ], [ 3252157.188149625901133, 2162722.067357769235969 ], [ 3252158.881531115155667, 2162732.262406117748469 ], [ 3252160.540971211157739, 2162741.481599403079599 ], [ 3252162.172164445277303, 2162749.780497919302434 ], [ 3252163.778824500273913, 2162757.286863914690912 ], [ 3252165.364056811667979, 2162764.128464316017926 ], [ 3252166.931413039099425, 2162770.432684282772243 ], [ 3252170.026152336038649, 2162781.940140130929649 ], [ 3252173.103754609823227, 2162792.828399648889899 ], [ 3252174.728636010549963, 2162798.345955441705883 ], [ 3252176.520421686582267, 2162804.066007578745484 ], [ 3252178.564830242656171, 2162810.102939333301038 ], [ 3252180.947497443296015, 2162816.571249750442803 ], [ 3252183.75386161589995, 2162823.585472337435931 ], [ 3252187.069756126496941, 2162831.260071752592921 ], [ 3252190.980635296553373, 2162839.709680116269737 ], [ 3252195.537683373317122, 2162849.001896272413433 ], [ 3252200.653843727894127, 2162859.017806869465858 ], [ 3252206.207378656137735, 2162869.591435481328517 ], [ 3252212.076680861413479, 2162880.556985639967024 ], [ 3252218.140028323978186, 2162891.748579428531229 ], [ 3252236.278578785248101, 2162925.021703804843128 ], [ 3252252.586186136119068, 2162955.564823920372874 ], [ 3252267.784267788752913, 2162984.926405451260507 ], [ 3252278.051770183257759, 2163005.204272663220763 ], [ 3252294.438061936758459, 2163037.79301811940968 ], [ 3252300.122014987282455, 2163048.931961398106068 ], [ 3252305.882832343690097, 2163060.036936104297638 ], [ 3252311.699967998545617, 2163071.004903172608465 ], [ 3252317.553156244568527, 2163081.732673314400017 ], [ 3252323.42172044608742, 2163092.117027459666133 ], [ 3252329.287609416991472, 2163102.081146621610969 ], [ 3252335.141917979810387, 2163111.652325471397489 ], [ 3252340.978070260025561, 2163120.884310365654528 ], [ 3252346.789474554359913, 2163129.830749103799462 ], [ 3252352.569653814658523, 2163138.545370854903013 ], [ 3252358.311885919421911, 2163147.081643461249769 ], [ 3252369.656288646161556, 2163163.834010959137231 ], [ 3252375.242659411858767, 2163172.137992971111089 ], [ 3252391.433321113698184, 2163196.309833803679794 ], [ 3252396.566586132626981, 2163203.908539277967066 ], [ 3252406.303727548569441, 2163218.036540986970067 ], [ 3252410.863291250541806, 2163224.438764669001102 ], [ 3252415.215345012024045, 2163230.291655517648906 ], [ 3252419.479274170473218, 2163235.415491563268006 ], [ 3252423.802827386185527, 2163239.607466316316277 ], [ 3252428.3336898451671, 2163242.664378981105983 ], [ 3252433.21941277012229, 2163244.383457612246275 ], [ 3252438.607697387225926, 2163244.561600184999406 ], [ 3252444.646261000540107, 2163242.995803461410105 ], [ 3252451.482754196971655, 2163239.483278773725033 ], [ 3252459.210631523281336, 2163233.910242159385234 ], [ 3252467.706420998089015, 2163226.520573549903929 ], [ 3252476.792533538304269, 2163217.647650110535324 ], [ 3252486.291348128579557, 2163207.624651629943401 ], [ 3252496.025259322486818, 2163196.784856198821217 ], [ 3252505.816645408514887, 2163185.461443009786308 ], [ 3252515.487801352515817, 2163173.987706697545946 ], [ 3252524.861203271429986, 2163162.696808515116572 ], [ 3252542.229212626814842, 2163141.543427868746221 ], [ 3252550.178439169190824, 2163131.723818285856396 ], [ 3252557.626378259621561, 2163122.399907941464335 ], [ 3252564.564207434654236, 2163113.564821776933968 ], [ 3252570.983416367322206, 2163105.211731701157987 ], [ 3252576.875380149576813, 2163097.333728298544884 ], [ 3252582.231406890787184, 2163089.924116526730359 ], [ 3252587.054829043801874, 2163082.963869648985565 ], [ 3252591.397250913083553, 2163076.385718427132815 ], [ 3252595.321973218582571, 2163070.109916408546269 ], [ 3252598.892688215710223, 2163064.057257095351815 ], [ 3252602.172598022036254, 2163058.148011366371065 ], [ 3252605.225462037138641, 2163052.302758455276489 ], [ 3252608.11461299052462, 2163046.441949313972145 ], [ 3252610.903514155186713, 2163040.48621489526704 ], [ 3252613.644285129383206, 2163034.375899137929082 ], [ 3252616.342762497253716, 2163028.130862895399332 ], [ 3252621.591701738536358, 2163015.396693997085094 ], [ 3252626.606868517585099, 2163002.602728636004031 ], [ 3252633.59572072327137, 2162983.992772674188018 ], [ 3252641.618092250544578, 2162961.306042542215437 ], [ 3252644.914838873315603, 2162951.050152391195297 ], [ 3252646.353112259879708, 2162946.223595905583352 ], [ 3252648.857848107814789, 2162937.025472190696746 ], [ 3252652.5423041600734, 2162922.474242945201695 ], [ 3252655.66158383525908, 2162910.707157546188682 ], [ 3252657.603127237409353, 2162903.801594423130155 ], [ 3252659.85921498760581, 2162896.08778874296695 ], [ 3252665.110686656087637, 2162878.786115788854659 ], [ 3252667.971621278207749, 2162869.551164649892598 ], [ 3252676.689734609797597, 2162841.627947164699435 ], [ 3252684.356993807014078, 2162816.779456583783031 ], [ 3252688.894373155198991, 2162802.521704915910959 ], [ 3252691.137893254868686, 2162795.939332114998251 ], [ 3252693.431747267022729, 2162789.653249062597752 ], [ 3252695.826132937334478, 2162783.6120401667431 ], [ 3252698.371540759690106, 2162777.764846943318844 ], [ 3252701.102656298317015, 2162772.067315084394068 ], [ 3252703.992447613738477, 2162766.502871989272535 ], [ 3252706.998042530845851, 2162761.061860756482929 ], [ 3252710.076880977023393, 2162755.734671401325613 ], [ 3252713.186074900906533, 2162750.511548409238458 ], [ 3252719.325304739177227, 2162740.33916007867083 ], [ 3252722.269793762825429, 2162735.370546361431479 ], [ 3252725.083355703391135, 2162730.470862682908773 ], [ 3252730.344821507576853, 2162720.913084730971605 ], [ 3252732.820314317941666, 2162716.277546847239137 ], [ 3252739.791729299351573, 2162703.079409981146455 ], [ 3252742.009932077024132, 2162698.953799618408084 ], [ 3252751.125456279609352, 2162683.102089883759618 ], [ 3252756.536314418073744, 2162674.425665403716266 ], [ 3252763.066025665029883, 2162664.3505511241965 ], [ 3252779.590395899489522, 2162639.766254846937954 ], [ 3252788.288991130888462, 2162627.288557174149901 ], [ 3252792.421734724193811, 2162621.515037009026855 ], [ 3252796.286034437827766, 2162616.2464943327941 ], [ 3252799.822780872695148, 2162611.582416178192943 ], [ 3252803.108536378480494, 2162607.435881434008479 ], [ 3252806.253694059327245, 2162603.672824831679463 ], [ 3252809.368710575159639, 2162600.159575487487018 ], [ 3252812.564109670929611, 2162596.762248229235411 ], [ 3252815.950446893461049, 2162593.347155095543712 ], [ 3252819.638016887940466, 2162589.780248284339905 ], [ 3252823.737489956431091, 2162585.927921337075531 ], [ 3252833.388692064676434, 2162577.090191294439137 ], [ 3252863.601959891151637, 2162550.819263239856809 ], [ 3252870.222312995232642, 2162545.330836188048124 ], [ 3252890.120633646380156, 2162529.194130659103394 ], [ 3252896.521893040742725, 2162523.923782696947455 ], [ 3252902.684061506297439, 2162518.701889846939594 ], [ 3252908.533106436952949, 2162513.525136875919998 ], [ 3252913.99524384457618, 2162508.389861120842397 ], [ 3252918.996326477732509, 2162503.292665909975767 ], [ 3252923.485026559326798, 2162498.233171138912439 ], [ 3252927.500287394504994, 2162493.223745358642191 ], [ 3252931.103460934944451, 2162488.279744047671556 ], [ 3252934.356211246922612, 2162483.416569638531655 ], [ 3252937.319807418622077, 2162478.649693447165191 ], [ 3252940.055913536809385, 2162473.994517965707928 ], [ 3252945.091225768439472, 2162465.081068567000329 ], [ 3252947.512642121873796, 2162460.853591864928603 ], [ 3252949.94842145126313, 2162456.79985771374777 ], [ 3252952.455787747167051, 2162452.93543433630839 ], [ 3252955.092162498738617, 2162449.275855545885861 ], [ 3252957.914916057139635, 2162445.836968133691698 ], [ 3252960.981355307623744, 2162442.634224576875567 ], [ 3252964.348949360661209, 2162439.683454486075789 ], [ 3252968.075135597027838, 2162437.000290333293378 ], [ 3252972.194161928724498, 2162434.581804793328047 ], [ 3252976.648569314740598, 2162432.351053483784199 ], [ 3252981.357938488014042, 2162430.212694971822202 ], [ 3252991.219245100393891, 2162425.831597964279354 ], [ 3252996.210197724401951, 2162423.39789797225967 ], [ 3253001.134107229299843, 2162420.675079288892448 ], [ 3253005.910293463617563, 2162417.567440486047417 ], [ 3253010.474028582684696, 2162414.015316796023399 ], [ 3253014.823424101807177, 2162410.100318655371666 ], [ 3253018.972117061726749, 2162405.939964849036187 ], [ 3253022.933977230452001, 2162401.651328194886446 ], [ 3253026.72254280699417, 2162397.351944630034268 ], [ 3253033.83513480052352, 2162389.189656608738005 ], [ 3253037.186584777198732, 2162385.561459391377866 ], [ 3253040.435603118501604, 2162382.346369978506118 ], [ 3253043.675420799758285, 2162379.435510247480124 ], [ 3253047.014755669049919, 2162376.674939926248044 ], [ 3253050.562688897363842, 2162373.91045279474929 ], [ 3253058.719814910087734, 2162367.753864380065352 ], [ 3253063.54698876850307, 2162364.053484036121517 ], [ 3253069.018277038820088, 2162359.733010613359511 ], [ 3253075.192839398514479, 2162354.695787194184959 ], [ 3253089.039647897705436, 2162343.060885232873261 ], [ 3253110.69623065367341, 2162324.565070156008005 ], [ 3253123.502362104598433, 2162313.761268695350736 ], [ 3253128.90618247166276, 2162309.333784287795424 ], [ 3253133.718828314915299, 2162305.515344195067883 ], [ 3253138.119999556336552, 2162302.165382168721408 ], [ 3253142.289348628371954, 2162299.143036318011582 ], [ 3253146.406461042352021, 2162296.307659242767841 ], [ 3253150.651005276478827, 2162293.518487856723368 ], [ 3253160.241079371888191, 2162287.515808871015906 ], [ 3253201.825404539704323, 2162263.013780617155135 ], [ 3253210.051824942231178, 2162258.443016297649592 ], [ 3253218.466215228196234, 2162253.878925247117877 ], [ 3253227.010804933961481, 2162249.363093140535057 ], [ 3253244.442294411361217, 2162240.425331491976976 ], [ 3253271.383135379757732, 2162226.915135253220797 ], [ 3253289.824516909196973, 2162217.57673957105726 ], [ 3253326.950287009589374, 2162198.024252801667899 ], [ 3253374.724089466966689, 2162171.528595869895071 ], [ 3253405.313571964390576, 2162153.699374573770911 ], [ 3253408.510838721878827, 2162151.770938532426953 ], [ 3253409.484483571257442, 2162151.141372224316001 ], [ 3253410.151171997189522, 2162150.663395377341658 ], [ 3253410.691733586601913, 2162150.205976295284927 ], [ 3253412.541397553868592, 2162148.141619964968413 ], [ 3253414.206251692958176, 2162145.926228707656264 ], [ 3253414.293494301848114, 2162145.798430003225803 ], [ 3253415.035325068980455, 2162144.605324392672628 ], [ 3253415.736383599229157, 2162143.287570976186544 ], [ 3253416.363252294249833, 2162141.849472290836275 ], [ 3253416.882268459070474, 2162140.295069535262883 ], [ 3253417.271363685838878, 2162138.622228437568992 ], [ 3253417.554767396301031, 2162136.803619919344783 ], [ 3253417.768089947290719, 2162134.80567527981475 ], [ 3253418.345416542608291, 2162127.400239447597414 ], [ 3253418.636145800352097, 2162124.349283795803785 ], [ 3253419.035537087358534, 2162120.951028116047382 ], [ 3253419.573173281271011, 2162117.184913045726717 ], [ 3253420.253966240212321, 2162113.082716750912368 ], [ 3253421.076274775899947, 2162108.689115569461137 ], [ 3253422.038967301137745, 2162104.048798384144902 ], [ 3253423.140600102953613, 2162099.20640709483996 ], [ 3253424.37974532134831, 2162094.206682196352631 ], [ 3253425.755156713537872, 2162089.094231195747852 ], [ 3253427.265224752016366, 2162083.913927556015551 ], [ 3253428.901817414909601, 2162078.704180158674717 ], [ 3253430.628370963502675, 2162073.478758326731622 ], [ 3253434.178253992926329, 2162063.01105372607708 ], [ 3253435.914881957229227, 2162057.783877914305776 ], [ 3253437.56806777883321, 2162052.571241597644985 ], [ 3253439.094559424556792, 2162047.380681009031832 ], [ 3253440.451006097719073, 2162042.219749592244625 ], [ 3253441.598701922222972, 2162037.08890787884593 ], [ 3253442.518820330034941, 2162031.960119762457907 ], [ 3253443.196966329589486, 2162026.798192080110312 ], [ 3253443.619072921574116, 2162021.568077208474278 ], [ 3253443.770646393299103, 2162016.234599212184548 ], [ 3253443.637702655047178, 2162010.762594691012055 ], [ 3253443.205945521593094, 2162005.11685330234468 ], [ 3253442.461126418784261, 2161999.262460441794246 ], [ 3253441.400752585381269, 2161993.181405201554298 ], [ 3253440.068684282246977, 2161986.925435052253306 ], [ 3253438.520668024662882, 2161980.56338110473007 ], [ 3253436.81238328712061, 2161974.16428882908076 ], [ 3253434.999608270823956, 2161967.797186503652483 ], [ 3253433.13777729915455, 2161961.530858241487294 ], [ 3253426.217768173664808, 2161938.68905468005687 ], [ 3253421.892093781381845, 2161923.715952065773308 ], [ 3253417.850512899458408, 2161909.070464731194079 ], [ 3253410.794619873166084, 2161882.939498379360884 ], [ 3253406.209867534693331, 2161866.74074692837894 ], [ 3253399.642958410084248, 2161845.368490493390709 ], [ 3253391.051985845901072, 2161818.933204794302583 ], [ 3253383.893545124679804, 2161798.032117352820933 ], [ 3253381.983823623508215, 2161792.913184635341167 ], [ 3253380.002160180360079, 2161787.858170379884541 ], [ 3253377.936457693576813, 2161782.877695539034903 ], [ 3253375.783268271014094, 2161777.985029302537441 ], [ 3253371.343524280004203, 2161768.565083687659353 ], [ 3253369.134418171364814, 2161764.092617879156023 ], [ 3253363.014834625646472, 2161751.954639871139079 ] ] ] } }
]
}
