{
"type": "FeatureCollection",
"name": "Carrocera",
"crs": { "type": "name", "properties": { "name": "urn:ogc:def:crs:EPSG::3035" } },
"features": [
{ "type": "Feature", "properties": { "ENP_GRAL": 1.0, "ENP_GRAL_NAME": "Otros Parques", "color": "#38A800" }, "geometry": { "type": "Polygon", "coordinates": [ [ [ 3036098.905167303979397, 2332807.051261913962662 ], [ 3036276.511272725183517, 2332317.809906613081694 ], [ 3036209.201113227754831, 2332007.784151948988438 ], [ 3036154.156352242454886, 2331987.200566397979856 ], [ 3036180.145610982552171, 2331911.391528648789972 ], [ 3036103.226087616756558, 2331819.544697044417262 ], [ 3036741.6162831466645, 2331422.203694185242057 ], [ 3037043.193085592240095, 2331291.742355390451849 ], [ 3037206.479002358391881, 2330998.163333698641509 ], [ 3036958.81749093066901, 2330871.991890023462474 ], [ 3036910.898236603476107, 2330796.283960378728807 ], [ 3036910.889289758168161, 2330796.269615938887 ], [ 3036852.853743247687817, 2330708.695254243444651 ], [ 3036745.590408732183278, 2330542.187488310039043 ], [ 3036755.503629386425018, 2330466.725003743544221 ], [ 3036710.601202450692654, 2330426.749690669588745 ], [ 3036643.577449162490666, 2330310.667330481577665 ], [ 3036496.909005893394351, 2330253.759648868348449 ], [ 3036376.585214614868164, 2330201.723426385316998 ], [ 3036276.84470746666193, 2330216.462138425093144 ], [ 3036234.018320912495255, 2330169.7067452929914 ], [ 3036152.516571834683418, 2330062.63634685985744 ], [ 3035988.267962830141187, 2330015.29941507615149 ], [ 3035682.774751817807555, 2330118.307700527831912 ], [ 3035605.718615071848035, 2330173.815095647703856 ], [ 3035596.014237970113754, 2330185.20841018576175 ], [ 3035533.604419461451471, 2330149.415954771917313 ], [ 3035444.726984134875238, 2330098.444315374828875 ], [ 3035427.648779835551977, 2330088.649896251969039 ], [ 3035365.79961715452373, 2330041.071884296368808 ], [ 3035288.203517246525735, 2330020.526296437717974 ], [ 3035172.853398447856307, 2329989.984368846286088 ], [ 3035086.946674490347505, 2329960.282076771371067 ], [ 3035074.362001851666719, 2329923.389308955520391 ], [ 3035038.923662563785911, 2329819.499254655092955 ], [ 3035034.699106622487307, 2329807.114712704904377 ], [ 3035023.925425785593688, 2329687.127920034341514 ], [ 3035047.363245535641909, 2329583.564916065428406 ], [ 3035107.972466972656548, 2329459.767572616226971 ], [ 3035024.337143414653838, 2329361.920626460574567 ], [ 3034962.530443449970335, 2329286.376252877991647 ], [ 3034934.162617385853082, 2329251.703065910376608 ], [ 3034827.984075582586229, 2329126.302069598808885 ], [ 3034801.930319814477116, 2328995.517581290565431 ], [ 3034757.635198555421084, 2328890.593595823273063 ], [ 3034732.280298645142466, 2328804.938968625850976 ], [ 3034730.977236920967698, 2328800.537086999043822 ], [ 3034727.176158436574042, 2328787.696202223189175 ], [ 3034734.016353229992092, 2328772.369627777952701 ], [ 3034763.88416213914752, 2328705.4463801975362 ], [ 3034764.012202890589833, 2328705.153351245447993 ], [ 3034764.802463114261627, 2328700.957013527397066 ], [ 3034768.993982620537281, 2328692.579090999439359 ], [ 3034776.630250021349639, 2328673.305129543412477 ], [ 3034788.229612515307963, 2328644.028262838721275 ], [ 3034791.489547787234187, 2328630.647138634230942 ], [ 3034804.920156329870224, 2328601.901001763530076 ], [ 3034806.121412166394293, 2328598.868911737576127 ], [ 3034814.119802275206894, 2328578.681029450148344 ], [ 3034799.246115409303457, 2328563.888342544436455 ], [ 3034789.81897568050772, 2328556.059457774739712 ], [ 3034779.328119908925146, 2328549.935614458285272 ], [ 3034778.108407027553767, 2328549.223545154090971 ], [ 3034765.291439947206527, 2328541.74185743322596 ], [ 3034746.072269199416041, 2328532.648876152001321 ], [ 3034718.724962685257196, 2328514.559272027108818 ], [ 3034714.127766656689346, 2328511.875751823186874 ], [ 3034653.20513672195375, 2328485.042972485069185 ], [ 3034609.305381837300956, 2328465.707888125441968 ], [ 3034592.722585575655103, 2328456.83822827367112 ], [ 3034571.885757985990494, 2328445.69339778739959 ], [ 3034482.95178981218487, 2328398.125999252777547 ], [ 3034489.688577722758055, 2328286.845983064267784 ], [ 3034490.690664769150317, 2328270.293921467848122 ], [ 3034439.06714759580791, 2328088.115812537260354 ], [ 3034308.694595145527273, 2327974.294089362956583 ], [ 3034249.970570393372327, 2327967.978703132364899 ], [ 3034220.722923547960818, 2327964.833380903117359 ], [ 3034171.506635984405875, 2327930.05712572671473 ], [ 3034159.59780687559396, 2327921.642351316288114 ], [ 3033966.311431573238224, 2327797.465023419819772 ], [ 3033953.333310235291719, 2327792.666915742214769 ], [ 3033874.293463807087392, 2327763.44490837585181 ], [ 3033840.098819418810308, 2327754.662213023751974 ], [ 3033750.226027994416654, 2327731.578808715101331 ], [ 3033658.814658615738153, 2327679.387081450317055 ], [ 3033633.793337199371308, 2327643.594656277447939 ], [ 3033611.706037491559982, 2327611.999231630004942 ], [ 3033581.571348271332681, 2327608.927572492975742 ], [ 3033534.803819705732167, 2327604.16058464627713 ], [ 3033511.194773953408003, 2327635.119806183036417 ], [ 3033460.029315195046365, 2327702.21498239506036 ], [ 3033371.962194222491235, 2327817.701224262360483 ], [ 3033339.707948085386306, 2327852.67396592348814 ], [ 3033216.171765150502324, 2327986.623187044169754 ], [ 3033180.471170124132186, 2328035.432481089606881 ], [ 3033136.056527617387474, 2328096.155756345018744 ], [ 3033119.535278279334307, 2328118.743719982914627 ], [ 3033022.058663015253842, 2328252.014911746606231 ], [ 3032889.922233099117875, 2328432.675128899980336 ], [ 3032808.813898934051394, 2328543.56961120152846 ], [ 3032701.949756956659257, 2328689.679725700989366 ], [ 3032660.559315713122487, 2328758.017139062285423 ], [ 3032535.05712, 2328965.228611363098025 ], [ 3032535.05712, 2332855.921780000440776 ], [ 3036063.969687205739319, 2332855.921780000440776 ], [ 3036098.905167303979397, 2332807.051261913962662 ] ] ] } }
]
}
