{
"type": "FeatureCollection",
"name": "Cebreros",
"crs": { "type": "name", "properties": { "name": "urn:ogc:def:crs:EPSG::3035" } },
"features": [
{ "type": "Feature", "properties": { "ENP_GRAL": 2.0, "ENP_GRAL_NAME": "Reservas Naturales", "color": "#FFD37F" }, "geometry": { "type": "MultiPolygon", "coordinates": [ [ [ [ 3088541.732823042664677, 2043770.216540907509625 ], [ 3088532.683436520397663, 2043752.939511759206653 ], [ 3088526.333560123573989, 2043743.17963401437737 ], [ 3088490.767731747590005, 2043688.514489573892206 ], [ 3088480.92563411872834, 2043676.185751818586141 ], [ 3088409.257045137695968, 2043586.409416548674926 ], [ 3088346.875665983650833, 2043508.266743069747463 ], [ 3088337.821486867964268, 2043499.42495576874353 ], [ 3088275.214948158711195, 2043438.28730223630555 ], [ 3088212.103877516463399, 2043376.656949639786035 ], [ 3088177.082685017958283, 2043338.498122966382653 ], [ 3088156.235033096279949, 2043315.782544166781008 ], [ 3088171.864275722764432, 2043293.646192707354203 ], [ 3088179.766047871671617, 2043282.45471607754007 ], [ 3088191.647760334890336, 2043269.973927238956094 ], [ 3088219.595752110239118, 2043240.616801487049088 ], [ 3088246.108443443197757, 2043223.866782924393192 ], [ 3088277.168519243597984, 2043204.244003127329051 ], [ 3088293.060873090755194, 2043188.499366087373346 ], [ 3088309.10669145360589, 2043169.410071271238849 ], [ 3088377.644363137893379, 2043148.743801454314962 ], [ 3088441.469369714148343, 2043123.162645534612238 ], [ 3088437.154125704430044, 2043108.466989709530026 ], [ 3088429.324866564013064, 2043081.803922313963994 ], [ 3088421.12143071833998, 2043053.866562287788838 ], [ 3088396.093162132427096, 2042996.171688220230862 ], [ 3088387.526211619377136, 2042976.422890683403239 ], [ 3088368.40637706592679, 2042950.467691220808774 ], [ 3088359.880788888782263, 2042938.89414167846553 ], [ 3088359.360597986727953, 2042926.176852173171937 ], [ 3088357.977387177292258, 2042892.360875515034422 ], [ 3088334.246466561220586, 2042816.645657000131905 ], [ 3088324.679150400683284, 2042787.092329534469172 ], [ 3088315.668055463582277, 2042742.371595440898091 ], [ 3088313.540390669368207, 2042731.812070797430351 ], [ 3088318.142011310905218, 2042714.020685344003141 ], [ 3088337.730059468187392, 2042638.288380573038012 ], [ 3088345.50611418671906, 2042626.577837992692366 ], [ 3088354.501857965253294, 2042613.030647355597466 ], [ 3088357.32088924292475, 2042599.990830023773015 ], [ 3088362.917711498681456, 2042574.10294224251993 ], [ 3088361.788655434269458, 2042557.62045172136277 ], [ 3088360.781724004074931, 2042542.922636458417401 ], [ 3088360.816673511639237, 2042531.611825337633491 ], [ 3088360.931612115353346, 2042494.421851312043145 ], [ 3088367.800341200083494, 2042454.696299108443782 ], [ 3088377.727031920105219, 2042428.980894056847319 ], [ 3088377.742488335818052, 2042413.851397339720279 ], [ 3088377.771132507361472, 2042385.807806105352938 ], [ 3088377.376511922571808, 2042374.461784869199619 ], [ 3088373.069120304659009, 2042358.833818098995835 ], [ 3088366.598850795067847, 2042335.358788270968944 ], [ 3088361.585303950123489, 2042319.678688359213993 ], [ 3088352.026587889529765, 2042291.036016572499648 ], [ 3088341.815631376579404, 2042260.161166412057355 ], [ 3088333.436654696241021, 2042212.74750646809116 ], [ 3088323.553944567218423, 2042160.744754356564954 ], [ 3088320.534934238530695, 2042149.289133492391557 ], [ 3088317.579476293176413, 2042136.729818058200181 ], [ 3088325.269922404550016, 2042106.265219191089272 ], [ 3088336.252949029672891, 2042084.579567686887458 ], [ 3088345.609994794242084, 2042074.450354019412771 ], [ 3088365.643296919763088, 2042074.036388869397342 ], [ 3088390.549091122113168, 2042078.241388994734734 ], [ 3088410.278566767927259, 2042078.887127608526498 ], [ 3088421.041761820670217, 2042078.548058052780107 ], [ 3088430.66391715593636, 2042073.81855440675281 ], [ 3088446.119001268409193, 2042062.508267406607047 ], [ 3088454.576955663505942, 2042056.318624453386292 ], [ 3088465.971085954457521, 2042057.933897701790556 ], [ 3088483.023148532025516, 2042060.351376659004018 ], [ 3088500.481489015743136, 2042073.402488033054397 ], [ 3088512.343149028718472, 2042082.269789556274191 ], [ 3088519.320830743759871, 2042090.957224495243281 ], [ 3088534.256437015719712, 2042109.552915678592399 ], [ 3088557.021866835653782, 2042119.083688457962126 ], [ 3088582.915466126985848, 2042110.745709703536704 ], [ 3088609.366868008859456, 2042094.230098237050697 ], [ 3088632.589901187922806, 2042074.253560374025255 ], [ 3088642.251337109133601, 2042065.678507667267695 ], [ 3088652.019295708276331, 2042056.369346896186471 ], [ 3088674.067249675281346, 2042035.357108924537897 ], [ 3088703.1765196043998, 2042006.6859387003351 ], [ 3088750.278453237842768, 2041979.346849696710706 ], [ 3088797.380459642969072, 2041952.007922916207463 ], [ 3088835.046696797944605, 2041930.13949403911829 ], [ 3088872.712871720548719, 2041908.271123366896063 ], [ 3088903.216931751929224, 2041893.497646739939228 ], [ 3088933.721028251573443, 2041878.724294017301872 ], [ 3089006.519009104929864, 2041861.531519053736702 ], [ 3089057.255945031531155, 2041847.187333659734577 ], [ 3089087.910000821575522, 2041838.521036226069555 ], [ 3089107.411633942276239, 2041828.645563601516187 ], [ 3089128.448573034256697, 2041816.894560850923881 ], [ 3089157.433294794522226, 2041812.435590413864702 ], [ 3089175.906949481926858, 2041806.726462623104453 ], [ 3089212.64170060120523, 2041793.885053104022518 ], [ 3089253.087781513575464, 2041777.605439929524437 ], [ 3089286.142543997615576, 2041766.687761698151007 ], [ 3089319.197325647808611, 2041755.770110958488658 ], [ 3089351.675979714840651, 2041740.647550949594006 ], [ 3089384.154557897243649, 2041725.525036878651008 ], [ 3089417.170068629086018, 2041714.361083359923214 ], [ 3089457.647701919078827, 2041699.949380224803463 ], [ 3089476.864189257845283, 2041692.334188028005883 ], [ 3089496.411471608094871, 2041684.374886675504968 ], [ 3089531.669732049107552, 2041674.840878499438986 ], [ 3089566.928111030720174, 2041665.306883239420131 ], [ 3089604.200089217629284, 2041655.66999206924811 ], [ 3089641.472172125242651, 2041646.033018629532307 ], [ 3089670.255315020680428, 2041633.591589353047311 ], [ 3089706.61076438985765, 2041618.019562648842111 ], [ 3089725.77421857137233, 2041610.362312945071608 ], [ 3089753.09995595831424, 2041599.648403078084812 ], [ 3089768.73966137971729, 2041604.560621740762144 ], [ 3089802.167553199455142, 2041615.059770984109491 ], [ 3089836.519394227303565, 2041635.232775103067979 ], [ 3089855.865736963227391, 2041638.574035411467776 ], [ 3089891.659207611810416, 2041643.139636877225712 ], [ 3089909.887256111484021, 2041645.464695792412385 ], [ 3089937.930294708814472, 2041649.041712794685736 ], [ 3089954.983965688385069, 2041659.076424242928624 ], [ 3089973.799526632297784, 2041670.147942885058001 ], [ 3089989.25051796156913, 2041679.239598927320912 ], [ 3090008.790673274546862, 2041690.737420068588108 ], [ 3090032.373390568420291, 2041704.613987409509718 ], [ 3090049.006266252137721, 2041720.706945712212473 ], [ 3090058.251324292737991, 2041729.651873748051003 ], [ 3090086.700671011116356, 2041731.93148005916737 ], [ 3090128.343401523306966, 2041735.268231635447592 ], [ 3090168.290523784700781, 2041738.469139816006646 ], [ 3090189.662453930359334, 2041750.417694486677647 ], [ 3090208.302359459921718, 2041759.873636950040236 ], [ 3090237.866289459634572, 2041766.422689017606899 ], [ 3090253.882689028978348, 2041769.970762409968302 ], [ 3090272.555099577642977, 2041760.110707676038146 ], [ 3090282.783073890954256, 2041762.061135719763115 ], [ 3090313.484230928122997, 2041759.299254827434197 ], [ 3090323.631895007565618, 2041753.351898150984198 ], [ 3090338.2304971027188, 2041721.370812158798799 ], [ 3090340.527935418300331, 2041712.311046475311741 ], [ 3090361.424016857054085, 2041696.921594142913818 ], [ 3090372.976126155816019, 2041695.603440652834252 ], [ 3090397.781653437763453, 2041694.473946755286306 ], [ 3090428.785209054127336, 2041694.945358811179176 ], [ 3090461.041316859424114, 2041698.151480781845748 ], [ 3090472.83650682028383, 2041699.678077355027199 ], [ 3090496.090057887136936, 2041699.729656385723501 ], [ 3090514.40199779625982, 2041696.4479613781441 ], [ 3090524.176139261573553, 2041694.235113764414564 ], [ 3090544.821862235665321, 2041690.125154608860612 ], [ 3090554.152998083271086, 2041688.737472518580034 ], [ 3090563.484233791939914, 2041687.349774968577549 ], [ 3090580.440767738968134, 2041687.06882846262306 ], [ 3090592.03458742517978, 2041687.937330432934687 ], [ 3090617.042129904963076, 2041690.207181504927576 ], [ 3090627.117054766044021, 2041691.128728709882125 ], [ 3090641.326522315386683, 2041692.371329595567659 ], [ 3090655.928786086384207, 2041693.50561321224086 ], [ 3090667.634381553158164, 2041694.629184677265584 ], [ 3090678.283028777688742, 2041695.115814801072702 ], [ 3090693.262574076652527, 2041695.800389926647767 ], [ 3090704.236554985865951, 2041693.442045296076685 ], [ 3090715.210454663727432, 2041691.083819559076801 ], [ 3090730.826379927806556, 2041678.375317346537486 ], [ 3090739.670753776095808, 2041668.459255010820925 ], [ 3090754.399546619039029, 2041646.613621837925166 ], [ 3090760.967970373108983, 2041632.881607732269913 ], [ 3090770.079190078191459, 2041613.288175186142325 ], [ 3090777.928608090616763, 2041594.322474680608138 ], [ 3090785.814770078286529, 2041568.444391428027302 ], [ 3090789.220719769597054, 2041550.47679971717298 ], [ 3090787.610783432610333, 2041537.678841348271817 ], [ 3090771.095511019229889, 2041523.568212838843465 ], [ 3090758.664132065605372, 2041518.047987887402996 ], [ 3090739.121710895095021, 2041507.780008353991434 ], [ 3090728.590261014178395, 2041497.722109979949892 ], [ 3090720.635149427689612, 2041488.508074577664956 ], [ 3090713.673405923880637, 2041467.528529534349218 ], [ 3090710.919619079679251, 2041457.803390332730487 ], [ 3090703.08102663140744, 2041430.785540650365874 ], [ 3090699.731135417707264, 2041417.531300937989727 ], [ 3090697.359405572060496, 2041407.621614210074767 ], [ 3090692.736056593246758, 2041389.373109629144892 ], [ 3090689.863157448358834, 2041377.948437513085082 ], [ 3090686.969437750987709, 2041366.441009591799229 ], [ 3090688.752693987451494, 2041349.623377445386723 ], [ 3090689.933235687669367, 2041338.491055089049041 ], [ 3090696.116152922622859, 2041324.670223077991977 ], [ 3090701.528855785727501, 2041313.53879570029676 ], [ 3090708.813246025703847, 2041284.012589278398082 ], [ 3090709.701779429335147, 2041271.65235596196726 ], [ 3090710.529506102204323, 2041260.136590694077313 ], [ 3090708.581968447193503, 2041243.811450891429558 ], [ 3090706.254252316895872, 2041230.329939827788621 ], [ 3090703.541916599497199, 2041217.098898905329406 ], [ 3090700.167410550639033, 2041202.078059857012704 ], [ 3090698.911943391896784, 2041188.437721377704293 ], [ 3090698.899874202907085, 2041174.537532950984314 ], [ 3090704.045341146178544, 2041166.020402017049491 ], [ 3090710.971006243024021, 2041152.910995482001454 ], [ 3090715.145584663376212, 2041132.836440987186506 ], [ 3090715.757515423931181, 2041118.213964877650142 ], [ 3090720.47494129743427, 2041104.607405759394169 ], [ 3090729.223819576669484, 2041093.44798669568263 ], [ 3090744.899335500784218, 2041087.697351885726675 ], [ 3090754.022109481971711, 2041085.771432525478303 ], [ 3090763.291024369187653, 2041084.167750010732561 ], [ 3090778.289062721654773, 2041081.625275338767096 ], [ 3090788.343996286392212, 2041079.342077248496935 ], [ 3090812.432555765844882, 2041077.148565354989842 ], [ 3090839.756124117411673, 2041081.303580131148919 ], [ 3090861.810688494704664, 2041090.088975527323782 ], [ 3090870.456903440412134, 2041094.418259732425213 ], [ 3090881.831989917904139, 2041099.985484140925109 ], [ 3090900.581341626122594, 2041108.490738040301949 ], [ 3090923.266521774232388, 2041116.948927708668634 ], [ 3090937.509969865903258, 2041120.246958245290443 ], [ 3090948.564037793315947, 2041121.283349581062794 ], [ 3090966.76949437847361, 2041123.236924714874476 ], [ 3090976.305681236553937, 2041123.434188860235736 ], [ 3090985.841967738233507, 2041123.631437493488193 ], [ 3091007.142960840370506, 2041123.526946313213557 ], [ 3091027.990517045371234, 2041121.166059710085392 ], [ 3091040.158534503541887, 2041117.535265870159492 ], [ 3091050.830934193916619, 2041107.441222831839696 ], [ 3091055.569911985192448, 2041090.670097411610186 ], [ 3091055.328606225550175, 2041076.467890206258744 ], [ 3091050.943960863631219, 2041067.710515934042633 ], [ 3091045.421499593183398, 2041056.680726137012243 ], [ 3091040.045396595261991, 2041045.333492289064452 ], [ 3091033.845638704486191, 2041031.055600796360523 ], [ 3091028.380856630392373, 2041011.611596473259851 ], [ 3091024.361116723623127, 2040997.275486207799986 ], [ 3091018.850584710016847, 2040978.345458976691589 ], [ 3091008.518669895362109, 2040958.965766548411921 ], [ 3090999.624900578521192, 2040946.858840717701241 ], [ 3090983.155429690144956, 2040931.002742489799857 ], [ 3090975.527564725838602, 2040925.19886154984124 ], [ 3090967.899799098726362, 2040919.394964256091043 ], [ 3090950.95380643196404, 2040908.012522062985227 ], [ 3090932.558902482502162, 2040892.388203911948949 ], [ 3090905.047340396791697, 2040872.66376953641884 ], [ 3090889.76589630311355, 2040864.464504736708477 ], [ 3090869.146524745039642, 2040856.278088853228837 ], [ 3090857.184588930569589, 2040852.504001366207376 ], [ 3090841.450847952626646, 2040845.102962957695127 ], [ 3090821.039034930989146, 2040832.401033765403554 ], [ 3090805.341474382206798, 2040820.334823389537632 ], [ 3090795.76760724093765, 2040806.3898345164489 ], [ 3090785.74099241103977, 2040780.980108645511791 ], [ 3090781.093352445401251, 2040763.9448508170899 ], [ 3090777.001159014180303, 2040744.592732029734179 ], [ 3090774.969242257997394, 2040732.891219501383603 ], [ 3090775.531311625149101, 2040721.702120802365243 ], [ 3090776.022540593519807, 2040711.922391200670972 ], [ 3090772.099759615492076, 2040693.007062838878483 ], [ 3090765.193955740891397, 2040679.427933021448553 ], [ 3090753.355127700604498, 2040661.790737513685599 ], [ 3090748.16466335952282, 2040653.281386139336973 ], [ 3090740.276450207456946, 2040638.875293818302453 ], [ 3090735.389743433333933, 2040627.573658568086103 ], [ 3090734.64943883381784, 2040612.842444181907922 ], [ 3090738.224023534916341, 2040598.374661985784769 ], [ 3090748.185078510083258, 2040581.727654268965125 ], [ 3090756.59818301582709, 2040570.33528146520257 ], [ 3090765.453419567085803, 2040558.042124539380893 ], [ 3090772.507309594191611, 2040547.191344019025564 ], [ 3090777.698117098305374, 2040537.363078269176185 ], [ 3090787.20542486384511, 2040518.155340555589646 ], [ 3090791.754332138691097, 2040508.381280624074861 ], [ 3090798.250201992690563, 2040493.424882361432537 ], [ 3090808.6674485206604, 2040461.137408112641424 ], [ 3090811.678746582008898, 2040448.610829972894862 ], [ 3090814.806916848756373, 2040433.12328231218271 ], [ 3090818.991756002884358, 2040420.222152581671253 ], [ 3090826.850363298784941, 2040406.33594477456063 ], [ 3090831.960732325911522, 2040397.305983191588894 ], [ 3090838.990130902733654, 2040385.701068262802437 ], [ 3090844.338287180289626, 2040365.974578901659697 ], [ 3090844.79522000066936, 2040350.541091976687312 ], [ 3090844.031934495083988, 2040325.458177129039541 ], [ 3090842.88065988291055, 2040304.103902317816392 ], [ 3090842.454334553331137, 2040291.834794391877949 ], [ 3090842.627599865198135, 2040271.730637593893334 ], [ 3090846.247361002955586, 2040261.484629510901868 ], [ 3090849.867239330429584, 2040251.238703781506047 ], [ 3090859.539388841949403, 2040235.278816782403737 ], [ 3090868.261325654573739, 2040221.607237322023138 ], [ 3090877.237548712641001, 2040207.329567194217816 ], [ 3090882.230663897935301, 2040199.387460024561733 ], [ 3090889.950619198847562, 2040185.25912408833392 ], [ 3090896.662619589827955, 2040169.937045387225226 ], [ 3090900.199250843375921, 2040159.738599613541737 ], [ 3090903.543730980716646, 2040142.950389249250293 ], [ 3090905.404761306010187, 2040118.247413745615631 ], [ 3090904.726094526238739, 2040106.252812731079757 ], [ 3090901.565438407473266, 2040082.209881722694263 ], [ 3090897.675511160865426, 2040059.845734188333154 ], [ 3090894.456152282655239, 2040042.377069482114166 ], [ 3090890.319594166241586, 2040020.769268590491265 ], [ 3090887.812614742200822, 2040010.284732427680865 ], [ 3090877.422191078774631, 2039984.945403583114967 ], [ 3090871.805852251593024, 2039973.03944579930976 ], [ 3090861.958918432705104, 2039956.526328726438805 ], [ 3090852.39849619474262, 2039946.542394753312692 ], [ 3090839.73037807457149, 2039941.286448616767302 ], [ 3090812.843223676551133, 2039933.062444944633171 ], [ 3090799.942010167054832, 2039930.39109621476382 ], [ 3090773.978414354845881, 2039927.91130833607167 ], [ 3090759.472630389966071, 2039926.697468545520678 ], [ 3090734.035021773073822, 2039925.03605377394706 ], [ 3090724.729823920875788, 2039924.175501767080277 ], [ 3090706.920063821598887, 2039922.920246630441397 ], [ 3090695.073820818215609, 2039921.639861617237329 ], [ 3090680.149526621215045, 2039919.959167564287782 ], [ 3090656.61959560867399, 2039916.8993485274259 ], [ 3090645.362353293225169, 2039914.727572605246678 ], [ 3090626.270875452086329, 2039907.265391871100292 ], [ 3090614.654283745214343, 2039901.957913931226358 ], [ 3090596.301025993190706, 2039890.817934593884274 ], [ 3090586.000251805409789, 2039883.588858372299001 ], [ 3090576.787598663941026, 2039874.876316597219557 ], [ 3090567.26575555279851, 2039865.871207311982289 ], [ 3090560.412908034399152, 2039849.884776913793758 ], [ 3090555.919018764980137, 2039839.401416701963171 ], [ 3090551.37341979984194, 2039827.762749929679558 ], [ 3090547.290192729793489, 2039817.307758012786508 ], [ 3090543.88002622127533, 2039808.700205168919638 ], [ 3090540.46994384098798, 2039800.092536771902815 ], [ 3090533.196574783883989, 2039776.023449618602172 ], [ 3090529.640919907484204, 2039763.477362575475127 ], [ 3090522.011774692218751, 2039740.444978998275474 ], [ 3090512.551604120992124, 2039705.689525539055467 ], [ 3090505.67659199424088, 2039686.98484131670557 ], [ 3090500.556224407628179, 2039676.680854785721749 ], [ 3090495.112287486903369, 2039665.725783584173769 ], [ 3090489.387039838824421, 2039654.030777197564021 ], [ 3090478.939855607226491, 2039634.810055194655433 ], [ 3090467.881982239894569, 2039615.545292590279132 ], [ 3090463.370235732756555, 2039606.607352431165054 ], [ 3090454.450379301793873, 2039591.487420115387067 ], [ 3090444.900435699149966, 2039576.248342901468277 ], [ 3090429.437961359973997, 2039553.928017398808151 ], [ 3090414.405414836946875, 2039531.453999171266332 ], [ 3090401.386230913456529, 2039514.5883739576675 ], [ 3090392.700281303375959, 2039504.866697353776544 ], [ 3090372.958806882612407, 2039487.897037921007723 ], [ 3090364.736323004588485, 2039481.155129365157336 ], [ 3090354.569323460105807, 2039466.303331072907895 ], [ 3090359.183805319480598, 2039456.884968099649996 ], [ 3090377.259892856702209, 2039449.045087874867022 ], [ 3090388.818305890075862, 2039447.126389659009874 ], [ 3090398.75405707070604, 2039446.355371983256191 ], [ 3090409.280687826685607, 2039445.538575656479225 ], [ 3090424.758186152204871, 2039444.285020711831748 ], [ 3090444.871599067933857, 2039446.855792915448546 ], [ 3090457.971492237877101, 2039449.729639125522226 ], [ 3090471.014263714663684, 2039450.194905265700072 ], [ 3090481.027614236809313, 2039450.82665266119875 ], [ 3090499.241137478966266, 2039456.322161730378866 ], [ 3090516.38235153676942, 2039459.720060698222369 ], [ 3090532.219044808764011, 2039461.053026937646791 ], [ 3090548.602984800934792, 2039461.033205531537533 ], [ 3090565.041796669829637, 2039460.735140404431149 ], [ 3090576.916619339026511, 2039460.837795893196017 ], [ 3090591.47174159809947, 2039458.57231737463735 ], [ 3090602.728411191143095, 2039457.527690755901858 ], [ 3090626.985301315784454, 2039459.032488580327481 ], [ 3090637.054835719522089, 2039461.068272643955424 ], [ 3090647.124355236534029, 2039463.103960212087259 ], [ 3090656.572662737686187, 2039463.808469473617151 ], [ 3090676.641598819755018, 2039464.295235058991238 ], [ 3090701.455987941473722, 2039459.80964967655018 ], [ 3090720.132806192617863, 2039452.348527930211276 ], [ 3090733.82437184266746, 2039445.284927373984829 ], [ 3090757.770584843121469, 2039431.030683959601447 ], [ 3090772.606934285722673, 2039418.588300483534113 ], [ 3090782.310489933472127, 2039410.450499397236854 ], [ 3090796.956694169901311, 2039396.523965297266841 ], [ 3090805.046934672631323, 2039388.642144566169009 ], [ 3090824.522324224933982, 2039372.225591604365036 ], [ 3090834.705779843963683, 2039364.427799305645749 ], [ 3090843.240764907561243, 2039358.087355202529579 ], [ 3090859.925057718064636, 2039346.395858854521066 ], [ 3090872.60541261639446, 2039337.883083005901426 ], [ 3090890.853132009506226, 2039326.809771122178063 ], [ 3090902.798723541665822, 2039319.63939697528258 ], [ 3090915.302388995885849, 2039312.454899394419044 ], [ 3090937.190701044630259, 2039300.985228317556903 ], [ 3090947.331737562082708, 2039296.073221718193963 ], [ 3090967.544737359974533, 2039287.840351379709318 ], [ 3090986.836471639107913, 2039280.100547162815928 ], [ 3091008.27985586039722, 2039269.370356528554112 ], [ 3091033.071425223723054, 2039254.498798300046474 ], [ 3091056.847257094457746, 2039237.023997726850212 ], [ 3091070.830307538621128, 2039221.722784061683342 ], [ 3091076.038263042923063, 2039213.116952000418678 ], [ 3091082.027400817722082, 2039200.729385749902576 ], [ 3091092.06813418539241, 2039178.079667621525005 ], [ 3091097.952371759340167, 2039162.091472245985642 ], [ 3091105.755271953996271, 2039131.255812012590468 ], [ 3091109.647804345004261, 2039108.100525068119168 ], [ 3091112.314324431587011, 2039089.597006944241002 ], [ 3091113.77574767312035, 2039079.455699627753347 ], [ 3091113.747947600670159, 2039066.048673074226826 ], [ 3091108.602285204455256, 2039047.289385509444401 ], [ 3091101.638916473835707, 2039030.720838473178446 ], [ 3091099.326681864447892, 2039016.759774626232684 ], [ 3091102.464294667355716, 2038998.549890094669536 ], [ 3091106.470095681026578, 2038985.922994884196669 ], [ 3091109.748386261053383, 2038975.930842527188361 ], [ 3091114.225635830312967, 2038961.424471920123324 ], [ 3091118.573787490837276, 2038943.583707636455074 ], [ 3091120.476862404961139, 2038918.17989541683346 ], [ 3091117.247336640954018, 2038888.424184841103852 ], [ 3091115.160524851642549, 2038878.005252813454717 ], [ 3091102.647237891331315, 2038858.086382141336799 ], [ 3091085.056701838970184, 2038842.318181026028469 ], [ 3091076.340854646638036, 2038835.341117438394576 ], [ 3091067.299878298304975, 2038828.103894422529265 ], [ 3091059.725259987171739, 2038822.689568347996101 ], [ 3091046.338947796262801, 2038813.121221804991364 ], [ 3091033.637841330841184, 2038803.484947936376557 ], [ 3091009.427559630014002, 2038776.979803974041715 ], [ 3091000.739637883380055, 2038764.042953239753842 ], [ 3090988.122871448751539, 2038743.26678978302516 ], [ 3090977.211370473261923, 2038726.458876768127084 ], [ 3090970.231086597777903, 2038712.183951562969014 ], [ 3090966.38919025612995, 2038703.592448324663565 ], [ 3090958.603909693658352, 2038686.905094059882686 ], [ 3090951.493414903059602, 2038668.59595780656673 ], [ 3090948.120702086947858, 2038659.911615577526391 ], [ 3090944.18057971354574, 2038646.725533234653994 ], [ 3090938.303139408119023, 2038629.324273487087339 ], [ 3090933.97337352624163, 2038619.661342965904623 ], [ 3090923.922009658068419, 2038596.741651183925569 ], [ 3090918.898803500458598, 2038575.496407488826662 ], [ 3090919.681639178656042, 2038562.800463523250073 ], [ 3090922.293334229849279, 2038537.678095856914297 ], [ 3090919.848723271861672, 2038518.877850823570043 ], [ 3090911.793840426020324, 2038510.840448011877015 ], [ 3090900.840766966342926, 2038506.981719914358109 ], [ 3090887.268523024395108, 2038504.591548966476694 ], [ 3090862.639261745847762, 2038501.151819296181202 ], [ 3090850.480594143737108, 2038497.922999083995819 ], [ 3090845.382931454107165, 2038481.868151044007391 ], [ 3090863.000238177366555, 2038461.026185206836089 ], [ 3090877.17311155050993, 2038455.847573381848633 ], [ 3090879.393460461404175, 2038444.642895886208862 ], [ 3090887.004523721523583, 2038435.805890832329169 ], [ 3090892.433141940739006, 2038425.587749243946746 ], [ 3090896.190302362199873, 2038417.073085840092972 ], [ 3090901.13278136914596, 2038405.871979545801878 ], [ 3090907.69787858473137, 2038394.338793226750568 ], [ 3090914.276733034290373, 2038369.905481068883091 ], [ 3090915.288961137179285, 2038354.88590372656472 ], [ 3090916.45122876111418, 2038337.639196007046849 ], [ 3090922.191889738664031, 2038313.433851979440078 ], [ 3090929.791348601691425, 2038307.114967453991994 ], [ 3090945.504081699531525, 2038298.681369585683569 ], [ 3090970.999547025188804, 2038280.165442852070555 ], [ 3090992.512906515039504, 2038263.052682777168229 ], [ 3091003.148162839002907, 2038254.245506239589304 ], [ 3091010.494215303100646, 2038247.423056395258754 ], [ 3091021.760697766207159, 2038235.212655645562336 ], [ 3091040.818113912828267, 2038206.671418970217928 ], [ 3091049.200079703703523, 2038179.796425825916231 ], [ 3091049.88368527404964, 2038163.619627122068778 ], [ 3091046.732629436999559, 2038145.904179209843278 ], [ 3091042.70632291585207, 2038137.578303422080353 ], [ 3091033.975588031578809, 2038119.524790184106678 ], [ 3091027.959249680861831, 2038110.401464172406122 ], [ 3091016.905240579508245, 2038089.685931633925065 ], [ 3091012.992399663664401, 2038077.52757990732789 ], [ 3091012.096070460509509, 2038065.310487734386697 ], [ 3091014.494072843343019, 2038041.540181743213907 ], [ 3091018.58300128672272, 2038002.115310285706073 ], [ 3091019.216818128712475, 2037991.020956291351467 ], [ 3091017.113033139146864, 2037970.531458083540201 ], [ 3091014.791074744425714, 2037957.329820813145489 ], [ 3091008.393119231332093, 2037933.497550192754716 ], [ 3091005.407892844174057, 2037921.066871602553874 ], [ 3091002.283756495919079, 2037908.0582370092161 ], [ 3091000.329630016349256, 2037898.706478057662025 ], [ 3090997.567185151390731, 2037885.76406861608848 ], [ 3090996.616323973983526, 2037875.885206459555775 ], [ 3090995.641184504143894, 2037865.75365686439909 ], [ 3091000.349780763499439, 2037829.537914303131402 ], [ 3091004.686690261587501, 2037813.344503683969378 ], [ 3091007.730465607717633, 2037801.706143376650289 ], [ 3091012.969964237883687, 2037774.687627965817228 ], [ 3091012.30373172275722, 2037763.147510020295158 ], [ 3091011.637501710094512, 2037751.607392875710502 ], [ 3091008.280303156003356, 2037733.790159130236134 ], [ 3091005.280809864401817, 2037721.430122419027612 ], [ 3090997.4008699497208, 2037700.774768708040938 ], [ 3090994.115303033031523, 2037692.162421803921461 ], [ 3090988.139845812693238, 2037682.507993581704795 ], [ 3090972.200028642080724, 2037667.184952243696898 ], [ 3090961.682216205634177, 2037661.330421870341524 ], [ 3090940.898381377570331, 2037654.858859976753592 ], [ 3090930.48374627251178, 2037653.587156588910148 ], [ 3090920.069195136893541, 2037652.315339450491592 ], [ 3090893.065996196120977, 2037648.763305718544871 ], [ 3090883.657341982703656, 2037648.203647798858583 ], [ 3090866.070852029137313, 2037647.157606483902782 ], [ 3090848.592661166097969, 2037647.672717289067805 ], [ 3090836.706323504447937, 2037648.023146696388721 ], [ 3090823.611557277850807, 2037648.39353035390377 ], [ 3090810.608109070919454, 2037649.950800716411322 ], [ 3090792.13035008776933, 2037652.215998897096142 ], [ 3090781.339439924806356, 2037651.005432354751974 ], [ 3090773.938297765795141, 2037640.833838136401027 ], [ 3090775.54526657378301, 2037627.488154423190281 ], [ 3090785.132265869528055, 2037613.065293650375679 ], [ 3090792.863134839572012, 2037604.144046616274863 ], [ 3090799.543420711532235, 2037596.803340275306255 ], [ 3090821.011697967071086, 2037572.190503593999892 ], [ 3090837.91350716445595, 2037555.331151246326044 ], [ 3090849.257414531428367, 2037544.610715568065643 ], [ 3090862.373827734962106, 2037528.229593072785065 ], [ 3090863.760051254183054, 2037518.59746263618581 ], [ 3090865.146261082962155, 2037508.96523438883014 ], [ 3090864.004908166825771, 2037499.792456361930817 ], [ 3090862.49596784170717, 2037487.664961823495105 ], [ 3090860.203095646575093, 2037477.215934856561944 ], [ 3090857.910324015654624, 2037466.766891036881134 ], [ 3090851.638543031644076, 2037451.285722800763324 ], [ 3090843.153345198836178, 2037438.764169068541378 ], [ 3090830.88357955776155, 2037420.220209840219468 ], [ 3090825.40109823923558, 2037409.448027239879593 ], [ 3090819.918717357330024, 2037398.675828061532229 ], [ 3090810.249996108468622, 2037377.883854169631377 ], [ 3090805.639104184694588, 2037366.503595818765461 ], [ 3090796.097767280880362, 2037341.38838031119667 ], [ 3090790.364016665145755, 2037331.617962918244302 ], [ 3090768.183947970625013, 2037310.788242733571678 ], [ 3090758.588524236343801, 2037304.942322878167033 ], [ 3090736.54499845020473, 2037293.40022960677743 ], [ 3090723.833257713355124, 2037285.811172246001661 ], [ 3090711.023567363154143, 2037276.199597731232643 ], [ 3090695.20182754099369, 2037260.600106437457725 ], [ 3090686.273579273372889, 2037251.876231158385053 ], [ 3090674.638662803918123, 2037240.804533754708245 ], [ 3090652.857777428813279, 2037226.400854773819447 ], [ 3090640.819541515782475, 2037221.663258737418801 ], [ 3090620.259847241919488, 2037218.786906955298036 ], [ 3090607.800822702236474, 2037217.639951854012907 ], [ 3090595.341898324899375, 2037216.49298255937174 ], [ 3090573.942156745120883, 2037218.189416046021506 ], [ 3090558.610665471293032, 2037220.723260554717854 ], [ 3090539.916195050813258, 2037221.556607819162309 ], [ 3090529.944934367202222, 2037220.655037969816476 ], [ 3090505.608891238458455, 2037217.85875023691915 ], [ 3090480.360293975565583, 2037215.829811203293502 ], [ 3090460.627524431329221, 2037218.501380622386932 ], [ 3090444.203492908738554, 2037224.114463368896395 ], [ 3090425.644073522649705, 2037234.348126746946946 ], [ 3090410.375589078292251, 2037239.75099512678571 ], [ 3090398.82795556075871, 2037240.692257400834933 ], [ 3090371.669541748706251, 2037241.33897049841471 ], [ 3090347.10185157880187, 2037243.490353159839287 ], [ 3090325.508088851347566, 2037239.393527443753555 ], [ 3090317.050369034521282, 2037226.972787132486701 ], [ 3090325.601407549344003, 2037208.572185949189588 ], [ 3090336.301201859023422, 2037199.949017346836627 ], [ 3090347.000901469029486, 2037191.325869960011914 ], [ 3090363.562553369440138, 2037175.066779888467863 ], [ 3090368.04630617517978, 2037164.3279296499677 ], [ 3090372.221312182024121, 2037153.892180150607601 ], [ 3090377.591916227247566, 2037133.661237555090338 ], [ 3090383.087512928061187, 2037120.786507374839857 ], [ 3090389.028622503392398, 2037110.116208802442998 ], [ 3090401.964840851724148, 2037094.416537408251315 ], [ 3090411.381121241487563, 2037084.620374259538949 ], [ 3090425.420514064840972, 2037070.330961775733158 ], [ 3090440.932254181243479, 2037053.322594520403072 ], [ 3090449.194560957141221, 2037043.313735314412042 ], [ 3090455.029882385395467, 2037035.71809972403571 ], [ 3090467.717370965983719, 2037016.421963629079983 ], [ 3090477.564409907441586, 2036995.863369019236416 ], [ 3090479.196393099613488, 2036984.758567532990128 ], [ 3090482.376961240544915, 2036961.445305036613718 ], [ 3090483.292520211078227, 2036949.405997658381239 ], [ 3090484.108740620780736, 2036937.981528240721673 ], [ 3090480.064970301929861, 2036916.510601918213069 ], [ 3090466.95645485073328, 2036898.401843461906537 ], [ 3090450.135530085302889, 2036875.73367858142592 ], [ 3090443.166835833806545, 2036867.305506481789052 ], [ 3090426.541291000787169, 2036854.395255286712199 ], [ 3090413.067570219747722, 2036846.204402608098462 ], [ 3090403.573600050993264, 2036840.433019844582304 ], [ 3090393.785987001378089, 2036831.857202518032864 ], [ 3090388.745180930010974, 2036814.659718231763691 ], [ 3090399.377914620097727, 2036802.265101186698303 ], [ 3090405.616546580567956, 2036794.841730328043923 ], [ 3090420.273755853064358, 2036777.109094627201557 ], [ 3090437.099723928608, 2036758.611029048450291 ], [ 3090443.517560933716595, 2036749.447683722479269 ], [ 3090452.886319859884679, 2036732.235289395786822 ], [ 3090462.32045359397307, 2036707.407477911794558 ], [ 3090464.81733824359253, 2036687.022685424657539 ], [ 3090464.303047260269523, 2036673.657110672676936 ], [ 3090463.550296985544264, 2036655.221054090652615 ], [ 3090464.474827502854168, 2036640.641592598287389 ], [ 3090467.91115871630609, 2036614.063699811464176 ], [ 3090470.190694537013769, 2036604.969129554228857 ], [ 3090472.470232336781919, 2036595.874560108175501 ], [ 3090475.210480239707977, 2036586.128175839083269 ], [ 3090477.804850439075381, 2036576.900285119423643 ], [ 3090478.710567509755492, 2036567.485068602021784 ], [ 3090479.616400897502899, 2036558.069933820981532 ], [ 3090473.004164926707745, 2036536.287836604518816 ], [ 3090462.203780754934996, 2036528.73236985062249 ], [ 3090438.722511928528547, 2036524.607725441455841 ], [ 3090416.21745831752196, 2036521.90383844031021 ], [ 3090391.644319540821016, 2036517.318295069271699 ], [ 3090385.371973904781044, 2036489.709399479674175 ], [ 3090395.100817534141243, 2036463.930464977398515 ], [ 3090396.259605168830603, 2036436.063810386927798 ], [ 3090393.087923451326787, 2036411.468402534257621 ], [ 3090391.285070871002972, 2036397.960570369847119 ], [ 3090399.950036833994091, 2036393.898524153977633 ], [ 3090410.470778758637607, 2036388.966516718734056 ], [ 3090417.578889202326536, 2036400.542332130949944 ], [ 3090423.78339464450255, 2036411.422263235086575 ], [ 3090427.467588326428086, 2036420.914281754288822 ], [ 3090436.812257726211101, 2036435.375560727203265 ], [ 3090445.333780979737639, 2036440.061658440856263 ], [ 3090453.855304832570255, 2036444.747757537057623 ], [ 3090476.090440092608333, 2036446.545476972125471 ], [ 3090487.425215775612742, 2036445.669922428205609 ], [ 3090498.759894241113216, 2036444.794388228561729 ], [ 3090520.673699838109314, 2036436.747216464718804 ], [ 3090529.638096941169351, 2036430.914217975456268 ], [ 3090548.041996292769909, 2036414.332509225234389 ], [ 3090564.461544907651842, 2036394.152944595785812 ], [ 3090571.733182640746236, 2036383.381140533369035 ], [ 3090581.004877229221165, 2036369.064607864711434 ], [ 3090599.766148175112903, 2036343.34271246008575 ], [ 3090607.087749695871025, 2036333.985407101223245 ], [ 3090622.039101340342313, 2036307.957606297452003 ], [ 3090625.383528317324817, 2036288.343081552768126 ], [ 3090635.041155185550451, 2036270.493529630592093 ], [ 3090649.375823182985187, 2036261.722414563177153 ], [ 3090661.030949981883168, 2036256.987424387596548 ], [ 3090672.032005566172302, 2036252.518129226751626 ], [ 3090693.102045753970742, 2036244.472831627586856 ], [ 3090707.561547961086035, 2036238.951694224728271 ], [ 3090726.960445119068027, 2036230.684365631779656 ], [ 3090741.80384196061641, 2036219.781231368426234 ], [ 3090752.968145708553493, 2036211.580686582950875 ], [ 3090766.117244330700487, 2036201.922143982723355 ], [ 3090770.204517406411469, 2036198.919858381850645 ], [ 3090780.754962004721165, 2036191.17022941634059 ], [ 3090793.407878044992685, 2036181.876222944585606 ], [ 3090802.959549810737371, 2036174.860125434352085 ], [ 3090813.999839600175619, 2036166.75065493863076 ], [ 3090828.145828299690038, 2036157.291518238373101 ], [ 3090838.759888629429042, 2036152.436168289510533 ], [ 3090848.011993109248579, 2036148.203796306625009 ], [ 3090862.544933738186955, 2036141.55578769557178 ], [ 3090884.071082445327193, 2036131.708789012394845 ], [ 3090906.7401680983603, 2036123.312743464717641 ], [ 3090932.145626700483263, 2036125.38696789718233 ], [ 3090949.796180890407413, 2036132.72715278994292 ], [ 3090963.6096341307275, 2036124.213462497806177 ], [ 3090972.022462054155767, 2036117.351164331194013 ], [ 3090985.698642638977617, 2036102.255801552673802 ], [ 3090994.49471676396206, 2036090.755614757072181 ], [ 3091001.175497317686677, 2036083.604518541134894 ], [ 3091014.884160260669887, 2036072.869743543211371 ], [ 3091023.887972203083336, 2036065.617864153115079 ], [ 3091033.391842413693666, 2036055.040660420665517 ], [ 3091042.014811494387686, 2036045.444045454962179 ], [ 3091052.740043315570801, 2036032.376779324375093 ], [ 3091060.445789294783026, 2036023.786941662430763 ], [ 3091074.073048770427704, 2036009.503248258726671 ], [ 3091080.850801013410091, 2036002.448919014306739 ], [ 3091087.628472417593002, 2035995.394707514904439 ], [ 3091088.333077441900969, 2035994.652190000750124 ], [ 3086811.295590001158416, 2035994.652190000750124 ], [ 3086811.295590001158416, 2043136.832281214185059 ], [ 3086817.821282668039203, 2043125.574762339470908 ], [ 3086829.553676145151258, 2043117.759093029191718 ], [ 3086843.66471401322633, 2043110.272895334754139 ], [ 3086861.512295574881136, 2043109.003268546890467 ], [ 3086874.086788639426231, 2043119.798196417279541 ], [ 3086884.577903643250465, 2043133.866676175966859 ], [ 3086914.697170024737716, 2043118.892323802458122 ], [ 3086892.806367423385382, 2043090.744357876712456 ], [ 3086921.751300266943872, 2043064.295279257697985 ], [ 3086885.324311557691544, 2043061.444074208848178 ], [ 3086885.730026815086603, 2043051.745987514033914 ], [ 3086886.680490567348897, 2043029.031289577949792 ], [ 3086887.468135449104011, 2043012.765625255648047 ], [ 3086888.446308470331132, 2042993.372976216021925 ], [ 3086888.367200498003513, 2042979.638464963529259 ], [ 3086888.070250089280307, 2042965.046261532930657 ], [ 3086874.468511412851512, 2042941.547125581884757 ], [ 3086878.415670384187251, 2042930.856658910633996 ], [ 3086886.357621430419385, 2042909.346802279353142 ], [ 3086890.093657822348177, 2042896.234264188446105 ], [ 3086887.470293113961816, 2042875.111484861699864 ], [ 3086884.48516752012074, 2042851.074537961743772 ], [ 3086879.013451782055199, 2042830.225141550181434 ], [ 3086876.264493928290904, 2042819.750167997088283 ], [ 3086867.94084310438484, 2042801.437134138774127 ], [ 3086858.321109265089035, 2042780.272301593562588 ], [ 3086855.028922138735652, 2042769.272902191849425 ], [ 3086847.789482882246375, 2042745.084878962486982 ], [ 3086844.99817020772025, 2042729.441904916195199 ], [ 3086841.978326569311321, 2042709.203634701203555 ], [ 3086839.330774825997651, 2042690.944823300233111 ], [ 3086836.559397721663117, 2042667.592631520936266 ], [ 3086834.410647311713547, 2042649.832883182214573 ], [ 3086830.357379433698952, 2042619.756466889986768 ], [ 3086826.877430399879813, 2042598.353995107812807 ], [ 3086825.364471516571939, 2042585.286275388207287 ], [ 3086823.46853798488155, 2042567.062121735187247 ], [ 3086820.424965080805123, 2042539.652613102225587 ], [ 3086818.619924095459282, 2042522.648635341785848 ], [ 3086816.038094101473689, 2042497.987943084677681 ], [ 3086818.852105803322047, 2042483.764951096149161 ], [ 3086824.744222735986114, 2042464.578274375293404 ], [ 3086828.329053179360926, 2042452.90455183130689 ], [ 3086838.092695523053408, 2042459.711165985558182 ], [ 3086848.732392379082739, 2042467.128605285426602 ], [ 3086860.757740922737867, 2042475.511934726731852 ], [ 3086876.003930049948394, 2042533.482805795269087 ], [ 3086878.423580063506961, 2042587.336916737956926 ], [ 3086895.405674988403916, 2042613.405809576855972 ], [ 3086905.408265844918787, 2042647.476142641156912 ], [ 3086911.368168762885034, 2042659.817806782433763 ], [ 3086937.147307890001684, 2042713.200875592418015 ], [ 3086960.868756975978613, 2042741.088714760961011 ], [ 3086952.091506845783442, 2042766.473638905910775 ], [ 3086957.635526829399168, 2042793.130059444345534 ], [ 3086968.352090511936694, 2042825.676025168038905 ], [ 3086982.08451116271317, 2042862.560008867178112 ], [ 3086998.898082121275365, 2042876.302343070041388 ], [ 3087012.621181176975369, 2042887.518897876143456 ], [ 3087008.836368200369179, 2042914.644741395721212 ], [ 3087005.670989993494004, 2042937.330490947002545 ], [ 3086995.911916804499924, 2042977.812862480059266 ], [ 3086994.914849418215454, 2043011.952527616173029 ], [ 3087015.673230167012662, 2043043.568076255964115 ], [ 3087038.830252297222614, 2043083.960153767140582 ], [ 3087053.993719692341983, 2043094.164167567854747 ], [ 3087071.579818392172456, 2043105.99850232177414 ], [ 3087087.802841407246888, 2043116.915547254029661 ], [ 3087098.152945070993155, 2043123.461100678192452 ], [ 3087114.759822187479585, 2043131.906365289120004 ], [ 3087131.666421171743423, 2043140.504088649526238 ], [ 3087151.349769989028573, 2043156.06162792025134 ], [ 3087160.943862106651068, 2043164.278911917703226 ], [ 3087149.219651664607227, 2043173.210832274053246 ], [ 3087130.803014607634395, 2043187.241315981606022 ], [ 3087118.790143149904907, 2043198.656257439637557 ], [ 3087100.784895742312074, 2043216.97688927128911 ], [ 3087098.480774352326989, 2043234.16198768070899 ], [ 3087094.342684889677912, 2043265.026230753632262 ], [ 3087116.188730691559613, 2043277.498557569924742 ], [ 3087127.111084165982902, 2043283.73433647188358 ], [ 3087135.34754393575713, 2043288.192543686833233 ], [ 3087155.534932132344693, 2043297.348466542549431 ], [ 3087171.18775718100369, 2043307.23775445506908 ], [ 3087175.287768108770251, 2043322.114711909322068 ], [ 3087178.250879582948983, 2043332.866278209490702 ], [ 3087193.331029622815549, 2043339.987171036656946 ], [ 3087204.238445999566466, 2043345.137707149377093 ], [ 3087229.189585153013468, 2043356.919745963299647 ], [ 3087236.174333364702761, 2043367.244740404654294 ], [ 3087245.90577747579664, 2043381.630018864991143 ], [ 3087251.332505979109555, 2043389.106807259377092 ], [ 3087262.46655148640275, 2043402.346166238188744 ], [ 3087268.466621946077794, 2043409.48065524129197 ], [ 3087281.768520394340158, 2043419.607457055710256 ], [ 3087294.95279436558485, 2043429.644727272680029 ], [ 3087310.221293627750129, 2043430.798841602634639 ], [ 3087323.721182589884847, 2043431.819285176927224 ], [ 3087341.625996911898255, 2043438.190296759363264 ], [ 3087356.923574647866189, 2043444.471433419268578 ], [ 3087352.836491340771317, 2043457.105676716193557 ], [ 3087346.809501867275685, 2043466.105822667712346 ], [ 3087338.04055908229202, 2043482.466683919308707 ], [ 3087330.353962938301265, 2043496.80811333656311 ], [ 3087333.663557391613722, 2043516.191665759077296 ], [ 3087339.879856108687818, 2043532.444331143749878 ], [ 3087350.064346561208367, 2043538.412123107817024 ], [ 3087368.524796902667731, 2043544.862010563490912 ], [ 3087379.642976099159569, 2043550.738677562447265 ], [ 3087391.436193757690489, 2043556.972237624926493 ], [ 3087402.164052388165146, 2043562.642671342007816 ], [ 3087370.145726358518004, 2043591.062006257241592 ], [ 3087392.158431794028729, 2043623.259346742415801 ], [ 3087438.741038899403065, 2043640.278016951633617 ], [ 3087446.515638017095625, 2043646.46941866632551 ], [ 3087464.697412495967001, 2043660.948655795305967 ], [ 3087470.403869168367237, 2043672.522054128814489 ], [ 3087472.581507523078471, 2043685.924386342521757 ], [ 3087462.461945268325508, 2043697.762627679156139 ], [ 3087446.932902582455426, 2043704.773629283765331 ], [ 3087429.387722666841, 2043710.725651287473738 ], [ 3087418.699874058365822, 2043712.649596255505458 ], [ 3087383.144509172067046, 2043717.739777386886999 ], [ 3087355.921474086120725, 2043716.303506406024098 ], [ 3087339.728760857135057, 2043732.9271120862104 ], [ 3087355.337829617783427, 2043754.908149935305119 ], [ 3087402.344597177114338, 2043750.435235790908337 ], [ 3087413.702452878467739, 2043763.096388270845637 ], [ 3087424.894586343318224, 2043775.572749655693769 ], [ 3087434.011596804950386, 2043785.735921665793285 ], [ 3087429.506478964351118, 2043794.596761135617271 ], [ 3087419.234626702964306, 2043814.799724711105227 ], [ 3087412.135088505223393, 2043828.763425482669845 ], [ 3087402.384663275443017, 2043847.941024257801473 ], [ 3087394.282930342014879, 2043853.893825940554962 ], [ 3087366.672346618957818, 2043874.180597680155188 ], [ 3087373.032015852630138, 2043901.930546046234667 ], [ 3087384.853928529191762, 2043921.057873632991686 ], [ 3087394.48101572971791, 2043936.634231196017936 ], [ 3087412.271869315765798, 2043956.629727287683636 ], [ 3087424.516718182712793, 2043970.392012602416798 ], [ 3087436.832650013733655, 2043979.311536212917417 ], [ 3087447.736253773793578, 2043987.208161854883656 ], [ 3087459.102465277072042, 2043989.482293413719162 ], [ 3087477.349100118502975, 2043993.133086798479781 ], [ 3087491.339904965832829, 2043993.583833051146939 ], [ 3087507.792050322983414, 2043993.190485410857946 ], [ 3087518.676635354291648, 2043992.930307971779257 ], [ 3087526.631850206758827, 2044024.626904701581225 ], [ 3087555.55564282881096, 2043999.166648713173345 ], [ 3087570.71726201614365, 2043984.88939477247186 ], [ 3087584.401668153703213, 2043963.631775724235922 ], [ 3087595.580103253014386, 2043946.266936088446528 ], [ 3087594.756381415762007, 2043933.342770918738097 ], [ 3087592.698602852411568, 2043901.056771364528686 ], [ 3087586.138799879234284, 2043880.721690614940599 ], [ 3087579.334193422459066, 2043859.627731687854975 ], [ 3087582.304157718550414, 2043841.774111069971696 ], [ 3087585.025480845011771, 2043825.41512764361687 ], [ 3087595.508062500506639, 2043820.690285030053928 ], [ 3087607.894887798465788, 2043815.106995185604319 ], [ 3087622.333740069530904, 2043814.063227876089513 ], [ 3087647.802212650887668, 2043810.970302115892991 ], [ 3087662.616193186957389, 2043805.293659579241648 ], [ 3087671.349696915131062, 2043801.946961169363931 ], [ 3087690.110892652068287, 2043802.028591141104698 ], [ 3087700.148983102291822, 2043805.45720657100901 ], [ 3087712.834400406107306, 2043811.39434751868248 ], [ 3087725.271629848051816, 2043815.680588557850569 ], [ 3087741.299356078729033, 2043815.91855453280732 ], [ 3087755.799820948857814, 2043816.13394316076301 ], [ 3087767.790706212632358, 2043823.687236497877166 ], [ 3087775.712062316946685, 2043828.677039122674614 ], [ 3087783.688499239273369, 2043833.70158034726046 ], [ 3087797.321227394044399, 2043841.359331735642627 ], [ 3087806.29998576361686, 2043846.402820738498122 ], [ 3087821.076841624453664, 2043852.17067137430422 ], [ 3087835.311471142806113, 2043857.726850624661893 ], [ 3087848.397899546194822, 2043866.666632149834186 ], [ 3087859.31553372181952, 2043874.124784975545481 ], [ 3087869.772551270667464, 2043877.423832980683073 ], [ 3087894.301723964512348, 2043885.162376202642918 ], [ 3087907.872962737455964, 2043896.219719042535871 ], [ 3087924.023352669551969, 2043909.378317228518426 ], [ 3087935.398315124213696, 2043917.686042689252645 ], [ 3087952.207232196349651, 2043929.697110447334126 ], [ 3087961.7731032371521, 2043940.872867080848664 ], [ 3087974.525906131137162, 2043957.767914593685418 ], [ 3087987.127243118360639, 2043968.749922192189842 ], [ 3087998.466121774632484, 2043978.631812629988417 ], [ 3088005.561904720962048, 2043987.533684321446344 ], [ 3088013.413696518167853, 2043997.384045435581356 ], [ 3088020.663367096334696, 2044007.842043703887612 ], [ 3088030.818628796376288, 2044022.491351370699704 ], [ 3088044.42441702215001, 2044047.036721348529682 ], [ 3088056.778925359714776, 2044054.276104498887435 ], [ 3088067.615114388056099, 2044060.625955008203164 ], [ 3088081.012789553031325, 2044063.693052815273404 ], [ 3088100.325584214180708, 2044068.114343415712938 ], [ 3088111.682878975290805, 2044070.714410206303 ], [ 3088127.690455111674964, 2044063.391490112990141 ], [ 3088142.535096050705761, 2044056.600479918997735 ], [ 3088162.5909069981426, 2044060.183394305408001 ], [ 3088213.154220730066299, 2044069.216337772086263 ], [ 3088273.314787533134222, 2044086.867704745382071 ], [ 3088302.247163090854883, 2044094.947974662529305 ], [ 3088326.94934088550508, 2044096.336929263314232 ], [ 3088337.220641621388495, 2044097.612119902390987 ], [ 3088370.830231213010848, 2044101.543125082738698 ], [ 3088411.752980118151754, 2044101.776264412328601 ], [ 3088445.802096693776548, 2044095.023780115880072 ], [ 3088456.15301237301901, 2044094.489429750945419 ], [ 3088490.030661964789033, 2044092.740591114154086 ], [ 3088499.57092312630266, 2044092.760196881834418 ], [ 3088531.437120815273374, 2044092.825688146287575 ], [ 3088552.872589482925832, 2044087.049647356150672 ], [ 3088574.720229536294937, 2044078.91823234478943 ], [ 3088594.432778758462518, 2044055.888234593672678 ], [ 3088615.391310742124915, 2044031.402631426695734 ], [ 3088628.238038514740765, 2044003.792778148083016 ], [ 3088641.745423756539822, 2043968.918154867598787 ], [ 3088644.280109721235931, 2043959.127166070975363 ], [ 3088647.670918249059469, 2043942.499113976722583 ], [ 3088653.19856780488044, 2043915.392475776141509 ], [ 3088642.450963701121509, 2043863.814578251447529 ], [ 3088607.047525039874017, 2043834.999263511504978 ], [ 3088574.946438374463469, 2043828.01349108456634 ], [ 3088558.447775159962475, 2043802.128462306922302 ], [ 3088541.732823042664677, 2043770.216540907509625 ] ] ], [ [ [ 3086811.518543511163443, 2043947.12479117885232 ], [ 3086825.692526502534747, 2043930.966775921639055 ], [ 3086842.818732843734324, 2043930.008722059661523 ], [ 3086859.716177439317107, 2043929.063515466637909 ], [ 3086893.776382292620838, 2043907.042574782855809 ], [ 3086911.444661417044699, 2043902.239196251612157 ], [ 3086921.895724105648696, 2043899.397924733813852 ], [ 3086938.886000575497746, 2043902.263618588680401 ], [ 3086953.266200116835535, 2043904.68912291387096 ], [ 3086970.724146984983236, 2043888.180353355361149 ], [ 3086972.320785538293421, 2043865.503480471903458 ], [ 3086967.661550213117152, 2043855.408413933590055 ], [ 3086961.212633811868727, 2043844.380890377797186 ], [ 3086952.955190855078399, 2043830.260585456388071 ], [ 3086960.892503258772194, 2043819.12637946382165 ], [ 3086967.103706857189536, 2043810.413538402644917 ], [ 3086977.490125116892159, 2043795.844025065889582 ], [ 3086968.938543668948114, 2043776.702805817360058 ], [ 3086964.225276274140924, 2043766.152962316293269 ], [ 3086960.178940308280289, 2043754.496839482802898 ], [ 3086956.615746633615345, 2043743.990533663192764 ], [ 3086952.558896276634187, 2043732.028903416357934 ], [ 3086920.61807229090482, 2043730.859940898837522 ], [ 3086886.145995456725359, 2043743.534037361619994 ], [ 3086862.091274664737284, 2043744.062733827158809 ], [ 3086852.851778773590922, 2043744.265771782258525 ], [ 3086821.961689964868128, 2043749.423099934589118 ], [ 3086811.295590001158416, 2043750.50832987530157 ], [ 3086811.295590001158416, 2043947.396476379130036 ], [ 3086811.518543511163443, 2043947.12479117885232 ] ] ], [ [ [ 3086820.049730233848095, 2043630.337723726406693 ], [ 3086834.405856220051646, 2043629.133533044019714 ], [ 3086844.490430164150894, 2043628.287627960788086 ], [ 3086874.057599341496825, 2043635.676261857384816 ], [ 3086899.486099168658257, 2043646.784595712320879 ], [ 3086893.744439619593322, 2043629.893556330585852 ], [ 3086887.998953305184841, 2043612.991238658083603 ], [ 3086875.310372114181519, 2043599.338774491101503 ], [ 3086862.675160981249064, 2043578.943784161936492 ], [ 3086880.62220990145579, 2043566.855038163950667 ], [ 3086908.381886823102832, 2043561.422798809595406 ], [ 3086923.605208178516477, 2043559.205003216164187 ], [ 3086933.214412093162537, 2043557.805143577978015 ], [ 3086943.834000813309103, 2043551.065936264116317 ], [ 3086953.904581479728222, 2043542.831755380844697 ], [ 3086962.306595647707582, 2043535.961877514375374 ], [ 3086974.990026961546391, 2043527.64996040915139 ], [ 3086991.057137075811625, 2043517.120793659007177 ], [ 3086993.867700927890837, 2043504.859249636763707 ], [ 3086994.620702120475471, 2043470.972308255266398 ], [ 3087015.21257677860558, 2043452.03495595511049 ], [ 3087031.653239885810763, 2043439.432194654596969 ], [ 3087043.229774641804397, 2043430.558063430478796 ], [ 3087030.159304717555642, 2043410.759509344818071 ], [ 3087022.978730071336031, 2043399.882640230702236 ], [ 3086998.313690794631839, 2043369.991211707703769 ], [ 3086991.04858926218003, 2043361.1867604192812 ], [ 3086978.627887061797082, 2043350.362234307685867 ], [ 3086953.656458975747228, 2043328.6000107859727 ], [ 3086944.710418693721294, 2043310.522564488695934 ], [ 3086934.647066763602197, 2043290.187339187832549 ], [ 3086952.756143746897578, 2043281.178564170841128 ], [ 3086956.704116974957287, 2043250.930555163417011 ], [ 3086948.403958801645786, 2043245.817840535659343 ], [ 3086926.716179359704256, 2043232.458794463193044 ], [ 3086903.902353124227375, 2043213.572613065131009 ], [ 3086883.054839351214468, 2043213.185440443456173 ], [ 3086865.301236385479569, 2043211.776785225374624 ], [ 3086846.123831376899034, 2043201.229393378132954 ], [ 3086830.908918492030352, 2043192.861338895745575 ], [ 3086818.743483817204833, 2043185.488358978182077 ], [ 3086811.295590001158416, 2043180.974504731828347 ], [ 3086811.295590001158416, 2043631.164146903902292 ], [ 3086820.049730233848095, 2043630.337723726406693 ] ] ] ] } }
]
}
