{
"type": "FeatureCollection",
"name": "Fresneda_de_la_Sierra_Tirón",
"crs": { "type": "name", "properties": { "name": "urn:ogc:def:crs:EPSG::3035" } },
"features": [
{ "type": "Feature", "properties": { "ENP_GRAL": 1.0, "ENP_GRAL_NAME": "Otros Parques", "color": "#38A800" }, "geometry": { "type": "Polygon", "coordinates": [ [ [ 3241561.72158707305789, 2217620.922250919044018 ], [ 3241617.155890365596861, 2217681.193609084468335 ], [ 3241669.649470827076584, 2217773.416536509990692 ], [ 3241679.995825488120317, 2217550.921089999377728 ], [ 3241504.729020747356117, 2217550.921089999377728 ], [ 3241561.72158707305789, 2217620.922250919044018 ] ] ] } },
{ "type": "Feature", "properties": { "ENP_GRAL": 5.0, "ENP_GRAL_NAME": "Espacios Protegidos Red Natura 2000", "color": "#A87000" }, "geometry": { "type": "Polygon", "coordinates": [ [ [ 3241561.72158707305789, 2217620.922250919044018 ], [ 3241617.155890365596861, 2217681.193609084468335 ], [ 3241669.649470827076584, 2217773.416536509990692 ], [ 3241682.685317242052406, 2217787.140836990438402 ], [ 3241684.351455844007432, 2217788.894402630627155 ], [ 3241702.691653854213655, 2217808.197939254809171 ], [ 3241731.544573077000678, 2217929.911359889432788 ], [ 3241749.175576069392264, 2218026.206723686307669 ], [ 3241771.32867812179029, 2218068.976943415589631 ], [ 3241866.91627941839397, 2218189.151317882351577 ], [ 3241907.959340966306627, 2218264.979195880237967 ], [ 3241932.102290902752429, 2218309.571958426386118 ], [ 3241974.631441919133067, 2218459.315579431131482 ], [ 3241994.039829410146922, 2218597.893865174613893 ], [ 3241997.960178622975945, 2218853.776855007745326 ], [ 3241981.898398343939334, 2218986.393619356211275 ], [ 3241963.50547301210463, 2219054.515467485878617 ], [ 3241882.848246783018112, 2219189.307270859368145 ], [ 3241882.846325705759227, 2219189.310446570627391 ], [ 3241862.814080066978931, 2219328.703396410681307 ], [ 3241861.099304931238294, 2219358.233801956288517 ], [ 3241859.813581814058125, 2219380.424927945248783 ], [ 3241856.39283147174865, 2219439.355446171015501 ], [ 3241910.906294118613005, 2219556.569323020521551 ], [ 3242002.056636653840542, 2219605.52062205504626 ], [ 3242091.17784730438143, 2219666.997236114926636 ], [ 3242142.083027189131826, 2219711.836210080888122 ], [ 3242217.356352161616087, 2219792.011866982560605 ], [ 3242323.624238728079945, 2219905.198913894593716 ], [ 3242345.609924600925297, 2219984.50882720341906 ], [ 3242462.627866059076041, 2220161.772827854845673 ], [ 3242588.328862497583032, 2220167.157866052351892 ], [ 3242712.323205512482673, 2220293.518377571366727 ], [ 3242725.624437593854964, 2220331.754918794613332 ], [ 3242730.31556201307103, 2220379.728300645947456 ], [ 3242730.820545495953411, 2220384.887882377952337 ], [ 3242734.89075765106827, 2220426.47442123433575 ], [ 3242747.552008546423167, 2220460.766927930526435 ], [ 3242807.010357297025621, 2220542.66671396791935 ], [ 3242869.055136770009995, 2220628.125887234229594 ], [ 3242905.054249278269708, 2220662.390097950119525 ], [ 3242940.35996876237914, 2220685.345541730523109 ], [ 3242949.293686747550964, 2220691.151044162921607 ], [ 3243066.694758328609169, 2220714.213270289823413 ], [ 3243228.560928603634238, 2220717.325231741182506 ], [ 3243228.563470083288848, 2220717.326510999817401 ], [ 3243209.617844810709357, 2220763.234561380930245 ], [ 3243201.124618610367179, 2220823.53921856591478 ], [ 3243177.725457661785185, 2220858.999697045888752 ], [ 3243169.354540874250233, 2220871.690652092918754 ], [ 3243138.078564708586782, 2220954.23684716783464 ], [ 3243125.369914744049311, 2221145.087186080403626 ], [ 3243106.38878121599555, 2221234.607483029831201 ], [ 3243098.967821720056236, 2221276.470943189226091 ], [ 3243081.036142921075225, 2221316.11995574273169 ], [ 3243021.274446063209325, 2221448.272544845473021 ], [ 3243017.5054085040465, 2221625.386341038160026 ], [ 3243017.505293096415699, 2221625.390012092888355 ], [ 3243024.90548063442111, 2221696.09327131183818 ], [ 3243024.905919805634767, 2221696.097859437577426 ], [ 3243040.709979134146124, 2221762.287337654735893 ], [ 3243009.796876409556717, 2221961.166609523817897 ], [ 3243002.95784330368042, 2222005.181480022147298 ], [ 3242991.441479532048106, 2222115.710145552642643 ], [ 3242916.507156145293266, 2222367.145712757017463 ], [ 3242884.651260094717145, 2222433.56882139435038 ], [ 3242838.973266636021435, 2222510.266611967235804 ], [ 3242828.017641206271946, 2222528.666988007724285 ], [ 3242795.787247544154525, 2222749.305025276727974 ], [ 3242920.877858648076653, 2222888.656704453285784 ], [ 3243056.291345403995365, 2222987.443053755909204 ], [ 3243137.263023367151618, 2223046.507448250893503 ], [ 3243239.808009142056108, 2223228.345951517112553 ], [ 3243364.045645432546735, 2223374.947378716431558 ], [ 3243412.45072257053107, 2223420.225877597462386 ], [ 3243429.642031191848218, 2223436.305524297989905 ], [ 3243448.981103836558759, 2223454.395053830929101 ], [ 3243448.985637176316231, 2223454.399229731410742 ], [ 3243632.649058813229203, 2223723.446208984125406 ], [ 3243587.690482037141919, 2223828.651261122431606 ], [ 3243502.431243079714477, 2224028.167392649687827 ], [ 3243427.105105738155544, 2224102.154027117881924 ], [ 3243426.412722111679614, 2224102.834103494882584 ], [ 3243377.497399233281612, 2224150.879839496687055 ], [ 3243337.848864953964949, 2224189.826474250294268 ], [ 3243206.910059883724898, 2224471.354540673084557 ], [ 3243340.096616842318326, 2224967.28649003431201 ], [ 3243344.740484283305705, 2224993.982642514631152 ], [ 3243347.115991008467972, 2225007.638267462141812 ], [ 3243370.211440389975905, 2225140.506956176366657 ], [ 3243379.000840657390654, 2225232.270989106502384 ], [ 3243383.221356679685414, 2225389.741940394509584 ], [ 3243337.875221179798245, 2225679.617299568839371 ], [ 3243311.85863734036684, 2225796.727339525241405 ], [ 3243261.72466838452965, 2226022.425234144553542 ], [ 3243221.140684076584876, 2226205.101596735417843 ], [ 3243207.65245668310672, 2226391.027108671609312 ], [ 3243218.41935816872865, 2226482.456187004223466 ], [ 3243252.457560996990651, 2226661.066930058412254 ], [ 3243252.458509998396039, 2226661.071530546527356 ], [ 3243243.118628561496735, 2226728.628017066046596 ], [ 3243243.117931970860809, 2226728.633108443114907 ], [ 3243224.979427099693567, 2227073.580267183482647 ], [ 3243224.97629822883755, 2227073.585378681309521 ], [ 3243191.843369814567268, 2227166.705875272396952 ], [ 3243102.993935841135681, 2227416.43298829626292 ], [ 3243085.276488122530282, 2227519.938372621312737 ], [ 3243092.528120392002165, 2227552.136897954158485 ], [ 3243196.79015987040475, 2227757.001872816123068 ], [ 3243196.791658494621515, 2227757.004855858162045 ], [ 3243217.293682175688446, 2227839.617705157957971 ], [ 3243217.294554018415511, 2227839.621203596238047 ], [ 3243070.546395583078265, 2227985.998027668800205 ], [ 3243000.505237352102995, 2228067.224100385326892 ], [ 3242963.45876398589462, 2228120.362589374184608 ], [ 3242950.414135205559433, 2228171.327547618187964 ], [ 3242946.757748338393867, 2228217.606217725202441 ], [ 3242953.633979002013803, 2228297.537517155986279 ], [ 3242963.529287186451256, 2228350.160045812372118 ], [ 3242968.4097162601538, 2228376.085828253533691 ], [ 3242993.074864648282528, 2228446.81783802062273 ], [ 3243106.860300819389522, 2228691.601628457196057 ], [ 3243179.101074773352593, 2228817.897877023555338 ], [ 3243228.33065560599789, 2228871.143565543461591 ], [ 3243295.615914560854435, 2228929.342723736539483 ], [ 3243371.034690625965595, 2229006.401803477201611 ], [ 3243371.03432499896735, 2229006.406431347131729 ], [ 3243366.308104621246457, 2229146.173923808615655 ], [ 3243614.327016175258905, 2229286.318065294064581 ], [ 3243826.701653352472931, 2229237.983845524024218 ], [ 3243826.705928565468639, 2229237.983299962244928 ], [ 3243930.855233425740153, 2229331.690058402251452 ], [ 3243993.171166545711458, 2229387.756406836211681 ], [ 3244051.285418276675045, 2229440.043552444316447 ], [ 3244051.288495849817991, 2229440.046259114518762 ], [ 3244087.068084945436567, 2229673.130254291463643 ], [ 3244087.893654170446098, 2229709.497511921450496 ], [ 3244062.823071549646556, 2229730.11458678683266 ], [ 3244003.854707300662994, 2229760.721304414793849 ], [ 3243966.782191759906709, 2229786.392017820850015 ], [ 3243752.965403775684536, 2229934.461241783574224 ], [ 3243726.721641428768635, 2229960.354173771571368 ], [ 3243706.984858259558678, 2230001.335069814696908 ], [ 3243535.066606415901333, 2230267.744797819759697 ], [ 3243535.063429911620915, 2230267.749613585881889 ], [ 3243512.182074441574514, 2230314.347272655926645 ], [ 3243513.299038376193494, 2230471.353791722096503 ], [ 3243505.830511584877968, 2230525.400318025611341 ], [ 3243505.826415010727942, 2230525.405092055909336 ], [ 3243487.960330669768155, 2230552.869471217505634 ], [ 3243487.957628909964114, 2230552.874710998032242 ], [ 3243486.106276182457805, 2230556.648253015242517 ], [ 3243484.153011285699904, 2230560.639943332411349 ], [ 3243438.010639580897987, 2230739.105178729631007 ], [ 3243375.869678700808436, 2230781.425200517755002 ], [ 3243336.904674673452973, 2230822.730311126448214 ], [ 3243300.765031363815069, 2230969.01873330026865 ], [ 3243282.655776788014919, 2231013.772027486935258 ], [ 3243282.653664533048868, 2231013.77402004506439 ], [ 3243091.53953059669584, 2231199.370000571478158 ], [ 3243084.232153875753284, 2231254.398688740096986 ], [ 3243105.833717859350145, 2231350.009623590391129 ], [ 3243105.834616588894278, 2231350.014537316281348 ], [ 3243167.866682438645512, 2231707.315281209070235 ], [ 3243167.867799886967987, 2231707.319041003007442 ], [ 3243267.159763193689287, 2231925.228826468810439 ], [ 3243321.646205973345786, 2232017.110549825709313 ], [ 3243377.412674403749406, 2232079.35559863364324 ], [ 3243377.409596789162606, 2232079.360397225245833 ], [ 3243319.034307941794395, 2232163.616266291122884 ], [ 3243302.447466216050088, 2232236.502678622025996 ], [ 3243333.113319411873817, 2232343.262145306915045 ], [ 3243366.128162634093314, 2232458.180688682943583 ], [ 3243405.081815966870636, 2232593.797861655708402 ], [ 3243446.310452478937805, 2232635.258418466430157 ], [ 3243986.187720329500735, 2232552.596034733578563 ], [ 3243999.829883922822773, 2232550.507227869704366 ], [ 3243999.832958901301026, 2232550.506790916901082 ], [ 3244819.729920269921422, 2232506.34697361337021 ], [ 3245093.046309235040098, 2232402.901048336178064 ], [ 3245093.797981316223741, 2232402.61651797965169 ], [ 3245213.639132829383016, 2232357.255942570976913 ], [ 3245885.845909999683499, 2232328.649086802732199 ], [ 3245885.845909999683499, 2217550.921089999377728 ], [ 3241504.731539736036211, 2217550.921089999377728 ], [ 3241561.72158707305789, 2217620.922250919044018 ] ] ] } }
]
}
