{
"type": "FeatureCollection",
"name": "Puebla_de_Pedraza",
"crs": { "type": "name", "properties": { "name": "urn:ogc:def:crs:EPSG::3035" } },
"features": [
{ "type": "Feature", "properties": { "ENP_GRAL": 1.0, "ENP_GRAL_NAME": "Otros Parques", "color": "#38A800" }, "geometry": { "type": "Polygon", "coordinates": [ [ [ 3158751.938460666686296, 2114875.063848770223558 ], [ 3158754.939696046989411, 2114880.101179847493768 ], [ 3158757.900965777225792, 2114885.774031789042056 ], [ 3158759.956785938236862, 2114890.612742227502167 ], [ 3158761.934856602922082, 2114895.282664909027517 ], [ 3158764.029329444281757, 2114899.982796075288206 ], [ 3158766.08477624412626, 2114904.882394389715046 ], [ 3158767.931812524795532, 2114909.747695951722562 ], [ 3158769.691575125325471, 2114914.891910552047193 ], [ 3158771.905525145120919, 2114919.956228929571807 ], [ 3158772.710022105835378, 2114921.725015977397561 ], [ 3158774.509759161621332, 2114925.681853589601815 ], [ 3158775.38416035566479, 2114927.796887462958694 ], [ 3158776.702029330655932, 2114931.011316500604153 ], [ 3158778.384214570280164, 2114935.461822781711817 ], [ 3158780.837859679013491, 2114940.818496206309646 ], [ 3158783.747734697535634, 2114946.297653041779995 ], [ 3158786.354405201971531, 2114951.090150145348161 ], [ 3158789.029986112378538, 2114956.184770646505058 ], [ 3158791.445473720319569, 2114960.798023437615484 ], [ 3158793.720987785607576, 2114965.740007585845888 ], [ 3158795.704173490870744, 2114970.632046132814139 ], [ 3158796.939696386922151, 2114974.152905873022974 ], [ 3158797.553361548110843, 2114975.950093201361597 ], [ 3158797.941994005348533, 2114977.088532001711428 ], [ 3158799.461065012495965, 2114981.89241982344538 ], [ 3158811.979100510943681, 2115005.23597803665325 ], [ 3158814.031285108067095, 2115010.683549596462399 ], [ 3158815.486435570754111, 2115016.459260180126876 ], [ 3158816.743392582051456, 2115022.391377344727516 ], [ 3158817.723330596927553, 2115027.419352115131915 ], [ 3158818.676433015149087, 2115032.786567094735801 ], [ 3158819.550821242853999, 2115038.927900214679539 ], [ 3158820.003309497144073, 2115043.364516860805452 ], [ 3158820.133757517673075, 2115044.644167829304934 ], [ 3158820.491493039298803, 2115050.349264793097973 ], [ 3158820.260092811193317, 2115055.135077526792884 ], [ 3158820.188386180438101, 2115056.616637170314789 ], [ 3158819.635085862129927, 2115062.147577705793083 ], [ 3158819.510428420267999, 2115068.008492413442582 ], [ 3158819.897149061784148, 2115073.009042044635862 ], [ 3158820.509791327640414, 2115078.152314987033606 ], [ 3158820.759253600612283, 2115079.582750451285392 ], [ 3158821.403583933599293, 2115083.276541621424258 ], [ 3158822.370864459779114, 2115088.225649857893586 ], [ 3158823.671701702289283, 2115093.835501728579402 ], [ 3158825.126538976561278, 2115100.118118979968131 ], [ 3158826.043392088264227, 2115104.397226656787097 ], [ 3158827.176317562814802, 2115110.188975215889513 ], [ 3158828.34444114472717, 2115116.136723625939339 ], [ 3158829.428023060318083, 2115121.683728866744787 ], [ 3158830.449400275945663, 2115126.907157224602997 ], [ 3158831.223546737805009, 2115131.981575579382479 ], [ 3158832.072920353151858, 2115137.397453049197793 ], [ 3158832.872924639843404, 2115143.07543935906142 ], [ 3158833.666396273765713, 2115149.281697015278041 ], [ 3158834.294585671275854, 2115155.659048797097057 ], [ 3158835.02120334841311, 2115161.512136872857809 ], [ 3158835.76860068179667, 2115166.92568050744012 ], [ 3158836.177577080205083, 2115172.317660744301975 ], [ 3158836.317417910322547, 2115177.929313585627824 ], [ 3158836.266452862881124, 2115183.5543590830639 ], [ 3158836.274787824135274, 2115189.422296065837145 ], [ 3158836.260761780664325, 2115195.719919433351606 ], [ 3158836.260723003651947, 2115202.167238506488502 ], [ 3158835.822052637115121, 2115208.032714213244617 ], [ 3158835.533612863626331, 2115213.253408054355532 ], [ 3158835.433105476200581, 2115218.380220870021731 ], [ 3158835.530488491524011, 2115223.66482509020716 ], [ 3158835.585795653052628, 2115229.129261024296284 ], [ 3158835.984993677586317, 2115234.776388658210635 ], [ 3158836.464920240454376, 2115240.926300873979926 ], [ 3158836.991425040178001, 2115246.733499770518392 ], [ 3158837.607265292666852, 2115251.896593031473458 ], [ 3158838.480122118256986, 2115256.953551054932177 ], [ 3158839.737304930575192, 2115262.3179696733132 ], [ 3158841.090135699138045, 2115267.645288961008191 ], [ 3158841.52627052180469, 2115269.291954099200666 ], [ 3158842.63693119212985, 2115273.485884224530309 ], [ 3158844.455852007027715, 2115279.18737690616399 ], [ 3158846.27542264573276, 2115284.767111856490374 ], [ 3158847.802405797410756, 2115290.357870160602033 ], [ 3158849.188480168581009, 2115295.892219095025212 ], [ 3158850.566541785839945, 2115301.377292936202139 ], [ 3158851.983066495507956, 2115307.038066430948675 ], [ 3158853.644973318558186, 2115313.405912003479898 ], [ 3158855.216065040789545, 2115319.84031686745584 ], [ 3158856.309338582679629, 2115325.953296994324774 ], [ 3158856.932336827740073, 2115331.287361544091254 ], [ 3158857.853451812639832, 2115336.518400478642434 ], [ 3158858.841332364827394, 2115341.595675713382661 ], [ 3158859.872576109133661, 2115347.891897321678698 ], [ 3158860.586002420634031, 2115353.220192420296371 ], [ 3158861.057285308372229, 2115356.155370547436178 ], [ 3158862.146563458722085, 2115361.84644465520978 ], [ 3158862.573671026621014, 2115363.828813827596605 ], [ 3158863.763633023947477, 2115368.900952514726669 ], [ 3158864.909388137981296, 2115373.697133868001401 ], [ 3158866.289509962312877, 2115378.309966959990561 ], [ 3158868.35626569762826, 2115383.785502761602402 ], [ 3158869.991081483662128, 2115387.305469977669418 ], [ 3158870.388766102492809, 2115388.162032441236079 ], [ 3158872.91016640746966, 2115392.928996931761503 ], [ 3158875.844023233279586, 2115397.988336833193898 ], [ 3158878.340088370256126, 2115402.170799870975316 ], [ 3158878.899031058885157, 2115403.107460892293602 ], [ 3158881.86408591363579, 2115408.171450149267912 ], [ 3158884.751192468218505, 2115413.066686026286334 ], [ 3158887.689250768627971, 2115417.70967151876539 ], [ 3158890.737753359600902, 2115422.282543831970543 ], [ 3158893.929765373468399, 2115427.053184972144663 ], [ 3158897.413996332325041, 2115432.127215965650976 ], [ 3158899.15541847795248, 2115434.840078146196902 ], [ 3158900.676405788399279, 2115437.209857339505106 ], [ 3158903.939475730527192, 2115441.917314396239817 ], [ 3158907.059410658665001, 2115446.366115283221006 ], [ 3158910.08454024232924, 2115450.476697951089591 ], [ 3158910.624472718685865, 2115451.158413184806705 ], [ 3158913.178225848823786, 2115454.382719669491053 ], [ 3158916.417751469649374, 2115458.374593450222164 ], [ 3158919.862522182054818, 2115462.381047361530364 ], [ 3158923.64170834235847, 2115466.004189047031105 ], [ 3158927.655594387557358, 2115469.129981597885489 ], [ 3158932.290732690133154, 2115472.268132834229618 ], [ 3158937.265013133175671, 2115475.559400792233646 ], [ 3158942.113036296330392, 2115478.822295708581805 ], [ 3158943.123733835294843, 2115479.454042202793062 ], [ 3158946.79547212459147, 2115481.749286873266101 ], [ 3158951.597777823917568, 2115484.412005710415542 ], [ 3158956.94784490019083, 2115487.008677248377353 ], [ 3158961.989318975247443, 2115489.340319158509374 ], [ 3158962.616606340743601, 2115489.630484708584845 ], [ 3158968.355287620797753, 2115492.371672516223043 ], [ 3158974.175276080146432, 2115495.240577255375683 ], [ 3158979.931084079202265, 2115498.404506818391383 ], [ 3158983.774735878221691, 2115500.872758988291025 ], [ 3158985.284223301336169, 2115501.842111689504236 ], [ 3158990.464425538666546, 2115505.340549439191818 ], [ 3158995.639017041772604, 2115508.93110612872988 ], [ 3159000.701971525326371, 2115512.521128785796463 ], [ 3159005.383391700685024, 2115515.88429510500282 ], [ 3159007.942256669513881, 2115517.70353148970753 ], [ 3159010.092728934250772, 2115519.232312560547143 ], [ 3159014.765487221535295, 2115522.667962247505784 ], [ 3159019.030625545419753, 2115526.094220855273306 ], [ 3159023.332452828995883, 2115529.179403958842158 ], [ 3159027.860130255110562, 2115532.154000607319176 ], [ 3159032.837118910625577, 2115535.272471697069705 ], [ 3159038.064174407161772, 2115538.367329388856888 ], [ 3159043.440137229859829, 2115541.567774137482047 ], [ 3159048.293832440860569, 2115544.424099490046501 ], [ 3159053.217490067705512, 2115547.146575759164989 ], [ 3159058.233140978962183, 2115549.873042585793883 ], [ 3159063.100923366378993, 2115552.311376135330647 ], [ 3159068.223775694146752, 2115554.441178025212139 ], [ 3159073.79642768483609, 2115556.654048339929432 ], [ 3159079.347671144641936, 2115558.860649549867958 ], [ 3159084.846012914553285, 2115560.863579160533845 ], [ 3159090.295371396001428, 2115562.814304001629353 ], [ 3159095.6573870703578, 2115564.790632086805999 ], [ 3159100.883615980856121, 2115566.679238538257778 ], [ 3159105.968478846829385, 2115568.572438988368958 ], [ 3159111.147972221020609, 2115570.297040250152349 ], [ 3159116.477950935252011, 2115571.883562236092985 ], [ 3159121.814547535032034, 2115573.195222075097263 ], [ 3159127.001764634624124, 2115574.462200617417693 ], [ 3159131.811920809559524, 2115575.592767981812358 ], [ 3159137.660266456194222, 2115576.804373187944293 ], [ 3159143.425151090137661, 2115577.939326275140047 ], [ 3159149.062553304247558, 2115578.97506133466959 ], [ 3159154.562788860406727, 2115579.599035443738103 ], [ 3159160.162761830259115, 2115580.0229999916628 ], [ 3159165.857920835725963, 2115580.217344696633518 ], [ 3159171.884620585013181, 2115579.947890572249889 ], [ 3159178.050241912249476, 2115579.785679378081113 ], [ 3159182.977209201548249, 2115579.557622447609901 ], [ 3159188.204135246109217, 2115579.175431551411748 ], [ 3159193.775078415870667, 2115578.722589481621981 ], [ 3159199.680068597197533, 2115578.200850174762309 ], [ 3159205.600774018093944, 2115577.77761566452682 ], [ 3159211.321373016573489, 2115577.308587411418557 ], [ 3159216.817622078582644, 2115576.960120186209679 ], [ 3159222.117662325035781, 2115576.463702322449535 ], [ 3159227.641580627299845, 2115575.907629741355777 ], [ 3159233.258141388185322, 2115575.233790422789752 ], [ 3159239.063957794103771, 2115574.536899102851748 ], [ 3159244.679787422996014, 2115573.984934955835342 ], [ 3159250.067089439835399, 2115573.463033720385283 ], [ 3159255.365434014238417, 2115572.95667984103784 ], [ 3159260.651977567002177, 2115572.24976436374709 ], [ 3159266.397270137444139, 2115571.23914001416415 ], [ 3159272.553422913886607, 2115569.943266494199634 ], [ 3159278.654375453945249, 2115568.555835524573922 ], [ 3159284.292853618972003, 2115567.259893659502268 ], [ 3159289.658179786521941, 2115566.032173730432987 ], [ 3159294.861665037926286, 2115564.934394061565399 ], [ 3159300.12428074143827, 2115563.826213784515858 ], [ 3159306.025459494441748, 2115562.585333260707557 ], [ 3159311.048829918727279, 2115561.630745211616158 ], [ 3159316.151271146256477, 2115560.662248940672725 ], [ 3159322.663262128829956, 2115559.496392272878438 ], [ 3159328.803131529595703, 2115558.730615296866745 ], [ 3159334.709713088814169, 2115558.218751565553248 ], [ 3159340.515150828287005, 2115557.836186756379902 ], [ 3159346.697832107543945, 2115557.58990249177441 ], [ 3159353.163350047543645, 2115557.587940745521337 ], [ 3159359.824616265017539, 2115557.541410330682993 ], [ 3159366.119989098981023, 2115557.680885957553983 ], [ 3159372.058406087569892, 2115557.873014782555401 ], [ 3159377.804791645146906, 2115558.007690394762903 ], [ 3159382.334803921170533, 2115558.213397934101522 ], [ 3159388.337656062562019, 2115558.409197248518467 ], [ 3159389.058514756616205, 2115558.430599309969693 ], [ 3159395.083346760366112, 2115558.719037072733045 ], [ 3159401.406466376502067, 2115559.157745616044849 ], [ 3159407.417612542398274, 2115559.549961922690272 ], [ 3159413.269968737848103, 2115560.091753901913762 ], [ 3159418.874427804723382, 2115560.606193226762116 ], [ 3159424.377928803209215, 2115561.503322451375425 ], [ 3159429.450613042339683, 2115562.689109537284821 ], [ 3159434.610743879340589, 2115564.102802265901119 ], [ 3159440.186686277389526, 2115565.514312678016722 ], [ 3159446.081312748603523, 2115567.204388055019081 ], [ 3159452.036086346954107, 2115569.015563293360174 ], [ 3159457.750865923706442, 2115571.102104325778782 ], [ 3159463.610281342174858, 2115573.457277700304985 ], [ 3159468.507586064748466, 2115575.636929059401155 ], [ 3159473.440100734122097, 2115577.719154773280025 ], [ 3159478.515493721235543, 2115579.553336879238486 ], [ 3159483.847804922610521, 2115581.281404452398419 ], [ 3159489.426254402380437, 2115583.087820420973003 ], [ 3159494.874982194975019, 2115585.41386734880507 ], [ 3159499.80515552777797, 2115587.861437798477709 ], [ 3159504.413972031325102, 2115590.20344518031925 ], [ 3159508.854122426360846, 2115592.443239348940551 ], [ 3159513.414215045981109, 2115594.672073076479137 ], [ 3159518.414813007228076, 2115597.178317592479289 ], [ 3159523.369940129108727, 2115599.844513846561313 ], [ 3159527.000931417569518, 2115601.62612631637603 ], [ 3159532.803318336606026, 2115604.479534170590341 ], [ 3159533.684678041376173, 2115604.913258560933173 ], [ 3159538.947232795879245, 2115607.849864054471254 ], [ 3159543.284370397217572, 2115610.52339605614543 ], [ 3159547.591634321957827, 2115613.263106257654727 ], [ 3159551.81627216283232, 2115616.057797058485448 ], [ 3159556.062263268977404, 2115618.605546513106674 ], [ 3159561.246666299179196, 2115621.687579916324466 ], [ 3159566.517785890959203, 2115624.551722683943808 ], [ 3159571.058323461562395, 2115627.0374246975407 ], [ 3159576.177930007688701, 2115629.96876707393676 ], [ 3159580.571044584736228, 2115632.358757761772722 ], [ 3159584.93391158990562, 2115634.875814150087535 ], [ 3159589.152505454607308, 2115637.316777265630662 ], [ 3159593.548439589794725, 2115639.534046066459268 ], [ 3159598.060111352242529, 2115641.903184161521494 ], [ 3159603.654660921543837, 2115644.821946307085454 ], [ 3159608.162331969477236, 2115647.039734529796988 ], [ 3159612.56953049171716, 2115648.758211112115532 ], [ 3159618.055327844806015, 2115650.114637068472803 ], [ 3159623.161199565976858, 2115651.00073407124728 ], [ 3159628.922487943898886, 2115651.670074751600623 ], [ 3159634.619874835945666, 2115652.82709316117689 ], [ 3159640.109685367438942, 2115654.081445982214063 ], [ 3159645.434846533462405, 2115655.385034581180662 ], [ 3159650.673109903931618, 2115656.906647891737521 ], [ 3159655.981797518208623, 2115658.486934395972639 ], [ 3159660.971789596602321, 2115660.042081812396646 ], [ 3159666.355047458782792, 2115661.771342622116208 ], [ 3159671.834327224642038, 2115663.402618443593383 ], [ 3159677.106321550905704, 2115665.070456887595356 ], [ 3159681.673610614612699, 2115666.395849376916885 ], [ 3159685.016970184165984, 2115666.040915834717453 ], [ 3159688.734631735831499, 2115664.160321491770446 ], [ 3159693.203391743823886, 2115661.458401030860841 ], [ 3159697.32981114834547, 2115658.583446129690856 ], [ 3159701.265146073885262, 2115654.961557324044406 ], [ 3159704.890090138651431, 2115651.303032909054309 ], [ 3159708.620542663149536, 2115647.859100526198745 ], [ 3159712.243168544955552, 2115644.059067709371448 ], [ 3159715.887873113621026, 2115640.397170634008944 ], [ 3159719.71528507489711, 2115636.41920086927712 ], [ 3159723.698597775306553, 2115632.211070648394525 ], [ 3159727.646811594255269, 2115627.846923686098307 ], [ 3159731.377554449252784, 2115624.088698506355286 ], [ 3159735.125336081720889, 2115620.499805039726198 ], [ 3159739.568237637169659, 2115616.119606014341116 ], [ 3159743.821262151002884, 2115611.630888878367841 ], [ 3159748.126338163390756, 2115607.214112578891218 ], [ 3159751.911103626713157, 2115603.223375750239938 ], [ 3159756.429353687912226, 2115598.617050868459046 ], [ 3159760.487081788480282, 2115594.618850840255618 ], [ 3159764.821114248596132, 2115590.572051383554935 ], [ 3159768.986209604423493, 2115586.737432587891817 ], [ 3159772.928273353725672, 2115582.840674860402942 ], [ 3159777.094866155646741, 2115578.762507515959442 ], [ 3159781.479755177162588, 2115574.463479218073189 ], [ 3159785.841275362297893, 2115569.955686442553997 ], [ 3159790.179238118231297, 2115565.553407487459481 ], [ 3159794.868650393094867, 2115561.444104825146496 ], [ 3159799.709388709161431, 2115557.581883249804378 ], [ 3159804.349716836586595, 2115553.988062717020512 ], [ 3159808.336382854729891, 2115550.306478329468518 ], [ 3159812.064346323721111, 2115546.467659629881382 ], [ 3159815.988630783744156, 2115542.52335171867162 ], [ 3159819.902197448536754, 2115538.70257286913693 ], [ 3159823.674023463390768, 2115534.947273432277143 ], [ 3159827.218446677550673, 2115531.292895828839391 ], [ 3159831.155022725462914, 2115527.488345613703132 ], [ 3159835.40505841979757, 2115523.740167455747724 ], [ 3159839.617652050219476, 2115520.201314385980368 ], [ 3159843.986418779939413, 2115516.939100456424057 ], [ 3159848.550935066770762, 2115513.63231970788911 ], [ 3159853.439357561059296, 2115510.572776814457029 ], [ 3159858.52892039436847, 2115507.690630130469799 ], [ 3159863.481478634290397, 2115505.156963791698217 ], [ 3159868.732341220136732, 2115502.773669236339629 ], [ 3159874.059730822220445, 2115500.488319959491491 ], [ 3159879.685869327746332, 2115498.545764631591737 ], [ 3159885.289102766197175, 2115496.840489601716399 ], [ 3159890.71837385604158, 2115495.378689053002745 ], [ 3159896.073767520487309, 2115494.15279452316463 ], [ 3159901.376004246994853, 2115493.037721078842878 ], [ 3159906.579411396291107, 2115491.939930039457977 ], [ 3159911.897477717138827, 2115490.923442952334881 ], [ 3159917.401520736515522, 2115489.864108332432806 ], [ 3159923.110420619137585, 2115488.880147138144821 ], [ 3159928.53520390111953, 2115488.14899952057749 ], [ 3159931.546250748448074, 2115487.764347669668496 ], [ 3159937.678723543416709, 2115486.973197319544852 ], [ 3159938.629312662407756, 2115486.84999363264069 ], [ 3159943.790632275398821, 2115486.185462085530162 ], [ 3159949.080076917540282, 2115485.812538623809814 ], [ 3159954.462007549591362, 2115485.636325275525451 ], [ 3159959.965924251824617, 2115485.651531967334449 ], [ 3159965.437619737349451, 2115485.844734276644886 ], [ 3159970.6825454486534, 2115486.01700178720057 ], [ 3159977.145568111445755, 2115486.694742649793625 ], [ 3159983.35043396987021, 2115487.66117702331394 ], [ 3159988.594323683995754, 2115488.269516189582646 ], [ 3159994.177859153598547, 2115488.716747294645756 ], [ 3159999.72070002509281, 2115489.100178287830204 ], [ 3160006.299558385275304, 2115489.657294841483235 ], [ 3160010.602232961915433, 2115490.176646093372256 ], [ 3160015.996338753961027, 2115490.96130545437336 ], [ 3160021.223824268206954, 2115492.099653052166104 ], [ 3160026.277276627719402, 2115493.228165016043931 ], [ 3160031.375408341176808, 2115494.571729746181518 ], [ 3160036.386180442757905, 2115495.940797275863588 ], [ 3160041.275887203402817, 2115497.503486604429781 ], [ 3160047.168663985561579, 2115499.24454206507653 ], [ 3160052.044042236171663, 2115500.718621687963605 ], [ 3160057.030507880263031, 2115502.314978460315615 ], [ 3160062.846441800706089, 2115504.525712430477142 ], [ 3160068.609941352158785, 2115507.232342756353319 ], [ 3160073.915604267269373, 2115510.374191315844655 ], [ 3160078.803972409106791, 2115513.761865495238453 ], [ 3160083.58794344868511, 2115517.005711410660297 ], [ 3160088.44789017084986, 2115520.469242360442877 ], [ 3160093.161534451879561, 2115524.475590249057859 ], [ 3160097.742474364116788, 2115528.41404705774039 ], [ 3160101.936756807379425, 2115531.335760338697582 ], [ 3160106.609534928575158, 2115534.771492924541235 ], [ 3160110.734543156344444, 2115538.019736905582249 ], [ 3160115.168808797374368, 2115541.74070698581636 ], [ 3160119.472121814265847, 2115545.656936226412654 ], [ 3160123.393251876346767, 2115549.721582753583789 ], [ 3160164.299824791960418, 2115589.248801509849727 ], [ 3160166.466970720328391, 2115591.342258464545012 ], [ 3160167.413400447927415, 2115592.257101172581315 ], [ 3160169.80484354775399, 2115594.565341758541763 ], [ 3160240.343395134434104, 2115670.69611528981477 ], [ 3160282.75411235820502, 2115716.730332585982978 ], [ 3160299.500550204887986, 2115736.323965136893094 ], [ 3160302.647268655709922, 2115740.005819929298013 ], [ 3160304.626584903337061, 2115742.3214733726345 ], [ 3160307.39893376454711, 2115748.777759328484535 ], [ 3160309.43606754206121, 2115755.079624576494098 ], [ 3160309.962917508557439, 2115757.551703954581171 ], [ 3160309.998478685505688, 2115757.718182543292642 ], [ 3160310.464833796955645, 2115759.906424325425178 ], [ 3160310.277594471350312, 2115762.02756280824542 ], [ 3160308.68435596767813, 2115780.362054869532585 ], [ 3160305.133528889156878, 2115806.228141977451742 ], [ 3160304.559084369800985, 2115811.2637327183038 ], [ 3160302.262469489127398, 2115831.396872104145586 ], [ 3160301.102352580986917, 2115837.257426584605128 ], [ 3160301.000585780479014, 2115840.985544252209365 ], [ 3160301.905090255662799, 2115842.762611092999578 ], [ 3160305.236762067303061, 2115845.937528948299587 ], [ 3160309.652980060316622, 2115848.850633619818836 ], [ 3160340.131382051855326, 2115867.842867797706276 ], [ 3160343.758647753857076, 2115870.103145072236657 ], [ 3160345.429964960552752, 2115871.14473031135276 ], [ 3160349.160699659027159, 2115873.258577330037951 ], [ 3160349.170755420811474, 2115873.264310024678707 ], [ 3160354.888350944500417, 2115876.506161275319755 ], [ 3160359.224389352370054, 2115879.362413397990167 ], [ 3160363.393561333417892, 2115882.379896179772913 ], [ 3160368.31675663869828, 2115885.984380823560059 ], [ 3160372.713610305450857, 2115889.661267478950322 ], [ 3160377.171925487928092, 2115893.215838238131255 ], [ 3160381.563744189683348, 2115897.177445247303694 ], [ 3160385.402192268520594, 2115900.790254075545818 ], [ 3160389.316189426928759, 2115903.862756317481399 ], [ 3160393.775638471357524, 2115906.981240836903453 ], [ 3160398.239995421841741, 2115910.636018567252904 ], [ 3160402.701565088704228, 2115914.463716106489301 ], [ 3160406.887665633112192, 2115918.471644069999456 ], [ 3160410.653951448854059, 2115922.330397477373481 ], [ 3160414.58477330300957, 2115926.139837075024843 ], [ 3160418.442695465870202, 2115930.063569347374141 ], [ 3160422.238410422112793, 2115933.66372418217361 ], [ 3160426.230994882062078, 2115937.604320164769888 ], [ 3160429.862516646273434, 2115941.19270492810756 ], [ 3160433.473289940971881, 2115944.399637081194669 ], [ 3160437.473527309950441, 2115947.629302495159209 ], [ 3160441.576091716066003, 2115951.053745046257973 ], [ 3160445.735273175872862, 2115955.147505985572934 ], [ 3160449.626900341361761, 2115959.470789765939116 ], [ 3160453.333211557473987, 2115963.46173772867769 ], [ 3160457.395746336318552, 2115966.7007215032354 ], [ 3160461.598808885551989, 2115969.549958415329456 ], [ 3160465.058479189872742, 2115972.398670669645071 ], [ 3160465.879913358017802, 2115973.074882493820041 ], [ 3160470.227586087305099, 2115976.446080378256738 ], [ 3160474.372358543798327, 2115979.690875214524567 ], [ 3160478.423638364300132, 2115982.354034721385688 ], [ 3160483.036382564343512, 2115984.593960667029023 ], [ 3160487.68302896246314, 2115986.665733298286796 ], [ 3160492.45737368054688, 2115988.269122971221805 ], [ 3160497.34384058136493, 2115989.558720531873405 ], [ 3160502.747255377471447, 2115990.970273376442492 ], [ 3160503.285508181899786, 2115991.16359577793628 ], [ 3160507.863636705093086, 2115992.807376726530492 ], [ 3160510.041187789291143, 2115993.676604786422104 ], [ 3160512.852637910284102, 2115994.798765660263598 ], [ 3160514.296468939166516, 2115995.10124128498137 ], [ 3160531.790960387326777, 2115998.76649331767112 ], [ 3160550.146493426524103, 2116003.718742803204805 ], [ 3160569.900723007507622, 2116007.837055803276598 ], [ 3160586.450697171501815, 2116012.417464410886168 ], [ 3160594.163505264557898, 2116016.473259723745286 ], [ 3160600.419796015135944, 2116019.763220084831119 ], [ 3160621.305966588668525, 2116035.482058153487742 ], [ 3160638.317348022945225, 2116047.614642162807286 ], [ 3160652.300091383978724, 2116057.573338740505278 ], [ 3160676.796511029358953, 2116074.978593996260315 ], [ 3160691.453089033719152, 2116087.616682606749237 ], [ 3160699.860589230433106, 2116096.295409539714456 ], [ 3160708.092235639691353, 2116101.223889419808984 ], [ 3160712.40664301533252, 2116101.732204425148666 ], [ 3160714.022470843978226, 2116101.916142411995679 ], [ 3160716.916524892672896, 2116102.25682517606765 ], [ 3160728.670611652545631, 2116102.825166708789766 ], [ 3160741.710870115552098, 2116104.322915039025247 ], [ 3160743.068836792837828, 2116105.017997344955802 ], [ 3160746.114353429526091, 2116106.576959579251707 ], [ 3160757.835573603399098, 2116112.576879802159965 ], [ 3160775.438832485117018, 2116124.15948407817632 ], [ 3160792.694452776107937, 2116134.525880050845444 ], [ 3160807.674833613447845, 2116147.157632298301905 ], [ 3160812.112777701579034, 2116152.751010615378618 ], [ 3160824.854752384591848, 2116168.80992198549211 ], [ 3160843.803381035104394, 2116193.891675672493875 ], [ 3160854.253683211281896, 2116205.809760592412204 ], [ 3160848.435313654132187, 2116180.131875423714519 ], [ 3160834.574368389323354, 2116141.727052948437631 ], [ 3160811.040553534403443, 2116094.095740069635212 ], [ 3160792.849526057951152, 2116051.683678738772869 ], [ 3160792.631630054675043, 2116051.175620910711586 ], [ 3160788.858289434574544, 2116042.37816073326394 ], [ 3160788.634544467553496, 2116041.856433087028563 ], [ 3160774.960338620468974, 2116000.343877443112433 ], [ 3160774.55769828427583, 2115999.121423460543156 ], [ 3160773.781005821190774, 2115996.763530810829252 ], [ 3160760.281596514396369, 2115949.546819713432342 ], [ 3160758.921503219753504, 2115942.385976620949805 ], [ 3160758.768369883298874, 2115941.579553172923625 ], [ 3160754.895591422915459, 2115921.18765554856509 ], [ 3160754.841224319767207, 2115920.406538242008537 ], [ 3160754.301337474957108, 2115912.493128133937716 ], [ 3160751.988413130864501, 2115878.555354725569487 ], [ 3160751.915020853281021, 2115873.001073342747986 ], [ 3160751.897327601909637, 2115871.665099791251123 ], [ 3160751.303695756476372, 2115826.753438679501414 ], [ 3160751.212454620283097, 2115806.05989833176136 ], [ 3160751.202046630904078, 2115803.696485984139144 ], [ 3160751.089336427859962, 2115778.132905721664429 ], [ 3160751.196737645193934, 2115775.052369779441506 ], [ 3160751.246490725316107, 2115773.626278661657125 ], [ 3160751.403989364858717, 2115769.10915023740381 ], [ 3160751.4137850003317, 2115768.825621739495546 ], [ 3160752.329913742374629, 2115742.556420140899718 ], [ 3160752.470753961242735, 2115741.367630760185421 ], [ 3160752.56924908561632, 2115740.535910172853619 ], [ 3160756.871316397562623, 2115704.209755177609622 ], [ 3160756.869865635409951, 2115694.759692660532892 ], [ 3160756.869745643809438, 2115693.867566196247935 ], [ 3160756.866702685132623, 2115673.900662823580205 ], [ 3160755.935884701088071, 2115666.775743265636265 ], [ 3160755.577052060049027, 2115663.973154094070196 ], [ 3160755.467645815107971, 2115663.122954857069999 ], [ 3160752.832445133477449, 2115642.914059714879841 ], [ 3160752.669832435436547, 2115641.666729078628123 ], [ 3160752.512929014861584, 2115640.463807595893741 ], [ 3160750.978066686540842, 2115609.916914284229279 ], [ 3160751.138342836871743, 2115608.10696679353714 ], [ 3160751.238925495184958, 2115606.970875159837306 ], [ 3160752.747542850207537, 2115589.931247201748192 ], [ 3160752.796961011365056, 2115589.372934410348535 ], [ 3160752.989382212050259, 2115587.199907600414008 ], [ 3160753.006622094660997, 2115587.020899400580674 ], [ 3160753.042699175421149, 2115586.598232890013605 ], [ 3160753.499922544695437, 2115581.434176162816584 ], [ 3160755.056230618152767, 2115562.437756603583694 ], [ 3160755.079064251855016, 2115562.158930127043277 ], [ 3160755.152658425737172, 2115561.261240542400628 ], [ 3160755.416952595114708, 2115558.035023767035455 ], [ 3160755.497862086165696, 2115557.048870538361371 ], [ 3160757.074467687867582, 2115537.824151766486466 ], [ 3160759.52640481479466, 2115524.095480272080749 ], [ 3160759.742879445664585, 2115522.883356300182641 ], [ 3160768.479433420114219, 2115473.965307117439806 ], [ 3160768.614379058592021, 2115473.209489771164954 ], [ 3160772.152892123907804, 2115453.396262141410261 ], [ 3160774.084867467172444, 2115442.801528604701161 ], [ 3160776.769554206170142, 2115428.078872319310904 ], [ 3160776.980856329668313, 2115426.919864336028695 ], [ 3160781.896086146589369, 2115399.965887359343469 ], [ 3160783.812003673519939, 2115389.458830554038286 ], [ 3160785.475107097066939, 2115381.269629956223071 ], [ 3160785.690908781252801, 2115380.207550623454154 ], [ 3160792.196154837030917, 2115348.175879659596831 ], [ 3160794.589521800167859, 2115327.452065490186214 ], [ 3160794.744462845847011, 2115326.110168189741671 ], [ 3160795.202734374441206, 2115322.142293619923294 ], [ 3160793.000455056317151, 2115306.385961870662868 ], [ 3160792.968468497041613, 2115306.157020600978285 ], [ 3160792.623801128938794, 2115303.691635252907872 ], [ 3160792.566929028369486, 2115303.284303185995668 ], [ 3160790.971067978069186, 2115291.867041464429349 ], [ 3160790.135552045889199, 2115287.538665182422847 ], [ 3160789.944233397953212, 2115286.548084959387779 ], [ 3160787.774348786566406, 2115275.307701991870999 ], [ 3160785.151207364164293, 2115261.688645653892308 ], [ 3160782.565786771476269, 2115253.280694510787725 ], [ 3160782.362256358377635, 2115252.618668586947024 ], [ 3160776.463045167736709, 2115233.433957680128515 ], [ 3160770.940564863849431, 2115220.740517491009086 ], [ 3160770.574530375190079, 2115219.898961586412042 ], [ 3160769.641963263042271, 2115217.755419396329671 ], [ 3160761.201100427657366, 2115207.288356232456863 ], [ 3160743.274702076800168, 2115198.516257926821709 ], [ 3160742.617821418214589, 2115198.194783068727702 ], [ 3160723.515399903524667, 2115188.847357345744967 ], [ 3160722.10467456933111, 2115188.326884157955647 ], [ 3160705.736600213684142, 2115182.289352311752737 ], [ 3160705.052653055638075, 2115182.037006984464824 ], [ 3160695.64575886214152, 2115178.567213742062449 ], [ 3160695.390479797497392, 2115178.473031952045858 ], [ 3160690.677899983711541, 2115176.734673692844808 ], [ 3160690.612677570432425, 2115176.714720095507801 ], [ 3160690.767937886994332, 2115176.287718898616731 ], [ 3160690.724637605249882, 2115176.273438499309123 ], [ 3160688.765097889117897, 2115175.529262824915349 ], [ 3160688.677436436526477, 2115175.504841981455684 ], [ 3160661.531097415834665, 2115165.206885627470911 ], [ 3160650.851435122080147, 2115161.15536645334214 ], [ 3160622.554445207118988, 2115152.469525195658207 ], [ 3160576.940012961626053, 2115138.468062800820917 ], [ 3160487.593171439133584, 2115106.284382686950266 ], [ 3160472.309442579746246, 2115100.311763245612383 ], [ 3160468.024769553449005, 2115098.066134167835116 ], [ 3160459.678742661140859, 2115093.628049075603485 ], [ 3160455.805575277656317, 2115091.696059124078602 ], [ 3160447.33622324699536, 2115087.335114066489041 ], [ 3160441.381910550408065, 2115083.301531061064452 ], [ 3160436.096999473869801, 2115079.589650667272508 ], [ 3160425.359755408018827, 2115071.245108266361058 ], [ 3160415.747410096228123, 2115062.370339619927108 ], [ 3160415.744273668620735, 2115062.367241969332099 ], [ 3160407.071509934961796, 2115052.636197477113456 ], [ 3160407.064983835443854, 2115052.628424820955843 ], [ 3160398.47164490679279, 2115041.980321146547794 ], [ 3160396.461356987245381, 2115038.991761043202132 ], [ 3160391.009081825613976, 2115030.755138237960637 ], [ 3160384.764911826699972, 2115020.03599635604769 ], [ 3160382.790491286665201, 2115015.101037654094398 ], [ 3160380.466455592773855, 2115009.292747676838189 ], [ 3160379.268411849625409, 2115006.296662113629282 ], [ 3160376.22294917749241, 2114998.970144726336002 ], [ 3160374.950723149813712, 2114993.10195731325075 ], [ 3160373.765184776857495, 2114986.186187747865915 ], [ 3160373.332007716875523, 2114979.608750856481493 ], [ 3160372.909511981531978, 2114967.753614457324147 ], [ 3160371.52959026908502, 2114938.605448260437697 ], [ 3160371.476705142296851, 2114919.283189046662301 ], [ 3160370.935674069914967, 2114881.522327173966914 ], [ 3160371.108454876113683, 2114873.783619999419898 ], [ 3158751.14721654728055, 2114873.783619999419898 ], [ 3158751.938460666686296, 2114875.063848770223558 ] ] ] } }
]
}
