{
"type": "FeatureCollection",
"name": "Sotillo_de_la_Adrada",
"crs": { "type": "name", "properties": { "name": "urn:ogc:def:crs:EPSG::3035" } },
"features": [
{ "type": "Feature", "properties": { "ENP_GRAL": 2.0, "ENP_GRAL_NAME": "Reservas Naturales", "color": "#FFD37F" }, "geometry": { "type": "MultiPolygon", "coordinates": [ [ [ [ 3087176.557504263706505, 2035328.116808163002133 ], [ 3087164.406526377890259, 2035328.912491281982511 ], [ 3087154.301103443838656, 2035329.574318386148661 ], [ 3087115.155693768523633, 2035332.137717216741294 ], [ 3087102.394957599230111, 2035332.973452949430794 ], [ 3087060.593858929350972, 2035335.710867158835754 ], [ 3087014.660529202781618, 2035338.718978267163038 ], [ 3087001.362050505820662, 2035339.589938208693638 ], [ 3086954.159556618891656, 2035342.681200836785138 ], [ 3086937.177475322969258, 2035343.793390415376052 ], [ 3086891.800579256378114, 2035353.577852553455159 ], [ 3086849.005172871053219, 2035362.805712401401252 ], [ 3086805.439341354649514, 2035359.709848594851792 ], [ 3086780.811236901208758, 2035357.578598049702123 ], [ 3086769.042539333924651, 2035356.51362425647676 ], [ 3086757.273843068629503, 2035355.448653395054862 ], [ 3086737.704364915378392, 2035351.314315737457946 ], [ 3086724.502926934044808, 2035348.525326803559437 ], [ 3086708.196161702275276, 2035345.080345701891929 ], [ 3086685.185536461416632, 2035340.219162904191762 ], [ 3086666.460557951591909, 2035336.263286641333252 ], [ 3086654.727490280754864, 2035333.78450437146239 ], [ 3086642.994439475238323, 2035331.305823452072218 ], [ 3086632.977651768364012, 2035329.18961686338298 ], [ 3086613.425384841859341, 2035326.777905500261113 ], [ 3086591.027349456213415, 2035327.668996667023748 ], [ 3086567.750642905943096, 2035330.350361092481762 ], [ 3086535.155758804641664, 2035334.105215515010059 ], [ 3086518.060166557319462, 2035336.074588187271729 ], [ 3086480.341665600426495, 2035340.419678438454866 ], [ 3086437.28525692038238, 2035345.379764953628182 ], [ 3086425.823242589831352, 2035346.700117932399735 ], [ 3086410.17008104082197, 2035348.503374594729394 ], [ 3086382.22761780070141, 2035351.722376036224887 ], [ 3086357.327166946604848, 2035354.590976563980803 ], [ 3086343.664894842077047, 2035356.429942814167589 ], [ 3086325.726581985130906, 2035358.844473109114915 ], [ 3086298.178454675711691, 2035362.552485812222585 ], [ 3086271.618018646724522, 2035366.127626933623105 ], [ 3086260.231518385931849, 2035367.660331766819581 ], [ 3086239.680297014769167, 2035370.426584943663329 ], [ 3086208.909519318025559, 2035372.518447134643793 ], [ 3086162.95954256830737, 2035375.642330107046291 ], [ 3086146.9733796576038, 2035376.729228026000783 ], [ 3086126.082277195062488, 2035378.149488138733432 ], [ 3086093.670816433615983, 2035380.35302514093928 ], [ 3086052.460829702671617, 2035383.154734225245193 ], [ 3086042.354254697915167, 2035383.841865970287472 ], [ 3086020.864828992635012, 2035382.17474355106242 ], [ 3085985.959924470167607, 2035379.466877832077444 ], [ 3085907.453449286520481, 2035375.276166629511863 ], [ 3085900.114486839622259, 2035381.702823943691328 ], [ 3085890.782628819346428, 2035389.87462722370401 ], [ 3085864.330957458354533, 2035418.520844299579039 ], [ 3085845.480729912407696, 2035436.957839410519227 ], [ 3085831.771344686392695, 2035436.680842239409685 ], [ 3085817.726415617857128, 2035436.397080520400777 ], [ 3085779.71188692888245, 2035435.628997200867161 ], [ 3085770.14436137676239, 2035435.435727532720193 ], [ 3085735.972628157120198, 2035434.745459323283285 ], [ 3085701.181012612301856, 2035434.042548047844321 ], [ 3085690.62803693022579, 2035433.829396997112781 ], [ 3085663.24383129645139, 2035433.276176968123764 ], [ 3085645.717557552270591, 2035433.561984676402062 ], [ 3085618.112680174410343, 2035434.012062130728737 ], [ 3085594.136273129843175, 2035434.402957593090832 ], [ 3085566.424803364556283, 2035434.854814594378695 ], [ 3085530.268010528758168, 2035435.444375010440126 ], [ 3085513.659283285494894, 2035445.641903303097934 ], [ 3085472.106822521425784, 2035471.154718506615609 ], [ 3085447.108616924379021, 2035486.503272212576121 ], [ 3085431.470665400382131, 2035496.104890758637339 ], [ 3085417.712138838134706, 2035504.552557176910341 ], [ 3085388.539029651321471, 2035522.464638274395838 ], [ 3085363.299132680520415, 2035537.961746238404885 ], [ 3085331.787452947348356, 2035557.309781130868942 ], [ 3085317.997158744372427, 2035565.777001649606973 ], [ 3085304.886838430538774, 2035573.82672627386637 ], [ 3085285.116239408031106, 2035585.965789418667555 ], [ 3085257.842979574110359, 2035602.711498202057555 ], [ 3085192.296260665170848, 2035607.425223985686898 ], [ 3085175.226570746861398, 2035608.652778163785115 ], [ 3085149.621286203153431, 2035610.494154223939404 ], [ 3085139.791719899512827, 2035611.201078882906586 ], [ 3085124.682771435007453, 2035612.287617318797857 ], [ 3085110.32759415358305, 2035614.175015697255731 ], [ 3085100.11505479644984, 2035615.764390943571925 ], [ 3085061.730544784106314, 2035638.607862625038251 ], [ 3085018.963326445780694, 2035664.059711867244914 ], [ 3084976.578008162789047, 2035689.284401529002935 ], [ 3084939.265760238748044, 2035710.713946746429428 ], [ 3084925.699165184050798, 2035716.805541517678648 ], [ 3084908.699362848885357, 2035724.438826769823208 ], [ 3084891.625846515409648, 2035732.105034344596788 ], [ 3084882.421129681635648, 2035736.238104286370799 ], [ 3084847.099425190128386, 2035752.098155750427395 ], [ 3084830.059758079238236, 2035759.749281940283254 ], [ 3084806.025684542953968, 2035770.541025729849935 ], [ 3084794.047536133788526, 2035774.646146718878299 ], [ 3084757.0316227003932, 2035787.332183301681653 ], [ 3084714.95197822432965, 2035801.244000195292756 ], [ 3084700.758349480573088, 2035793.855261390563101 ], [ 3084669.802589115686715, 2035777.740566606400535 ], [ 3084621.065628410317004, 2035752.369621501769871 ], [ 3084595.315549219958484, 2035741.512476452393457 ], [ 3084583.500597191974521, 2035736.53086871583946 ], [ 3084571.086019027978182, 2035731.296506628161296 ], [ 3084528.501681149937212, 2035713.341540213208646 ], [ 3084518.419609642587602, 2035709.090687904972583 ], [ 3084495.481219106353819, 2035699.419125874061137 ], [ 3084474.163914459291846, 2035690.431023274315521 ], [ 3084461.671957368496805, 2035685.163979186443612 ], [ 3084422.449883170891553, 2035668.626788422232494 ], [ 3084381.497090117074549, 2035670.5758254181128 ], [ 3084370.880922155454755, 2035671.081124091055244 ], [ 3084360.264838469214737, 2035671.586309234146029 ], [ 3084323.866873352788389, 2035673.318647545296699 ], [ 3084277.241431026719511, 2035675.537877911934629 ], [ 3084243.79963467689231, 2035677.129572935868055 ], [ 3084192.816363621503115, 2035707.974249149672687 ], [ 3084126.140472806990147, 2035748.312955282395706 ], [ 3084106.454357884824276, 2035788.808773810043931 ], [ 3084073.962663244456053, 2035855.64705733046867 ], [ 3084063.917302905581892, 2035876.311297846725211 ], [ 3084050.309276603162289, 2035904.304342781193554 ], [ 3084030.89197497908026, 2035944.2477320372127 ], [ 3084019.686882106587291, 2035960.336333820130676 ], [ 3084013.715304411016405, 2035968.877070867456496 ], [ 3083990.304791948758066, 2036002.335302190156654 ], [ 3083977.009151173755527, 2036021.337573225609958 ], [ 3083964.917704774066806, 2036038.618624846450984 ], [ 3083926.547875772230327, 2036083.1891051416751 ], [ 3083915.736489995848387, 2036095.747820096090436 ], [ 3083907.599224220961332, 2036105.200068032136187 ], [ 3083886.466514366678894, 2036129.747973687946796 ], [ 3083859.837252215947956, 2036160.68084489251487 ], [ 3083844.770332756452262, 2036174.10872250655666 ], [ 3083810.921568206045777, 2036187.6240436041262 ], [ 3083784.701586280483752, 2036198.40436470345594 ], [ 3083746.139922056347132, 2036230.178384703584015 ], [ 3083725.808387568220496, 2036246.931202831212431 ], [ 3083684.776646823622286, 2036280.740622312063351 ], [ 3083668.125847614370286, 2036294.460647475672886 ], [ 3083632.477565205190331, 2036323.834340210305527 ], [ 3083623.27553868573159, 2036331.416695282794535 ], [ 3083591.630048276856542, 2036357.492214335827157 ], [ 3083558.966762330383062, 2036384.406508099054918 ], [ 3083541.566161894705147, 2036398.744503193069249 ], [ 3083508.192910906858742, 2036444.509444374358281 ], [ 3083469.617945403791964, 2036497.407632894115523 ], [ 3083441.231024541892111, 2036536.335159921320155 ], [ 3083435.226950811222196, 2036545.782411240972579 ], [ 3083401.303859296720475, 2036599.15989968762733 ], [ 3083395.263543310575187, 2036608.664253828814253 ], [ 3083389.223313322756439, 2036618.168493785662577 ], [ 3083377.693108036182821, 2036645.651954223867506 ], [ 3083365.018933177459985, 2036675.862038237508386 ], [ 3083360.562557142227888, 2036686.484241760103032 ], [ 3083340.292676956392825, 2036734.799567876849324 ], [ 3083335.579102750401944, 2036746.034924837993458 ], [ 3083331.009443014860153, 2036756.927306052995846 ], [ 3083308.812796668149531, 2036802.94520963751711 ], [ 3083282.762812945060432, 2036856.952045369893312 ], [ 3083253.762708296999335, 2036917.075267265317962 ], [ 3083141.921986762434244, 2036959.161883057560772 ], [ 3083077.318910975009203, 2036983.239245550008491 ], [ 3083046.974314930848777, 2036992.332259226823226 ], [ 3083014.67641840223223, 2037002.010615900158882 ], [ 3082982.925102133303881, 2037011.525310981087387 ], [ 3082949.653103010728955, 2037021.495630464982241 ], [ 3082925.107485624961555, 2037028.851074111182243 ], [ 3082879.617923603858799, 2037064.333966478705406 ], [ 3082853.650815583765507, 2037084.588928019162267 ], [ 3082829.553075998090208, 2037103.385833030566573 ], [ 3082801.411117541138083, 2037125.337267996510491 ], [ 3082791.459476452320814, 2037133.099832844454795 ], [ 3082758.182269858196378, 2037146.87712461873889 ], [ 3082746.009908818174154, 2037151.916692031547427 ], [ 3082725.706203904934227, 2037159.193835907382891 ], [ 3082690.772799191065133, 2037171.714373945491388 ], [ 3082665.228027657605708, 2037180.87001656065695 ], [ 3082648.968933728523552, 2037186.697523864218965 ], [ 3082632.288748037070036, 2037192.67603373946622 ], [ 3082621.526629688218236, 2037196.307661484228447 ], [ 3082605.515174725092947, 2037201.710699461400509 ], [ 3082591.634912448935211, 2037206.394541954854503 ], [ 3082580.114492389373481, 2037210.282002088380978 ], [ 3082545.252104867249727, 2037222.046284147771075 ], [ 3082478.283867659047246, 2037244.644751813728362 ], [ 3082448.266157886944711, 2037254.774338975548744 ], [ 3082433.984684788621962, 2037259.593660186976194 ], [ 3082362.108313947916031, 2037283.848622546065599 ], [ 3082337.457554393913597, 2037357.36089514172636 ], [ 3082313.357149370480329, 2037429.232177610741928 ], [ 3082306.31484036706388, 2037450.233562107663602 ], [ 3082266.125886749476194, 2037570.085038614692166 ], [ 3082237.491664218716323, 2037655.478624864015728 ], [ 3082233.204557123128325, 2037668.263926211278886 ], [ 3082191.61459913989529, 2037790.342035691952333 ], [ 3082186.056725130416453, 2037799.635351117234677 ], [ 3082179.007763934321702, 2037811.422159884823486 ], [ 3082155.749058573972434, 2037850.31351423333399 ], [ 3082128.999752927571535, 2037895.041803822154179 ], [ 3082110.07876155897975, 2037926.680243437644094 ], [ 3082094.633239441551268, 2037952.507383965188637 ], [ 3082078.549801053944975, 2037979.401046041864902 ], [ 3082073.294064716435969, 2037988.189517490798607 ], [ 3082034.989039229229093, 2038052.241045908769593 ], [ 3082017.055683768354356, 2038082.228440250968561 ], [ 3082006.96968125551939, 2038092.082778682699427 ], [ 3081982.704127810895443, 2038115.791012417292222 ], [ 3081942.323075304273516, 2038155.244809103664011 ], [ 3081906.926714298315346, 2038189.828429848421365 ], [ 3081897.96993785072118, 2038198.393575330032036 ], [ 3081815.730022964533418, 2038283.947336966404691 ], [ 3081805.864490378648043, 2038291.955819234717637 ], [ 3081670.29279620340094, 2038402.007797985570505 ], [ 3081659.683447536081076, 2038410.620049212826416 ], [ 3081558.279126099310815, 2038466.511777844280005 ], [ 3081552.429638484958559, 2038479.028391874628142 ], [ 3081428.49740925244987, 2038744.218143758364022 ], [ 3081415.223113117273897, 2038772.622708816314116 ], [ 3081404.812614045105875, 2038784.524840789148584 ], [ 3081395.492770652286708, 2038793.761547910049558 ], [ 3081362.447840149514377, 2038825.721157108899206 ], [ 3081327.712090873625129, 2038846.441732487408444 ], [ 3081238.513169388286769, 2038899.651187934912741 ], [ 3081228.525807855650783, 2038905.608875450911 ], [ 3081210.274246308021247, 2038915.782458771485835 ], [ 3081200.990757702384144, 2038920.95713909342885 ], [ 3081173.149686318822205, 2038936.485917026875541 ], [ 3081157.78913511801511, 2038945.053550399141386 ], [ 3081081.750254859682173, 2038987.465745602268726 ], [ 3081027.769326005131006, 2039017.574659856967628 ], [ 3081015.946963168680668, 2039024.34934666659683 ], [ 3080990.91851721284911, 2039041.795316816074774 ], [ 3080934.185418225824833, 2039081.341350823175162 ], [ 3080897.199218860827386, 2039100.765524961054325 ], [ 3080866.878092197235674, 2039116.689414770808071 ], [ 3080842.070885534398258, 2039129.717567099258304 ], [ 3080812.129085629247129, 2039145.442353656049818 ], [ 3080803.030568922869861, 2039150.220668122172356 ], [ 3080789.665943466126919, 2039157.239420742262155 ], [ 3080770.394724791869521, 2039161.401074747322127 ], [ 3080749.242280263919383, 2039165.968928986461833 ], [ 3080737.281327998731285, 2039168.552014999790117 ], [ 3087198.221014999784529, 2039168.552014999790117 ], [ 3087198.221014999784529, 2035326.575701020658016 ], [ 3087176.557504263706505, 2035328.116808163002133 ] ] ], [ [ [ 3080171.951538381166756, 2039166.427023635013029 ], [ 3080157.230521922931075, 2039163.696205089101568 ], [ 3080120.191000539809465, 2039156.825083122821525 ], [ 3080079.861272595822811, 2039149.343725199345499 ], [ 3080063.35790541023016, 2039146.282213916070759 ], [ 3080031.739345628768206, 2039140.1099245660007 ], [ 3079979.869598610792309, 2039129.984508013585582 ], [ 3079955.333445345982909, 2039133.67157870111987 ], [ 3079931.157848909962922, 2039147.36620746483095 ], [ 3079893.758227951359004, 2039168.552014999790117 ], [ 3080183.406429315917194, 2039168.552014999790117 ], [ 3080171.951538381166756, 2039166.427023635013029 ] ] ] ] } }
]
}
