{
"type": "FeatureCollection",
"name": "Vadillo",
"crs": { "type": "name", "properties": { "name": "urn:ogc:def:crs:EPSG::3035" } },
"features": [
{ "type": "Feature", "properties": { "ENP_GRAL": 1.0, "ENP_GRAL_NAME": "Otros Parques", "color": "#38A800" }, "geometry": { "type": "MultiPolygon", "coordinates": [ [ [ [ 3239272.059573815669864, 2169551.26226855488494 ], [ 3239312.507419956848025, 2169550.75841085286811 ], [ 3239330.567253445740789, 2169542.779759129043669 ], [ 3239330.491040728986263, 2169508.367702024523169 ], [ 3239328.006572651211172, 2169471.294538564048707 ], [ 3239307.226539940573275, 2169420.02078605350107 ], [ 3239284.901446013711393, 2169372.00732559338212 ], [ 3239260.660231905989349, 2169338.489751676097512 ], [ 3239255.428965000901371, 2169331.07691536936909 ], [ 3239255.428965000901371, 2169547.807092219125479 ], [ 3239272.059573815669864, 2169551.26226855488494 ] ] ], [ [ [ 3239272.102777355816215, 2169232.59764369064942 ], [ 3239298.159807554911822, 2169243.314343138132244 ], [ 3239367.939152732491493, 2169208.667054592631757 ], [ 3239439.124447819776833, 2169174.240706697106361 ], [ 3239469.102068813052028, 2169153.740357175469398 ], [ 3239470.697593768592924, 2169151.170813769567758 ], [ 3239467.856591446325183, 2169145.635318366345018 ], [ 3239441.119150106329471, 2169128.934938786551356 ], [ 3239401.512515219394118, 2169100.968973102048039 ], [ 3239378.576445806771517, 2169069.251035624649376 ], [ 3239371.694823476951569, 2169002.565286144148558 ], [ 3239352.73897535353899, 2168949.949389552697539 ], [ 3239318.34341343678534, 2168895.812252829782665 ], [ 3239292.434296603314579, 2168864.603230484761298 ], [ 3239282.402280143462121, 2168837.880156809464097 ], [ 3239283.928283140994608, 2168787.020210543647408 ], [ 3239293.094862227328122, 2168732.869770440738648 ], [ 3239307.165568538941443, 2168698.187801838852465 ], [ 3239307.662873152177781, 2168660.655200652778149 ], [ 3239292.991873879916966, 2168616.485391129739583 ], [ 3239269.768208268098533, 2168582.790354995988309 ], [ 3239255.428965000901371, 2168563.02264970028773 ], [ 3239255.428965000901371, 2169242.463017627131194 ], [ 3239272.102777355816215, 2169232.59764369064942 ] ] ], [ [ [ 3239269.734187483321875, 2168480.546036951243877 ], [ 3239295.285306277219206, 2168448.066722053103149 ], [ 3239313.043862035498023, 2168410.754433124326169 ], [ 3239338.250720775686204, 2168348.928374035283923 ], [ 3239351.852482156828046, 2168304.212180516682565 ], [ 3239369.633845151402056, 2168246.632523966021836 ], [ 3239418.184393956325948, 2168260.000928734429181 ], [ 3239444.936575609259307, 2168262.750492007937282 ], [ 3239476.428157959133387, 2168256.613808213733137 ], [ 3239506.554072202183306, 2168234.506898961029947 ], [ 3239564.052618225105107, 2168205.897854119539261 ], [ 3239639.624871520325541, 2168169.328831326216459 ], [ 3239723.199617582373321, 2168125.351730559021235 ], [ 3239723.577552265487611, 2168103.005189697258174 ], [ 3239688.094887315295637, 2168068.5007264893502 ], [ 3239674.587869558483362, 2168050.250859103631228 ], [ 3239633.745718518272042, 2167952.62790841050446 ], [ 3239591.418739277403802, 2167845.097242039162666 ], [ 3239522.013496445026249, 2167671.123964849859476 ], [ 3239461.072395126335323, 2167520.072125081904233 ], [ 3239420.32555803284049, 2167416.360993080306798 ], [ 3239406.414794797543436, 2167384.203133708797395 ], [ 3239385.394899401813745, 2167365.034964999649674 ], [ 3239255.428965000901371, 2167365.034964999649674 ], [ 3239255.428965000901371, 2168501.741272204555571 ], [ 3239269.734187483321875, 2168480.546036951243877 ] ] ] ] } }
]
}
