{
"type": "FeatureCollection",
"name": "Vega_de_Espinareda",
"crs": { "type": "name", "properties": { "name": "urn:ogc:def:crs:EPSG::3035" } },
"features": [
{ "type": "Feature", "properties": { "ENP_GRAL": 1.0, "ENP_GRAL_NAME": "Otros Parques", "color": "#38A800" }, "geometry": { "type": "MultiPolygon", "coordinates": [ [ [ [ 2960838.678713170811534, 2349882.198805015068501 ], [ 2960714.784670128021389, 2349946.34102329891175 ], [ 2960558.191446186043322, 2350057.036817787215114 ], [ 2960558.175699323415756, 2350057.035202847793698 ], [ 2960558.012374419718981, 2350057.150636218022555 ], [ 2960358.307945444248617, 2350036.467959698289633 ], [ 2960193.284395998343825, 2350066.417528607882559 ], [ 2960115.519671713933349, 2350104.862334999721497 ], [ 2960976.096586869098246, 2350104.862334999721497 ], [ 2960838.678713170811534, 2349882.198805015068501 ] ] ], [ [ [ 2959778.457573937252164, 2350096.977801666595042 ], [ 2959644.879585378803313, 2350096.825949130114168 ], [ 2959608.302420435938984, 2350104.862334999721497 ], [ 2959823.303916781675071, 2350104.862334999721497 ], [ 2959778.457573937252164, 2350096.977801666595042 ] ] ] ] } },
{ "type": "Feature", "properties": { "ENP_GRAL": 5.0, "ENP_GRAL_NAME": "Espacios Protegidos Red Natura 2000", "color": "#A87000" }, "geometry": { "type": "MultiPolygon", "coordinates": [ [ [ [ 2955703.173730071634054, 2349836.484960780944675 ], [ 2956007.248566935770214, 2349690.604660306125879 ], [ 2955955.230235517490655, 2349628.554375268053263 ], [ 2955876.349142924882472, 2349555.760421325452626 ], [ 2955829.947484682314098, 2349511.860440044663846 ], [ 2955810.436200527008623, 2349498.980908008757979 ], [ 2955745.227486543357372, 2349455.936454514041543 ], [ 2955685.827436878811568, 2349427.333962970413268 ], [ 2955623.720890435855836, 2349408.330240386072546 ], [ 2955521.138923187740147, 2349397.652139750309289 ], [ 2955407.865852875635028, 2349397.008312980644405 ], [ 2955317.01508223079145, 2349481.960891097784042 ], [ 2955208.25739683676511, 2349572.074130127206445 ], [ 2955018.222734509035945, 2349730.551854768767953 ], [ 2954896.971263272687793, 2349812.679078130051494 ], [ 2954834.34496788866818, 2349843.282310735899955 ], [ 2954739.822993781417608, 2349889.471971502527595 ], [ 2954670.757843662053347, 2349936.807333189062774 ], [ 2954526.251379863359034, 2350104.862334999721497 ], [ 2955506.449546246789396, 2350104.862334999721497 ], [ 2955703.173730071634054, 2349836.484960780944675 ] ] ], [ [ [ 2951852.276149011682719, 2348001.707990676164627 ], [ 2952117.12915966194123, 2347223.736914357636124 ], [ 2952133.357937146909535, 2346820.281522433273494 ], [ 2952172.823832754977047, 2346777.534828855656087 ], [ 2952253.254548677243292, 2346639.927607506047934 ], [ 2952300.980720403604209, 2346439.137404943816364 ], [ 2952403.510377863422036, 2346151.645984723698348 ], [ 2952481.192537733353674, 2346097.384065080434084 ], [ 2952592.844517592806369, 2346050.675216727424413 ], [ 2952791.084656230174005, 2346001.454257860779762 ], [ 2952849.204674392472953, 2345973.617501866538078 ], [ 2952925.019455345347524, 2345912.071430762298405 ], [ 2952631.711648009717464, 2345563.825138875283301 ], [ 2952604.897066436707973, 2345505.671971663832664 ], [ 2952692.324598571285605, 2345164.962803457863629 ], [ 2952721.173405285924673, 2345052.539930133149028 ], [ 2952798.827162190340459, 2344916.455751654226333 ], [ 2952667.741673140786588, 2344870.125956132076681 ], [ 2952506.002616678830236, 2344913.733217556960881 ], [ 2952427.014799400232732, 2344868.241355168633163 ], [ 2952418.786460814066231, 2344863.502209145575762 ], [ 2952309.946909146383405, 2344847.69333157595247 ], [ 2952009.526301775127649, 2344658.30104889255017 ], [ 2951806.584377015009522, 2344617.90968709345907 ], [ 2951746.059724992141128, 2344545.550566215068102 ], [ 2951623.174665975384414, 2344151.107788281515241 ], [ 2951386.028697166126221, 2343787.585413371678442 ], [ 2951250.491240940056741, 2343812.204530538991094 ], [ 2951154.086580025032163, 2343810.402423785999417 ], [ 2951079.132034159265459, 2343791.490006058942527 ], [ 2951024.988262979313731, 2343727.12105678813532 ], [ 2950939.095653638709337, 2343654.287921101320535 ], [ 2950867.09749245736748, 2343616.542078081984073 ], [ 2950793.935085948091, 2343614.584746817592531 ], [ 2950700.976531902328134, 2343596.910018695984036 ], [ 2950620.474939062260091, 2343544.444472415372729 ], [ 2950493.329864666797221, 2343485.205359037034214 ], [ 2950417.899517949670553, 2343438.934484099037945 ], [ 2950335.933137211017311, 2343371.488766411319375 ], [ 2950224.019280174281448, 2343294.235446652397513 ], [ 2950187.868260197807103, 2343253.027969865128398 ], [ 2950108.394057528115809, 2343114.991575498133898 ], [ 2950026.271316532045603, 2343034.360077910590917 ], [ 2949970.807505093980581, 2342992.595096471719444 ], [ 2949974.668868253007531, 2342807.90860580932349 ], [ 2950222.582157372962683, 2342600.234715964179486 ], [ 2950271.552702575922012, 2342541.531436900608242 ], [ 2950276.019273178651929, 2342452.285457788035274 ], [ 2950264.637937028426677, 2342310.012237502727658 ], [ 2950206.026167474687099, 2342035.027919199317694 ], [ 2950177.083677658811212, 2341982.345471281092614 ], [ 2950112.30791533831507, 2341908.728268954902887 ], [ 2949980.984971429686993, 2341707.941462047863752 ], [ 2949801.394213723018765, 2341478.314284971449524 ], [ 2949523.992703774943948, 2341428.076743434648961 ], [ 2949438.089848258998245, 2341379.644550790078938 ], [ 2949351.218718447722495, 2341306.992331126704812 ], [ 2949285.767672189045697, 2341272.124779767356813 ], [ 2949130.130089487880468, 2341242.460226038936526 ], [ 2949027.737940748222172, 2341118.755380068905652 ], [ 2948773.187659692019224, 2341188.380609209649265 ], [ 2948698.06926210783422, 2341174.582769487984478 ], [ 2948445.441467132419348, 2341023.28451191354543 ], [ 2948397.680272142402828, 2340966.906909849029034 ], [ 2948263.644642339088023, 2340945.518362735863775 ], [ 2948220.200365, 2340922.003505884669721 ], [ 2948220.200365, 2350104.862334999721497 ], [ 2951602.890998202841729, 2350104.862334999721497 ], [ 2951852.276149011682719, 2348001.707990676164627 ] ] ] ] } }
]
}
