{
"type": "FeatureCollection",
"name": "Villaespasa",
"crs": { "type": "name", "properties": { "name": "urn:ogc:def:crs:EPSG::3035" } },
"features": [
{ "type": "Feature", "properties": { "ENP_GRAL": 1.0, "ENP_GRAL_NAME": "Otros Parques", "color": "#38A800" }, "geometry": { "type": "Polygon", "coordinates": [ [ [ 3211964.511644227430224, 2207110.60997300548479 ], [ 3212143.053357041440904, 2206953.000339819118381 ], [ 3212233.387337181717157, 2206880.855423772707582 ], [ 3212311.68036880530417, 2206811.627416154835373 ], [ 3212363.412159317173064, 2206775.715283549390733 ], [ 3212391.350529053714126, 2206755.993887562304735 ], [ 3212417.326925644651055, 2206738.030960640870035 ], [ 3212443.900591350160539, 2206717.385625198483467 ], [ 3212473.741527174599469, 2206694.620440478436649 ], [ 3212502.741789692081511, 2206673.033767372835428 ], [ 3212522.780696152243763, 2206656.628795275930315 ], [ 3212556.457326558418572, 2206635.25241310056299 ], [ 3212592.331555241253227, 2206608.335286018904299 ], [ 3212645.044166878331453, 2206570.730004333890975 ], [ 3212676.891534750815481, 2206547.612908055540174 ], [ 3212701.282249411568046, 2206529.412992930505425 ], [ 3212718.894605663605034, 2206513.949529523495585 ], [ 3212735.680894802324474, 2206496.568868101574481 ], [ 3212754.310923113953322, 2206477.833614814095199 ], [ 3212773.538353299722075, 2206456.416040781885386 ], [ 3212795.058866628445685, 2206426.86307394457981 ], [ 3212806.099031840451062, 2206405.851503564044833 ], [ 3212833.651076518930495, 2206328.750616526696831 ], [ 3212849.280568780377507, 2206288.478592066559941 ], [ 3212856.504405443556607, 2206201.585081189405173 ], [ 3212768.318905994296074, 2206200.775265084579587 ], [ 3212711.206774509046227, 2206169.740491599310189 ], [ 3212625.003377603366971, 2206083.11553464550525 ], [ 3212559.826076697558165, 2205993.083695683162659 ], [ 3212493.970063862856477, 2205899.550249060615897 ], [ 3212446.154619751498103, 2205835.57896797824651 ], [ 3212406.838241563178599, 2205916.58732670918107 ], [ 3212406.528297587763518, 2205916.701862841844559 ], [ 3212399.887167048174888, 2205909.518560329452157 ], [ 3212388.84569667186588, 2205891.741459979210049 ], [ 3212382.009898467920721, 2205877.531865726225078 ], [ 3212367.491154614835978, 2205856.780531839933246 ], [ 3212335.780969319399446, 2205809.942355073057115 ], [ 3212287.865578019991517, 2205738.290230181533843 ], [ 3212263.07522809272632, 2205700.764875884633511 ], [ 3212258.053113822825253, 2205693.16285500023514 ], [ 3211943.812554999254644, 2205693.16285500023514 ], [ 3211943.812554999254644, 2207132.571231633424759 ], [ 3211964.511644227430224, 2207110.60997300548479 ] ] ] } }
]
}
