{
"type": "FeatureCollection",
"name": "Villalpando",
"crs": { "type": "name", "properties": { "name": "urn:ogc:def:crs:EPSG::3035" } },
"features": [
{ "type": "Feature", "properties": { "ENP_GRAL": 2.0, "ENP_GRAL_NAME": "Reservas Naturales", "color": "#FFD37F" }, "geometry": { "type": "Polygon", "coordinates": [ [ [ 3040000.735664860811085, 2222248.516944153700024 ], [ 3040000.906838817987591, 2222248.370819634757936 ], [ 3040071.246766707394272, 2222156.836180332116783 ], [ 3040071.320893325842917, 2222156.714560890104622 ], [ 3040108.266894443426281, 2222111.065103576052934 ], [ 3040137.80241490341723, 2222082.824318039696664 ], [ 3040235.834893844556063, 2221987.491332007106394 ], [ 3040249.803356706164777, 2221973.469819790683687 ], [ 3040341.505821103230119, 2221881.381413652561605 ], [ 3040362.68109099753201, 2221859.984593673143536 ], [ 3040415.222880360670388, 2221807.209898593369871 ], [ 3040444.238472660072148, 2221778.071935578715056 ], [ 3040469.022350152954459, 2221756.278893351089209 ], [ 3040479.248706062324345, 2221747.318168653640896 ], [ 3040482.941714999265969, 2221729.407389908097684 ], [ 3040532.163487006910145, 2221680.866727354004979 ], [ 3040567.981533518992364, 2221645.690395374316722 ], [ 3040605.859471829608083, 2221608.347823859192431 ], [ 3040661.204386815894395, 2221553.940425336826593 ], [ 3040696.754324385430664, 2221518.934967425651848 ], [ 3040697.732407781295478, 2221505.208042275160551 ], [ 3040712.036462052725255, 2221520.943650407250971 ], [ 3040720.927015065215528, 2221512.42297540884465 ], [ 3040906.827126123011112, 2221322.68319578608498 ], [ 3040923.385689332149923, 2221304.818832663353533 ], [ 3040924.728719363920391, 2221298.305841487832367 ], [ 3040928.921361922286451, 2221292.102815608028322 ], [ 3040936.224104721099138, 2221282.954090286511928 ], [ 3040946.651366838254035, 2221275.280527217779309 ], [ 3040947.913148841820657, 2221274.962171467021108 ], [ 3040956.088816528208554, 2221273.001875292509794 ], [ 3040965.135582539252937, 2221267.323151904623955 ], [ 3040967.063519560731947, 2221264.161312654148787 ], [ 3041058.533517523203045, 2221178.927046567201614 ], [ 3041091.893297069706023, 2221146.841780771501362 ], [ 3041176.194825308863074, 2221066.09252017410472 ], [ 3041222.176931783556938, 2221021.252580044791102 ], [ 3041229.452609356027097, 2221014.168772103730589 ], [ 3041250.76609156280756, 2220993.35561433667317 ], [ 3041274.527595851570368, 2220970.278242969885468 ], [ 3041283.692005100194365, 2220961.174328554421663 ], [ 3041296.063515880145133, 2220949.100263745058328 ], [ 3041299.664308003149927, 2220945.619224820751697 ], [ 3041298.643674538470805, 2220947.831783595494926 ], [ 3041296.466245552059263, 2220953.423382735811174 ], [ 3041293.746843525208533, 2220959.769002770073712 ], [ 3041291.848499283194542, 2220964.36404526559636 ], [ 3041289.351593593135476, 2220970.344799201004207 ], [ 3041287.025887817610055, 2220976.179533795453608 ], [ 3041284.152768105268478, 2220983.181464220862836 ], [ 3041310.699925730470568, 2221024.227734456304461 ], [ 3041328.650649198330939, 2220996.134082317817956 ], [ 3041341.735300899483263, 2220983.15978917805478 ], [ 3041339.165279673412442, 2220974.444527582265437 ], [ 3041359.01683471351862, 2220945.253833709284663 ], [ 3041385.131428008899093, 2220947.410520671866834 ], [ 3041386.095376257784665, 2220945.829671919345856 ], [ 3041418.821863270364702, 2220897.543830569367856 ], [ 3041419.14131176052615, 2220897.15448054112494 ], [ 3041421.764881388284266, 2220892.582261776551604 ], [ 3041438.990073072724044, 2220905.008232950698584 ], [ 3041484.381168557330966, 2220872.048566459212452 ], [ 3041484.455317251384258, 2220871.927049125544727 ], [ 3041513.127245128154755, 2220856.151484477333724 ], [ 3041533.291804200969636, 2220841.802444759756327 ], [ 3041519.727687470149249, 2220813.943868630100042 ], [ 3041513.639550008811057, 2220804.264184339903295 ], [ 3041516.333103513810784, 2220801.732303395867348 ], [ 3041549.744548351503909, 2220769.429059254471213 ], [ 3041546.59112556418404, 2220759.11170688457787 ], [ 3041559.243077279534191, 2220747.790260647889227 ], [ 3041548.41109568066895, 2220740.233653392177075 ], [ 3041607.90124305151403, 2220690.751588928047568 ], [ 3041615.43441525939852, 2220684.323176230303943 ], [ 3041627.053702862001956, 2220674.29135125875473 ], [ 3041661.768790560774505, 2220644.026054469402879 ], [ 3041664.14281103014946, 2220641.883550447411835 ], [ 3041694.932069985661656, 2220615.901629005093127 ], [ 3041725.224043598398566, 2220589.119189244695008 ], [ 3041731.221841906197369, 2220583.592807834036648 ], [ 3041741.334054599516094, 2220574.147083763964474 ], [ 3041745.985058579593897, 2220569.886587231419981 ], [ 3041761.727721557952464, 2220577.335936008021235 ], [ 3041777.454751208424568, 2220578.615489163435996 ], [ 3041798.871381311677396, 2220583.089698092546314 ], [ 3041813.204678160138428, 2220583.691913175862283 ], [ 3041821.106883049476892, 2220565.74888753797859 ], [ 3041809.306839349679649, 2220561.934992238879204 ], [ 3041794.925416486803442, 2220557.640664546284825 ], [ 3041784.85183058027178, 2220556.786807226017118 ], [ 3041803.802120385691524, 2220511.566387556493282 ], [ 3041818.608936382923275, 2220477.989988004323095 ], [ 3041819.270381279755384, 2220468.150705634616315 ], [ 3041814.286755328532308, 2220453.561936573591083 ], [ 3041877.67422210611403, 2220407.521996086928993 ], [ 3041904.253475327044725, 2220387.233165903948247 ], [ 3041964.374776186887175, 2220341.297323826234788 ], [ 3041955.543149806559086, 2220336.117054211907089 ], [ 3041954.103574064560235, 2220335.245473428163677 ], [ 3041953.812416433356702, 2220335.318974809721112 ], [ 3041945.121760052163154, 2220335.968251178041101 ], [ 3041942.500018470454961, 2220334.880604563746601 ], [ 3041925.675580074079335, 2220349.003739897161722 ], [ 3041899.406918637920171, 2220364.069402546621859 ], [ 3041885.135046520270407, 2220369.83127525402233 ], [ 3041865.878858460579067, 2220368.413185015320778 ], [ 3041900.101051753386855, 2220309.461602000519633 ], [ 3041902.428073959425092, 2220305.375907322391868 ], [ 3041898.823623067699373, 2220303.610041439533234 ], [ 3041895.699151153676212, 2220302.134612916968763 ], [ 3041892.648731848224998, 2220300.537686044815928 ], [ 3041888.107520662248135, 2220298.287909258622676 ], [ 3041885.080101595260203, 2220296.787980745080858 ], [ 3041881.932630152907223, 2220295.215555006172508 ], [ 3041878.328278524801135, 2220293.449672749266028 ], [ 3041896.196580848656595, 2220260.644438924733549 ], [ 3041901.472243793308735, 2220251.184452651999891 ], [ 3041905.664052582345903, 2220243.232665962073952 ], [ 3041910.494811236858368, 2220234.50238798558712 ], [ 3041914.264517481438816, 2220227.377342250663787 ], [ 3041921.747349842451513, 2220213.759037721902132 ], [ 3041937.163258139509708, 2220185.379988357890397 ], [ 3041942.741063767112792, 2220175.020560747478157 ], [ 3041946.556633211672306, 2220168.089847707655281 ], [ 3041948.267556049395353, 2220164.879881041590124 ], [ 3041951.415695973671973, 2220159.043637016788125 ], [ 3041953.520328582264483, 2220155.322792952880263 ], [ 3041970.054128344170749, 2220124.706717380322516 ], [ 3042030.674866243265569, 2220013.305983017198741 ], [ 3042050.899047901853919, 2219976.09961367584765 ], [ 3042078.360696450807154, 2219925.542775567155331 ], [ 3042104.185705161653459, 2219878.074294408783317 ], [ 3042107.761395409703255, 2219870.998381098732352 ], [ 3042134.896117944736034, 2219817.746044707484543 ], [ 3042136.829499803483486, 2219814.171349611133337 ], [ 3042149.162073948420584, 2219794.081940057687461 ], [ 3042162.977642492391169, 2219771.560518848244101 ], [ 3042229.910375931300223, 2219678.633517340756953 ], [ 3042236.330382226966321, 2219672.280524954199791 ], [ 3042281.988818473182619, 2219626.496890248730779 ], [ 3042294.02402866538614, 2219614.302781752776355 ], [ 3042358.304633034393191, 2219551.98801561165601 ], [ 3042392.624967625364661, 2219518.737285871990025 ], [ 3042389.04200841113925, 2219497.004320200998336 ], [ 3042392.119315607473254, 2219487.378932596649975 ], [ 3042401.613514341879636, 2219475.311499461531639 ], [ 3042430.496583740226924, 2219449.092004404403269 ], [ 3042443.109877134673297, 2219438.912898413836956 ], [ 3042470.048569684382528, 2219417.093953578732908 ], [ 3042484.282389308791608, 2219405.065543775912374 ], [ 3042507.442368866875768, 2219385.537629551719874 ], [ 3042537.793423746246845, 2219359.873873543459922 ], [ 3042587.348995269741863, 2219308.374824211467057 ], [ 3042598.951361261308193, 2219297.833478975575417 ], [ 3042618.94872136041522, 2219279.720938973128796 ], [ 3042645.452408878132701, 2219256.057021209504455 ], [ 3042655.204090043902397, 2219244.644978034775704 ], [ 3042673.971385552547872, 2219222.624188700690866 ], [ 3042704.612597704865038, 2219185.980783600360155 ], [ 3042712.090431922115386, 2219172.775880746077746 ], [ 3042722.66001661401242, 2219154.366709982976317 ], [ 3042749.088467134162784, 2219119.918000186793506 ], [ 3042758.613361017778516, 2219101.875244700349867 ], [ 3042765.90800609998405, 2219087.89342991868034 ], [ 3042784.394915546290576, 2219046.805264757480472 ], [ 3042806.199528855737299, 2219005.394602034240961 ], [ 3042808.389345194213092, 2219000.726389806717634 ], [ 3042811.052443197928369, 2218995.012844529468566 ], [ 3042866.311236907728016, 2218940.223827833775431 ], [ 3042935.04080370021984, 2218839.644762821029872 ], [ 3042942.479595547076315, 2218827.581792815588415 ], [ 3043031.368859116919339, 2218683.847427774686366 ], [ 3043033.416962623596191, 2218680.758467694278806 ], [ 3043035.44213586859405, 2218677.572295377030969 ], [ 3043114.959823329001665, 2218558.633351335767657 ], [ 3043115.256406716071069, 2218558.147004792001098 ], [ 3043211.231772197410464, 2218420.03482600627467 ], [ 3043219.590193259529769, 2218407.945868759881705 ], [ 3043282.080400378443301, 2218316.659896853845567 ], [ 3043265.839753756299615, 2218306.660407033748925 ], [ 3043319.239669042639434, 2218196.883609608747065 ], [ 3043315.557188271544874, 2218179.086304617114365 ], [ 3043316.519312213174999, 2218164.850335764233023 ], [ 3043316.700656430795789, 2218152.972052692901343 ], [ 3043330.831498653627932, 2218139.632929102517664 ], [ 3043350.661804503761232, 2218126.9139369209297 ], [ 3043366.949647521600127, 2218120.541809083428234 ], [ 3043399.789046669378877, 2218080.567770344670862 ], [ 3043448.209969725459814, 2218018.143050814978778 ], [ 3043381.14818318374455, 2217981.452459413092583 ], [ 3043372.551577942445874, 2218006.051198034547269 ], [ 3043365.951079654507339, 2218016.873408467043191 ], [ 3043357.162139204330742, 2218015.797897757031024 ], [ 3043353.234095239080489, 2218007.425598967354745 ], [ 3043348.731282972730696, 2218002.285039514303207 ], [ 3043341.822464505210519, 2218003.51328786322847 ], [ 3043335.351602877490222, 2218020.99070228356868 ], [ 3043319.176370644941926, 2218053.571691749151796 ], [ 3043307.98521386180073, 2218084.175292991101742 ], [ 3043294.867754431441426, 2218130.595663383137435 ], [ 3043289.41349062230438, 2218148.022633714601398 ], [ 3043285.871110700070858, 2218154.369380399119109 ], [ 3043235.669957026839256, 2218142.955835909582675 ], [ 3043240.044444867409766, 2218134.032657441683114 ], [ 3043241.017342031002045, 2218128.128131438046694 ], [ 3043237.889772275928408, 2218121.406024277675897 ], [ 3043233.735863585025072, 2218117.309258629567921 ], [ 3043226.859791683033109, 2218116.059862498193979 ], [ 3043211.581801694817841, 2218121.045501999557018 ], [ 3043194.870748592540622, 2218126.495539184659719 ], [ 3043184.551559789571911, 2218135.066215981263667 ], [ 3043178.783246819861233, 2218143.31213375646621 ], [ 3043177.247495767660439, 2218153.37136061117053 ], [ 3043181.568293770775199, 2218159.483822579029948 ], [ 3043185.854085638187826, 2218164.576253349892795 ], [ 3043187.667668894398957, 2218170.086477275472134 ], [ 3043186.875789727084339, 2218173.270121035166085 ], [ 3043183.902888, 2218176.798164679203182 ], [ 3043180.219943543896079, 2218177.3155363406986 ], [ 3043176.01039578858763, 2218175.599324263632298 ], [ 3043166.947708367370069, 2218175.107323508709669 ], [ 3043161.860129004344344, 2218175.773333311546594 ], [ 3043156.931836983188987, 2218175.37018327973783 ], [ 3043149.67844867054373, 2218173.3928661220707 ], [ 3043142.696731287054718, 2218167.334243981167674 ], [ 3043135.916631938423961, 2218164.311505896504968 ], [ 3043125.834207800216973, 2218167.780743981245905 ], [ 3043110.287794605828822, 2218182.094509547110647 ], [ 3043092.484905896242708, 2218195.125277592800558 ], [ 3043086.197600825689733, 2218204.222389640286565 ], [ 3043077.071093331091106, 2218230.498462855815887 ], [ 3043052.594545644707978, 2218274.537058174610138 ], [ 3043038.275386984460056, 2218269.197454149834812 ], [ 3043013.832328588236123, 2218264.971179942134768 ], [ 3043005.872226277366281, 2218265.229981640353799 ], [ 3042998.613255918491632, 2218272.823031804524362 ], [ 3042986.272149001248181, 2218289.826619348954409 ], [ 3042972.851289072539657, 2218306.176472474820912 ], [ 3042967.625343749299645, 2218304.510927949100733 ], [ 3042966.550079480279237, 2218301.695342116989195 ], [ 3042963.627403859980404, 2218294.09834195766598 ], [ 3042961.122481277212501, 2218287.836452129296958 ], [ 3042956.872688412666321, 2218276.355582501739264 ], [ 3042954.462710632942617, 2218266.57136239670217 ], [ 3042948.074249914847314, 2218259.539951840415597 ], [ 3042937.406318755820394, 2218257.909526788629591 ], [ 3042920.867849730886519, 2218255.805017315782607 ], [ 3042896.042180357966572, 2218251.263700536452234 ], [ 3042883.633597045205534, 2218251.40987580223009 ], [ 3042872.444276380352676, 2218256.290324599482119 ], [ 3042855.088839534670115, 2218262.931920766830444 ], [ 3042847.568222002591938, 2218262.874127988703549 ], [ 3042832.382072208914906, 2218259.090866034850478 ], [ 3042810.017805316485465, 2218254.957583707757294 ], [ 3042794.060597941279411, 2218250.957265556789935 ], [ 3042776.234437229111791, 2218234.669772887602448 ], [ 3042767.21229659859091, 2218225.627540556248277 ], [ 3042758.352554233279079, 2218220.762857501860708 ], [ 3042737.449674159288406, 2218215.849358935840428 ], [ 3042712.919523494318128, 2218209.072817739564925 ], [ 3042692.392878854181617, 2218203.138406087644398 ], [ 3042685.586764086969197, 2218194.771798429545015 ], [ 3042675.202589527703822, 2218180.825566438958049 ], [ 3042657.968593486119062, 2218161.816339858341962 ], [ 3042641.862286560237408, 2218147.152814834844321 ], [ 3042641.336580334231257, 2218146.66812727227807 ], [ 3042628.059072375297546, 2218135.715320646762848 ], [ 3042616.122983320616186, 2218123.90975284948945 ], [ 3042596.323883621487767, 2218112.338549023028463 ], [ 3042573.509364052675664, 2218100.190322192851454 ], [ 3042551.603311751969159, 2218088.841964363120496 ], [ 3042529.732076913118362, 2218078.513682692777365 ], [ 3042498.361037788912654, 2218062.350378759671003 ], [ 3042463.566575555130839, 2218050.857757988851517 ], [ 3042433.229190468788147, 2218044.311409079004079 ], [ 3042405.704383958131075, 2218033.557174005545676 ], [ 3042384.41774133220315, 2218026.579870572779328 ], [ 3042345.193083348218352, 2218026.391176210250705 ], [ 3042347.815390416420996, 2218000.006450101733208 ], [ 3042354.478595791384578, 2217960.666716006118804 ], [ 3042356.699708231724799, 2217931.708084086421877 ], [ 3042356.052409534342587, 2217909.337848532944918 ], [ 3042354.728908108081669, 2217892.385698272846639 ], [ 3042353.47535167215392, 2217868.316273402422667 ], [ 3042353.72042647562921, 2217838.827186060138047 ], [ 3042358.164343167096376, 2217802.722688126843423 ], [ 3042361.533701080828905, 2217783.866554590407759 ], [ 3042356.236153742298484, 2217767.505335426423699 ], [ 3042352.993910073302686, 2217731.076142978854477 ], [ 3042200.634946099948138, 2217604.778511241078377 ], [ 3042177.042951251845807, 2217591.07718114182353 ], [ 3042149.337187912780792, 2217583.043851078953594 ], [ 3042119.062075290828943, 2217575.452791058924049 ], [ 3042088.814965370576829, 2217576.70350934099406 ], [ 3042059.739057593978941, 2217578.99635695014149 ], [ 3042033.489946464076638, 2217581.502153938636184 ], [ 3042017.100863813888282, 2217580.903447929769754 ], [ 3042012.578259086236358, 2217580.912481314502656 ], [ 3042006.114395129494369, 2217581.41122267069295 ], [ 3042016.687957366928458, 2217568.248899464961141 ], [ 3042042.095926898531616, 2217543.421650383621454 ], [ 3042064.96967011410743, 2217510.899558358360082 ], [ 3042072.261585418134928, 2217500.828706533648074 ], [ 3042086.737447401508689, 2217481.537329698912799 ], [ 3042099.314836430363357, 2217457.683287896681577 ], [ 3042111.20056414976716, 2217442.235092277172953 ], [ 3042120.96171629242599, 2217426.499600290320814 ], [ 3042115.951113783754408, 2217412.226826218888164 ], [ 3042112.828103700187057, 2217403.342743632383645 ], [ 3042111.717350029852241, 2217388.600666547659785 ], [ 3042117.914690250065178, 2217371.706341062206775 ], [ 3042129.756982605904341, 2217350.404285554774106 ], [ 3042142.16738049685955, 2217333.691938163712621 ], [ 3042145.041663971263915, 2217317.53311440628022 ], [ 3042145.414937134832144, 2217311.265372447203845 ], [ 3042146.235546947456896, 2217298.608393509872258 ], [ 3042157.30898857396096, 2217280.587103438563645 ], [ 3042164.650252219289541, 2217266.799815917853266 ], [ 3042167.409505614079535, 2217239.248963156715035 ], [ 3042172.45590570801869, 2217207.005503006279469 ], [ 3042176.074046138674021, 2217193.128442819230258 ], [ 3042179.800077374093235, 2217178.401082473807037 ], [ 3042184.997952036559582, 2217151.161183602176607 ], [ 3042199.065787872299552, 2217117.053734848275781 ], [ 3042208.000888642854989, 2217094.324386106804013 ], [ 3042219.387991618365049, 2217065.420507311355323 ], [ 3042232.869548459071666, 2217024.464327778667212 ], [ 3042245.21683332324028, 2216986.984126529656351 ], [ 3042261.328722863923758, 2216931.885850052349269 ], [ 3042258.436193566769361, 2216896.500524307601154 ], [ 3042264.730413655750453, 2216848.611824537627399 ], [ 3042272.744488797150552, 2216802.347147630527616 ], [ 3042273.639134801458567, 2216758.598545962944627 ], [ 3042274.239483711775392, 2216749.804256596136838 ], [ 3042274.71445498149842, 2216741.350303011480719 ], [ 3042275.121650204528123, 2216734.353877279907465 ], [ 3042290.151193282566965, 2216693.419248834718019 ], [ 3042306.300725507549942, 2216653.745475120842457 ], [ 3042314.261239890940487, 2216613.359323624521494 ], [ 3042325.039579988457263, 2216577.509783199988306 ], [ 3042332.889315604232252, 2216532.727377761155367 ], [ 3042345.697616585530341, 2216491.53006925387308 ], [ 3042357.572160208597779, 2216455.095525645185262 ], [ 3042370.032049163244665, 2216423.760772523004562 ], [ 3042374.398620939813554, 2216410.003942529670894 ], [ 3042376.895469971001148, 2216402.274723994545639 ], [ 3042379.842826096341014, 2216393.402955616358668 ], [ 3042393.02611723728478, 2216358.593334689270705 ], [ 3042394.383067469578236, 2216354.752834733109921 ], [ 3042395.580683774314821, 2216351.981390567030758 ], [ 3042396.635519461240619, 2216349.040201572701335 ], [ 3042397.536533459555358, 2216346.755101890768856 ], [ 3042443.263947669416666, 2216354.462012520059943 ], [ 3042453.680021193809807, 2216355.024419669993222 ], [ 3042465.641750608570874, 2216352.110284287016839 ], [ 3042485.441705362871289, 2216345.367093558423221 ], [ 3042490.882706779055297, 2216343.583213579375297 ], [ 3042496.22673348756507, 2216341.823715828359127 ], [ 3042537.506084940861911, 2216329.354307991452515 ], [ 3042551.135260201059282, 2216326.534105942584574 ], [ 3042501.447526816744357, 2216250.992598940618336 ], [ 3042496.943993280176073, 2216244.103146239183843 ], [ 3042385.736437313258648, 2216075.648412972223014 ], [ 3042404.907506974879652, 2215935.702811054419726 ], [ 3042409.592392235994339, 2215873.001510532572865 ], [ 3042424.022775042802095, 2215869.502212272956967 ], [ 3042527.718890904448926, 2215861.480223787017167 ], [ 3042537.132750919088721, 2215862.32965599745512 ], [ 3042554.042052630800754, 2215863.826690970920026 ], [ 3042633.960236145183444, 2215875.668741627130657 ], [ 3042636.374178274534643, 2215797.790219448041171 ], [ 3042605.686311962082982, 2215701.200581150129437 ], [ 3042589.515560080762953, 2215638.709908912423998 ], [ 3042576.755097899585962, 2215588.940469439141452 ], [ 3042540.391380522865802, 2215470.015235511120409 ], [ 3042523.620370818767697, 2215405.412456774152815 ], [ 3042525.16797557240352, 2215394.527558951638639 ], [ 3042527.785124575253576, 2215375.96491307253018 ], [ 3042546.366180182434618, 2215275.489509345497936 ], [ 3042556.311127118300647, 2215215.158066471107304 ], [ 3042553.683623945806175, 2215158.203304874710739 ], [ 3042553.37986339814961, 2215133.792574340943247 ], [ 3042553.177940675057471, 2215121.604146830737591 ], [ 3042552.369935582391918, 2215108.551233533304185 ], [ 3042551.918801166582853, 2215101.424144364893436 ], [ 3042542.621782132424414, 2215100.348880847916007 ], [ 3042526.144578693434596, 2215098.287895257584751 ], [ 3042515.928557904437184, 2215097.010098420083523 ], [ 3042509.50939975399524, 2215095.455333272926509 ], [ 3042501.472840588539839, 2215093.508960083127022 ], [ 3042482.391355346888304, 2215085.253085490781814 ], [ 3042471.330611187964678, 2215076.887157929129899 ], [ 3042461.122344740666449, 2215069.166039236821234 ], [ 3042449.108035875018686, 2215062.18963913526386 ], [ 3042432.129993613809347, 2215052.330916258972138 ], [ 3042410.274952334351838, 2215044.47051161993295 ], [ 3042401.561141864396632, 2215036.882028653286397 ], [ 3042390.551691940054297, 2215027.294355339370668 ], [ 3042378.175283794291317, 2215015.400585839990526 ], [ 3042365.992633390240371, 2214995.646422752644867 ], [ 3042360.134040989913046, 2214986.146671354304999 ], [ 3042356.122061351314187, 2214978.206473765429109 ], [ 3042348.468844764865935, 2214963.059842232614756 ], [ 3042317.083361827302724, 2214902.89816883765161 ], [ 3042297.216451691929251, 2214865.545244482345879 ], [ 3042280.085310064256191, 2214838.767858837731183 ], [ 3042276.202930754981935, 2214835.259511960670352 ], [ 3042271.647434348240495, 2214831.142852610908449 ], [ 3042259.977936360053718, 2214823.589391729328781 ], [ 3042246.491717591416091, 2214814.838536344468594 ], [ 3042215.386807378381491, 2214787.519391098991036 ], [ 3042207.14043649379164, 2214776.712920605204999 ], [ 3042199.027450745925307, 2214760.502124923281372 ], [ 3042179.492484674789011, 2214722.074574341997504 ], [ 3042177.370951102580875, 2214718.382902281824499 ], [ 3042166.480687508359551, 2214699.432041885331273 ], [ 3042144.839738565962762, 2214672.345964973792434 ], [ 3042113.000206734519452, 2214639.270291284192353 ], [ 3042077.038428877480328, 2214607.643831435125321 ], [ 3042033.307273805141449, 2214574.364024642389268 ], [ 3042012.67201001662761, 2214555.320923580788076 ], [ 3041994.360581173561513, 2214533.120460832025856 ], [ 3041979.342942984309047, 2214511.852620562538505 ], [ 3041971.16494549671188, 2214493.104836959857494 ], [ 3041968.992348396219313, 2214488.124175045639277 ], [ 3041963.058125336188823, 2214458.528423222247511 ], [ 3041956.381518042646348, 2214420.639551795087755 ], [ 3041954.372278591617942, 2214405.652633948251605 ], [ 3041950.240860873833299, 2214374.837634149473161 ], [ 3041946.331412120722234, 2214354.425222782418132 ], [ 3041945.503728803247213, 2214350.103458432015032 ], [ 3041939.508504048921168, 2214338.183127767406404 ], [ 3041931.021965834312141, 2214320.922508915886283 ], [ 3041927.475002982188016, 2214315.48722051596269 ], [ 3041922.243542634882033, 2214307.470574657898396 ], [ 3041908.707107877358794, 2214299.033375422935933 ], [ 3041902.017535923980176, 2214293.430150952655822 ], [ 3041894.04134145192802, 2214289.884953846223652 ], [ 3041865.543017211835831, 2214277.326839212328196 ], [ 3041842.295558013953269, 2214264.750063559040427 ], [ 3041830.865614149719477, 2214258.566546899266541 ], [ 3041819.989546705968678, 2214254.018068151548505 ], [ 3041807.618130771443248, 2214250.24514675186947 ], [ 3041797.60599766112864, 2214247.267722812481225 ], [ 3041771.14626948395744, 2214242.872031544800848 ], [ 3041758.785385051742196, 2214236.051603593863547 ], [ 3041749.656150076538324, 2214229.159805600065738 ], [ 3041742.208779240958393, 2214224.504560013301671 ], [ 3041739.359112221747637, 2214223.187813935801387 ], [ 3041734.331060764379799, 2214220.941640042699873 ], [ 3041731.783244130201638, 2214217.743427023757249 ], [ 3041722.783289812505245, 2214206.66610570019111 ], [ 3041709.186334490310401, 2214187.27573583368212 ], [ 3041683.87055833498016, 2214155.670816953293979 ], [ 3041659.903399894945323, 2214123.012186486739665 ], [ 3041639.776224154047668, 2214094.639903373084962 ], [ 3041630.053514222614467, 2214079.1237728218548 ], [ 3041602.430026002693921, 2214050.775015026330948 ], [ 3041576.244481135625392, 2214028.767364131752402 ], [ 3041562.560141589026898, 2214015.686899351887405 ], [ 3041553.105059352237731, 2213998.701435698196292 ], [ 3041547.614949258044362, 2213983.035998683422804 ], [ 3041543.560956357978284, 2213960.006758521310985 ], [ 3041545.274178959429264, 2213929.446944897528738 ], [ 3041540.250174896791577, 2213902.327657743357122 ], [ 3041538.063209273852408, 2213880.182225296739489 ], [ 3041531.421624090988189, 2213851.220971839036793 ], [ 3041525.224836271256208, 2213831.215268861036748 ], [ 3041515.21517045982182, 2213813.313999206759036 ], [ 3041509.505743881687522, 2213799.413636077195406 ], [ 3041506.332387106027454, 2213787.393907570280135 ], [ 3041509.887236242182553, 2213765.031666050199419 ], [ 3041511.723271958064288, 2213746.429132916964591 ], [ 3041513.519946946762502, 2213734.432502354960889 ], [ 3041510.396783350966871, 2213722.09912161109969 ], [ 3041506.393284428399056, 2213698.756317143328488 ], [ 3041498.502337506972253, 2213642.202625683043152 ], [ 3041486.929224478080869, 2213564.279009884689003 ], [ 3041476.069676076527685, 2213474.552919555455446 ], [ 3041458.894800507929176, 2213342.305069879628718 ], [ 3041455.395221101585776, 2213334.506073677446693 ], [ 3041449.391624476760626, 2213325.023849015124142 ], [ 3041442.712703586556017, 2213316.373179200105369 ], [ 3041435.145372536964715, 2213308.490930293686688 ], [ 3041418.455221044830978, 2213291.888342243619263 ], [ 3041389.910518433898687, 2213269.085338439792395 ], [ 3041361.122899686452001, 2213245.412196823395789 ], [ 3041332.947616813704371, 2213224.877996558789164 ], [ 3041314.898215946741402, 2213212.376786708831787 ], [ 3041302.843440543860197, 2213202.456011137459427 ], [ 3041295.621762644965202, 2213194.207284281030297 ], [ 3041290.442470565903932, 2213183.562167604453862 ], [ 3041285.277109614107758, 2213173.62509639468044 ], [ 3041282.182042530737817, 2213162.70802036114037 ], [ 3041279.373481135815382, 2213144.836325497366488 ], [ 3041277.061282101087272, 2213116.317679300904274 ], [ 3041271.962460102513433, 2213082.511833299417049 ], [ 3041264.070328234229237, 2213092.555078708101064 ], [ 3041242.755197658203542, 2213113.531263192649931 ], [ 3041240.077241139486432, 2213116.164893151260912 ], [ 3041239.249094900675118, 2213107.534020977094769 ], [ 3041221.272401422727853, 2213019.469052675180137 ], [ 3041218.668038061819971, 2212993.580992988310754 ], [ 3041202.666178275365382, 2212889.893695588223636 ], [ 3041194.069595506880432, 2212821.995936675928533 ], [ 3041191.410904763266444, 2212738.711226919665933 ], [ 3041181.946458786725998, 2212708.585964713711292 ], [ 3041175.766581998206675, 2212680.616015044506639 ], [ 3041164.72876112209633, 2212630.721810805145651 ], [ 3041158.878272320143878, 2212560.07409886457026 ], [ 3041138.87567995255813, 2212421.077937385998666 ], [ 3041132.219522456638515, 2212374.50300606014207 ], [ 3041112.543834520503879, 2212223.79868385894224 ], [ 3041102.481058489531279, 2212182.404067012947053 ], [ 3041092.343002092093229, 2212164.692131956107914 ], [ 3041058.804152023047209, 2212122.735618297941983 ], [ 3041000.631992793641984, 2212058.285745390690863 ], [ 3040941.856979397125542, 2211999.132232149597257 ], [ 3040939.794909979216754, 2211997.80027982685715 ], [ 3040937.732840612530708, 2211996.468327580485493 ], [ 3040908.875642190687358, 2211951.685148867312819 ], [ 3040895.237158872652799, 2211920.863429432734847 ], [ 3040893.566307306289673, 2211899.370175359770656 ], [ 3040892.647231890354306, 2211886.741294211708009 ], [ 3040895.67992559960112, 2211860.769577712751925 ], [ 3040902.847071319352835, 2211834.887216929811984 ], [ 3040964.394051807001233, 2211683.661951210349798 ], [ 3040993.580510941334069, 2211615.497375898994505 ], [ 3041031.735798166599125, 2211554.845497684553266 ], [ 3041044.550341873429716, 2211513.649791865143925 ], [ 3041050.859096879139543, 2211468.847576967440546 ], [ 3041060.343055197969079, 2211396.494820336811244 ], [ 3041067.421433643437922, 2211334.008229109458625 ], [ 3041071.531069851014763, 2211287.29141014162451 ], [ 3041067.119076036848128, 2211264.637644599657506 ], [ 3041038.362217139452696, 2211253.88399001583457 ], [ 3041017.11586382240057, 2211245.76347171375528 ], [ 3041007.634205331560224, 2211240.437897151801735 ], [ 3040992.645226553082466, 2211229.196310955099761 ], [ 3040987.784128319472075, 2211225.586435219272971 ], [ 3040987.389624785166234, 2211224.348447749391198 ], [ 3040991.19815809186548, 2211223.490976665634662 ], [ 3040998.347274044994265, 2211222.40859671169892 ], [ 3040994.70231266785413, 2211218.286294637713581 ], [ 3040991.536447528284043, 2211212.705812588799745 ], [ 3040990.501932501327246, 2211210.497374867089093 ], [ 3040989.151943095959723, 2211204.767640955746174 ], [ 3040986.567768885754049, 2211197.291424507275224 ], [ 3040965.428466128185391, 2211143.360392448026687 ], [ 3040928.808717918582261, 2211048.166768150869757 ], [ 3040917.59779361076653, 2211016.733185161836445 ], [ 3040888.93040815833956, 2210957.910142215900123 ], [ 3040859.496265473775566, 2210894.95922635961324 ], [ 3040869.465247777290642, 2210891.005246601998806 ], [ 3040866.897760902997106, 2210882.290172614622861 ], [ 3040861.770452134311199, 2210884.097432141657919 ], [ 3040847.117892230860889, 2210856.824007448740304 ], [ 3040843.298234512098134, 2210858.507298874668777 ], [ 3040833.035960715264082, 2210842.884416496846825 ], [ 3040838.796342242509127, 2210838.96278364257887 ], [ 3040811.933808928821236, 2210809.623776153195649 ], [ 3040807.081031467299908, 2210812.596413104794919 ], [ 3040787.507114829495549, 2210788.004296947270632 ], [ 3040791.548666692804545, 2210784.207319597713649 ], [ 3040787.016316044144332, 2210774.135887920856476 ], [ 3040792.107658539898694, 2210767.810795791447163 ], [ 3040742.59138334589079, 2210723.50421260856092 ], [ 3040744.976597278844565, 2210718.787440806627274 ], [ 3040733.077991453930736, 2210709.750224231276661 ], [ 3040726.861334912478924, 2210715.227369436528534 ], [ 3040716.294063252396882, 2210707.912114802747965 ], [ 3040711.915505168493837, 2210711.588275028858334 ], [ 3040701.941639562137425, 2210703.300330082885921 ], [ 3040696.154165463522077, 2210711.035497470293194 ], [ 3040609.92443967750296, 2210650.573842576704919 ], [ 3040570.21273837890476, 2210634.351639155764133 ], [ 3040543.38081449829042, 2210624.347171138506383 ], [ 3040442.12093798071146, 2210607.903061194811016 ], [ 3040375.971734258811921, 2210597.318350740242749 ], [ 3040378.554384395014495, 2210601.296871654689312 ], [ 3040373.437515155412257, 2210600.529422076418996 ], [ 3040368.925848150625825, 2210599.712299610488117 ], [ 3040366.51441815495491, 2210595.587669806554914 ], [ 3040252.810310896951705, 2210576.520058092195541 ], [ 3040170.927552672103047, 2210563.318198168184608 ], [ 3040151.162172411102802, 2210560.174240703228861 ], [ 3040126.228586167097092, 2210556.481601198203862 ], [ 3040108.227724276483059, 2210553.407118150033057 ], [ 3040092.933090503327549, 2210548.724365091416985 ], [ 3040065.289264593273401, 2210536.146776358596981 ], [ 3040035.763698206748813, 2210516.018837559502572 ], [ 3039959.999570431187749, 2210465.058806068729609 ], [ 3039893.631587831303477, 2210420.371823483612388 ], [ 3039850.534542639739811, 2210391.525648246519268 ], [ 3039793.922796499915421, 2210353.329516499768943 ], [ 3039768.230175911914557, 2210335.938841301947832 ], [ 3039747.35279542254284, 2210321.963825899641961 ], [ 3039725.327301317825913, 2210307.043660781811923 ], [ 3039594.465229091234505, 2210218.637658695224673 ], [ 3039485.029707170091569, 2210146.537505191750824 ], [ 3039429.38393980730325, 2210110.258520105853677 ], [ 3039372.35570855345577, 2210072.476167360320687 ], [ 3039295.817004632204771, 2210010.805760184302926 ], [ 3039274.789187359623611, 2209975.674458884634078 ], [ 3039210.485265436582267, 2209844.146635302342474 ], [ 3039135.179162288550287, 2209685.556605694815516 ], [ 3039048.558958715759218, 2209505.127254888415337 ], [ 3038992.726726708933711, 2209392.966384812723845 ], [ 3038972.898835638538003, 2209342.408490842208266 ], [ 3038939.678372960537672, 2209255.514188622590154 ], [ 3038916.628797631710768, 2209201.756279318127781 ], [ 3038914.405449954792857, 2209196.246721892151982 ], [ 3038912.227903302758932, 2209190.931382705457509 ], [ 3038829.685542929451913, 2208971.92142276186496 ], [ 3038754.545244888402522, 2208769.050107480492443 ], [ 3038705.637845666147768, 2208643.929185637738556 ], [ 3038617.593423371203244, 2208406.347926210612059 ], [ 3038594.451338529586792, 2208345.205875280778855 ], [ 3038589.849808586761355, 2208331.345104611478746 ], [ 3038576.168615063652396, 2208300.328732905443758 ], [ 3038566.669985176529735, 2208276.591331608593464 ], [ 3038557.652192889712751, 2208256.642262395005673 ], [ 3038539.950922638643533, 2208226.022277013398707 ], [ 3038526.889065811410546, 2208202.874692178796977 ], [ 3038514.684203908778727, 2208180.745632820762694 ], [ 3038491.601066764909774, 2208142.120200149249285 ], [ 3038448.104918690398335, 2208074.896116914227605 ], [ 3038411.922220312990248, 2208019.5114188301377 ], [ 3038351.475145029835403, 2207927.033773235976696 ], [ 3038239.343672136776149, 2207748.717210294678807 ], [ 3038232.469359978102148, 2207752.713917870074511 ], [ 3038231.263718618545681, 2207750.651561551727355 ], [ 3038230.109555248171091, 2207748.370549343992025 ], [ 3038236.544227314647287, 2207744.690391851589084 ], [ 3038194.813957816921175, 2207679.284524108283222 ], [ 3038094.139442625455558, 2207521.227893583476543 ], [ 3038018.987519069109112, 2207405.605549324303865 ], [ 3037884.611375368200243, 2207194.830162284430116 ], [ 3037668.409526862669736, 2206850.564241481479257 ], [ 3037664.983945530373603, 2206853.485607710666955 ], [ 3037661.807521803304553, 2206848.730719176586717 ], [ 3037659.367924911901355, 2206844.921866201795638 ], [ 3037663.999020989052951, 2206844.062857352662832 ], [ 3037662.670500122476369, 2206840.652279302012175 ], [ 3037587.955044852569699, 2206725.017325717024505 ], [ 3037585.306809864006937, 2206727.055348699912429 ], [ 3037580.142051627859473, 2206719.981599082238972 ], [ 3037574.508702719584107, 2206712.271075061522424 ], [ 3037589.722995390649885, 2206678.084460902493447 ], [ 3037600.159187825396657, 2206648.479836758226156 ], [ 3037609.706316892057657, 2206587.067332196515054 ], [ 3037606.774119327776134, 2206580.882678294554353 ], [ 3037568.883528378792107, 2206500.949233116582036 ], [ 3037585.094167849980295, 2206491.00867616571486 ], [ 3037566.435486009344459, 2206460.619352753274143 ], [ 3037548.062613731715828, 2206467.861280331853777 ], [ 3037531.054002313409001, 2206444.871131831314415 ], [ 3037525.735140889883041, 2206432.241634448058903 ], [ 3037520.218575146049261, 2206418.023419404402375 ], [ 3037516.136158075649291, 2206402.279197573196143 ], [ 3037510.057139968499541, 2206385.227884919848293 ], [ 3037503.747411087155342, 2206379.526814898476005 ], [ 3037495.332768022548407, 2206377.644426522310823 ], [ 3037483.1268409807235, 2206392.450575191527605 ], [ 3037479.370170754380524, 2206388.860250815283507 ], [ 3037477.399481053464115, 2206387.65013247448951 ], [ 3037433.643919822759926, 2206358.1857023909688 ], [ 3037402.557270193938166, 2206333.577026716433465 ], [ 3037397.370338469743729, 2206325.806821368169039 ], [ 3037394.514464013278484, 2206318.471627691760659 ], [ 3037408.443027610890567, 2206307.275212484411895 ], [ 3037403.478902643546462, 2206300.500534824561328 ], [ 3037397.057078685611486, 2206291.743635610677302 ], [ 3037420.762151340954006, 2206276.348428709432483 ], [ 3037426.654434108175337, 2206273.069185720290989 ], [ 3037431.108012697659433, 2206270.291356413159519 ], [ 3037410.802395625971258, 2206254.899265831336379 ], [ 3037383.974887447431684, 2206237.485739966388792 ], [ 3037370.439588364213705, 2206233.284982918761671 ], [ 3037359.950036431197077, 2206236.341224598698318 ], [ 3037347.850755352061242, 2206242.169591093435884 ], [ 3037324.168087081052363, 2206260.383874752558768 ], [ 3037306.457861522212625, 2206275.137554642744362 ], [ 3037294.422600973397493, 2206285.168091250117868 ], [ 3037292.15023800265044, 2206286.872674339916557 ], [ 3037290.317537135444582, 2206288.260801287833601 ], [ 3037276.392129075247794, 2206298.562128684017807 ], [ 3037261.459451951086521, 2206279.692668597679585 ], [ 3037253.993074311874807, 2206270.25799839803949 ], [ 3037244.173127840273082, 2206257.815781721845269 ], [ 3037226.712937545031309, 2206268.391146841924638 ], [ 3037196.792528348974884, 2206238.279590732418001 ], [ 3037161.671296093612909, 2206297.444959015585482 ], [ 3037133.135170303285122, 2206275.832437488716096 ], [ 3037111.847895566374063, 2206261.85745310690254 ], [ 3037084.693704458419234, 2206239.999381312169135 ], [ 3037049.22654833830893, 2206203.364281308371574 ], [ 3037015.209937186911702, 2206166.775066466536373 ], [ 3036954.49838175624609, 2206117.265666479244828 ], [ 3036832.871643032878637, 2206045.768245103769004 ], [ 3036813.400906802620739, 2206033.393018207978457 ], [ 3036785.952264897059649, 2206020.765855645760894 ], [ 3036760.188486307859421, 2206008.742717919871211 ], [ 3036727.892718233168125, 2206000.424228258430958 ], [ 3036700.925797108560801, 2205995.083260687999427 ], [ 3036656.153255356475711, 2205990.116412774659693 ], [ 3036601.7992929732427, 2205989.005795352160931 ], [ 3036547.759066754020751, 2205986.169974186457694 ], [ 3036495.248158230446279, 2205979.347724847495556 ], [ 3036463.311760192271322, 2205969.498281625565141 ], [ 3036441.043593473732471, 2205960.091912872157991 ], [ 3036440.672495000530034, 2205959.925969107542187 ], [ 3036440.672495000530034, 2222318.312605000566691 ], [ 3039947.58272820385173, 2222318.312605000566691 ], [ 3040000.735664860811085, 2222248.516944153700024 ] ] ] } }
]
}
