{
"type": "FeatureCollection",
"name": "Vilvestre",
"crs": { "type": "name", "properties": { "name": "urn:ogc:def:crs:EPSG::3035" } },
"features": [
{ "type": "Feature", "properties": { "ENP_GRAL": 1.0, "ENP_GRAL_NAME": "Otros Parques", "color": "#38A800" }, "geometry": { "type": "Polygon", "coordinates": [ [ [ 2929024.0888666305691, 2154995.262485175859183 ], [ 2928920.914101102855057, 2155053.709597300738096 ], [ 2928821.782990701496601, 2155094.985544566065073 ], [ 2928697.375050183851272, 2155114.413297291845083 ], [ 2928575.235619935207069, 2155109.046570362988859 ], [ 2928431.864891374949366, 2155064.669668165035546 ], [ 2928290.276592879556119, 2155027.904184688813984 ], [ 2928163.666227934416384, 2155003.488392627798021 ], [ 2928090.635519480798393, 2155004.414405805058777 ], [ 2927996.095058111939579, 2155032.13022072520107 ], [ 2927953.807496378198266, 2155036.517840559594333 ], [ 2927905.419286841526628, 2155036.376593050081283 ], [ 2927837.486543282866478, 2155021.604191806633025 ], [ 2927790.283973722718656, 2155009.350961962714791 ], [ 2927743.503664114978164, 2155008.081414471380413 ], [ 2927583.327512276358902, 2155037.599365570582449 ], [ 2927409.218435971066356, 2155026.988254792056978 ], [ 2927303.819038567133248, 2155002.005625755526125 ], [ 2927290.185235075652599, 2154998.779012070968747 ], [ 2927245.051942491903901, 2154982.623980155214667 ], [ 2926958.715607697144151, 2154828.56761503778398 ], [ 2926701.818084987811744, 2154624.518420838285238 ], [ 2926545.551027804147452, 2154522.956345385871828 ], [ 2926254.416880758479238, 2154351.478896758519113 ], [ 2926149.357175410725176, 2154234.46259625069797 ], [ 2925699.690064596012235, 2153517.23860309459269 ], [ 2925654.959889896214008, 2153516.994371452368796 ], [ 2925347.038618441671133, 2153515.308740671724081 ], [ 2925225.28166482783854, 2153507.974932647310197 ], [ 2924769.563027, 2153201.755276630632579 ], [ 2924504.607721453532577, 2153023.713669379707426 ], [ 2924376.392070485278964, 2152963.748973320238292 ], [ 2924385.02757279900834, 2152555.105866128578782 ], [ 2924357.655867609195411, 2152348.985655685421079 ], [ 2924335.18281401693821, 2152251.623975079506636 ], [ 2924292.675015377812088, 2152067.44540143199265 ], [ 2924521.938245872501284, 2151746.636619871482253 ], [ 2924133.673642254434526, 2151262.939245335292071 ], [ 2924213.89519270369783, 2151087.953084999229759 ], [ 2916778.376084999646991, 2151087.953084999229759 ], [ 2916778.376084999646991, 2152353.172565693035722 ], [ 2916791.026626354083419, 2152370.43140160664916 ], [ 2916960.429979309439659, 2152671.574654376134276 ], [ 2917018.069994070101529, 2152720.988542117644101 ], [ 2917124.885299417655915, 2152761.465263906866312 ], [ 2917201.690863167867064, 2152766.792834389023483 ], [ 2917241.946776932105422, 2152777.747806238010526 ], [ 2917242.099486860912293, 2152777.833331723231822 ], [ 2917332.030802643857896, 2152828.260271868668497 ], [ 2917332.180159638635814, 2152828.344478470738977 ], [ 2917519.701187462545931, 2152904.860765531659126 ], [ 2917519.782737619709224, 2152904.894057914614677 ], [ 2917615.666985411662608, 2152977.811042743735015 ], [ 2917630.489273376297206, 2153000.494502975605428 ], [ 2917718.743052052333951, 2153275.785669656470418 ], [ 2917731.142607508227229, 2153333.422516275662929 ], [ 2917734.615025605075061, 2153340.174556780606508 ], [ 2917745.942401526961476, 2153362.200610776431859 ], [ 2917798.598032877314836, 2153430.793164460454136 ], [ 2917862.961311451159418, 2153472.518718891777098 ], [ 2917874.328777021728456, 2153479.88804993359372 ], [ 2917874.422609307803214, 2153479.948954045772552 ], [ 2918195.055395656265318, 2153596.27664194535464 ], [ 2918329.329935355577618, 2153663.146950437687337 ], [ 2918329.458058572374284, 2153663.21075929980725 ], [ 2918372.258533224463463, 2153783.334354360122234 ], [ 2918400.942765579093248, 2153822.785845122300088 ], [ 2918450.235710554756224, 2153870.673483540769666 ], [ 2918394.071928357705474, 2154085.928196784108877 ], [ 2918391.88826016895473, 2154106.509322240017354 ], [ 2918382.870365148410201, 2154191.503331075422466 ], [ 2918404.352447658777237, 2154273.882606130093336 ], [ 2918450.995508372318, 2154374.021789374295622 ], [ 2918596.112960727885365, 2154600.410012859851122 ], [ 2918669.243825872894377, 2154714.008033783175051 ], [ 2918786.337770829442888, 2154855.14592480333522 ], [ 2918845.765585705637932, 2154907.30927649885416 ], [ 2918887.898136077448726, 2154944.291514810174704 ], [ 2918952.097009276971221, 2154984.371686991304159 ], [ 2918952.127195396460593, 2154984.390461933333427 ], [ 2919076.718764041550457, 2155047.019220944494009 ], [ 2919408.622341236099601, 2155195.770140052773058 ], [ 2919408.703685511369258, 2155195.806518830358982 ], [ 2919464.081540083512664, 2155237.514456063508987 ], [ 2919501.070447625592351, 2155290.684418615885079 ], [ 2919546.07061336375773, 2155385.772299477830529 ], [ 2919655.417403109371662, 2155616.827049985527992 ], [ 2919659.877402802463621, 2155626.251163261942565 ], [ 2919732.96208120463416, 2155708.391504132654518 ], [ 2919824.25316823227331, 2155784.179259260650724 ], [ 2919824.355612138751894, 2155784.233324820175767 ], [ 2919868.458957544993609, 2155807.543876057490706 ], [ 2919868.559816358610988, 2155807.59691014373675 ], [ 2919936.127971143461764, 2155830.848905546590686 ], [ 2920135.492523644119501, 2155867.706131577957422 ], [ 2920135.513836704660207, 2155867.710176668129861 ], [ 2920174.90287564881146, 2155892.021983820013702 ], [ 2920288.841429208405316, 2156001.254495216533542 ], [ 2920430.757995191961527, 2156164.280187885276973 ], [ 2920549.483895286917686, 2156352.837166916113347 ], [ 2920576.157981731928885, 2156404.837098220363259 ], [ 2920583.869651418179274, 2156446.07056022901088 ], [ 2920577.834182511083782, 2156483.710924178361893 ], [ 2920572.050097422674298, 2156500.984718181658536 ], [ 2920548.518322030082345, 2156571.260772711597383 ], [ 2920476.308604415506124, 2156707.293767071794719 ], [ 2920463.239068010356277, 2156731.915157374925911 ], [ 2920375.02820912655443, 2156843.362059235572815 ], [ 2920344.200392184779048, 2156896.673278763890266 ], [ 2920304.137913793325424, 2157011.554064775817096 ], [ 2920270.830893920734525, 2157205.401734363287687 ], [ 2920263.705831184983253, 2157317.343554507941008 ], [ 2920226.115312927402556, 2157653.07036342099309 ], [ 2920183.567734336480498, 2157821.189342799596488 ], [ 2920153.934344342909753, 2157906.767860177438706 ], [ 2920048.907434378750622, 2158139.025880181230605 ], [ 2919876.407472650520504, 2158565.223614345770329 ], [ 2919870.432439402677119, 2158579.986437543295324 ], [ 2919696.348865215666592, 2159010.111202248372138 ], [ 2919696.034404011443257, 2159051.788744456134737 ], [ 2919758.64297285862267, 2159268.816285189241171 ], [ 2919789.891051518730819, 2159461.088778687641025 ], [ 2919800.480142414569855, 2159613.464853797107935 ], [ 2919834.572304170578718, 2159698.632009872701019 ], [ 2919861.132642376236618, 2159737.45656137354672 ], [ 2919893.615869385190308, 2159769.114067606627941 ], [ 2920029.880183727480471, 2159866.17001730017364 ], [ 2920066.617879816796631, 2159899.084801224991679 ], [ 2920101.344810797832906, 2159944.546625095885247 ], [ 2920178.32569295912981, 2160125.435103921219707 ], [ 2920178.337387340608984, 2160125.462823602370918 ], [ 2920661.923620984889567, 2160253.820138860493898 ], [ 2920752.507580074947327, 2160288.09517471306026 ], [ 2920752.549326505511999, 2160288.110937173012644 ], [ 2920868.217172421514988, 2160358.414615716785192 ], [ 2920868.271666099317372, 2160358.447755577974021 ], [ 2920941.238719061482698, 2160383.765809033997357 ], [ 2921024.543444068636745, 2160404.160169079899788 ], [ 2921191.379207911901176, 2160427.651172933634371 ], [ 2921394.438051261007786, 2160399.895871452987194 ], [ 2921469.118032030761242, 2160404.600936257280409 ], [ 2921522.802048038691282, 2160417.18079007929191 ], [ 2921572.110032001510262, 2160440.655874025076628 ], [ 2921572.11663806438446, 2160440.659140365198255 ], [ 2921572.18767363904044, 2160440.693133165128529 ], [ 2921702.758068702183664, 2160527.622195215430111 ], [ 2921840.55561799928546, 2160609.178034300915897 ], [ 2921916.524592062924057, 2160665.421393615193665 ], [ 2921985.426903513260186, 2160728.024480373598635 ], [ 2922065.54069238435477, 2160815.999641267117113 ], [ 2922112.900470259133726, 2160901.803961482830346 ], [ 2922137.859208749607205, 2160930.769520027562976 ], [ 2922200.563955441582948, 2160980.267334057949483 ], [ 2922200.584046974778175, 2160980.283174488693476 ], [ 2922407.024079265072942, 2161060.537914008833468 ], [ 2922650.662489919923246, 2161182.762979405000806 ], [ 2922826.479836395010352, 2161249.272055153734982 ], [ 2922826.519866114482284, 2161249.287217837292701 ], [ 2922853.627873349003494, 2161272.787023819051683 ], [ 2922888.654589424375445, 2161326.317843514494598 ], [ 2922899.603647734504193, 2161366.329115 ], [ 2929056.943815000820905, 2161366.329115 ], [ 2929056.943815000820905, 2154970.327412253245711 ], [ 2929024.0888666305691, 2154995.262485175859183 ] ] ] } }
]
}
