{
"type": "FeatureCollection",
"name": "Zapardiel_de_la_Ribera",
"crs": { "type": "name", "properties": { "name": "urn:ogc:def:crs:EPSG::3035" } },
"features": [
{ "type": "Feature", "properties": { "ENP_GRAL": 1.0, "ENP_GRAL_NAME": "Otros Parques", "color": "#38A800" }, "geometry": { "type": "Polygon", "coordinates": [ [ [ 3016592.544341647997499, 2047977.287238585529849 ], [ 3016628.526888493448496, 2047934.294331741286442 ], [ 3016699.049550103023648, 2047876.922489648684859 ], [ 3016745.055431216489524, 2047877.068471046863124 ], [ 3016802.643988886848092, 2047886.493991387542337 ], [ 3016865.394893405027688, 2047886.071760440943763 ], [ 3016907.193456249777228, 2047876.731042592786252 ], [ 3016943.352851864881814, 2047856.882140194298699 ], [ 3016967.733516521751881, 2047835.439509172458202 ], [ 3016986.155552512966096, 2047816.441325409570709 ], [ 3017058.593854353763163, 2047792.182835398940369 ], [ 3017083.15105105470866, 2047793.883949153823778 ], [ 3017153.89251760346815, 2047818.884980606846511 ], [ 3017217.525395214557648, 2047832.373472114792094 ], [ 3017336.743869778234512, 2047851.158955564489588 ], [ 3017395.523181022144854, 2047824.396341566927731 ], [ 3017498.513625011779368, 2047780.806483305757865 ], [ 3017555.033186317421496, 2047753.170925527345389 ], [ 3017600.316847831942141, 2047712.256777179893106 ], [ 3017652.565269116312265, 2047637.808249023277313 ], [ 3017690.209071444347501, 2047597.074390057940036 ], [ 3017723.249589875340462, 2047573.962070775683969 ], [ 3017821.374844801612198, 2047565.357109138043597 ], [ 3017863.091147286817431, 2047570.194789678789675 ], [ 3018017.236300094984472, 2047604.877773752901703 ], [ 3018085.078197777271271, 2047620.575219857273623 ], [ 3018236.043293849565089, 2047643.31755797448568 ], [ 3018287.59277627337724, 2047646.78260039864108 ], [ 3018323.92104119155556, 2047650.090107558993623 ], [ 3018375.263993742875755, 2047673.675254423404112 ], [ 3018425.913830655626953, 2047715.419580106157809 ], [ 3018476.832676066085696, 2047766.128455692902207 ], [ 3018537.640056271106005, 2047814.927843973971903 ], [ 3018595.549570120871067, 2047861.721148195443675 ], [ 3018684.161435750313103, 2047930.91454827808775 ], [ 3018722.041245439089835, 2047954.616380968363956 ], [ 3018768.122593964450061, 2047958.522446369752288 ], [ 3018813.894919221289456, 2047927.812026505125687 ], [ 3018904.083213629201055, 2047851.204161619069055 ], [ 3018937.393333733081818, 2047837.057215669425204 ], [ 3019068.148220482748002, 2047832.475387705489993 ], [ 3019134.319733635988086, 2047853.197575414553285 ], [ 3019194.15233980352059, 2047881.592163026565686 ], [ 3019262.262908238917589, 2047913.535235388204455 ], [ 3019331.764540047384799, 2047938.771941237384453 ], [ 3019420.39845600258559, 2047956.472261778544635 ], [ 3019473.917406776919961, 2047941.003924591932446 ], [ 3019529.892682167701423, 2047895.453442218946293 ], [ 3019591.769917357247323, 2047839.754193045198917 ], [ 3019683.849714285694063, 2047766.652442703489214 ], [ 3019751.281467841938138, 2047735.629642029060051 ], [ 3019823.713123770430684, 2047711.37741529289633 ], [ 3019918.082157758530229, 2047695.774557620286942 ], [ 3020036.950778103899211, 2047674.160186693770811 ], [ 3020127.448503701016307, 2047665.738096364540979 ], [ 3020226.935015697032213, 2047672.335013507399708 ], [ 3020257.51236269203946, 2047679.318117942428216 ], [ 3020623.460173084866256, 2047786.519219571724534 ], [ 3020689.08701980765909, 2047789.325839058961719 ], [ 3020756.317023719660938, 2047786.685935672139749 ], [ 3020838.442904103547335, 2047788.885378837585449 ], [ 3020886.390045237727463, 2047800.256070509785786 ], [ 3020928.376607201062143, 2047814.060839472338557 ], [ 3020958.422155449166894, 2047832.73723837477155 ], [ 3021021.12078889971599, 2047885.043720572022721 ], [ 3021087.738239861093462, 2047937.87639945349656 ], [ 3021123.012113476637751, 2047964.560026452643797 ], [ 3021194.98583151679486, 2047989.326922519598156 ], [ 3021230.573168635368347, 2048003.079468294046819 ], [ 3021274.228127275593579, 2048019.130997939500958 ], [ 3021335.350225730799139, 2048055.002372600371018 ], [ 3021364.38652656134218, 2048075.167204832658172 ], [ 3021407.129438906908035, 2048108.139621655922383 ], [ 3021447.132926635444164, 2048132.619567754911259 ], [ 3021540.264395719394088, 2048117.261326894164085 ], [ 3021587.917530570179224, 2048090.049964091507718 ], [ 3021641.322774800471961, 2048059.164728390751407 ], [ 3021681.187089752405882, 2048038.617249516537413 ], [ 3021769.050305637530982, 2048007.524450654396787 ], [ 3021852.764752031303942, 2047974.659177854657173 ], [ 3021926.057884979993105, 2047955.396167540922761 ], [ 3022015.049598943442106, 2047938.254676188575104 ], [ 3022048.421446988824755, 2047931.834256417583674 ], [ 3022108.460624415427446, 2047931.860359506448731 ], [ 3022194.303456515073776, 2047962.970160783035681 ], [ 3022290.684854184743017, 2047995.907113818917423 ], [ 3022355.782498990185559, 2048010.418613604735583 ], [ 3022406.731564686633646, 2048009.61629278678447 ], [ 3022459.765670753084123, 2047983.948510351357982 ], [ 3022507.166239854879677, 2047977.393650609534234 ], [ 3022575.871099178679287, 2048005.372706232592463 ], [ 3022631.301754416897893, 2048052.643930606078357 ], [ 3022694.278185293544084, 2048113.905191949335858 ], [ 3022726.052613922394812, 2048142.55350720603019 ], [ 3022772.993518032133579, 2048185.016072772676125 ], [ 3022822.903885164298117, 2048237.217656143475324 ], [ 3022862.272671954706311, 2048287.57234161789529 ], [ 3022912.5298713427037, 2048304.939497518585995 ], [ 3023004.271733727771789, 2048296.290559777058661 ], [ 3023063.754191562067717, 2048278.392421638825908 ], [ 3023152.908662144094706, 2048254.78666908107698 ], [ 3023199.828207856509835, 2048244.466113985516131 ], [ 3023225.668680786155164, 2048263.297291341936216 ], [ 3023250.448156334925443, 2048228.871747952187434 ], [ 3023278.526535025797784, 2048198.956055901013315 ], [ 3023302.724800368770957, 2048176.232003354933113 ], [ 3023360.348858621902764, 2048125.120635596802458 ], [ 3023405.245599312707782, 2048081.63639953546226 ], [ 3023458.598730287514627, 2048050.671724487328902 ], [ 3023512.810552643146366, 2048032.418606363236904 ], [ 3023705.377354470081627, 2048034.901639726245776 ], [ 3023815.571996894665062, 2048046.963631339138374 ], [ 3023872.755508907604963, 2048069.318878404563293 ], [ 3023935.12553439475596, 2048107.403713712235913 ], [ 3023956.108552956953645, 2048118.76990371895954 ], [ 3024003.63642465788871, 2048136.575220455415547 ], [ 3024044.736599813215435, 2048138.882832586066797 ], [ 3024084.999639530200511, 2048128.485516703920439 ], [ 3024220.426444009877741, 2048111.942209398839623 ], [ 3024322.112821014598012, 2048108.160548185231164 ], [ 3024379.450066977180541, 2048108.601612865924835 ], [ 3024519.219859226606786, 2048114.915137495612726 ], [ 3024570.399090692400932, 2048116.558099227491766 ], [ 3024605.149941973388195, 2048126.539449833799154 ], [ 3024617.132960843853652, 2048152.530665952013806 ], [ 3024668.750010410323739, 2048164.385165992891416 ], [ 3024706.161581788677722, 2048167.41336396173574 ], [ 3024723.838494805153459, 2048166.556547912536189 ], [ 3024815.587528110481799, 2048121.698688994394615 ], [ 3024863.849309105426073, 2048105.878872859058902 ], [ 3024954.023999372497201, 2048089.647569426801056 ], [ 3025024.091394209302962, 2048082.472789600025862 ], [ 3025099.496444844640791, 2048076.828147280029953 ], [ 3025195.659789361525327, 2048065.873713258653879 ], [ 3025245.99995763739571, 2048062.527454611146823 ], [ 3025305.198460434097797, 2048066.479452796513215 ], [ 3025367.902866088785231, 2048076.171614736318588 ], [ 3025434.728367459960282, 2048087.651971570681781 ], [ 3025521.059623772278428, 2048094.046282959869131 ], [ 3025637.787936984561384, 2048091.969518279889598 ], [ 3025703.554907484911382, 2048089.487200943287462 ], [ 3025778.170301131904125, 2048094.305040529696271 ], [ 3025847.855608362238854, 2048100.07461275649257 ], [ 3025927.418523620814085, 2048111.652594726998359 ], [ 3026004.931288646534085, 2048126.20237360172905 ], [ 3026117.396883303299546, 2048144.261323691811413 ], [ 3026194.481890105642378, 2048148.598167677642778 ], [ 3026342.425885144155473, 2048135.300968606257811 ], [ 3026391.290849983692169, 2048115.512847119476646 ], [ 3026430.687236835248768, 2048092.40807536104694 ], [ 3026479.687358125112951, 2048042.984082929557189 ], [ 3026540.17637624964118, 2047986.175808624364436 ], [ 3026612.229464785661548, 2047952.869198942789808 ], [ 3026651.273373981006444, 2047950.437334576621652 ], [ 3026703.739996341057122, 2047975.00695489323698 ], [ 3026731.205803269520402, 2048025.026698292931542 ], [ 3026771.198605572804809, 2048073.893806783482432 ], [ 3026809.249206359032542, 2048088.386681386269629 ], [ 3026885.859605064615607, 2048067.070240412140265 ], [ 3026925.983224999625236, 2048030.877427448984236 ], [ 3026925.983224999625236, 2034307.013874999713153 ], [ 3016589.570375000592321, 2034307.013874999713153 ], [ 3016589.570375000592321, 2035564.474444124381989 ], [ 3016640.420120288617909, 2035601.691728787263855 ], [ 3016672.22767919767648, 2035628.731931453337893 ], [ 3016726.132816820405424, 2035674.557507812278345 ], [ 3016874.395395596511662, 2035745.613706438336521 ], [ 3016875.557732995133847, 2035746.170763336354867 ], [ 3016876.199719790369272, 2035746.940856384579092 ], [ 3016969.706355540081859, 2035859.089514665538445 ], [ 3017013.321669085882604, 2035888.462520085508004 ], [ 3017047.020001294557005, 2035911.156886992976069 ], [ 3017205.547868588007987, 2036046.018382806796581 ], [ 3017295.202285469975322, 2036143.522569527616724 ], [ 3017354.32251327810809, 2036240.403555143158883 ], [ 3017388.433879868127406, 2036320.467690120916814 ], [ 3017414.368402711115777, 2036469.909143403405324 ], [ 3017421.085583991371095, 2036645.05472217919305 ], [ 3017421.086683262139559, 2036645.086964016314596 ], [ 3017466.20536400238052, 2036724.19746827846393 ], [ 3017472.85975774936378, 2036732.164659830043092 ], [ 3017614.27401833795011, 2036901.477396546863019 ], [ 3017769.510884732939303, 2037161.611415059538558 ], [ 3017904.809845757670701, 2037364.489851535763592 ], [ 3017961.670264358632267, 2037449.612062339205295 ], [ 3017995.742560973390937, 2037535.766346512362361 ], [ 3018041.060491647571325, 2037609.773653668118641 ], [ 3018119.237161976285279, 2037705.276624873746186 ], [ 3018167.946441007778049, 2037787.801111646927893 ], [ 3018205.293955045752227, 2037875.397739237640053 ], [ 3018241.657981746364385, 2037937.827864006627351 ], [ 3018313.566354405134916, 2038146.638405394507572 ], [ 3018321.23737922962755, 2038168.914421547204256 ], [ 3018338.269125846214592, 2038250.005691320635378 ], [ 3018391.474459460470825, 2038347.945734494831413 ], [ 3018475.157736004795879, 2038483.012868431396782 ], [ 3018483.097914087120444, 2038495.785160280298442 ], [ 3018636.960887222550809, 2038690.734905909746885 ], [ 3018654.875700446777046, 2038713.43368178838864 ], [ 3018735.533442365471274, 2038856.13797133998014 ], [ 3018736.296355647034943, 2038857.861579757882282 ], [ 3018824.508487687446177, 2039057.163542906753719 ], [ 3019233.137465661391616, 2039693.763900847639889 ], [ 3019317.74458166398108, 2039825.572299377294257 ], [ 3019343.582232822198421, 2039879.578005708521232 ], [ 3019343.630835953168571, 2039879.679510909132659 ], [ 3019343.657395493239164, 2039879.735182010103017 ], [ 3019307.042401772458106, 2039929.868536061840132 ], [ 3019257.803341127000749, 2039977.189729251898825 ], [ 3019205.055516288615763, 2040008.918858855264261 ], [ 3019099.246833187527955, 2040045.064227359136567 ], [ 3018887.394659275189042, 2040103.206041357247159 ], [ 3018887.068962756544352, 2040103.111282107420266 ], [ 3018738.436572576873004, 2040059.887056212406605 ], [ 3018636.696493035182357, 2040051.717142770765349 ], [ 3018505.763695737812668, 2040060.185179943218827 ], [ 3018458.97459252551198, 2040063.211306653684005 ], [ 3018409.426349273882806, 2040057.876167012844235 ], [ 3018215.336149566806853, 2040036.817873277002946 ], [ 3018101.210995747242123, 2040014.64432581840083 ], [ 3017742.221945765893906, 2039603.393153024371713 ], [ 3017449.007688777055591, 2039476.386917672818527 ], [ 3017448.881839900743216, 2039476.489296270767227 ], [ 3017330.492347576655447, 2039572.588428216287866 ], [ 3017130.71748588886112, 2039617.428010796429589 ], [ 3016851.346256710588932, 2039651.221782965119928 ], [ 3016674.9183504069224, 2039672.563980387058109 ], [ 3016593.127975093666464, 2039726.734177209204063 ], [ 3016589.570375000592321, 2039729.090382723137736 ], [ 3016589.570375000592321, 2047980.420566049404442 ], [ 3016592.544341647997499, 2047977.287238585529849 ] ] ] } },
{ "type": "Feature", "properties": { "ENP_GRAL": 6.0, "ENP_GRAL_NAME": "Otros Espacios Naturales Protegidos", "color": "#7F8F0D" }, "geometry": { "type": "Polygon", "coordinates": [ [ [ 3016674.918164918199182, 2039672.564723159186542 ], [ 3017130.717761988285929, 2039617.42846830165945 ], [ 3017330.492852466180921, 2039572.589047568151727 ], [ 3017406.875401929486543, 2039510.587196087930351 ], [ 3017449.007223168388009, 2039476.387811889406294 ], [ 3017550.743182689417154, 2039520.454398951260373 ], [ 3017742.222174558322877, 2039603.393314870540053 ], [ 3018101.210802503861487, 2040014.643752128118649 ], [ 3018215.336378360167146, 2040036.818035125499591 ], [ 3018409.426526747643948, 2040057.87664215057157 ], [ 3018458.974493899382651, 2040063.211324286879972 ], [ 3018636.697132109198719, 2040051.717332656262442 ], [ 3018738.437061704695225, 2040059.88757702941075 ], [ 3018774.937243415042758, 2040070.502422531833872 ], [ 3018789.046364703215659, 2040074.605556552531198 ], [ 3018887.394769660197198, 2040103.206731238169596 ], [ 3019099.246438673697412, 2040045.064297869103029 ], [ 3019205.055464965756983, 2040008.919172143796459 ], [ 3019257.802993917837739, 2039977.190095419529825 ], [ 3019307.042101870290935, 2039929.869197893887758 ], [ 3019343.656985207926482, 2039879.735153962159529 ], [ 3019317.744676276110113, 2039825.572890705196187 ], [ 3019314.999741428531706, 2039821.296642965404317 ], [ 3019314.927989900112152, 2039821.184880032436922 ], [ 3018824.508306195959449, 2039057.163676712894812 ], [ 3018735.533785555511713, 2038856.138214117381722 ], [ 3018668.400639386381954, 2038737.362280436325818 ], [ 3018657.809526057448238, 2038718.624027883866802 ], [ 3018654.875751774758101, 2038713.433368500554934 ], [ 3018629.627752468455583, 2038681.443330373382196 ], [ 3018625.59063122048974, 2038676.328227517195046 ], [ 3018483.097799691837281, 2038495.785079356282949 ], [ 3018475.1580003593117, 2038483.01261844439432 ], [ 3018391.47452655620873, 2038347.945519757457078 ], [ 3018338.268857459537685, 2038250.006550261750817 ], [ 3018321.237162170931697, 2038168.914967197459191 ], [ 3018241.657571462448686, 2037937.827835966600105 ], [ 3018205.293769517913461, 2037875.398481994401664 ], [ 3018167.945975354872644, 2037787.802005840698257 ], [ 3018119.237059308215976, 2037705.277251441730186 ], [ 3018041.059915634803474, 2037609.773857992142439 ], [ 3017995.742249318398535, 2037535.766300848452374 ], [ 3017961.670217062812299, 2037449.611766680376604 ], [ 3017904.809482769109309, 2037364.490119154797867 ], [ 3017769.51043887808919, 2037161.611798862461001 ], [ 3017614.274180027190596, 2036901.477773131104186 ], [ 3017466.205427058041096, 2036724.19786248379387 ], [ 3017421.087188128381968, 2036645.087583358166739 ], [ 3017414.368189688771963, 2036469.909080115379766 ], [ 3017388.434337441809475, 2036320.468013807432726 ], [ 3017354.321755763608962, 2036240.403893282637 ], [ 3017295.20256154704839, 2036143.52302702749148 ], [ 3017205.548259056173265, 2036046.018921229522675 ], [ 3017187.609060204122216, 2036030.757763767614961 ], [ 3017185.407511321827769, 2036028.884873157599941 ], [ 3017047.019772508181632, 2035911.15672514680773 ], [ 3016969.706880217418075, 2035859.089623619336635 ], [ 3016875.557811808772385, 2035746.171256095636636 ], [ 3016726.132552456110716, 2035674.557757811853662 ], [ 3016640.419773056637496, 2035601.692094966536388 ], [ 3016589.570375000592321, 2035564.474900149740279 ], [ 3016589.570375000592321, 2039729.090901875635609 ], [ 3016674.918164918199182, 2039672.564723159186542 ] ] ] } }
]
}
