{
"type": "FeatureCollection",
"name": "Berrueco",
"crs": { "type": "name", "properties": { "name": "urn:ogc:def:crs:EPSG::3035" } },
"features": [
{ "type": "Feature", "properties": { "SITE_NAME": "Laguna de Gallocanta", "ODESIGNATE": "Reserva Natural Dirigida", "NUT2": 24, "SITE_CODE_": "ES240001", "DESIG_ABBR": "ES31", "SITE_CDDA": "389444_CDDA", "Sup_ha": 1923.57220953 }, "geometry": { "type": "Polygon", "coordinates": [ [ [ 3352051.877216021995991, 2062380.855766905471683 ], [ 3352065.493101896252483, 2062370.966470050159842 ], [ 3352082.317404128611088, 2062345.407639516284689 ], [ 3352112.013199123553932, 2062307.893418318824843 ], [ 3352140.774172942154109, 2062257.548507978674024 ], [ 3352161.875530632212758, 2062238.797500871587545 ], [ 3352175.640977504663169, 2062237.705098035745323 ], [ 3352203.75467570964247, 2062215.231166622601449 ], [ 3352213.690161827020347, 2062229.935607672436163 ], [ 3352253.556075233966112, 2062201.66629535285756 ], [ 3352276.086027719546109, 2062183.93296708445996 ], [ 3352313.983153254259378, 2062190.488940013339743 ], [ 3352346.274012145586312, 2062190.636704660253599 ], [ 3352378.605557123199105, 2062210.539571250556037 ], [ 3352456.962814717553556, 2062266.211181451799348 ], [ 3352482.05473857652396, 2062244.908935486804694 ], [ 3352533.594665953889489, 2062115.12802432756871 ], [ 3352419.014730405062437, 2062026.988057309295982 ], [ 3352422.319859324023128, 2061999.961403691442683 ], [ 3352418.136716162320226, 2061985.556033350527287 ], [ 3352419.789241207297891, 2061972.042718632845208 ], [ 3352401.502878883387893, 2061952.488980580121279 ], [ 3352417.48974553309381, 2061925.050047194585204 ], [ 3352423.592296345625073, 2061907.602758599445224 ], [ 3352456.575053079519421, 2061867.892781110946089 ], [ 3352461.895210841670632, 2061797.582909829448909 ], [ 3352467.41313296649605, 2061776.450127908959985 ], [ 3352476.047499833628535, 2061750.998964979080483 ], [ 3352468.643985295668244, 2061728.290484960423782 ], [ 3352474.745135642122477, 2061686.868893083650619 ], [ 3352494.288019420579076, 2061658.290416483068839 ], [ 3352511.808223620522767, 2061633.868377557955682 ], [ 3352520.044758756645024, 2061610.900085670407861 ], [ 3352538.425704769790173, 2061583.18558036768809 ], [ 3352584.037090524099767, 2061499.781844774261117 ], [ 3352609.226337926927954, 2061467.122989006573334 ], [ 3352609.754684225656092, 2061447.733986856881529 ], [ 3352633.831759619526565, 2061430.783673224039376 ], [ 3352662.618383800145239, 2061372.938623366877437 ], [ 3352665.727063052356243, 2061296.803716318216175 ], [ 3352662.806737425737083, 2061242.490905153797939 ], [ 3352667.766829280182719, 2061237.862456410890445 ], [ 3352643.641584096476436, 2061145.594175747362897 ], [ 3352618.157011178322136, 2061104.5903075565584 ], [ 3352572.565384086687118, 2061049.328628369839862 ], [ 3352586.070453863590956, 2061030.615615186979994 ], [ 3352602.237742274068296, 2061012.70925188343972 ], [ 3352616.52219711849466, 2060998.910262328572571 ], [ 3352625.676996850408614, 2060984.726590788690373 ], [ 3352638.532951200380921, 2060969.910107880365103 ], [ 3352651.193978539668024, 2060953.865175019949675 ], [ 3352665.478461857885122, 2060940.06621885439381 ], [ 3352682.426201830152422, 2060951.047896132804453 ], [ 3352705.672619092278183, 2060969.785125326598063 ], [ 3352727.749926304910332, 2060981.151528129121289 ], [ 3352748.074658288620412, 2061005.435558821773157 ], [ 3352773.138304928317666, 2061003.673274451168254 ], [ 3352841.965983556583524, 2060998.212537152459845 ], [ 3352866.056411330588162, 2061014.28190272510983 ], [ 3352893.198819885961711, 2061033.614858637098223 ], [ 3352904.105623519513756, 2061040.57140012877062 ], [ 3352922.196674686390907, 2061046.928103788988665 ], [ 3352969.466585854068398, 2061057.745717814657837 ], [ 3352977.440767575986683, 2061024.250895231962204 ], [ 3352995.726019985042512, 2061024.915378256933764 ], [ 3353015.919606548734009, 2061016.415052569005638 ], [ 3353030.074779386632144, 2061017.779917789390311 ], [ 3353063.810017115902156, 2061030.272731825243682 ], [ 3353081.997944714035839, 2061025.272602017270401 ], [ 3353095.517467254772782, 2061026.740918372990564 ], [ 3353118.180065726861358, 2061037.986226093722507 ], [ 3353124.209496619179845, 2061016.164543106686324 ], [ 3353133.254361407831311, 2061001.387450265930966 ], [ 3353165.739082012325525, 2060978.822178224800155 ], [ 3353175.464532078709453, 2060956.368431948823854 ], [ 3353192.485021365340799, 2060944.007793572731316 ], [ 3353220.10776346269995, 2060950.624797215918079 ], [ 3353231.194322060793638, 2060912.817960401298478 ], [ 3353244.712642744649202, 2060878.375433940440416 ], [ 3353259.593265348579735, 2060864.490601671626791 ], [ 3353299.373295675031841, 2060852.01847096439451 ], [ 3353333.803134769201279, 2060817.780473072547466 ], [ 3353365.314458286389709, 2060765.140937097370625 ], [ 3353386.321707775816321, 2060718.077716541942209 ], [ 3353405.675922833383083, 2060684.527572827180848 ], [ 3353417.63834295514971, 2060652.241344599984586 ], [ 3353463.252209909725934, 2060568.840103124501184 ], [ 3353482.704483306966722, 2060559.843998872442171 ], [ 3353478.813644673209637, 2060547.278910328168422 ], [ 3353485.717957461252809, 2060495.067045552423224 ], [ 3353499.528499933425337, 2060462.464958500117064 ], [ 3353523.064788060262799, 2060407.409534013597295 ], [ 3353543.975442235358059, 2060371.703514496330172 ], [ 3353590.563273489009589, 2060318.377013257937506 ], [ 3353615.558943680021912, 2060272.522421023342758 ], [ 3353628.299340898636729, 2060221.203124492429197 ], [ 3353636.372017697431147, 2060212.262695389566943 ], [ 3353654.754271985962987, 2060184.549270736053586 ], [ 3353622.16976832319051, 2060110.738827513996512 ], [ 3353670.022367203608155, 2060053.416430508252233 ], [ 3353723.321500430814922, 2059970.592519055586308 ], [ 3353758.141163609456271, 2059926.838756793411449 ], [ 3353791.793707746081054, 2059875.724544858559966 ], [ 3353886.0410425523296, 2059787.7904470753856 ], [ 3353970.951081401202828, 2059640.972516631474718 ], [ 3354053.332917368039489, 2059466.237080039456487 ], [ 3354046.621744585223496, 2059459.824286099523306 ], [ 3354087.66704327845946, 2059407.447007519658655 ], [ 3354105.855310279410332, 2059402.447636171709746 ], [ 3354151.083152429200709, 2059328.565393408993259 ], [ 3354164.019253798760474, 2059326.353934867773205 ], [ 3354209.052923484239727, 2059203.364803564501926 ], [ 3354207.010448235087097, 2059190.483902445528656 ], [ 3354227.047398894093931, 2059113.34836004814133 ], [ 3354230.063191920518875, 2059048.572696554707363 ], [ 3354235.315811677835882, 2059009.874662398127839 ], [ 3354252.824044490698725, 2058940.731667981017381 ], [ 3354236.678461520001292, 2058922.701716498471797 ], [ 3354264.594116423279047, 2058859.339656861033291 ], [ 3354272.083563990425318, 2058846.719359406735748 ], [ 3354278.406009981408715, 2058826.738616381306201 ], [ 3354308.364186868071556, 2058776.257533325115219 ], [ 3354322.110542805865407, 2058758.715103892143816 ], [ 3354339.911482888273895, 2058737.500022446271032 ], [ 3354369.12694560457021, 2058700.682394237956032 ], [ 3354407.878079173155129, 2058671.987136420561001 ], [ 3354415.009923113975674, 2058677.953994899289683 ], [ 3354461.183320656884462, 2058670.061184159247205 ], [ 3354477.560206170659512, 2058688.819550290005282 ], [ 3354539.794072339311242, 2058668.429255927214399 ], [ 3354570.594909174367785, 2058612.349474332062528 ], [ 3354644.029882228467613, 2058542.309693994466215 ], [ 3354691.136295090895146, 2058483.509583797771484 ], [ 3354738.810305770486593, 2058450.962814900558442 ], [ 3354830.52845629490912, 2058411.269026789348572 ], [ 3354914.712916827760637, 2058374.769238819601014 ], [ 3354939.118870093952864, 2058364.498206485295668 ], [ 3354956.736584607511759, 2058357.293605819810182 ], [ 3354987.067391877993941, 2058343.341411624569446 ], [ 3355005.626502154394984, 2058349.318445859942585 ], [ 3355042.371842104010284, 2058361.33616232778877 ], [ 3355053.613595975097269, 2058352.552890439983457 ], [ 3355055.811353784520179, 2058335.022552302340046 ], [ 3355056.164893898647279, 2058322.763205499388278 ], [ 3355056.008280693553388, 2058312.115971234859899 ], [ 3355057.116776058916003, 2058291.065333190839738 ], [ 3355066.941553616896272, 2058257.256572266342118 ], [ 3355088.925064753741026, 2058204.359957387438044 ], [ 3355119.17595946136862, 2058155.720235828077421 ], [ 3355150.399892820511013, 2058101.244417789857835 ], [ 3355163.435163190588355, 2058051.767348095076159 ], [ 3355184.737796536646783, 2058006.547168458811939 ], [ 3355215.572485696524382, 2057961.587839668849483 ], [ 3355252.049072450492531, 2057904.324625646695495 ], [ 3355294.361624475568533, 2057847.954040077980608 ], [ 3355321.694402853958309, 2057816.823178383521736 ], [ 3355364.00711427256465, 2057760.452756157377735 ], [ 3355452.035573059227318, 2057681.14979116176255 ], [ 3355525.765391489490867, 2057619.410448164446279 ], [ 3355635.095859005581588, 2057530.797869239700958 ], [ 3355689.858166464138776, 2057493.090048629324883 ], [ 3355735.282364028505981, 2057468.317762784892693 ], [ 3355788.488416786771268, 2057432.765934230294079 ], [ 3355826.812142653390765, 2057411.097152662463486 ], [ 3355893.246322210878134, 2057375.174972308566794 ], [ 3355911.045661375392228, 2057379.69303797930479 ], [ 3355932.541053036693484, 2057383.57938989251852 ], [ 3355957.538787086494267, 2057373.637767954031006 ], [ 3355950.440297119319439, 2057340.831992056453601 ], [ 3355913.410535367205739, 2057241.786826023831964 ], [ 3355899.482089389115572, 2057187.005728838732466 ], [ 3355894.912981144152582, 2057146.207971463212743 ], [ 3355886.745843902695924, 2057094.685568615328521 ], [ 3355896.086303315125406, 2057045.841025350149721 ], [ 3355932.949681044090539, 2057050.881192116998136 ], [ 3355956.451866970397532, 2057076.315558552974835 ], [ 3355979.657228712923825, 2057099.028134148102254 ], [ 3355997.70586406160146, 2057118.067105230875313 ], [ 3356007.383254806511104, 2057125.522919384296983 ], [ 3356071.506967049092054, 2057204.359377040993422 ], [ 3356082.792664372827858, 2057197.225435584550723 ], [ 3356092.672471985220909, 2057181.222107346402481 ], [ 3356102.18565076449886, 2057148.586852201260626 ], [ 3356118.818302794359624, 2057145.744614736177027 ], [ 3356097.163879560306668, 2057114.735664948122576 ], [ 3356085.444274756126106, 2057098.519292335724458 ], [ 3356079.040287354961038, 2057086.394429401960224 ], [ 3355999.477735116146505, 2057075.421265251236036 ], [ 3355996.756883450318128, 2057034.307745654601604 ], [ 3355993.54843710269779, 2057014.066839725477621 ], [ 3356020.10269026318565, 2057001.969489125069231 ], [ 3356064.066682258620858, 2057003.906473176088184 ], [ 3356067.37541696196422, 2056976.882069855928421 ], [ 3356070.590945125091821, 2056889.395997624611482 ], [ 3356073.122759384103119, 2056845.495194114511833 ], [ 3356073.029669819399714, 2056785.033565274672583 ], [ 3356094.135353110264987, 2056798.43632712890394 ], [ 3356112.809677405282855, 2056808.474743584403768 ], [ 3356137.422985379118472, 2056736.231754710432142 ], [ 3356100.949314109515399, 2056721.675110200187191 ], [ 3356054.166702974587679, 2056689.980881234863773 ], [ 3356047.651878072414547, 2056660.85539768752642 ], [ 3356044.250060509890318, 2056627.418160550994799 ], [ 3356038.708352341782302, 2056592.45658627524972 ], [ 3356044.350748857948929, 2056580.152987932553515 ], [ 3356076.064944798126817, 2056504.80677205324173 ], [ 3356096.786292635835707, 2056455.908118939260021 ], [ 3356115.463261011056602, 2056430.037669291952625 ], [ 3356138.419854703824967, 2056407.215871265623719 ], [ 3356146.299778169952333, 2056399.227490679593757 ], [ 3356165.322875848971307, 2056392.739394921343774 ], [ 3356174.376006287522614, 2056391.732071968726814 ], [ 3356196.897233058698475, 2056397.056782572064549 ], [ 3356209.449303655419499, 2056397.60993346828036 ], [ 3356217.363939344882965, 2056396.257545355707407 ], [ 3356227.946414826903492, 2056370.707583433715627 ], [ 3356244.389782522805035, 2056327.429099725792184 ], [ 3356256.250212432816625, 2056296.265025401720777 ], [ 3356270.443693262524903, 2056259.306439772015437 ], [ 3356274.582396173849702, 2056247.807594776852056 ], [ 3356260.308103906922042, 2056253.484077330445871 ], [ 3356246.589360943064094, 2056255.828188317362219 ], [ 3356209.321381105575711, 2056260.037826870102435 ], [ 3356182.493466533720493, 2056254.161802395479754 ], [ 3356171.503155326936394, 2056244.700244814855978 ], [ 3356146.70124599756673, 2056231.929002542514354 ], [ 3356131.017441703472286, 2056211.014486377127469 ], [ 3356119.699704639147967, 2056197.332163463113829 ], [ 3356112.661915998905897, 2056184.827837078133598 ], [ 3356108.189037704840302, 2056168.582954720128328 ], [ 3356118.50082332547754, 2056149.811801115050912 ], [ 3356187.954249511472881, 2056085.026955727487803 ], [ 3356232.33180196210742, 2056042.095935951685533 ], [ 3356216.492598569020629, 2056036.994259221246466 ], [ 3356196.712664565071464, 2056032.503018287941813 ], [ 3356181.833487144205719, 2056028.601554743479937 ], [ 3356167.23506772890687, 2056002.46629602718167 ], [ 3356172.9626305969432, 2055989.124803825514391 ], [ 3356183.975652446039021, 2055976.092321976087987 ], [ 3356210.642058772966266, 2055958.41803747904487 ], [ 3356278.990444346796721, 2055924.15989221050404 ], [ 3356249.343371328897774, 2055921.455505259567872 ], [ 3356241.855920311994851, 2055898.166098464280367 ], [ 3356218.223885669372976, 2055856.84637475409545 ], [ 3356215.015828312374651, 2055836.605552908731624 ], [ 3356226.202641064301133, 2055823.354693958070129 ], [ 3356218.908516215160489, 2055813.26157944323495 ], [ 3356212.854822222609073, 2055781.007739030523226 ], [ 3356226.79227501899004, 2055755.217430852819234 ], [ 3356190.122088113799691, 2055763.372945102397352 ], [ 3356171.739480446558446, 2055755.17446826887317 ], [ 3356165.513592890929431, 2055763.797803506720811 ], [ 3356151.410466264002025, 2055758.647993138059974 ], [ 3356119.996157591231167, 2055728.10736435232684 ], [ 3356096.459121147636324, 2055711.340085943462327 ], [ 3356078.368133088573813, 2055704.981691532302648 ], [ 3356080.314548084046692, 2055693.309689500136301 ], [ 3356078.185369997750968, 2055692.252994999289513 ], [ 3354129.518064780160785, 2055692.252994999289513 ], [ 3354138.258610842749476, 2055708.259782844688743 ], [ 3354148.381885814014822, 2055737.816581776598468 ], [ 3354148.536358148325235, 2055742.603546007536352 ], [ 3354148.721249099820852, 2055755.207081460393965 ], [ 3354131.842258117627352, 2055793.590621058829129 ], [ 3354127.073013895191252, 2055801.625793032813817 ], [ 3354099.448604821227491, 2055848.464340368518606 ], [ 3354076.656840888783336, 2055868.604939657729119 ], [ 3354119.479396775364876, 2055898.589759383583441 ], [ 3354132.546240398660302, 2055904.779874974861741 ], [ 3354157.62808848079294, 2055902.899865701794624 ], [ 3354212.560221340041608, 2055902.536459196358919 ], [ 3354226.927889103535563, 2055905.495862517505884 ], [ 3354256.280923894606531, 2055930.562889992492273 ], [ 3354267.581939246505499, 2055948.486634265398607 ], [ 3354276.282157622277737, 2055961.439790494507179 ], [ 3354283.12458629347384, 2055974.108943168306723 ], [ 3354277.269831876270473, 2056005.794877642532811 ], [ 3354271.817807865329087, 2056036.208753815153614 ], [ 3354249.52238436602056, 2056044.23094792291522 ], [ 3354212.889766708947718, 2056057.110351686831564 ], [ 3354178.455995587166399, 2056064.800499759148806 ], [ 3354162.509050476830453, 2056063.314291584538296 ], [ 3354121.975752889644355, 2056063.021937692770734 ], [ 3354076.618825673591346, 2056078.568623498547822 ], [ 3354044.381697367411107, 2056105.928173010004684 ], [ 3353993.031738061457872, 2056081.930170440813527 ], [ 3353950.300724286120385, 2056089.233685945393518 ], [ 3353937.931960773654282, 2056080.422934484668076 ], [ 3353854.155979678034782, 2056105.666752802906558 ], [ 3353800.548836320638657, 2056205.869861379731447 ], [ 3353779.745352986268699, 2056213.067287262529135 ], [ 3353695.034349721856415, 2056209.338348216610029 ], [ 3353650.055396091192961, 2056202.459974412573501 ], [ 3353638.806251927278936, 2056269.932115860749036 ], [ 3353617.063273128587753, 2056317.348080066498369 ], [ 3353597.568364774808288, 2056378.946443571709096 ], [ 3353570.763078267686069, 2056463.644238344859332 ], [ 3353566.824779595714062, 2056508.017106862738729 ], [ 3353539.272987661883235, 2056541.859689925331622 ], [ 3353519.216415410861373, 2056599.91269565327093 ], [ 3353486.791079615708441, 2056649.155008475994691 ], [ 3353477.417341531254351, 2056705.382064788369462 ], [ 3353457.360999689437449, 2056763.435127168428153 ], [ 3353425.498038833960891, 2056816.223271590191871 ], [ 3353393.07300822250545, 2056865.465826564235613 ], [ 3353356.148200504481792, 2056955.535996961174533 ], [ 3353339.728128477931023, 2057032.3358715090435 ], [ 3353321.842543600127101, 2057154.408784304978326 ], [ 3353332.522228531073779, 2057221.774942510761321 ], [ 3353338.140314916614443, 2057326.42323322314769 ], [ 3353317.896612089592963, 2057406.359142815228552 ], [ 3353206.378399947658181, 2057625.716132634552196 ], [ 3353130.283943308517337, 2057791.676293704193085 ], [ 3353087.365842245984823, 2057820.863693215884268 ], [ 3353023.644738394301385, 2057857.249357123160735 ], [ 3352914.381234680302441, 2057952.405308553017676 ], [ 3352840.541667946614325, 2057924.970310271019116 ], [ 3352767.262634300161153, 2057970.274029713356867 ], [ 3352729.780007555615157, 2057987.607526586158201 ], [ 3352609.273855919018388, 2058011.852204201510176 ], [ 3352562.608733390923589, 2057994.338541847188026 ], [ 3352510.109511057380587, 2057996.657159544527531 ], [ 3352484.867468824610114, 2058007.480325974989682 ], [ 3352454.200812641065568, 2058020.156819808762521 ], [ 3352418.643735059071332, 2058027.750543319853023 ], [ 3352311.648767611477524, 2058002.119252023519948 ], [ 3352300.053472478874028, 2057995.967539626872167 ], [ 3352278.160870654508471, 2057971.240756792249158 ], [ 3352269.99821092095226, 2057966.12905319663696 ], [ 3352216.081803559791297, 2057971.280464379116893 ], [ 3352170.871903516352177, 2057980.197180472081527 ], [ 3352118.818744958378375, 2057986.456363942474127 ], [ 3352107.829730581957847, 2058015.005715508246794 ], [ 3352076.458281195256859, 2058028.045972888590768 ], [ 3351905.642635737545788, 2058084.554205226246268 ], [ 3351862.275055565871298, 2058094.409854600438848 ], [ 3351844.065146819222718, 2058134.127873923862353 ], [ 3351866.62765534594655, 2058157.92656644876115 ], [ 3351970.314246269874275, 2058291.495429835049435 ], [ 3351775.745062139816582, 2058846.990589624037966 ], [ 3351747.154647117480636, 2058877.90953126992099 ], [ 3351646.397906198166311, 2059035.864184053149074 ], [ 3351442.540326222777367, 2059177.286400097422302 ], [ 3351405.200976449530572, 2059163.335743041941896 ], [ 3351387.005094999447465, 2059154.833259467268363 ], [ 3351387.005094999447465, 2060829.051198465749621 ], [ 3351391.893262739293277, 2060832.077920349547639 ], [ 3351435.906344617716968, 2060850.266106935916469 ], [ 3351447.42294948361814, 2060826.390299029881135 ], [ 3351509.424143656156957, 2060861.503278019838035 ], [ 3351501.092840792611241, 2060875.309944355161861 ], [ 3351516.335939953103662, 2060886.989429685985669 ], [ 3351533.931458854116499, 2060895.409362877020612 ], [ 3351556.035897334571928, 2060902.105668779462576 ], [ 3351577.79747178312391, 2060912.670316765317693 ], [ 3351589.51161994272843, 2060920.191300245001912 ], [ 3351608.087089864071459, 2060922.72900922014378 ], [ 3351627.593684528023005, 2060925.107375028776005 ], [ 3351686.702105971053243, 2060935.95193812251091 ], [ 3351740.124817494768649, 2060941.101753029739484 ], [ 3351790.949721982236952, 2060941.933850560802966 ], [ 3351731.745540056843311, 2060978.727496385574341 ], [ 3351696.801726031582803, 2061005.657436850713566 ], [ 3351665.828138337936252, 2061039.527902438305318 ], [ 3351644.265309469774365, 2061065.413309334544465 ], [ 3351628.777364759240299, 2061077.295225634239614 ], [ 3351609.56570153310895, 2061094.86752366530709 ], [ 3351580.062070215120912, 2061119.914842220721766 ], [ 3351567.957316739484668, 2061140.081583925057203 ], [ 3351551.539403249509633, 2061157.176119065145031 ], [ 3351537.130970939993858, 2061174.879559800028801 ], [ 3351523.458027696236968, 2061197.21940642897971 ], [ 3351501.502474208828062, 2061227.642920877784491 ], [ 3351514.932901016436517, 2061252.014240116812289 ], [ 3351503.955192414112389, 2061267.225999725516886 ], [ 3351475.235859442036599, 2061291.1868837447837 ], [ 3351437.351586000528187, 2061317.667824596399441 ], [ 3351418.972989945672452, 2061328.430780292488635 ], [ 3351398.487457591574639, 2061350.031095370883122 ], [ 3351387.005094999447465, 2061363.465527127496898 ], [ 3351387.005094999447465, 2062212.269135704962537 ], [ 3351390.481879654806107, 2062215.145069982623681 ], [ 3351411.891399150248617, 2062230.393913102801889 ], [ 3351419.806793453637511, 2062240.386521698907018 ], [ 3351432.263139239512384, 2062247.080883604474366 ], [ 3351447.704424833878875, 2062264.611302209086716 ], [ 3351418.449311731383204, 2062303.655010458081961 ], [ 3351421.619436805136502, 2062320.436129724606872 ], [ 3351454.301330904476345, 2062346.978018081979826 ], [ 3351446.328482828103006, 2062380.473851180402562 ], [ 3351513.440962329041213, 2062408.687003244878724 ], [ 3351507.996296647004783, 2062434.189846254186705 ], [ 3351532.991706834174693, 2062424.24410102982074 ], [ 3351559.642184862866998, 2062436.69670325005427 ], [ 3351580.652617518324405, 2062461.454789888812229 ], [ 3351590.86731147672981, 2062489.949570334516466 ], [ 3351583.574784098658711, 2062515.768585175042972 ], [ 3351593.301967517007142, 2062529.22576878988184 ], [ 3351613.141726059839129, 2062510.711142975836992 ], [ 3351643.097024509683251, 2062496.136845783796161 ], [ 3351667.508487248327583, 2062482.510723228333518 ], [ 3351714.679121669847518, 2062468.772012049332261 ], [ 3351753.485866235569119, 2062462.134368512779474 ], [ 3351793.752178219612688, 2062464.697646445361897 ], [ 3351842.966343312524259, 2062463.840398374712095 ], [ 3351873.025239294860512, 2062471.559909709496424 ], [ 3351930.213325951248407, 2062511.291619289200753 ], [ 3351969.022811040282249, 2062540.565861660754308 ], [ 3351983.999056049156934, 2062515.322885967092589 ], [ 3351985.359574318863451, 2062499.969252893002704 ], [ 3352007.143797422293574, 2062469.781778674339876 ], [ 3352024.551826200447977, 2062447.903133196057752 ], [ 3352040.695886272937059, 2062430.020994681399316 ], [ 3352043.028532562311739, 2062408.830815721536055 ], [ 3352051.877216021995991, 2062380.855766905471683 ] ] ] } }
]
}
