{
"type": "FeatureCollection",
"name": "Chía",
"crs": { "type": "name", "properties": { "name": "urn:ogc:def:crs:EPSG::3035" } },
"features": [
{ "type": "Feature", "properties": { "SITE_NAME": "Posets-Maladeta", "ODESIGNATE": "Parque Natural", "NUT2": 24, "SITE_CODE_": "ES241011", "DESIG_ABBR": "ES10", "SITE_CDDA": "196377_CDDA", "Sup_ha": 33466.516322800002 }, "geometry": { "type": "MultiPolygon", "coordinates": [ [ [ [ 3537004.585333004128188, 2214012.115689711645246 ], [ 3536906.366182062774897, 2213984.58174251858145 ], [ 3536820.203143037389964, 2213927.798201872967184 ], [ 3536798.604442305397242, 2213894.305666451808065 ], [ 3536788.227013706695288, 2213822.119561068713665 ], [ 3536785.709111150354147, 2213778.7467169794254 ], [ 3536771.825911660213023, 2213772.077343184500933 ], [ 3536736.214452791493386, 2213775.545837218873203 ], [ 3536660.869333597831428, 2213795.919999938923866 ], [ 3536611.695213668048382, 2213796.698535669129342 ], [ 3536598.648249072488397, 2213799.473583438899368 ], [ 3536543.856840919703245, 2213796.788779929745942 ], [ 3536526.984316524118185, 2213801.439984461758286 ], [ 3536519.92497089272365, 2213811.151961748953909 ], [ 3536480.865643565542996, 2213821.474609235767275 ], [ 3536450.167624279391021, 2213820.453627331648022 ], [ 3536432.107726823538542, 2213811.68419239949435 ], [ 3536418.742542419116944, 2213795.940558847971261 ], [ 3536401.606592467054725, 2213797.609695184510201 ], [ 3536361.489446250721812, 2213810.541177824605256 ], [ 3536338.03283829241991, 2213800.794301729649305 ], [ 3536309.697481514886022, 2213766.453794624656439 ], [ 3536256.895271062850952, 2213756.055915253702551 ], [ 3536144.915967456065118, 2213753.427365138195455 ], [ 3536030.396500641014427, 2213737.008350545540452 ], [ 3536015.526033364236355, 2213734.445922944229096 ], [ 3535980.706356489099562, 2213746.862094650510699 ], [ 3535961.845692902803421, 2213759.228051078505814 ], [ 3535946.952883551828563, 2213786.247923567891121 ], [ 3535929.818424610421062, 2213833.038319589570165 ], [ 3535934.700479993596673, 2213888.21296904515475 ], [ 3535941.329261534381658, 2213903.109046693425626 ], [ 3535944.012181674130261, 2213933.430384789127856 ], [ 3535942.485264607239515, 2213976.193245047703385 ], [ 3535937.092862837947905, 2214015.97999 ], [ 3537008.440206269733608, 2214015.97999 ], [ 3537004.585333004128188, 2214012.115689711645246 ] ] ], [ [ [ 3535317.658926534000784, 2213995.954195282887667 ], [ 3535306.26126503944397, 2213987.539150780066848 ], [ 3535285.685761420987546, 2213980.518923962954432 ], [ 3535257.383010262623429, 2213991.298095986712724 ], [ 3535244.524899703450501, 2213996.562014436814934 ], [ 3535173.707702224142849, 2213977.892821051646024 ], [ 3535151.251685477327555, 2213964.538848412688822 ], [ 3535135.072481145150959, 2213962.104129983112216 ], [ 3535126.102988861501217, 2213950.945800363086164 ], [ 3535125.047333009075373, 2213939.015790636185557 ], [ 3535111.681927978992462, 2213923.272528797388077 ], [ 3535077.344506778754294, 2213896.035470532253385 ], [ 3535060.714327721856534, 2213873.591212942264974 ], [ 3535024.40917571214959, 2213839.025218554306775 ], [ 3534999.414577405899763, 2213797.342126180417836 ], [ 3534985.828400708734989, 2213779.112938675563782 ], [ 3534956.910875811707228, 2213782.93304162286222 ], [ 3534926.883793340995908, 2213804.409023904241621 ], [ 3534888.590820491779596, 2213822.679150915239006 ], [ 3534855.12615548633039, 2213880.586809345521033 ], [ 3534810.514703186228871, 2213932.562123455107212 ], [ 3534774.300860573071986, 2213989.233495723921806 ], [ 3534765.103944596834481, 2214015.97999 ], [ 3535347.688295375555754, 2214015.97999 ], [ 3535317.658926534000784, 2213995.954195282887667 ] ] ], [ [ [ 3532430.582420534919947, 2213797.013118656352162 ], [ 3532235.565730610396713, 2214015.97999 ], [ 3532665.242545922286808, 2214015.97999 ], [ 3532430.582420534919947, 2213797.013118656352162 ] ] ] ] } }
]
}
