{
"type": "FeatureCollection",
"name": "Monroyo",
"crs": { "type": "name", "properties": { "name": "urn:ogc:def:crs:EPSG::3035" } },
"features": [
{ "type": "Feature", "properties": { "SITE_NAME": "Pereroles", "ODESIGNATE": "Paraje Natural Municipal", "NUT2": 52, "SITE_CODE_": "ES522006", "DESIG_ABBR": "ES15", "SITE_CDDA": "555546025_CDDA", "Sup_ha": 359.26227183399999 }, "geometry": { "type": "Polygon", "coordinates": [ [ [ 3469293.039768212474883, 2012909.759864598978311 ], [ 3469304.721375585068017, 2012907.497188630746678 ], [ 3469316.603909354656935, 2012903.151026472216472 ], [ 3469352.630442549474537, 2012892.654202423524112 ], [ 3469375.367674909997731, 2012888.15303718810901 ], [ 3469386.499537739437073, 2012884.589242157759145 ], [ 3469398.61225672904402, 2012879.639163235668093 ], [ 3469410.90064057148993, 2012874.578741230536252 ], [ 3469421.456720110028982, 2012869.354693280532956 ], [ 3469431.284088486339897, 2012862.788851941935718 ], [ 3469440.731349097099155, 2012856.195812073070556 ], [ 3469451.490042269229889, 2012850.64497291459702 ], [ 3469462.407776417210698, 2012845.329975497443229 ], [ 3469473.374249656219035, 2012841.036589401541278 ], [ 3469485.276016716379672, 2012836.424844480818138 ], [ 3469506.433896484784782, 2012828.271131590707228 ], [ 3469541.385033892001957, 2012809.311982118757442 ], [ 3469552.06566181126982, 2012805.914820154430345 ], [ 3469562.107351184356958, 2012802.200683372095227 ], [ 3469572.265872289892286, 2012799.294995665783063 ], [ 3469581.42432270385325, 2012797.071929305093363 ], [ 3469597.035823164973408, 2012793.443265405483544 ], [ 3469605.214291200041771, 2012790.28405121807009 ], [ 3469614.636833291966468, 2012786.572933668736368 ], [ 3469646.903760832734406, 2012771.80007358151488 ], [ 3469657.532910192850977, 2012769.562525006011128 ], [ 3469673.534747724421322, 2012764.798141591483727 ], [ 3469689.226723812054843, 2012757.026395360240713 ], [ 3469700.166627182159573, 2012750.041781012667343 ], [ 3469708.889688733965158, 2012744.529532181331888 ], [ 3469715.470968674868345, 2012737.862166678067297 ], [ 3469730.009866223204881, 2012725.659522494534031 ], [ 3469761.279123486485332, 2012698.392800585133955 ], [ 3469790.103129873052239, 2012675.928372439695522 ], [ 3469805.335904934443533, 2012665.103710803436115 ], [ 3469821.816459206864238, 2012655.715669999364763 ], [ 3468800.337135891895741, 2012655.715669999364763 ], [ 3468784.097039176151156, 2012672.227629930479452 ], [ 3468776.084537223447114, 2012679.094931199681014 ], [ 3468771.052142152562737, 2012686.633576138876379 ], [ 3468769.311784293502569, 2012695.730044074822217 ], [ 3468770.463590994942933, 2012703.644666879205033 ], [ 3468773.641435605008155, 2012712.622836239635944 ], [ 3468777.136367871426046, 2012720.709653577068821 ], [ 3468788.172227558679879, 2012724.229721362469718 ], [ 3468814.190601277630776, 2012728.911188730737194 ], [ 3468825.799771271180362, 2012730.325772651238367 ], [ 3468846.125917366240174, 2012731.620607217308134 ], [ 3468856.689101773314178, 2012733.230888613499701 ], [ 3468866.258131082169712, 2012736.078150648158044 ], [ 3468875.500161384232342, 2012739.818326990818605 ], [ 3468882.211856585927308, 2012745.103810279397294 ], [ 3468887.179641564842314, 2012752.479149987688288 ], [ 3468889.657740209717304, 2012760.171242141630501 ], [ 3468888.256161674391478, 2012768.191066897939891 ], [ 3468883.296357771847397, 2012779.554375115549192 ], [ 3468862.797270369715989, 2012815.051360337762162 ], [ 3468852.458103675860912, 2012827.993644753471017 ], [ 3468842.497403971850872, 2012837.914018328068778 ], [ 3468832.561683484353125, 2012846.699444316793233 ], [ 3468822.144220027606934, 2012856.363265533931553 ], [ 3468807.892992480192333, 2012869.103713977849111 ], [ 3468799.411227179691195, 2012877.251322287833318 ], [ 3468790.209389231633395, 2012885.277423857245594 ], [ 3468758.686535142362118, 2012908.407705655088648 ], [ 3468751.246577767189592, 2012912.129794150590897 ], [ 3468746.357740665320307, 2012916.44353833864443 ], [ 3468744.328500265721232, 2012923.377365256194025 ], [ 3468745.212488894350827, 2012931.397425115806982 ], [ 3468748.957786336075515, 2012941.401168067473918 ], [ 3468758.421200235839933, 2012952.757703762734309 ], [ 3468767.015961647499353, 2012956.192475354066119 ], [ 3468775.680792415048927, 2012956.970074234995991 ], [ 3468784.236080716364086, 2012959.442258877679706 ], [ 3468794.102083408273757, 2012965.60196686303243 ], [ 3468814.764591846615076, 2012983.974921241169795 ], [ 3468834.541132133454084, 2013003.304191555362195 ], [ 3468852.08016758132726, 2013022.938307705335319 ], [ 3468862.375161692034453, 2013041.011193372542039 ], [ 3468865.894012669101357, 2013051.577876994386315 ], [ 3468869.309506695717573, 2013062.909182962495834 ], [ 3468864.524531645234674, 2013077.130863790167496 ], [ 3468859.241267378441989, 2013082.813404267188162 ], [ 3468855.365454278886318, 2013088.855418307939544 ], [ 3468853.525754609610885, 2013093.374551163287833 ], [ 3468856.352305033244193, 2013101.603923710761592 ], [ 3468862.770570619963109, 2013113.491496137576178 ], [ 3468868.720348909497261, 2013127.053105182480067 ], [ 3468880.257650007028133, 2013162.344915459631011 ], [ 3468895.22920726891607, 2013154.319914911873639 ], [ 3468900.778419704176486, 2013152.076321454718709 ], [ 3468909.106334822252393, 2013145.600213018711656 ], [ 3468924.472314827144146, 2013132.844431738136336 ], [ 3468952.245870446786284, 2013114.169895690400153 ], [ 3468965.0045928619802, 2013103.244887119857594 ], [ 3468980.160354285966605, 2013086.75823577074334 ], [ 3468994.489339303225279, 2013069.016830682521686 ], [ 3469021.813585817813873, 2013040.240105046192184 ], [ 3469046.972797674592584, 2013015.915953740943223 ], [ 3469083.15495358267799, 2012982.614042674656957 ], [ 3469098.933601318392903, 2012970.415071686962619 ], [ 3469118.503343722783029, 2012959.135081611806527 ], [ 3469130.439259961713105, 2012955.840079669607803 ], [ 3469142.248077646829188, 2012952.576603992376477 ], [ 3469154.257352497894317, 2012948.713969014585018 ], [ 3469167.274061062373221, 2012943.763591155875474 ], [ 3469180.535591669380665, 2012939.983778246911243 ], [ 3469192.93857546383515, 2012936.105586459627375 ], [ 3469204.776235334109515, 2012932.120408970164135 ], [ 3469223.012306139338762, 2012926.577082588104531 ], [ 3469240.062550339382142, 2012922.666485230205581 ], [ 3469251.335280310828239, 2012919.482790540670976 ], [ 3469264.163556032348424, 2012915.402111392933875 ], [ 3469278.707381444517523, 2012912.154372572898865 ], [ 3469293.039768212474883, 2012909.759864598978311 ] ] ] } }
]
}
