{
"type": "FeatureCollection",
"name": "Cieza",
"crs": { "type": "name", "properties": { "name": "urn:ogc:def:crs:EPSG::3035" } },
"features": [
{ "type": "Feature", "properties": { "ENP_GRAL": 1.0, "ENP_GRAL_NAME": "Otros Parques", "color": "#38A800" }, "geometry": { "type": "Polygon", "coordinates": [ [ [ 3332055.84178151935339, 1756412.977655163034797 ], [ 3331841.589775354601443, 1756349.300950353266671 ], [ 3331723.888004342094064, 1756432.743148751091212 ], [ 3331670.11158804455772, 1756474.084941500099376 ], [ 3331560.647463245783001, 1756567.603907824028283 ], [ 3331510.501985812559724, 1756608.678446584148332 ], [ 3331521.41721199080348, 1756761.375743767013773 ], [ 3331456.435830574482679, 1756705.460247074486688 ], [ 3331446.01887181866914, 1756636.909913364099339 ], [ 3331345.553273099474609, 1756701.21549081732519 ], [ 3331173.239760189317167, 1756793.132792091229931 ], [ 3331100.107802353333682, 1756824.167018286883831 ], [ 3330913.101226013619453, 1756893.81343781366013 ], [ 3330796.680460415314883, 1756919.84174946276471 ], [ 3330800.793202509172261, 1756862.430397467222065 ], [ 3330704.586478049401194, 1756829.559114016592503 ], [ 3330626.042793990578502, 1756621.424008246511221 ], [ 3330501.745537396520376, 1756521.002459449227899 ], [ 3330462.224809299223125, 1756717.050022771116346 ], [ 3330437.853843565564603, 1756722.564113149885088 ], [ 3330353.933606146834791, 1757009.208729335805401 ], [ 3330275.494360005483031, 1757028.489145253319293 ], [ 3330252.139238530769944, 1757178.081325814593583 ], [ 3330299.012678217608482, 1757230.967050159350038 ], [ 3330219.459058705251664, 1757257.661045959684998 ], [ 3330179.331557955127209, 1757278.184210983337834 ], [ 3330219.358109739609063, 1757216.669798051472753 ], [ 3330212.48893525172025, 1757086.176527034491301 ], [ 3330227.02001151163131, 1757043.730350821744651 ], [ 3330109.078423598781228, 1757057.035053581930697 ], [ 3330048.296804293990135, 1757084.326712840469554 ], [ 3330022.19278350751847, 1757120.18696664320305 ], [ 3329943.905681808013469, 1757169.750321886036545 ], [ 3329907.27223869273439, 1757311.933012381661683 ], [ 3329736.057963465806097, 1757347.14725588215515 ], [ 3329702.205040096770972, 1757349.986230187583715 ], [ 3329687.747588857077062, 1757416.753633357118815 ], [ 3329711.786531737539917, 1757459.213848505867645 ], [ 3329724.417523482814431, 1757513.920818575192243 ], [ 3329702.053429447580129, 1757513.447321557905525 ], [ 3329697.246747960802168, 1757516.132599667878821 ], [ 3329644.979892680421472, 1757515.511685232631862 ], [ 3329533.311746097635478, 1757436.567316082771868 ], [ 3329324.289491383824497, 1757341.563265714095905 ], [ 3329270.753174986690283, 1757330.421084748581052 ], [ 3329240.348829744383693, 1757311.035457013640553 ], [ 3329235.072947930078954, 1757318.630172573262826 ], [ 3329215.845484729856253, 1757319.173627925803885 ], [ 3329175.555243387818336, 1757301.964471122715622 ], [ 3329149.552065438590944, 1757300.290593528421596 ], [ 3329113.766349616460502, 1757258.997018195688725 ], [ 3329088.834459874778986, 1757255.466006723931059 ], [ 3329060.071421801112592, 1757302.226390179712325 ], [ 3329045.912672859616578, 1757276.088608043733984 ], [ 3329032.180940666235983, 1757272.690618173917755 ], [ 3328977.278890862129629, 1757290.292181679513305 ], [ 3328987.208998305723071, 1757217.84316896693781 ], [ 3329014.820499309804291, 1757174.630759069230407 ], [ 3329013.820619199890643, 1757168.089366669533774 ], [ 3329024.683153002988547, 1757150.499552226858214 ], [ 3328978.254081765655428, 1757137.569948852760717 ], [ 3328969.189474414102733, 1757123.912034189794213 ], [ 3328803.138463469222188, 1757116.024821246275678 ], [ 3328752.554946565069258, 1757202.476272347383201 ], [ 3328696.98838516138494, 1757302.293918705545366 ], [ 3328672.640186547767371, 1757334.224139345576987 ], [ 3328625.074803198687732, 1757374.228155476273969 ], [ 3328551.104447124525905, 1757416.158655795967206 ], [ 3328457.298169082496315, 1757444.156243188073859 ], [ 3328420.313627639319748, 1757455.933261333964765 ], [ 3328348.750335302669555, 1757473.647799991769716 ], [ 3328200.63962228782475, 1757519.701682813232765 ], [ 3328143.77864541625604, 1757600.765917752170935 ], [ 3328127.293286688625813, 1757601.300103321205825 ], [ 3328104.759044471662492, 1757614.729734763270244 ], [ 3328132.317228301428258, 1757692.680894745513797 ], [ 3327935.397319370880723, 1757679.29492688504979 ], [ 3327688.891761658713222, 1757796.660613970365375 ], [ 3327572.118582884781063, 1757898.082592898979783 ], [ 3327491.541310516186059, 1757995.858610508032143 ], [ 3327411.100738035514951, 1758082.479152161395177 ], [ 3327356.095702065620571, 1758017.981607073917985 ], [ 3327294.785838446579874, 1757987.696772833354771 ], [ 3327215.886884527280927, 1758023.47716203588061 ], [ 3327187.279706805478781, 1757998.823437902145088 ], [ 3326899.849446938373148, 1758078.473051259061322 ], [ 3326843.419088140595704, 1758296.08827405795455 ], [ 3326848.912726903799921, 1758338.406744737178087 ], [ 3326756.037074496038258, 1758623.401006764499471 ], [ 3326858.948812490329146, 1758720.699260054389015 ], [ 3326909.240505256690085, 1758659.878377583576366 ], [ 3327004.555329454597086, 1758620.976319293025881 ], [ 3326943.782825971022248, 1758672.618166005238891 ], [ 3326857.292796006426215, 1758750.930682621197775 ], [ 3326927.676256970502436, 1758786.102675647241995 ], [ 3326832.866177793592215, 1758879.413236344233155 ], [ 3326754.913687266875058, 1758833.141938721761107 ], [ 3326730.088968371972442, 1758863.655017043929547 ], [ 3326793.396843540482223, 1758932.146207151003182 ], [ 3326875.754548517987132, 1758966.698459505103528 ], [ 3327021.627508545760065, 1759038.755926034646109 ], [ 3327023.387307577300817, 1759089.061513707973063 ], [ 3326904.094897152855992, 1759011.350611317204311 ], [ 3326790.543400010094047, 1759058.760396034456789 ], [ 3326757.252861906774342, 1758960.839918716344982 ], [ 3326713.72243809979409, 1758911.348832584684715 ], [ 3326643.458597104530782, 1759210.494792911689728 ], [ 3326745.161073668394238, 1759254.561696225544438 ], [ 3326982.930665402673185, 1759348.418212965363637 ], [ 3327020.097340022213757, 1759393.292056921403855 ], [ 3327118.14487485634163, 1759403.210928607266396 ], [ 3327247.8089465117082, 1759409.99819586169906 ], [ 3327224.686327264644206, 1759456.830234729452059 ], [ 3327375.997920890338719, 1759464.368284100899473 ], [ 3327457.338111542165279, 1759430.97874825517647 ], [ 3327484.261454655788839, 1759462.571046148194 ], [ 3327543.714680725708604, 1759454.613895512884483 ], [ 3327675.678817270323634, 1759217.254549731733277 ], [ 3327703.394712046254426, 1759407.955051528755575 ], [ 3327573.978124698158354, 1759614.653580162208527 ], [ 3327602.943780607078224, 1759696.998302170075476 ], [ 3327622.62271750997752, 1759763.531264869263396 ], [ 3327816.686301934532821, 1760256.908914846600965 ], [ 3327785.280444913543761, 1760385.112661915598437 ], [ 3327791.984889886341989, 1760445.71886453893967 ], [ 3327776.95876017306, 1760785.34513455722481 ], [ 3327809.973420402035117, 1760869.934475997695699 ], [ 3327814.458772618323565, 1760923.412682957248762 ], [ 3327849.654351031873375, 1761012.878578175557777 ], [ 3327876.144895168021321, 1761073.771874393336475 ], [ 3327917.942137124016881, 1761136.540813530795276 ], [ 3327995.037533684633672, 1761141.610584512352943 ], [ 3327984.048681547865272, 1761167.965551966568455 ], [ 3327932.515379033517092, 1761157.705770630622283 ], [ 3327961.735265879426152, 1761218.080221452284604 ], [ 3328112.178385181818157, 1761082.961845560465008 ], [ 3328132.488238951191306, 1761043.830458328593522 ], [ 3328126.820880387444049, 1761110.234915015986189 ], [ 3328171.572333007585257, 1761074.822811289457604 ], [ 3328242.351347964722663, 1761014.775344150140882 ], [ 3328287.659967973828316, 1761010.816662173485383 ], [ 3328377.404672202654183, 1760951.284936748677865 ], [ 3328289.986132361926138, 1761084.176152607193217 ], [ 3328396.542011649813503, 1761133.29834662610665 ], [ 3328389.832829799503088, 1761182.11301042418927 ], [ 3328481.119238921441138, 1761157.014623149763793 ], [ 3328504.755643137730658, 1761215.614689380163327 ], [ 3328427.407373550813645, 1761210.354555932572111 ], [ 3328421.332091018557549, 1761273.359177022473887 ], [ 3328388.257945884950459, 1761318.585943436715752 ], [ 3328293.143127661198378, 1761332.158567550592124 ], [ 3328199.009164592251182, 1761298.785934179322794 ], [ 3328113.043407545890659, 1761269.385264699347317 ], [ 3328101.990267162211239, 1761340.959073572652414 ], [ 3328187.475994687993079, 1761376.469387111021206 ], [ 3328082.987342455424368, 1761393.62314296932891 ], [ 3327999.681554541923106, 1761445.814230854390189 ], [ 3328048.7730398979038, 1761519.346111442893744 ], [ 3328144.313569747842848, 1761515.742832406889647 ], [ 3328285.306226170621812, 1761485.169643329456449 ], [ 3328338.596147012896836, 1761572.645884558558464 ], [ 3328441.932228906080127, 1761533.122532628243789 ], [ 3328439.260381784755737, 1761458.903316385345533 ], [ 3328494.629928166046739, 1761435.631690977839753 ], [ 3328569.057990715373307, 1761457.261381493881345 ], [ 3328530.751707342453301, 1761506.40147571451962 ], [ 3328542.178598199039698, 1761523.295811110408977 ], [ 3328594.965715996921062, 1761488.661895556375384 ], [ 3328667.977836866397411, 1761424.257474497426301 ], [ 3328665.120371464639902, 1761471.507843773113564 ], [ 3328625.981588748283684, 1761494.513813712401316 ], [ 3328651.846049403306097, 1761552.044267876073718 ], [ 3328686.849768334534019, 1761529.147946818033233 ], [ 3328716.765429793857038, 1761463.138249522075057 ], [ 3328744.807266246993095, 1761478.553293011849746 ], [ 3328699.933203615713865, 1761590.669599949847907 ], [ 3328644.276122916024178, 1761608.867498895851895 ], [ 3328455.479957693256438, 1761572.264698631828651 ], [ 3328518.154172487091273, 1761640.793726818170398 ], [ 3328474.318271283060312, 1761640.673972073942423 ], [ 3328452.170362457633018, 1761602.986081534530967 ], [ 3328422.583621015306562, 1761578.534932408947498 ], [ 3328391.645737160462886, 1761588.761133654275909 ], [ 3328369.338824816048145, 1761664.463044190546498 ], [ 3328340.239408310037106, 1761664.288511214777827 ], [ 3328339.371944119222462, 1761610.051322937710211 ], [ 3328290.219975546002388, 1761553.154824913246557 ], [ 3328226.491228980012238, 1761534.54815387702547 ], [ 3328187.808144592680037, 1761530.861291590612382 ], [ 3328212.37852024147287, 1761566.357895698631182 ], [ 3328205.370184695348144, 1761597.246787800919265 ], [ 3328160.347623759880662, 1761566.616463534068316 ], [ 3328126.331950365100056, 1761559.514462189050391 ], [ 3328084.744681246578693, 1761574.362523596966639 ], [ 3328099.874890576116741, 1761629.904771499568596 ], [ 3328221.106142323464155, 1761722.6774135180749 ], [ 3328263.766161537263542, 1761739.125724967801943 ], [ 3328398.185843429062515, 1761748.875786475837231 ], [ 3328471.919462684541941, 1761733.499392394674942 ], [ 3328572.615018334239721, 1761789.745809622807428 ], [ 3328618.952825676649809, 1761757.656614734092727 ], [ 3328651.567176180891693, 1761714.483043372165412 ], [ 3328701.12109944736585, 1761726.30584823875688 ], [ 3328762.144674711860716, 1761660.698121105320752 ], [ 3328833.133511161897331, 1761638.353056442225352 ], [ 3328907.374613146763295, 1761638.80205454165116 ], [ 3328833.006116765085608, 1761688.815041875466704 ], [ 3328774.575292514171451, 1761713.427071245154366 ], [ 3328782.225179742556065, 1761768.430663299746811 ], [ 3328837.779950249940157, 1761740.117546224268153 ], [ 3328874.856660278514028, 1761687.131137226475403 ], [ 3328971.7241604286246, 1761682.026533498428762 ], [ 3329012.195749397389591, 1761697.008062428794801 ], [ 3328914.147819451522082, 1761798.846520313294604 ], [ 3328847.372325365431607, 1761859.713442638749257 ], [ 3328954.750845972914249, 1761846.421423364430666 ], [ 3329001.548577954526991, 1761863.576950842281803 ], [ 3329010.123159304726869, 1761831.951504927128553 ], [ 3329094.243127229157835, 1761857.136649093590677 ], [ 3329142.198754184879363, 1761735.298462055390701 ], [ 3329173.205762659199536, 1761758.523471739608794 ], [ 3329144.861129264347255, 1761832.274213135708123 ], [ 3329155.456137505359948, 1761899.879846218042076 ], [ 3329205.559445149730891, 1761897.13318421668373 ], [ 3329248.628192987758666, 1761887.048347445670515 ], [ 3329286.986714207101613, 1761910.037129297154024 ], [ 3329322.824788301251829, 1761891.931336321635172 ], [ 3329379.014978308230639, 1761758.397220514016226 ], [ 3329371.449586584232748, 1761622.975643211975694 ], [ 3329352.309517285320908, 1761564.699265646981075 ], [ 3329299.520703577902168, 1761512.032140818657354 ], [ 3329312.264370324090123, 1761460.490805275039747 ], [ 3329384.20942741446197, 1761547.456579545279965 ], [ 3329377.914470552001148, 1761496.319069766672328 ], [ 3329394.331872899085283, 1761472.723191738827154 ], [ 3329459.963658043649048, 1761602.175974131794646 ], [ 3329442.424252626486123, 1761730.540785328717902 ], [ 3329479.024079113267362, 1761782.215947679011151 ], [ 3329546.094395446591079, 1761733.520436245948076 ], [ 3329618.393788049463183, 1761724.668411499587819 ], [ 3329640.109925968572497, 1761759.868190795881674 ], [ 3329630.82807099679485, 1761795.120624908478931 ], [ 3329594.556611608248204, 1761797.752319377381355 ], [ 3329596.714820437133312, 1761832.686986422166228 ], [ 3329641.539646822027862, 1761870.741800251416862 ], [ 3329656.002060372382402, 1761795.178900556638837 ], [ 3329744.334418191574514, 1761877.246360692894086 ], [ 3329693.194686198141426, 1761965.560820701764897 ], [ 3329569.449820361565799, 1761957.139790971530601 ], [ 3329516.771721364464611, 1761992.550661250250414 ], [ 3329434.534229839220643, 1761959.446769590722397 ], [ 3329370.771915609482676, 1761953.991243780590594 ], [ 3329347.979838505387306, 1761937.371754926862195 ], [ 3329321.656775939278305, 1761943.505566949490458 ], [ 3329315.921824313700199, 1761958.502670543268323 ], [ 3329404.798522000201046, 1762003.144530770368874 ], [ 3329317.221342289354652, 1762014.63301190501079 ], [ 3329238.728016624692827, 1761999.754306178772822 ], [ 3329204.955036907922477, 1761975.410893677501008 ], [ 3329141.863395207095891, 1761965.890962493373081 ], [ 3329029.346585761755705, 1762022.561523827258497 ], [ 3328875.249574939720333, 1761990.142404277808964 ], [ 3328836.616253503598273, 1762034.014143928652629 ], [ 3328801.786207093857229, 1762019.990985437529162 ], [ 3328792.624025970697403, 1762056.887539015617222 ], [ 3328835.642864105757326, 1762146.199974976945668 ], [ 3328871.565081543289125, 1762099.506660689832643 ], [ 3328932.097206943668425, 1762089.432891339762136 ], [ 3328971.464943596161902, 1762115.891599114285782 ], [ 3328947.468280654400587, 1762138.764549173647538 ], [ 3328853.005723802372813, 1762176.353713393444195 ], [ 3328802.057867168914527, 1762156.880734188482165 ], [ 3328713.44239621469751, 1762137.099060242762789 ], [ 3328688.190862567164004, 1762133.606418653158471 ], [ 3328661.674297434277833, 1762149.452052101260051 ], [ 3328594.250074740964919, 1762220.974984945263714 ], [ 3328608.028984498698264, 1762278.922146725468338 ], [ 3328578.923750322777778, 1762307.84577003098093 ], [ 3328639.166228272486478, 1762348.43240869557485 ], [ 3328613.018167888280004, 1762404.403805495472625 ], [ 3328679.254217713605613, 1762458.028508178889751 ], [ 3328722.660393544007093, 1762434.3859905640129 ], [ 3328736.303379757329822, 1762392.058632841333747 ], [ 3328796.275388614740223, 1762348.787254640366882 ], [ 3328838.864430264569819, 1762269.709475306328386 ], [ 3328852.997352446429431, 1762302.563173631438985 ], [ 3328826.301709924824536, 1762338.391406146343797 ], [ 3328819.077187514398247, 1762371.322999197756872 ], [ 3328875.143599523231387, 1762401.107481811195612 ], [ 3328898.449115101248026, 1762457.07178532006219 ], [ 3328874.254244748037308, 1762498.670616820920259 ], [ 3328946.639339741785079, 1762611.917265880852938 ], [ 3328997.966023578308523, 1762676.706552586751059 ], [ 3329090.852974195033312, 1762646.449216543231159 ], [ 3329130.28057323070243, 1762664.983441374497488 ], [ 3329191.784417456947267, 1762754.327852525049821 ], [ 3329168.986633527558297, 1762785.700576890492812 ], [ 3329190.144822645932436, 1762843.124582268763334 ], [ 3329180.091911079362035, 1762888.629883980378509 ], [ 3329226.498557658400387, 1762975.801167649915442 ], [ 3329310.255846050567925, 1762985.046623007161543 ], [ 3329364.627693484071642, 1762903.375361395534128 ], [ 3329344.826134845614433, 1762797.944171119248495 ], [ 3329384.085496985819191, 1762787.772776748519391 ], [ 3329378.906937690917403, 1762844.588095565559343 ], [ 3329407.204110511112958, 1762877.170748254517093 ], [ 3329462.831173685379326, 1762898.096759475534782 ], [ 3329472.832213665358722, 1762934.870796281145886 ], [ 3329510.490166950970888, 1762968.64418181637302 ], [ 3329605.085123434662819, 1762962.459544121520594 ], [ 3329571.997054134961218, 1762816.803469466743991 ], [ 3329591.20696636242792, 1762735.965850743930787 ], [ 3329577.814362055622041, 1762671.763395761372522 ], [ 3329652.791674489155412, 1762595.404894064180553 ], [ 3329682.059977808967233, 1762544.596962520387024 ], [ 3329737.950601658318192, 1762522.075788970803842 ], [ 3329815.234877707902342, 1762410.104056891519576 ], [ 3329845.839282726868987, 1762257.394894361263141 ], [ 3329953.570134532637894, 1762258.584298157598823 ], [ 3329887.837490129284561, 1762382.68032646807842 ], [ 3329865.634758736472577, 1762476.622138199396431 ], [ 3329821.179988458286971, 1762494.20844097295776 ], [ 3329773.546956201083958, 1762658.457990444498137 ], [ 3329852.061001252382994, 1762655.579231065465137 ], [ 3329872.694127095863223, 1762581.248060354962945 ], [ 3329852.58458317629993, 1762525.220981989987195 ], [ 3329915.939088329207152, 1762457.428751750150695 ], [ 3330021.338507772888988, 1762497.129750006599352 ], [ 3330049.305613467935473, 1762575.05660389829427 ], [ 3330065.169769773259759, 1762547.248510106932372 ], [ 3330059.397539544850588, 1762515.965203973697498 ], [ 3329987.067103773355484, 1762432.672440367517993 ], [ 3330003.271468352060765, 1762336.037806374020875 ], [ 3330038.126658814027905, 1762268.463877356378362 ], [ 3330038.625720158219337, 1762209.39023330132477 ], [ 3330288.880994142498821, 1762431.392757371300831 ], [ 3330296.268413321115077, 1762498.649689011042938 ], [ 3330382.472228579223156, 1762523.890355044044554 ], [ 3330906.649967749603093, 1762731.84892248455435 ], [ 3330965.889550992753357, 1762797.216594516532496 ], [ 3331078.086498139891773, 1762817.429565936559811 ], [ 3331321.103762672748417, 1762878.422642497112975 ], [ 3331390.76541783940047, 1762974.605940370820463 ], [ 3331535.345435409341007, 1763035.024976795073599 ], [ 3331613.904176902025938, 1763076.280687446473166 ], [ 3331635.460584381595254, 1763090.80979210161604 ], [ 3332145.272039999254048, 1762899.641186623834074 ], [ 3332145.272039999254048, 1756436.134189768461511 ], [ 3332055.84178151935339, 1756412.977655163034797 ] ] ] } },
{ "type": "Feature", "properties": { "ENP_GRAL": 6.0, "ENP_GRAL_NAME": "Otros Espacios Naturales Protegidos", "color": "#7F8F0D" }, "geometry": { "type": "MultiPolygon", "coordinates": [ [ [ [ 3299672.582699128426611, 1775551.102520824410021 ], [ 3299681.496961359865963, 1775537.49266135902144 ], [ 3299690.297557235695422, 1775528.945370605448261 ], [ 3299697.814874717500061, 1775523.640997038921341 ], [ 3299708.077461870387197, 1775513.989309192402288 ], [ 3299714.037307396996766, 1775507.461674129823223 ], [ 3299717.31919352710247, 1775503.199041121406481 ], [ 3299721.443597391247749, 1775494.432833441067487 ], [ 3299724.204239778220654, 1775485.897052893182263 ], [ 3299727.644829897210002, 1775470.185594075592235 ], [ 3299733.196129937656224, 1775462.928285976406187 ], [ 3299738.680218000896275, 1775456.721889151027426 ], [ 3299745.197423473000526, 1775453.60372714442201 ], [ 3299748.677135599311441, 1775450.998662957921624 ], [ 3299754.963043906260282, 1775443.884901967598125 ], [ 3299764.715224246494472, 1775433.663905803114176 ], [ 3299775.191977627575397, 1775425.164633482927456 ], [ 3299795.682598780374974, 1775408.764260429656133 ], [ 3299810.300648147705942, 1775400.5874030420091 ], [ 3299814.501878474839032, 1775392.97712459648028 ], [ 3299821.084325922187418, 1775385.308962081326172 ], [ 3299822.96886025974527, 1775378.93855322804302 ], [ 3299817.913637150079012, 1775369.201060459483415 ], [ 3299805.147851426154375, 1775355.218174607492983 ], [ 3299782.5762007413432, 1775340.878114687046036 ], [ 3299753.003996952436864, 1775328.720979942474514 ], [ 3299730.633792097680271, 1775330.481826097005978 ], [ 3299710.837088846601546, 1775335.338470707880333 ], [ 3299700.661812871228904, 1775333.773861906025559 ], [ 3299691.650739036500454, 1775320.669809778453782 ], [ 3299676.796948647126555, 1775298.465518731623888 ], [ 3299672.420201865956187, 1775290.630830524722114 ], [ 3299668.755810569040477, 1775284.188870020676404 ], [ 3299666.082973347045481, 1775275.057722962694243 ], [ 3299665.312701596412808, 1775267.1182916094549 ], [ 3299666.472493170294911, 1775259.357241968857124 ], [ 3299671.815711721777916, 1775247.359250660520047 ], [ 3299678.899974059313536, 1775228.006296299630776 ], [ 3299684.01113445032388, 1775216.551749964943156 ], [ 3299689.526812609285116, 1775204.020301484968513 ], [ 3299700.719300409778953, 1775182.46051348792389 ], [ 3299712.493141145445406, 1775163.828622378176078 ], [ 3299725.082099541090429, 1775141.024331401102245 ], [ 3299736.484694697894156, 1775117.916070996783674 ], [ 3299750.092939652502537, 1775091.409166785888374 ], [ 3299757.511051288805902, 1775077.547787804855034 ], [ 3299760.616936295758933, 1775070.466693173162639 ], [ 3299762.800696892663836, 1775066.063147686189041 ], [ 3299763.911212614737451, 1775060.832168641267344 ], [ 3299764.989920234773308, 1775054.597875591367483 ], [ 3299764.979554048739374, 1775049.556194775970653 ], [ 3299763.493144900538027, 1775040.729047059547156 ], [ 3299760.308357586152852, 1775028.658324800431728 ], [ 3299752.7381432633847, 1774997.154507546918467 ], [ 3299750.178327012807131, 1774984.978243731893599 ], [ 3299745.614716648124158, 1774970.618672244250774 ], [ 3299743.1028569964692, 1774964.990767321549356 ], [ 3299740.305513417348266, 1774960.419761117780581 ], [ 3299737.988358960021287, 1774957.78503056219779 ], [ 3299734.695262592285872, 1774955.819461841834709 ], [ 3299731.170024221763015, 1774954.397541518555954 ], [ 3299728.000052376650274, 1774954.428550514392555 ], [ 3299723.078447673469782, 1774954.251036850037053 ], [ 3299716.825888511259109, 1774955.811327043920755 ], [ 3299708.357596459798515, 1774958.250261281849816 ], [ 3299699.883490522392094, 1774962.707551374332979 ], [ 3299689.015262248925865, 1774970.595129097579047 ], [ 3299681.775152106303722, 1774976.86139660840854 ], [ 3299671.888870718423277, 1774984.583249491406605 ], [ 3299664.077412354294211, 1774990.441571126924828 ], [ 3299656.783609615173191, 1774994.699542435118929 ], [ 3299648.827136509120464, 1774997.556299960939214 ], [ 3299643.092137860134244, 1774997.516269324813038 ], [ 3299638.725968817714602, 1774997.244963567471132 ], [ 3299632.9472741689533, 1774995.194839272182435 ], [ 3299627.805254512932152, 1774991.524260954465717 ], [ 3299621.262393170036376, 1774984.559759889962152 ], [ 3299613.231592155061662, 1774975.324834052473307 ], [ 3299608.148910715710372, 1774969.122518957359716 ], [ 3299605.35744945332408, 1774965.054866121616215 ], [ 3299602.500591315329075, 1774960.493914677295834 ], [ 3299601.159203410148621, 1774954.66833534068428 ], [ 3299601.202366802841425, 1774949.113268785644323 ], [ 3299602.993157964199781, 1774941.750023675849661 ], [ 3299605.936527860350907, 1774935.200711505487561 ], [ 3299610.508421551436186, 1774926.863438399275765 ], [ 3299616.438861405476928, 1774915.774913470027968 ], [ 3299619.328725779429078, 1774909.739086272660643 ], [ 3299620.768614571541548, 1774905.461167416302487 ], [ 3299620.990416224580258, 1774899.875936235301197 ], [ 3299621.378682072274387, 1774893.253906517056748 ], [ 3299620.953734619542956, 1774886.769216377753764 ], [ 3299619.725392959080637, 1774880.420207375660539 ], [ 3299617.451580854598433, 1774874.752105057938024 ], [ 3299615.285088166594505, 1774870.578906715847552 ], [ 3299608.488292437046766, 1774863.152952270349488 ], [ 3299590.318472613580525, 1774849.578344359761104 ], [ 3299574.138330384623259, 1774836.172058306401595 ], [ 3299550.195537209510803, 1774818.529004793148488 ], [ 3299522.41021616011858, 1774799.517640223028138 ], [ 3299512.659772163257003, 1774793.599212723551318 ], [ 3299506.849122250918299, 1774788.024196047103032 ], [ 3299504.494182175025344, 1774783.88282807241194 ], [ 3299504.138573958538473, 1774777.386429541977122 ], [ 3299506.581779450178146, 1774766.382508509559557 ], [ 3299519.775209878571332, 1774733.389333165483549 ], [ 3299523.571191603317857, 1774721.652717025252059 ], [ 3299524.207685074303299, 1774717.51038382994011 ], [ 3299524.278841083869338, 1774713.463628721190616 ], [ 3299523.637655719649047, 1774708.024150884477422 ], [ 3299523.29821973387152, 1774704.551081159384921 ], [ 3299519.50462820706889, 1774693.087549448711798 ], [ 3299514.967069069854915, 1774681.749764521606266 ], [ 3299510.822458787821233, 1774673.371568969450891 ], [ 3299506.128496690653265, 1774665.590493217576295 ], [ 3299498.502344511449337, 1774655.278568603331223 ], [ 3299489.830675008241087, 1774643.125950432615355 ], [ 3299478.010740944650024, 1774629.487560305045918 ], [ 3299471.311119432095438, 1774621.036631383001804 ], [ 3299464.837817921303213, 1774614.060406073695049 ], [ 3299456.160468494519591, 1774606.447729327715933 ], [ 3299435.893843847792596, 1774593.731631256407127 ], [ 3299425.986717709805816, 1774586.326751908985898 ], [ 3299417.692254164256155, 1774579.153758911415935 ], [ 3299410.588024210184813, 1774571.779853851767257 ], [ 3299393.917511275969446, 1774551.395650645950809 ], [ 3299362.490805690642446, 1774512.825565288309008 ], [ 3299332.345660956576467, 1774475.047844625776634 ], [ 3299318.521813319995999, 1774456.704508910188451 ], [ 3299314.663067956455052, 1774449.791077933972701 ], [ 3299312.254218135494739, 1774441.119753495091572 ], [ 3299307.637939016800374, 1774408.108504467178136 ], [ 3299302.412960212212056, 1774378.226115373428911 ], [ 3299301.26566778216511, 1774367.828712741611525 ], [ 3299300.683976966887712, 1774359.857494260882959 ], [ 3299301.068221668712795, 1774351.218801840441301 ], [ 3299302.464399524964392, 1774344.930913673946634 ], [ 3299306.17945254361257, 1774337.242617134703323 ], [ 3299310.902271617203951, 1774329.888566381530836 ], [ 3299342.574445632752031, 1774298.817919250344858 ], [ 3299369.259798834566027, 1774269.598304076585919 ], [ 3299382.107413231395185, 1774254.315611062338576 ], [ 3299393.886248115915805, 1774245.265506328782067 ], [ 3299425.815399936866015, 1774228.273225200828165 ], [ 3299444.251601481344551, 1774219.10741877858527 ], [ 3299449.411004000809044, 1774214.201378575759009 ], [ 3299453.497169081121683, 1774208.467910130508244 ], [ 3299456.176926241256297, 1774203.980535599170253 ], [ 3299458.037169246003032, 1774196.605626778909937 ], [ 3299459.121963494922966, 1774190.874694634927437 ], [ 3299459.504579608794302, 1774186.271025414578617 ], [ 3299458.756483546458185, 1774181.858311307616532 ], [ 3299457.177168583963066, 1774178.594652059022337 ], [ 3299455.19930732017383, 1774176.911316934740171 ], [ 3299453.846313635352999, 1774175.122454120311886 ], [ 3299451.501466705463827, 1774173.501095735002309 ], [ 3299444.984873545356095, 1774172.080025071976706 ], [ 3299430.953874659724534, 1774171.423654008889571 ], [ 3299419.126911180559546, 1774171.403645651880652 ], [ 3299394.072366706095636, 1774170.591701470781118 ], [ 3299374.246911094989628, 1774169.905250321142375 ], [ 3299363.853977818973362, 1774167.625818953150883 ], [ 3299357.035740005318075, 1774164.238244934240356 ], [ 3299344.724322638008744, 1774157.743760185781866 ], [ 3299331.260185500606894, 1774147.913575995946303 ], [ 3299320.08138483017683, 1774139.714797927765176 ], [ 3299316.982729375362396, 1774138.220751212909818 ], [ 3299312.713687281589955, 1774136.924363804282621 ], [ 3299307.032273033633828, 1774136.370843158336356 ], [ 3299301.285518229473382, 1774137.845817927736789 ], [ 3299295.156000243034214, 1774141.402694524498656 ], [ 3299285.10273624677211, 1774147.639692638535053 ], [ 3299276.207869158126414, 1774150.150679966900498 ], [ 3299266.198037474881858, 1774150.832510042237118 ], [ 3299258.683614736888558, 1774149.075645724311471 ], [ 3299247.881835312582552, 1774143.334808453451842 ], [ 3299227.33551439223811, 1774129.657429421786219 ], [ 3299217.315360836219043, 1774122.775912539102137 ], [ 3299209.737118752207607, 1774116.490773097379133 ], [ 3299199.684939995408058, 1774106.084287743316963 ], [ 3299189.741747959516943, 1774093.137798710959032 ], [ 3299168.539734970778227, 1774059.397479685721919 ], [ 3299150.495159999467432, 1774034.003683691844344 ], [ 3299150.495159999467432, 1775650.030661396449432 ], [ 3299151.616666187997907, 1775649.936013241996989 ], [ 3299162.392233469057828, 1775650.133349067065865 ], [ 3299171.44788917619735, 1775651.125440721400082 ], [ 3299224.564184066839516, 1775658.292699142592028 ], [ 3299271.761080321855843, 1775664.946782378247008 ], [ 3299292.691391695756465, 1775667.463676587678492 ], [ 3299324.435079716145992, 1775671.684521019924432 ], [ 3299368.301269168499857, 1775677.388227011542767 ], [ 3299376.154751657508314, 1775677.574813559651375 ], [ 3299379.977226876653731, 1775676.424744384363294 ], [ 3299385.836687836796045, 1775671.904634078266099 ], [ 3299388.473783752880991, 1775662.630900541553274 ], [ 3299396.593351246789098, 1775662.117098641814664 ], [ 3299411.141707739327103, 1775661.540902100736275 ], [ 3299423.977553145028651, 1775659.666767596965656 ], [ 3299448.536006148904562, 1775660.562154951738194 ], [ 3299473.895040306262672, 1775658.800497523276135 ], [ 3299512.762773197609931, 1775652.235537509433925 ], [ 3299522.646095241885632, 1775651.5748732581269 ], [ 3299544.960403918288648, 1775640.744997586822137 ], [ 3299583.452470126096159, 1775617.133271181257442 ], [ 3299594.93999086599797, 1775609.607647486263886 ], [ 3299628.340276474598795, 1775591.862019356805831 ], [ 3299646.194457990583032, 1775577.246394755318761 ], [ 3299672.582699128426611, 1775551.102520824410021 ] ] ], [ [ [ 3299150.595671659801155, 1773821.353543134406209 ], [ 3299162.713988306932151, 1773815.776483159279451 ], [ 3299178.853368253447115, 1773809.015999831957743 ], [ 3299193.316415186040103, 1773802.538629888324067 ], [ 3299213.990401640534401, 1773793.499336520209908 ], [ 3299212.508358975406736, 1773789.2105855087284 ], [ 3299212.988278661388904, 1773786.103508109925315 ], [ 3299216.05095546785742, 1773782.055810975842178 ], [ 3299219.446835689712316, 1773778.456281259423122 ], [ 3299222.089004367589951, 1773774.984040321782231 ], [ 3299223.67383102979511, 1773771.186027728021145 ], [ 3299224.272660728543997, 1773765.537181236082688 ], [ 3299222.969025784172118, 1773758.696512261172757 ], [ 3299220.603921920526773, 1773749.51361960475333 ], [ 3299219.87162144202739, 1773743.080801538657397 ], [ 3299220.22239104937762, 1773737.473849654663354 ], [ 3299221.533446076326072, 1773733.217736665392295 ], [ 3299224.282694895751774, 1773728.718740347772837 ], [ 3299228.735910835210234, 1773722.923302380368114 ], [ 3299232.828099037054926, 1773717.693072997499257 ], [ 3299234.607246693223715, 1773711.844898549607024 ], [ 3299236.570693029556423, 1773703.948251283029094 ], [ 3299237.935180061031133, 1773696.657094842288643 ], [ 3299242.740645453799516, 1773673.65461289905943 ], [ 3299249.999746065586805, 1773644.690066798124462 ], [ 3299258.649496965575963, 1773616.499358911300078 ], [ 3299263.85398748703301, 1773599.481562310364097 ], [ 3299272.054072665516287, 1773581.766637647757307 ], [ 3299275.929906730540097, 1773570.308607430197299 ], [ 3299274.435026842169464, 1773557.975652420893312 ], [ 3299270.461491821799427, 1773534.65572821861133 ], [ 3299269.353331759106368, 1773522.25736869755201 ], [ 3299273.566834677010775, 1773510.926911292597651 ], [ 3299282.127252114005387, 1773496.895858630537987 ], [ 3299289.611067151650786, 1773486.192973397206515 ], [ 3299302.450443069916219, 1773474.192286262987182 ], [ 3299316.678569513838738, 1773450.551641400204971 ], [ 3299324.675798370502889, 1773435.435887235915288 ], [ 3299333.916963230352849, 1773423.256314631318673 ], [ 3299338.139564804267138, 1773406.811507663922384 ], [ 3299345.471872697584331, 1773397.707365039736032 ], [ 3299351.85424042167142, 1773387.583805246977136 ], [ 3299364.610015811398625, 1773372.451051898300648 ], [ 3299374.927844027988613, 1773356.943451406667009 ], [ 3299384.22773914039135, 1773345.147278564050794 ], [ 3299402.422779741231352, 1773331.849077662918717 ], [ 3299424.661590497940779, 1773319.047857722500339 ], [ 3299440.864101517014205, 1773305.692788486834615 ], [ 3299453.416181873995811, 1773304.753062154864892 ], [ 3299474.754770691506565, 1773296.430080398917198 ], [ 3299500.078446784988046, 1773288.220820245100185 ], [ 3299512.816102550365031, 1773283.316786740208045 ], [ 3299524.99053237400949, 1773277.327931752195582 ], [ 3299543.578917043283582, 1773276.942022323608398 ], [ 3299553.634237883612514, 1773275.244015811244026 ], [ 3299568.404854364693165, 1773281.008915720507503 ], [ 3299574.549669309519231, 1773287.443865058710799 ], [ 3299579.642690961249173, 1773299.955709909787402 ], [ 3299581.641793956514448, 1773312.990013666218147 ], [ 3299572.812143836170435, 1773327.853031192207709 ], [ 3299569.700044248253107, 1773338.604117706650868 ], [ 3299566.074449605308473, 1773353.768191065872088 ], [ 3299561.978478574194014, 1773365.86536530056037 ], [ 3299553.535564629826695, 1773380.662996956380084 ], [ 3299544.857572209089994, 1773393.927215324016288 ], [ 3299540.76161548262462, 1773406.024399850750342 ], [ 3299538.246505449991673, 1773415.494854181306437 ], [ 3299539.657664122525603, 1773424.695566371781752 ], [ 3299548.695142093580216, 1773426.709038718603551 ], [ 3299559.641507636290044, 1773425.647205999586731 ], [ 3299575.649346025194973, 1773421.37077940790914 ], [ 3299588.504572271835059, 1773417.233454102883115 ], [ 3299604.546365502290428, 1773410.591633149888366 ], [ 3299620.377922124229372, 1773405.165160974022001 ], [ 3299639.219745290465653, 1773396.084033852210268 ], [ 3299673.951853186823428, 1773381.959941399050876 ], [ 3299765.772537169978023, 1773341.677388738607988 ], [ 3299800.285270246211439, 1773333.883152646478266 ], [ 3299834.881543838884681, 1773329.221070658415556 ], [ 3299872.940386200323701, 1773334.199966390151531 ], [ 3299894.016441360581666, 1773339.686798909446225 ], [ 3299917.935588167980313, 1773335.254598398460075 ], [ 3299938.080486518330872, 1773333.403615300077945 ], [ 3299958.11365763284266, 1773335.942749541252851 ], [ 3299971.128804686944932, 1773336.849327412666753 ], [ 3299980.711878906004131, 1773338.419555222382769 ], [ 3299998.885476272553205, 1773336.890373634407297 ], [ 3300015.101917900145054, 1773338.020372851751745 ], [ 3300037.949369763489813, 1773344.537886542733759 ], [ 3300037.19688643142581, 1773328.679777858313173 ], [ 3300036.121278730221093, 1773314.235807368531823 ], [ 3300036.273606844712049, 1773303.619042112026364 ], [ 3300038.209541978314519, 1773296.735855817329139 ], [ 3300041.391276660840958, 1773290.146644016494974 ], [ 3300044.771457036491483, 1773286.04557751561515 ], [ 3300046.3345663882792, 1773283.764219548320398 ], [ 3300053.245792128145695, 1773279.066928201587871 ], [ 3300055.213641001377255, 1773278.230321710463613 ], [ 3300063.305174232460558, 1773273.333634753478691 ], [ 3300177.8576082829386, 1773110.82851357688196 ], [ 3300179.519158274400979, 1772921.032287480775267 ], [ 3300158.289211265277117, 1772921.009804208297282 ], [ 3300127.974090244155377, 1772917.110899639315903 ], [ 3300101.285963818896562, 1772893.362131212372333 ], [ 3300083.748996767215431, 1772862.056546976789832 ], [ 3300070.270146423019469, 1772849.303243112750351 ], [ 3300050.827688314951956, 1772841.163830676116049 ], [ 3300024.688660425134003, 1772840.767971528926864 ], [ 3300001.581268166657537, 1772848.276667444501072 ], [ 3299983.061402802821249, 1772858.016575889661908 ], [ 3299966.111362358555198, 1772854.265730708604679 ], [ 3299945.770216516684741, 1772840.266414190875366 ], [ 3299928.564681014977396, 1772826.939974223729223 ], [ 3299893.648002001456916, 1772828.627470544306561 ], [ 3299869.721911105327308, 1772811.025390163995326 ], [ 3299836.890450298320502, 1772790.718695412855595 ], [ 3299818.937947581987828, 1772788.339589165756479 ], [ 3299792.401429124642164, 1772781.398134006652981 ], [ 3299766.044744507409632, 1772775.62864774861373 ], [ 3299734.008096353616565, 1772768.413627658737823 ], [ 3299700.623409900814295, 1772752.408653043676168 ], [ 3299668.168032080866396, 1772735.689597432035953 ], [ 3299629.536133971065283, 1772719.925657907500863 ], [ 3299591.895368285942823, 1772719.668734092731029 ], [ 3299538.255193561315536, 1772717.905276307370514 ], [ 3299505.467641472816467, 1772718.254662987310439 ], [ 3299461.62563957599923, 1772708.60165360965766 ], [ 3299435.486646376550198, 1772708.206253225682303 ], [ 3299400.877531378995627, 1772715.853940601460636 ], [ 3299394.242760901339352, 1772739.81885855901055 ], [ 3299385.082613656297326, 1772733.744542627129704 ], [ 3299373.062955596484244, 1772726.696390426252037 ], [ 3299358.924553735647351, 1772719.50169184920378 ], [ 3299344.27439023880288, 1772714.410737349884585 ], [ 3299339.680259807035327, 1772724.264575568493456 ], [ 3299331.458035130053759, 1772738.261290775146335 ], [ 3299329.41892264643684, 1772745.666357344947755 ], [ 3299325.516863618977368, 1772744.307959903264418 ], [ 3299314.957158771809191, 1772738.021946880500764 ], [ 3299305.131478137336671, 1772734.13353653694503 ], [ 3299293.369760322384536, 1772729.563499837648124 ], [ 3299284.643104546703398, 1772727.002497035078704 ], [ 3299275.371090840548277, 1772727.055343938758597 ], [ 3299255.636721922084689, 1772727.362054847879335 ], [ 3299245.152607144322246, 1772726.610831154044718 ], [ 3299235.029437530785799, 1772725.294427776010707 ], [ 3299217.54849134478718, 1772721.185876436065882 ], [ 3299205.89989223331213, 1772718.61408394924365 ], [ 3299200.224394077435136, 1772718.563838335685432 ], [ 3299193.221713938284665, 1772719.74647730588913 ], [ 3299184.505206617992371, 1772722.22719375602901 ], [ 3299157.772419932298362, 1772728.25475911423564 ], [ 3299150.495159999467432, 1772730.152758793672547 ], [ 3299150.495159999467432, 1773821.42347626411356 ], [ 3299150.595671659801155, 1773821.353543134406209 ] ] ] ] } }
]
}
