{
"type": "FeatureCollection",
"name": "Alcampell",
"crs": { "type": "name", "properties": { "name": "urn:ogc:def:crs:EPSG::3035" } },
"features": [
{ "type": "Feature", "properties": { "ENP_GRAL": 6.0, "ENP_GRAL_NAME": "Otros Espacios Naturales Protegidos", "color": "#7F8F0D" }, "geometry": { "type": "MultiPolygon", "coordinates": [ [ [ [ 3520382.689339653588831, 2121305.537069245241582 ], [ 3520401.065398919861764, 2121299.975195621140301 ], [ 3520402.905083755496889, 2121292.279753583483398 ], [ 3520304.237677738070488, 2121092.746196473482996 ], [ 3520288.226084601134062, 2121060.378798590041697 ], [ 3520245.750313699245453, 2121120.912961106281728 ], [ 3520217.070661473087966, 2121123.712941520381719 ], [ 3520169.906382190063596, 2121203.504398074466735 ], [ 3520155.749245517887175, 2121227.443660928402096 ], [ 3520164.056309144478291, 2121250.442311581689864 ], [ 3520168.854918657802045, 2121279.65691102668643 ], [ 3520168.859798806719482, 2121279.683772536925972 ], [ 3520215.045432235114276, 2121342.482646082062274 ], [ 3520215.059398646466434, 2121342.481104734819382 ], [ 3520246.023083430714905, 2121338.921259379945695 ], [ 3520307.606970771215856, 2121324.140852119773626 ], [ 3520382.689339653588831, 2121305.537069245241582 ] ] ], [ [ [ 3532691.232381599489599, 2122296.88537517003715 ], [ 3532451.016387716401368, 2122416.342449833638966 ], [ 3532464.154536086134613, 2122439.304440336301923 ], [ 3532794.447359874844551, 2123023.865276020020247 ], [ 3533036.632392692845315, 2123351.275219761766493 ], [ 3533356.601240509189665, 2123783.842885253019631 ], [ 3533461.842369999270886, 2123921.745252400636673 ], [ 3533461.842369999270886, 2121913.690475916024297 ], [ 3532691.232381599489599, 2122296.88537517003715 ] ] ] ] } }
]
}
