{
"type": "FeatureCollection",
"name": "Arén",
"crs": { "type": "name", "properties": { "name": "urn:ogc:def:crs:EPSG::3035" } },
"features": [
{ "type": "Feature", "properties": { "ENP_GRAL": 6.0, "ENP_GRAL_NAME": "Otros Espacios Naturales Protegidos", "color": "#7F8F0D" }, "geometry": { "type": "MultiPolygon", "coordinates": [ [ [ [ 3559629.180878726299852, 2167783.222562146373093 ], [ 3559510.456827528309077, 2167675.935901483055204 ], [ 3559476.081782516092062, 2167510.984171549323946 ], [ 3559419.056724133901298, 2167427.417928484734148 ], [ 3559336.286788227036595, 2167277.053605423308909 ], [ 3559389.713553566485643, 2167093.697586079593748 ], [ 3559404.238409849815071, 2167032.89685068372637 ], [ 3559208.069818647112697, 2167061.799422434065491 ], [ 3558965.591244328767061, 2167015.99862474296242 ], [ 3558812.640096167102456, 2166971.423601408023387 ], [ 3558693.053583023138344, 2166854.324106391984969 ], [ 3558543.175587750039995, 2166759.957766772713512 ], [ 3558386.772652545012534, 2166676.123093358706683 ], [ 3558267.691242984496057, 2166677.762504814658314 ], [ 3558125.455141167156398, 2166642.050391901750118 ], [ 3558007.237541198730469, 2166653.505585104227066 ], [ 3557965.242183431517333, 2166627.87827200582251 ], [ 3557885.245087544899434, 2166604.565795000642538 ], [ 3556325.229846164118499, 2166604.565795000642538 ], [ 3556362.054318050388247, 2166812.952091745100915 ], [ 3556389.52560894144699, 2166899.379253087099642 ], [ 3556504.795210395008326, 2166967.397256577387452 ], [ 3556516.016506896354258, 2167094.995482848957181 ], [ 3556573.042060245294124, 2167178.558182112406939 ], [ 3556565.906785775441676, 2167238.643412480596453 ], [ 3556467.394021457526833, 2167248.192403059452772 ], [ 3556340.190622013993561, 2167270.421734057366848 ], [ 3556241.678023163229227, 2167279.971145606599748 ], [ 3556125.545175368897617, 2167202.138399724848568 ], [ 3556006.822549096308649, 2167094.860038611106575 ], [ 3555783.189427499659359, 2167037.348670711740851 ], [ 3555620.034473074600101, 2167102.660702215973288 ], [ 3555416.612427404150367, 2167161.978171491064131 ], [ 3555203.821837992407382, 2167143.013873515184969 ], [ 3555091.650629166513681, 2167223.182267827447504 ], [ 3554924.181061480659992, 2167239.420465339906514 ], [ 3554683.437366406433284, 2167213.269691737368703 ], [ 3554540.850836252328008, 2167286.489925108384341 ], [ 3554405.170989939011633, 2167438.232244747690856 ], [ 3554211.603227748535573, 2167496.599608238786459 ], [ 3553912.618710643611848, 2167485.999436251819134 ], [ 3553732.710335438139737, 2167473.751230338588357 ], [ 3553400.366577014327049, 2167535.68236240092665 ], [ 3553146.832153845578432, 2167589.971655990928411 ], [ 3552915.080445478670299, 2167553.057871811557561 ], [ 3552766.806294708047062, 2167448.653637312352657 ], [ 3552542.315415466204286, 2167381.340712636709213 ], [ 3552448.339052184484899, 2167381.783850831910968 ], [ 3552487.28417359944433, 2167445.445878325030208 ], [ 3552530.093989908695221, 2167529.179545938037336 ], [ 3552537.314160576555878, 2167561.42281148629263 ], [ 3552552.292825127020478, 2167596.704536307603121 ], [ 3552554.075667263008654, 2167616.970483797602355 ], [ 3552553.315604793373495, 2167621.768912262748927 ], [ 3552554.163588808849454, 2167623.422130815219134 ], [ 3552554.176235682796687, 2167660.033844265155494 ], [ 3552553.046669835690409, 2167662.523112135473639 ], [ 3552536.738945667631924, 2167698.460525565780699 ], [ 3552457.4404291738756, 2167831.277013400103897 ], [ 3552450.390719875693321, 2167859.579149575904012 ], [ 3552447.48743696231395, 2167910.731845350470394 ], [ 3552452.785158837214112, 2167942.903359794057906 ], [ 3552470.312432906124741, 2167990.516472412738949 ], [ 3552495.532637967728078, 2168034.529379659332335 ], [ 3552519.285343895666301, 2168079.312835152260959 ], [ 3552538.278127039782703, 2168118.621770821977407 ], [ 3552555.583808362018317, 2168140.292002571746707 ], [ 3552576.441943899728358, 2168156.248588074930012 ], [ 3552602.792900011409074, 2168169.191620268858969 ], [ 3552638.328517670743167, 2168178.609791208524257 ], [ 3552662.822856995277107, 2168177.753257965669036 ], [ 3552677.628341204021126, 2168170.731856793630868 ], [ 3552689.153287556953728, 2168149.445432161912322 ], [ 3552702.434660857077688, 2168123.33386307861656 ], [ 3552722.408994425553828, 2168107.78668477665633 ], [ 3552744.467799658421427, 2168095.986101750750095 ], [ 3552752.221406719647348, 2168091.838173890020698 ], [ 3552758.994009544607252, 2168089.959009071346372 ], [ 3552794.425168612040579, 2168080.128264881204814 ], [ 3552826.148735802154988, 2168073.680872971192002 ], [ 3552867.997814415954053, 2168078.631622158456594 ], [ 3552884.895326310768723, 2168097.015966277569532 ], [ 3552899.1881630923599, 2168136.076387102715671 ], [ 3552900.673087942879647, 2168180.384283054620028 ], [ 3552895.534779057838023, 2168226.939275273587555 ], [ 3552878.498724204022437, 2168285.163922738283873 ], [ 3552869.550509156193584, 2168334.579983240459114 ], [ 3552871.501551668625325, 2168370.50068882573396 ], [ 3552899.220970321446657, 2168419.970746409613639 ], [ 3552970.282497186679393, 2168489.320398383773863 ], [ 3553015.421658139675856, 2168553.214603377506137 ], [ 3553058.428750114049762, 2168624.945686425082386 ], [ 3553091.327916846144944, 2168682.553126736544073 ], [ 3553129.759361736942083, 2168742.11548508843407 ], [ 3553160.503379018045962, 2168787.911065781489015 ], [ 3553179.558633810840547, 2168838.871853608172387 ], [ 3553189.938673532567918, 2168889.261435898952186 ], [ 3553201.36926799826324, 2168929.82727353926748 ], [ 3553212.978074182756245, 2168957.999639051966369 ], [ 3553219.090173938777298, 2168972.054152029566467 ], [ 3553218.814893221948296, 2168990.595800048206002 ], [ 3553210.381195680703968, 2169021.164699940010905 ], [ 3553191.486272030044347, 2169067.894831791520119 ], [ 3553176.333578712306917, 2169120.687904459424317 ], [ 3553165.247520735021681, 2169176.594470361247659 ], [ 3553153.248896085191518, 2169247.96984342765063 ], [ 3553142.79409112315625, 2169314.644582783337682 ], [ 3553139.526978952810168, 2169396.225388832390308 ], [ 3553143.305689261294901, 2169475.886390577070415 ], [ 3553146.408814684487879, 2169543.188741644844413 ], [ 3553168.178793666884303, 2169628.511934930458665 ], [ 3553205.96430868236348, 2169699.127379878424108 ], [ 3553247.90498835965991, 2169765.706331194378436 ], [ 3553309.217762208543718, 2169836.351415126118809 ], [ 3553369.568315777461976, 2169892.800459755584598 ], [ 3553413.534389804117382, 2169926.324971657246351 ], [ 3553470.875297208782285, 2169970.824170624837279 ], [ 3553517.613306273706257, 2170012.347174263093621 ], [ 3553541.600252989213914, 2170024.446017915382981 ], [ 3553584.33036756888032, 2170037.165114712901413 ], [ 3553632.301957502029836, 2170050.093128517270088 ], [ 3553654.802830596454442, 2170064.235986816231161 ], [ 3553667.821951725985855, 2170076.543675358407199 ], [ 3553685.189831865020096, 2170092.962508331052959 ], [ 3553715.807899071834981, 2170136.300108150579035 ], [ 3553719.700645107775927, 2170146.589751729276031 ], [ 3553735.164415941573679, 2170187.465366268530488 ], [ 3553747.249291566200554, 2170225.984722134657204 ], [ 3553757.334313707891852, 2170277.364162914454937 ], [ 3553763.507287917658687, 2170316.233065049629658 ], [ 3553764.539256947115064, 2170322.730947122443467 ], [ 3553766.70362757705152, 2170336.35880830604583 ], [ 3553767.029073719866574, 2170360.231165632605553 ], [ 3553757.697008643299341, 2170383.608377553988248 ], [ 3553736.55548907443881, 2170422.464431878179312 ], [ 3553716.90377670712769, 2170467.310023674741387 ], [ 3553701.194107952993363, 2170527.150291990954429 ], [ 3553695.416387166362256, 2170583.997120988555253 ], [ 3553695.977228915318847, 2170623.121109731029719 ], [ 3553701.461899852380157, 2170669.536202567629516 ], [ 3553720.208931072149426, 2170737.805939728859812 ], [ 3553742.433232080191374, 2170809.697133592329919 ], [ 3553774.190908939111978, 2170878.335520721506327 ], [ 3553790.635611080564559, 2170900.491224948782474 ], [ 3553821.641249062959105, 2170928.686176309362054 ], [ 3553841.213515810668468, 2170942.935934951063246 ], [ 3553860.919253958389163, 2170953.131504067685455 ], [ 3553887.466188067570329, 2170960.265931502450258 ], [ 3553913.490959260147065, 2170962.767300284001976 ], [ 3553946.09453964419663, 2170964.00419435556978 ], [ 3554000.831330967135727, 2170962.896332587115467 ], [ 3554001.027736369520426, 2170962.92329898616299 ], [ 3554032.761345634702593, 2170967.288429004140198 ], [ 3554052.535473631229252, 2170979.434174348134547 ], [ 3554066.021683703176677, 2170999.313222588039935 ], [ 3554070.302490768488497, 2171013.816966981161386 ], [ 3554074.753418319858611, 2171028.896724682301283 ], [ 3554081.962308787740767, 2171065.948363789357245 ], [ 3554082.807339361868799, 2171070.291760918218642 ], [ 3554084.845258852466941, 2171089.77356428746134 ], [ 3554086.507551851682365, 2171105.665268494747579 ], [ 3554086.052102139219642, 2171144.414279729127884 ], [ 3554078.182378132361919, 2171202.452958418056369 ], [ 3554060.015842149499804, 2171264.133287204429507 ], [ 3554048.11469493759796, 2171296.844286141917109 ], [ 3554003.982183570042253, 2171384.111639737617224 ], [ 3553981.854585317894816, 2171424.640999695286155 ], [ 3553966.439572263043374, 2171452.875357551500201 ], [ 3553947.686039201449603, 2171499.830996105447412 ], [ 3553946.636979286558926, 2171502.457561392337084 ], [ 3553946.050732895731926, 2171505.897744852118194 ], [ 3553937.887059431988746, 2171553.800153690390289 ], [ 3553924.629239457659423, 2171608.710698197595775 ], [ 3553920.059558185283095, 2171648.321691181510687 ], [ 3553922.785794694907963, 2171671.980444945394993 ], [ 3553932.6464160871692, 2171701.590361918788403 ], [ 3553936.599561548326164, 2171709.668780292384326 ], [ 3553952.718802554067224, 2171742.608849238138646 ], [ 3553956.484315191395581, 2171747.60436674579978 ], [ 3553960.527907907962799, 2171752.968878809828311 ], [ 3553978.336307366378605, 2171776.594857323914766 ], [ 3554001.312413088977337, 2171795.986833813134581 ], [ 3554009.531844284851104, 2171802.924153049942106 ], [ 3554041.048036747612059, 2171829.518682564143091 ], [ 3554064.506518619600683, 2171856.99727114289999 ], [ 3554089.221701910253614, 2171885.645727472845465 ], [ 3554094.040783229283988, 2171891.231760991737247 ], [ 3554133.412699034437537, 2171939.054457131307572 ], [ 3554152.769010944757611, 2171963.027298625558615 ], [ 3554171.006135230883956, 2171983.737647040747106 ], [ 3554191.234047839418054, 2171997.38138840533793 ], [ 3554222.606701080687344, 2172010.501215535216033 ], [ 3554265.032528128940612, 2172026.68112119846046 ], [ 3554278.298386981710792, 2172032.820153670851141 ], [ 3554309.257264195941389, 2172047.14689124468714 ], [ 3554341.123866011854261, 2172071.602992054075003 ], [ 3554375.496304565109313, 2172098.30017311964184 ], [ 3554401.716576979495585, 2172123.91572031006217 ], [ 3554416.812094148714095, 2172146.507687550969422 ], [ 3554426.56944392202422, 2172166.43364606006071 ], [ 3554440.01025232905522, 2172193.047274615615606 ], [ 3554456.783505326602608, 2172216.901740826200694 ], [ 3554481.413822271861136, 2172238.120996652636677 ], [ 3554520.081284608691931, 2172270.707645624876022 ], [ 3554548.457752796355635, 2172305.477231826167554 ], [ 3554566.726185688283294, 2172341.827356919180602 ], [ 3554586.937568563036621, 2172395.893093507736921 ], [ 3554605.13039135793224, 2172426.049023911356926 ], [ 3554605.232343156822026, 2172426.173225847538561 ], [ 3554631.238550348207355, 2172457.855312984902412 ], [ 3554665.489439687691629, 2172488.387976766563952 ], [ 3554695.36506370967254, 2172518.861887647770345 ], [ 3554712.708868679590523, 2172539.592253358568996 ], [ 3554727.925942441914231, 2172557.780689069069922 ], [ 3554752.140955560840666, 2172589.693812567275017 ], [ 3554778.90160140581429, 2172617.039342115167528 ], [ 3554796.742511956952512, 2172640.323294294066727 ], [ 3554802.341761529445648, 2172658.540185593999922 ], [ 3554807.559804656077176, 2172693.046979264821857 ], [ 3554814.771471452899277, 2172736.934039565734565 ], [ 3554829.882489294745028, 2172773.684940240345895 ], [ 3554853.671200546436012, 2172820.685471883974969 ], [ 3554884.100512765347958, 2172851.783309871330857 ], [ 3554887.286677773110569, 2172854.974588432349265 ], [ 3554919.775357457343489, 2172887.515728138387203 ], [ 3554956.876574478577822, 2172920.417824377771467 ], [ 3554960.737207672093064, 2172923.608859932981431 ], [ 3554983.883443678729236, 2172942.741054707206786 ], [ 3555002.816870447713882, 2172960.067891601007432 ], [ 3555008.821623915340751, 2172968.748216285835952 ], [ 3555010.481070592533797, 2172982.173431536182761 ], [ 3555009.141215278301388, 2172999.58409995958209 ], [ 3555000.022210484370589, 2173035.488690458238125 ], [ 3554982.722682072315365, 2173084.618654215708375 ], [ 3554954.279880029149354, 2173140.107873134780675 ], [ 3554931.511373909190297, 2173180.407839120365679 ], [ 3554921.897060934454203, 2173203.281580964103341 ], [ 3554919.594246920663863, 2173225.60388176003471 ], [ 3554919.420097149908543, 2173227.291836702264845 ], [ 3554923.007135250139982, 2173272.443772268481553 ], [ 3554939.63023937959224, 2173325.484080352820456 ], [ 3554945.124079040251672, 2173334.19836490880698 ], [ 3554959.58366518933326, 2173357.13425697106868 ], [ 3554976.926465634256601, 2173395.365917274262756 ], [ 3554998.715929547324777, 2173458.799338270910084 ], [ 3555018.105275189038366, 2173511.703607512637973 ], [ 3555018.964887747075409, 2173514.635533732362092 ], [ 3555030.22195333102718, 2173553.030395537149161 ], [ 3555047.909038090612739, 2173600.305227467324585 ], [ 3555064.130554608535022, 2173647.866852118633687 ], [ 3555077.342282620724291, 2173682.716088802553713 ], [ 3555112.3941355869174, 2173731.675002497620881 ], [ 3555147.446424761787057, 2173766.097144739702344 ], [ 3555194.258813949301839, 2173801.974862501490861 ], [ 3555238.665295969694853, 2173827.981583198532462 ], [ 3555260.086301424540579, 2173843.325441526249051 ], [ 3555263.265132592059672, 2173845.602488398551941 ], [ 3555281.933775630313903, 2173866.106859581544995 ], [ 3555295.510542534291744, 2173883.505773480050266 ], [ 3555309.758493420667946, 2173901.741844427306205 ], [ 3555313.246238528285176, 2173906.205745345447212 ], [ 3555320.082851171959192, 2173926.876993055455387 ], [ 3555318.040286112576723, 2173945.334553830791265 ], [ 3555315.207613693084568, 2173976.745760063640773 ], [ 3555318.560361421667039, 2173999.484602754935622 ], [ 3555330.513442395720631, 2174016.514662518166006 ], [ 3555346.925129796843976, 2174025.761375298723578 ], [ 3555391.589273411780596, 2174045.735907826572657 ], [ 3555427.837916655465961, 2174064.001548658125103 ], [ 3555472.02548375306651, 2174086.70187098486349 ], [ 3555499.903800696600229, 2174098.619533743709326 ], [ 3555521.823175426572561, 2174105.422393789514899 ], [ 3555545.551379307173193, 2174106.621231805067509 ], [ 3555576.103235848248005, 2174102.346498513128608 ], [ 3555622.544074354227632, 2174091.04235218744725 ], [ 3555646.491538791451603, 2174088.720621117856354 ], [ 3555668.123028868343681, 2174095.930987800005823 ], [ 3555692.825753115583211, 2174114.883162476588041 ], [ 3555723.308898884337395, 2174140.363801070023328 ], [ 3555742.325876913499087, 2174166.029214775655419 ], [ 3555784.203490037005395, 2174222.240873954258859 ], [ 3555804.280174533370882, 2174264.97086354251951 ], [ 3555825.629796364344656, 2174326.780145977623761 ], [ 3555841.531693669967353, 2174383.174677573144436 ], [ 3555854.657303811050951, 2174424.98327970970422 ], [ 3555872.902528010308743, 2174462.766519045922905 ], [ 3555902.433636491652578, 2174497.445113310590386 ], [ 3555937.545556128025055, 2174524.756473571993411 ], [ 3555948.191434468142688, 2174531.380402311682701 ], [ 3555971.291594168171287, 2174545.75347436638549 ], [ 3556006.655016908422112, 2174568.124786101747304 ], [ 3556045.407715504989028, 2174586.438020000234246 ], [ 3556070.310524766333401, 2174599.876888812053949 ], [ 3556079.917792723979801, 2174607.817935762461275 ], [ 3556101.576798889786005, 2174536.022232976742089 ], [ 3556196.496656548697501, 2174456.51305489661172 ], [ 3556270.823113406542689, 2174410.247769621666521 ], [ 3556361.378219080157578, 2174370.221233110874891 ], [ 3556518.893359206151217, 2174378.387267978861928 ], [ 3556548.125231489539146, 2174375.553496413398534 ], [ 3556566.270761515945196, 2174375.602285767905414 ], [ 3556578.703985679894686, 2174372.589164567179978 ], [ 3556604.402024725452065, 2174370.098036897368729 ], [ 3556714.187996841035783, 2174281.336820318363607 ], [ 3556780.624731402844191, 2174235.443397290073335 ], [ 3556881.115779171697795, 2174218.28410610742867 ], [ 3556896.873419343028218, 2174211.319233017507941 ], [ 3556941.194574977271259, 2174195.638777170795947 ], [ 3556991.626138161402196, 2174173.337794101331383 ], [ 3557049.018574370071292, 2174146.768657438922673 ], [ 3557088.350894808769226, 2174131.323066997807473 ], [ 3557112.102009076625109, 2174129.020954104140401 ], [ 3557180.194877218920738, 2174142.42285496275872 ], [ 3557229.56284498795867, 2174168.88550586765632 ], [ 3557233.419460153672844, 2174170.720758288167417 ], [ 3557245.370887337252498, 2174179.207320468965918 ], [ 3557259.463022320065647, 2174183.115029842592776 ], [ 3557270.475609666202217, 2174188.355761350132525 ], [ 3557277.520304250530899, 2174187.672994835302234 ], [ 3557303.170629431027919, 2174191.016997946426272 ], [ 3557320.297518362291157, 2174187.181732804980129 ], [ 3557324.222279780544341, 2174183.146377672906965 ], [ 3557324.8905771356076, 2174183.081611992325634 ], [ 3557326.385631042532623, 2174180.921847107354552 ], [ 3557334.311265208758414, 2174172.771846854127944 ], [ 3557341.645791647955775, 2174158.876323650591075 ], [ 3557359.668705724645406, 2174132.839544876944274 ], [ 3557402.752568145748228, 2174089.342227797023952 ], [ 3557463.046121795661747, 2174060.325125793926418 ], [ 3557529.600227668415755, 2174014.814974116627127 ], [ 3557622.202399833127856, 2173998.028213266748935 ], [ 3557738.124867253936827, 2173978.98141866363585 ], [ 3557813.816338172648102, 2173948.210132960695773 ], [ 3557920.602462518028915, 2173914.425391915254295 ], [ 3558053.030852150171995, 2173815.661728849634528 ], [ 3558102.675554180517793, 2173756.167610868345946 ], [ 3558153.002017514780164, 2173704.419507435522974 ], [ 3558225.967838992830366, 2173642.665750213898718 ], [ 3558345.576028782874346, 2173576.392364603932947 ], [ 3558436.13444991176948, 2173536.369532673154026 ], [ 3558495.597834787797183, 2173499.360013069584966 ], [ 3558534.892965317703784, 2173462.592114878352731 ], [ 3558550.667359466664493, 2173458.470305118709803 ], [ 3558609.625221954192966, 2173416.010930964257568 ], [ 3558663.193456847686321, 2173396.121859889477491 ], [ 3558698.929108753800392, 2173341.214571918360889 ], [ 3558717.022768090479076, 2173295.365751893725246 ], [ 3558756.60537370480597, 2173284.181118198204786 ], [ 3558784.576543802395463, 2173266.772431272082031 ], [ 3558790.287372055929154, 2173247.845960231032223 ], [ 3558794.074897860176861, 2173207.058046440128237 ], [ 3558812.809267035219818, 2173168.49628436518833 ], [ 3558819.611795247532427, 2173120.067432577721775 ], [ 3558837.895559657830745, 2173118.295960265211761 ], [ 3558894.669943855144083, 2173134.842618892434984 ], [ 3558924.564711097627878, 2173139.295257553458214 ], [ 3558953.818508918397129, 2173136.460889504291117 ], [ 3558965.750359331723303, 2173146.328532789833844 ], [ 3558974.346056014299393, 2173160.194357110187411 ], [ 3558985.95724419131875, 2173166.418319648131728 ], [ 3559024.898975787684321, 2173147.946653379127383 ], [ 3559050.175483512226492, 2173141.823119347449392 ], [ 3559068.459021268412471, 2173140.051654828712344 ], [ 3559114.263393971137702, 2173157.661868521012366 ], [ 3559144.478780989069492, 2173165.758177823387086 ], [ 3559195.352404752280563, 2173157.154710564762354 ], [ 3559242.248719416093081, 2173145.261879974044859 ], [ 3559278.495597688481212, 2173138.07523553352803 ], [ 3559280.54964067414403, 2173119.50303703173995 ], [ 3559268.381253126543015, 2172771.59355578571558 ], [ 3559281.085110565181822, 2172748.315111069474369 ], [ 3559305.720376244746149, 2172734.904646353796124 ], [ 3559334.333527391776443, 2172724.782926942687482 ], [ 3559357.876621464267373, 2172740.875355321913958 ], [ 3559381.099225714337081, 2172753.323703034315258 ], [ 3559407.978664186317474, 2172765.418307406827807 ], [ 3559445.187352225184441, 2172769.16245489474386 ], [ 3559535.00352098653093, 2172742.088214531540871 ], [ 3559650.040304999798536, 2172702.133122847415507 ], [ 3559650.040304999798536, 2167793.835652889218181 ], [ 3559629.180878726299852, 2167783.222562146373093 ] ], [ [ 3554962.29833871871233, 2172871.658064117655158 ], [ 3554917.208529079332948, 2172804.462939665652812 ], [ 3554919.708776436280459, 2172758.678065174259245 ], [ 3554955.232260633260012, 2172735.71482441527769 ], [ 3554985.332153762690723, 2172706.771506229881197 ], [ 3554948.987712147179991, 2172664.753463825210929 ], [ 3554939.107044854667038, 2172626.674935508519411 ], [ 3554921.846987249329686, 2172504.732991312630475 ], [ 3554875.283822643104941, 2172346.595977039542049 ], [ 3554861.997933400329202, 2172269.811360142659396 ], [ 3554794.417594653088599, 2172243.834408896043897 ], [ 3554752.166378368623555, 2172208.89529590215534 ], [ 3554712.98354622349143, 2172134.62180546624586 ], [ 3554697.994080833159387, 2172038.484501888044178 ], [ 3554691.749765885993838, 2171967.523177304305136 ], [ 3554601.90876191155985, 2171911.17459753761068 ], [ 3554567.497209236491472, 2171816.92096396908164 ], [ 3554555.008809432387352, 2171674.998721152544022 ], [ 3554557.509389354847372, 2171629.213962029665709 ], [ 3554506.851011320017278, 2171647.138629022985697 ], [ 3554485.725579435471445, 2171629.669385561253875 ], [ 3554429.0533028813079, 2171505.044281385838985 ], [ 3554435.757804426830262, 2171432.827393654733896 ], [ 3554354.09374553244561, 2171395.20485699782148 ], [ 3554288.44649808621034, 2171316.993066823109984 ], [ 3554263.347633337136358, 2171254.366728440858424 ], [ 3554261.476289046928287, 2171195.993917756713927 ], [ 3554227.064699630253017, 2171101.74049635976553 ], [ 3554186.179441700223833, 2171008.115186333656311 ], [ 3554096.338393720332533, 2170951.768214965239167 ], [ 3554047.843530194368213, 2170845.869114310014993 ], [ 3554003.322161757387221, 2170785.126735276542604 ], [ 3554004.350707176141441, 2170648.400699159130454 ], [ 3554000.040211723651737, 2170525.204383864533156 ], [ 3553951.882924184203148, 2170497.345006105024368 ], [ 3553919.174663565587252, 2170422.445216750726104 ], [ 3553948.707619502674788, 2170387.051170161925256 ], [ 3553899.982423216570169, 2170352.740692016202956 ], [ 3553866.791075973771513, 2170290.899937520734966 ], [ 3553819.999273758381605, 2170204.354103349149227 ], [ 3553754.015997217502445, 2170048.104209441691637 ], [ 3553775.939697957597673, 2170000.436154946684837 ], [ 3553800.133762298151851, 2169978.571414042264223 ], [ 3553739.59543912904337, 2169958.419159802608192 ], [ 3553815.814588620793074, 2169859.943159576039761 ], [ 3553950.302123739849776, 2169755.815797135233879 ], [ 3554077.517154896166176, 2169717.453799487091601 ], [ 3554276.748266079463065, 2169607.048396400175989 ], [ 3554520.1650111945346, 2169479.34731570770964 ], [ 3554680.636046055704355, 2169392.22080553881824 ], [ 3554690.747123708948493, 2169358.710616084747016 ], [ 3554744.476110318209976, 2169301.4527651919052 ], [ 3554804.11173541424796, 2169237.11624211538583 ], [ 3554813.655375721864402, 2169197.155084018595517 ], [ 3554818.659114482346922, 2169105.586917795240879 ], [ 3554837.514937517233193, 2169097.252540704328567 ], [ 3554906.79826479498297, 2169142.581756341271102 ], [ 3554972.109303505625576, 2169142.755006479099393 ], [ 3555029.243492496665567, 2169124.203186095692217 ], [ 3555078.201002218294889, 2169086.926491808146238 ], [ 3555164.869469251018018, 2169032.981169642880559 ], [ 3555205.650515084154904, 2168976.979573407676071 ], [ 3555226.44091266579926, 2168916.410594390705228 ], [ 3555264.152112418785691, 2168899.742097812239081 ], [ 3555335.937709697987884, 2168899.287741147913039 ], [ 3555417.60278818430379, 2168936.911271646153182 ], [ 3555478.142011206131428, 2168957.06533171935007 ], [ 3555548.225617951247841, 2168937.258786943741143 ], [ 3555535.509105168282986, 2168866.926375331822783 ], [ 3555488.718368872068822, 2168780.379877184983343 ], [ 3555450.104495560750365, 2168712.558549570385367 ], [ 3555513.713811349589378, 2168693.379550389014184 ], [ 3555616.169276740401983, 2168670.434460388030857 ], [ 3555622.876283786259592, 2168598.21926280297339 ], [ 3555577.787980288732797, 2168531.025726741179824 ], [ 3555480.904624087270349, 2168468.853487318381667 ], [ 3555477.500053466297686, 2168430.148144249338657 ], [ 3555567.006845667026937, 2168408.458272148855031 ], [ 3555666.960669470019639, 2168431.297453531064093 ], [ 3555732.039451813325286, 2168503.059023504145443 ], [ 3555825.853490975685418, 2168604.564397744368762 ], [ 3555883.323049195576459, 2168664.052257527597249 ], [ 3556004.820631286129355, 2168801.909865103196353 ], [ 3556047.639139144681394, 2168843.30008365213871 ], [ 3556129.871954699512571, 2168887.375747054349631 ], [ 3556132.374226541724056, 2168841.591470729093999 ], [ 3556139.081465744879097, 2168769.376219474710524 ], [ 3556134.542015657760203, 2168717.76886597648263 ], [ 3556115.351687194313854, 2168648.064251718111336 ], [ 3556094.459031333215535, 2168559.006808382458985 ], [ 3556024.840894191991538, 2168435.637785555329174 ], [ 3555994.971267540939152, 2168392.991911033168435 ], [ 3556003.948186446912587, 2168346.58042917214334 ], [ 3556042.794954347424209, 2168342.814508653245866 ], [ 3556092.087970877997577, 2168383.577223618514836 ], [ 3556177.958159313071519, 2168394.77088390942663 ], [ 3556230.321295286528766, 2168396.200351519975811 ], [ 3556253.949392547365278, 2168367.886378397233784 ], [ 3556292.796344433911145, 2168364.12069310573861 ], [ 3556366.285192952025682, 2168383.020492278970778 ], [ 3556396.388012321200222, 2168354.078875800594687 ], [ 3556415.477315567433834, 2168274.157679863274097 ], [ 3556439.105863213539124, 2168245.843544924631715 ], [ 3556499.078173346351832, 2168259.548153463285416 ], [ 3556571.432587425224483, 2168265.546399838291109 ], [ 3556657.303212369792163, 2168276.740529130678624 ], [ 3556692.512451435439289, 2168305.857340498827398 ], [ 3556715.34023686312139, 2168342.680115724448115 ], [ 3556759.861048575490713, 2168403.423698108643293 ], [ 3556786.893832175061107, 2168413.815457506105304 ], [ 3556817.564181660301983, 2168391.3246925259009 ], [ 3556865.956091428175569, 2168347.598971541970968 ], [ 3556910.14270053897053, 2168330.30414467677474 ], [ 3556948.989798138383776, 2168326.538919061422348 ], [ 3556997.715922730509192, 2168360.851726636756212 ], [ 3557045.07336142892018, 2168453.850237227510661 ], [ 3557063.695893345400691, 2168517.104375030845404 ], [ 3557088.226012880913913, 2168573.280176667030901 ], [ 3557116.393649065401405, 2168596.573526826687157 ], [ 3557187.613091953098774, 2168589.670896062627435 ], [ 3557263.605427161324769, 2168562.788212781306356 ], [ 3557381.281581276096404, 2168564.395181463565677 ], [ 3557430.007441867142916, 2168598.708441028371453 ], [ 3557491.115160546265543, 2168625.315645365044475 ], [ 3557531.197561355307698, 2168784.078893630299717 ], [ 3557540.842964145820588, 2168893.745019129477441 ], [ 3557591.60470159444958, 2169025.449812621343881 ], [ 3557573.649828920606524, 2169118.272761126048863 ], [ 3557594.693615099880844, 2169199.385568758938462 ], [ 3557586.732666545547545, 2169208.526306043379009 ], [ 3557580.701234837062657, 2169223.808947700075805 ], [ 3557594.555578758940101, 2169255.537097827065736 ], [ 3557593.782929079607129, 2169288.682875864673406 ], [ 3557588.712835186161101, 2169314.896044125780463 ], [ 3557573.953987662680447, 2169356.745977480430156 ], [ 3557569.524601866491139, 2169390.246289619244635 ], [ 3557566.056584683246911, 2169434.676531575620174 ], [ 3557581.19330866727978, 2169480.978791186586022 ], [ 3557584.077518935315311, 2169513.77004474774003 ], [ 3557575.670639799907804, 2169543.980712685734034 ], [ 3557569.959741276688874, 2169562.907072946429253 ], [ 3557567.321697282604873, 2169658.700910235289484 ], [ 3557594.389835808891803, 2169714.870205311104655 ], [ 3557629.733290584757924, 2169781.261273896321654 ], [ 3557646.924109011422843, 2169808.991725583560765 ], [ 3557635.690806397702545, 2169890.920122180134058 ], [ 3557546.966984685510397, 2169888.494931479450315 ], [ 3557409.481248789932579, 2169960.612419412471354 ], [ 3557277.749555714428425, 2170307.764027049764991 ], [ 3557338.806583468336612, 2170540.692630652803928 ], [ 3557321.601141535211354, 2170722.413961489219218 ], [ 3557276.234966698102653, 2170877.468267403077334 ], [ 3557254.804413659498096, 2170927.314695242792368 ], [ 3557271.864680578932166, 2170995.478333914186805 ], [ 3557345.96077927434817, 2170999.320448080077767 ], [ 3557434.042676858603954, 2170994.458075622096658 ], [ 3557542.069380974862725, 2171090.551383819431067 ], [ 3557586.722123300656676, 2171053.152484229765832 ], [ 3557618.350864626001567, 2171035.389203036669642 ], [ 3557690.84439744008705, 2171021.014187599997967 ], [ 3557737.420588639564812, 2171005.476652845740318 ], [ 3557771.744322527665645, 2170976.428261310793459 ], [ 3557787.973974706605077, 2170993.228308765683323 ], [ 3557840.260963359382004, 2170958.764846409671009 ], [ 3557887.609092136844993, 2170910.081461357884109 ], [ 3557905.703669467009604, 2170864.232942653354257 ], [ 3557923.025952212978154, 2170851.530731819104403 ], [ 3557961.064624831080437, 2170906.63748493231833 ], [ 3557989.677773600444198, 2170896.515720031224191 ], [ 3558006.358754244633019, 2170876.526352790184319 ], [ 3558018.742348571773618, 2170849.604043842758983 ], [ 3558033.048692708835006, 2170844.543279269710183 ], [ 3558050.691437716595829, 2170835.484500952064991 ], [ 3558074.555171174462885, 2170855.21925644390285 ], [ 3558086.03523810300976, 2170901.876402893103659 ], [ 3558093.086370257660747, 2170982.033500724472106 ], [ 3558076.783866601530463, 2171090.175901113543659 ], [ 3558132.334431256633252, 2171176.657079513184726 ], [ 3558201.302843265701085, 2171122.204741075169295 ], [ 3558333.528855154290795, 2171032.22547528706491 ], [ 3558428.415531736798584, 2170978.936196827329695 ], [ 3558453.692247751634568, 2170972.812676494009793 ], [ 3558521.11669163685292, 2170984.65210009040311 ], [ 3558592.998364152386785, 2171466.405648140236735 ], [ 3558664.909350798465312, 2171529.255081000272185 ], [ 3558737.724256398156285, 2171518.525320635642856 ], [ 3558766.657666185870767, 2171512.047234357800335 ], [ 3559078.677282036747783, 2171830.902072033844888 ], [ 3558996.815412856638432, 2171864.55545878270641 ], [ 3558913.671470646746457, 2171883.634795771446079 ], [ 3558837.200108005665243, 2171894.718783106189221 ], [ 3558748.476395777892321, 2171892.291533687151968 ], [ 3558762.710847007110715, 2172012.173907422460616 ], [ 3558699.263911681715399, 2172003.623186988756061 ], [ 3558665.712145461700857, 2171999.524958078749478 ], [ 3558638.512432633433491, 2171983.787397237494588 ], [ 3558614.328295671846718, 2171960.408561876509339 ], [ 3558556.723273769021034, 2171892.498360211029649 ], [ 3558529.843743650708348, 2171880.404542671516538 ], [ 3558363.425962566398084, 2171958.998479169793427 ], [ 3558378.242667675949633, 2172001.65758040221408 ], [ 3558393.700499440543354, 2172051.604154891800135 ], [ 3558380.545364311896265, 2172111.672696449328214 ], [ 3558307.861927860882133, 2172081.969484996516258 ], [ 3558250.126436564140022, 2172054.493030383251607 ], [ 3558211.446169114671648, 2171992.09846750786528 ], [ 3558182.774078734219074, 2171917.710692096501589 ], [ 3558167.637081567663699, 2171871.407621635124087 ], [ 3558144.414572318084538, 2171858.959493525791913 ], [ 3558042.346783860586584, 2171872.524891436100006 ], [ 3557940.136012737173587, 2172135.977406342513859 ], [ 3557908.697663526516408, 2172197.817814994137734 ], [ 3557865.64816141827032, 2172253.434013098478317 ], [ 3557764.22187648108229, 2172274.287383880931884 ], [ 3557549.438211422413588, 2172306.126815441064537 ], [ 3557389.63588297739625, 2172292.217920732218772 ], [ 3557158.884081295691431, 2172226.392276730388403 ], [ 3557095.49814289342612, 2172302.353694408666342 ], [ 3557113.009880960918963, 2172333.727872688788921 ], [ 3557127.566203124821186, 2172457.253689724486321 ], [ 3557158.292228480800986, 2172513.069181145168841 ], [ 3557212.0503174001351, 2172537.255696489475667 ], [ 3557299.039160560816526, 2172561.895955978427082 ], [ 3557315.694338261149824, 2172692.187472597230226 ], [ 3557277.746156242676079, 2172731.76246899459511 ], [ 3557149.732208843808621, 2172835.255443277768791 ], [ 3557028.192748210392892, 2172938.120995537377894 ], [ 3556748.770429107826203, 2173101.834406029433012 ], [ 3556529.067761972546577, 2173220.723295575007796 ], [ 3556167.983726496808231, 2173346.81338374922052 ], [ 3555717.060171389486641, 2173416.555393160320818 ], [ 3555365.751391921658069, 2173431.099283733870834 ], [ 3555148.129929986782372, 2173406.65824123006314 ], [ 3555106.760211515240371, 2173326.090003340970725 ], [ 3555055.425482352729887, 2173187.933146660216153 ], [ 3555055.316535099409521, 2173038.303001017309725 ], [ 3555076.671346337534487, 2172984.183433980215341 ], [ 3555112.109979291446507, 2172941.710351691115648 ], [ 3555080.307084600906819, 2172951.300328304525465 ], [ 3555043.164979401044548, 2172974.420127106830478 ], [ 3555006.252758810762316, 2172925.950696861837059 ], [ 3554962.29833871871233, 2172871.658064117655158 ] ] ], [ [ [ 3559496.581285209860653, 2179023.076567050535232 ], [ 3559337.748875224962831, 2179207.269187395926565 ], [ 3559065.171564155258238, 2179478.445307718589902 ], [ 3559021.755732028745115, 2179530.479790882207453 ], [ 3558998.279924559406936, 2179552.448407499119639 ], [ 3558913.855031562037766, 2179619.710491271689534 ], [ 3558822.111658969894052, 2179507.62439938262105 ], [ 3558794.853972164914012, 2179518.705796290654689 ], [ 3558713.670342402532697, 2179526.572712569963187 ], [ 3558533.033576101064682, 2179527.197179953567684 ], [ 3558317.478202177211642, 2179548.086568020749837 ], [ 3558237.522616766393185, 2179569.902167964261025 ], [ 3558117.295593184884638, 2179615.314494872000068 ], [ 3558035.769643792882562, 2179651.350021578837186 ], [ 3557927.476953092962503, 2179704.046399459242821 ], [ 3557812.603962976485491, 2179746.127659290563315 ], [ 3557741.292945442255586, 2179769.919599171727896 ], [ 3557657.556790796108544, 2179780.848946773447096 ], [ 3557575.85181981837377, 2179794.274521434679627 ], [ 3557570.925300735980272, 2179776.387056543957442 ], [ 3557558.649478839710355, 2179762.188701185863465 ], [ 3557543.328171116299927, 2179763.673734947107732 ], [ 3557511.096778117585927, 2179773.394348203670233 ], [ 3557491.406394418329, 2179775.302912245038897 ], [ 3557420.624509465415031, 2179773.361713402438909 ], [ 3557387.615663944277912, 2179774.366106153000146 ], [ 3557380.492200080305338, 2179775.88005032017827 ], [ 3557402.905264059081674, 2179870.593271974474192 ], [ 3557408.778294333256781, 2179895.411695464514196 ], [ 3557677.490338197909296, 2180081.0991201242432 ], [ 3557715.670705657452345, 2180107.482992738485336 ], [ 3558478.632547417655587, 2180671.222237277310342 ], [ 3558412.956299101468176, 2181100.176334121264517 ], [ 3558406.693874696269631, 2181141.079270274378359 ], [ 3558840.555943203624338, 2181493.453771838918328 ], [ 3558969.394366295076907, 2181810.275761540513486 ], [ 3559039.943708877079189, 2181859.148379817605019 ], [ 3559253.352906683459878, 2182006.986289781052619 ], [ 3559301.492621936369687, 2182040.334805216640234 ], [ 3559013.88729945756495, 2182333.767235703300685 ], [ 3558988.352340255863965, 2182359.819854633416981 ], [ 3558898.73679438047111, 2182471.913671311922371 ], [ 3558784.759864287916571, 2182503.75996309844777 ], [ 3558725.853423518128693, 2182520.219224863685668 ], [ 3558539.898835551925004, 2182417.130784288980067 ], [ 3558497.240234912373126, 2182451.838464833796024 ], [ 3558331.615151045843959, 2182586.593935892451555 ], [ 3558149.667463099583983, 2182660.679822050035 ], [ 3558142.74982375651598, 2182662.507334015332162 ], [ 3558086.388210721313953, 2182677.39742908347398 ], [ 3557879.676174127496779, 2182691.870123826432973 ], [ 3557870.64644331485033, 2182692.502299432177097 ], [ 3557676.033483750186861, 2182678.213781441561878 ], [ 3557643.474375497549772, 2182676.767847868148237 ], [ 3557643.495110662188381, 2182676.775673938449472 ], [ 3557689.567314804997295, 2182694.004154883790761 ], [ 3557697.080969237256795, 2182719.922404956072569 ], [ 3557710.668867175932974, 2182729.030954954214394 ], [ 3557728.55197043903172, 2182734.245334218256176 ], [ 3557763.316454460378736, 2182733.19147844100371 ], [ 3557783.917349794413894, 2182742.773307456634939 ], [ 3557801.159424037672579, 2182753.843841054011136 ], [ 3557821.514838669914752, 2182773.885691582690924 ], [ 3557857.660327449440956, 2182801.650215612724423 ], [ 3557872.901833901181817, 2182816.393533797003329 ], [ 3557886.141780540812761, 2182834.798987018875778 ], [ 3557899.989407751709223, 2182860.10324050905183 ], [ 3557907.631705177482218, 2182894.109072665218264 ], [ 3557915.207824172452092, 2182914.226763047277927 ], [ 3557925.964362113270909, 2182957.204076220281422 ], [ 3557943.171905762515962, 2183047.043935519643128 ], [ 3557948.509915699250996, 2183081.273423094768077 ], [ 3557948.295603952370584, 2183118.356563426554203 ], [ 3557954.421115892007947, 2183201.160664010792971 ], [ 3557959.152997258584946, 2183228.501318816095591 ], [ 3557957.624110267497599, 2183250.664422526024282 ], [ 3557953.173674403689802, 2183266.153744309674948 ], [ 3557941.068204447627068, 2183287.015955253504217 ], [ 3557929.513148619327694, 2183300.877703212201595 ], [ 3557931.064465852454305, 2183305.35912062600255 ], [ 3557942.787560155149549, 2183306.538192813284695 ], [ 3557977.249179238919169, 2183302.045387101359665 ], [ 3557993.580253956839442, 2183302.77833177568391 ], [ 3558008.113466423936188, 2183309.479993089102209 ], [ 3558017.093477550428361, 2183319.035561003256589 ], [ 3558021.138904307968915, 2183364.969101596157998 ], [ 3558025.061547213234007, 2183383.125051547307521 ], [ 3558043.792316064238548, 2183421.840660181362182 ], [ 3558055.621921648271382, 2183434.969644386786968 ], [ 3558059.238049725536257, 2183442.559216753579676 ], [ 3558063.103035181760788, 2183462.114340908359736 ], [ 3558066.986366336233914, 2183466.800571261905134 ], [ 3558096.589065108448267, 2183483.440091446973383 ], [ 3558118.781538771465421, 2183492.35682409349829 ], [ 3558130.309903449378908, 2183503.660515123978257 ], [ 3558132.661722378339618, 2183513.578103933483362 ], [ 3558134.010817924048752, 2183540.203666115645319 ], [ 3558132.415206266567111, 2183556.809582283720374 ], [ 3558128.998203737661242, 2183568.950258294120431 ], [ 3558113.198537949938327, 2183602.581722375471145 ], [ 3558094.391574022360146, 2183625.136484197806567 ], [ 3558094.253633823245764, 2183635.906467946711928 ], [ 3558097.910046465229243, 2183652.293702054768801 ], [ 3558095.944666524417698, 2183656.704941030126065 ], [ 3558037.337977891787887, 2183713.603290461935103 ], [ 3557995.266844000667334, 2183735.976424753665924 ], [ 3557988.969836418516934, 2183741.348648821003735 ], [ 3557981.177081175614148, 2183756.008635903242975 ], [ 3557975.944270431529731, 2183780.545948823913932 ], [ 3557954.880778174847364, 2183819.169034494552761 ], [ 3557950.576367603614926, 2183834.032330345828086 ], [ 3557944.649936106521636, 2183870.90744399651885 ], [ 3557945.316900191362947, 2183881.679863640107214 ], [ 3557949.036893179640174, 2183891.705007976852357 ], [ 3557962.124711947981268, 2183901.413887718226761 ], [ 3558000.108724539168179, 2183916.018035981338471 ], [ 3558016.544093146454543, 2183932.209543369244784 ], [ 3558021.331065129954368, 2183934.702947805635631 ], [ 3558043.484746260102838, 2183936.214639126323164 ], [ 3558062.788693030364811, 2183933.120999097358435 ], [ 3558080.84069332992658, 2183943.5718256495893 ], [ 3558101.411381817888469, 2183944.014006775803864 ], [ 3558107.522820855490863, 2183940.985803712625057 ], [ 3558116.26413563452661, 2183932.529114816337824 ], [ 3558123.017843877896667, 2183922.401064011268318 ], [ 3558138.229361456353217, 2183886.781443437561393 ], [ 3558152.434657860547304, 2183865.775870937854052 ], [ 3558183.557568268850446, 2183830.348503072746098 ], [ 3558191.35318229906261, 2183825.652600833214819 ], [ 3558197.839283518493176, 2183827.339971263427287 ], [ 3558219.121624273713678, 2183860.645701071247458 ], [ 3558226.598252472933382, 2183866.266849613748491 ], [ 3558254.373452458530664, 2183871.865863567218184 ], [ 3558299.791658040136099, 2183873.558984290808439 ], [ 3558322.26552171818912, 2183871.280482949689031 ], [ 3558344.347746556159109, 2183865.581658910028636 ], [ 3558386.535734960343689, 2183844.420303147751838 ], [ 3558420.864104713313282, 2183831.338740938343108 ], [ 3558444.741855090018362, 2183810.729405437130481 ], [ 3558464.152319212444127, 2183808.84820962511003 ], [ 3558483.619088498409837, 2183798.349875818006694 ], [ 3558513.627767397090793, 2183815.030620692763478 ], [ 3558553.162171383854002, 2183839.239209970925003 ], [ 3558561.495543817058206, 2183844.536840977612883 ], [ 3558539.34145050868392, 2183843.024710172321647 ], [ 3558532.888875855132937, 2183859.078622716479003 ], [ 3558529.911234656814486, 2183861.021136461757123 ], [ 3558496.950870817527175, 2183861.769532337319106 ], [ 3558487.991252200677991, 2183871.179206447210163 ], [ 3558475.648439385928214, 2183869.929248759988695 ], [ 3558458.549808104522526, 2183873.73169707832858 ], [ 3558480.716195024549961, 2183878.811467808671296 ], [ 3558485.450267096050084, 2183881.280053108464926 ], [ 3558486.738853607326746, 2183884.714052497409284 ], [ 3558477.36879866104573, 2183917.331134377513081 ], [ 3558465.630630535073578, 2183936.764671221375465 ], [ 3558468.115617087110877, 2183951.160375455394387 ], [ 3558453.117550977505744, 2183989.205574148334563 ], [ 3558448.473524040542543, 2184015.289656016975641 ], [ 3558433.155638254247606, 2184026.518289219588041 ], [ 3558407.644855343271047, 2184042.404221325181425 ], [ 3558390.825144556351006, 2184059.883921919390559 ], [ 3558385.918606125283986, 2184060.710588827729225 ], [ 3558369.782161652576178, 2184057.051196980755776 ], [ 3558353.647471901960671, 2184068.369324966333807 ], [ 3558334.343902422115207, 2184071.463137681595981 ], [ 3558319.464186596684158, 2184069.165906966198236 ], [ 3558314.826061026193202, 2184072.131719231139868 ], [ 3558313.033872497268021, 2184076.566047646570951 ], [ 3558317.534146916586906, 2184088.942221173085272 ], [ 3558318.850104194134474, 2184111.992380211129785 ], [ 3558315.975765813607723, 2184144.120565357152373 ], [ 3558306.477504870854318, 2184171.737675692420453 ], [ 3558299.674544015433639, 2184181.760543890297413 ], [ 3558290.981890634633601, 2184190.312317591160536 ], [ 3558273.42726818472147, 2184199.33182145934552 ], [ 3558270.102730587124825, 2184204.756946560461074 ], [ 3558267.063047097064555, 2184221.302187575958669 ], [ 3558267.698179374448955, 2184231.596530995797366 ], [ 3558271.110043088439852, 2184244.178144730627537 ], [ 3558277.2164865299128, 2184256.287889316678047 ], [ 3558287.98207382671535, 2184270.242186238989234 ], [ 3558302.611607647500932, 2184280.663765197154135 ], [ 3558323.687639370560646, 2184286.841841426678002 ], [ 3558336.113417075946927, 2184285.94816442579031 ], [ 3558356.518608779646456, 2184280.742619032971561 ], [ 3558428.921719554346055, 2184256.221644311677665 ], [ 3558438.28362206928432, 2184254.582728808745742 ], [ 3558452.658220144920051, 2184256.056762081570923 ], [ 3558467.377829699777067, 2184262.249222525395453 ], [ 3558474.597183246631175, 2184267.464317235630006 ], [ 3558491.343095376156271, 2184284.327685367781669 ], [ 3558506.967628316022456, 2184296.337503957562149 ], [ 3558555.255040131509304, 2184329.351767297368497 ], [ 3558578.013569194823503, 2184351.547051877714694 ], [ 3558585.240152483806014, 2184354.445933095645159 ], [ 3558609.188043913338333, 2184358.280385630205274 ], [ 3558639.546659607905895, 2184383.388458960223943 ], [ 3558669.988432007841766, 2184391.165070871822536 ], [ 3558674.895288722123951, 2184395.822436744347215 ], [ 3558680.265844555106014, 2184407.34256365057081 ], [ 3558694.561386580578983, 2184452.462820221669972 ], [ 3558699.516215856652707, 2184459.722176574170589 ], [ 3558710.311502532567829, 2184467.618264115415514 ], [ 3558723.170694095548242, 2184471.645435393322259 ], [ 3558745.293864890467376, 2184472.579397324007004 ], [ 3558767.052121045999229, 2184469.829231531824917 ], [ 3558847.611243019346148, 2184452.127160372212529 ], [ 3558857.967534889001399, 2184451.153808390256017 ], [ 3558868.313998757395893, 2184452.697794645093381 ], [ 3558882.137403596192598, 2184458.425712169613689 ], [ 3558932.484846255742013, 2184486.729662725701928 ], [ 3558971.651694171596318, 2184514.64333971682936 ], [ 3559000.484021329320967, 2184530.305710033047944 ], [ 3558988.594548943452537, 2184540.370148876216263 ], [ 3558977.462273254059255, 2184546.812315477058291 ], [ 3558939.0552495745942, 2184557.902444389183074 ], [ 3558928.103873835876584, 2184563.996559387072921 ], [ 3558918.64193080086261, 2184572.612720684148371 ], [ 3558915.854767898097634, 2184578.316351105459034 ], [ 3558915.87260031234473, 2184587.999057069886476 ], [ 3558919.487556947395205, 2184596.72122180275619 ], [ 3558937.734982077032328, 2184615.323787739500403 ], [ 3558950.948745146859437, 2184620.409608361311257 ], [ 3558949.960476959124207, 2184627.121758738532662 ], [ 3558941.111936816480011, 2184634.134619229007512 ], [ 3558923.379191663116217, 2184640.905683221295476 ], [ 3558910.380277464631945, 2184652.531007220037282 ], [ 3558906.068894809577614, 2184676.909034810960293 ], [ 3558905.734544643200934, 2184721.994262716732919 ], [ 3558901.71264806529507, 2184737.8928013285622 ], [ 3558865.256007743999362, 2184792.944749138783664 ], [ 3558838.953636154532433, 2184813.318232302553952 ], [ 3558833.76778841111809, 2184820.567629664205015 ], [ 3558832.113789530936629, 2184825.580662223044783 ], [ 3558856.580755274742842, 2184832.930269873701036 ], [ 3558857.694594220723957, 2184833.264933422207832 ], [ 3558859.137315361760557, 2184832.834826575126499 ], [ 3559044.606545680202544, 2184777.540099882055074 ], [ 3559102.216575858183205, 2184864.846763337962329 ], [ 3559182.079022641759366, 2184945.375411309301853 ], [ 3559342.329453300219029, 2184925.468526786193252 ], [ 3559347.244180839508772, 2184907.101393256336451 ], [ 3559355.201117007993162, 2184889.739061667583883 ], [ 3559363.586380642838776, 2184883.402286682277918 ], [ 3559386.50085767544806, 2184872.761055729817599 ], [ 3559392.909748308360577, 2184867.859266654122621 ], [ 3559413.922968872822821, 2184845.452165364287794 ], [ 3559434.602348709478974, 2184819.257817661389709 ], [ 3559453.415393086150289, 2184800.883457727264613 ], [ 3559460.059312208555639, 2184774.776017217896879 ], [ 3559474.293532526586205, 2184747.932799548842013 ], [ 3559500.262784713879228, 2184723.772310461848974 ], [ 3559505.763482318725437, 2184714.157070609740913 ], [ 3559514.956023645121604, 2184689.576775067020208 ], [ 3559520.87569787632674, 2184682.316522422246635 ], [ 3559529.89093902753666, 2184677.082007609773427 ], [ 3559546.485693717375398, 2184675.664373215753585 ], [ 3559552.535289373714477, 2184679.248873813077807 ], [ 3559555.069796783383936, 2184684.727617204189301 ], [ 3559557.211239940486848, 2184716.349982139654458 ], [ 3559579.318066163919866, 2184707.841989799868315 ], [ 3559599.148961906321347, 2184693.830119083169848 ], [ 3559608.331766030751169, 2184684.669868479948491 ], [ 3559627.139489536639303, 2184649.102849715389311 ], [ 3559635.808389395941049, 2184627.370609710924327 ], [ 3559641.373624280560762, 2184622.259904716629535 ], [ 3559648.493482042104006, 2184620.056279341690242 ], [ 3559650.040304999798536, 2184620.101319559384137 ], [ 3559650.040304999798536, 2178800.804332295898348 ], [ 3559496.581285209860653, 2179023.076567050535232 ] ] ], [ [ [ 3559621.774343374185264, 2186905.795402174349874 ], [ 3559611.457584452349693, 2186862.34298690315336 ], [ 3559609.739103154279292, 2186725.213907507248223 ], [ 3559631.138153038453311, 2186339.134833269286901 ], [ 3559617.028017164673656, 2186242.44562155008316 ], [ 3559594.219524908810854, 2186201.867878747172654 ], [ 3559578.065480832476169, 2186184.7561812158674 ], [ 3559545.984535888768733, 2186163.283354079350829 ], [ 3559389.96949848998338, 2186072.273995309602469 ], [ 3559446.515251867473125, 2185899.715168626513332 ], [ 3559446.523299355059862, 2185899.688752350863069 ], [ 3559446.49440209614113, 2185899.707260952331126 ], [ 3559385.382506566122174, 2185924.726813413668424 ], [ 3559325.332572361920029, 2185937.934137731790543 ], [ 3559256.578172780573368, 2185934.320762348361313 ], [ 3559194.948176336940378, 2185926.277666286565363 ], [ 3559149.178454782348126, 2185917.619963495060802 ], [ 3559116.295634323731065, 2185910.098101181443781 ], [ 3558868.406478315126151, 2185882.383918745443225 ], [ 3558808.536621286068112, 2185882.360682087019086 ], [ 3558738.417098424397409, 2185898.079665142577142 ], [ 3558685.716814684681594, 2185931.525265599135309 ], [ 3558639.55680912360549, 2185959.317471642512828 ], [ 3558627.591883691027761, 2185967.612930020317435 ], [ 3558627.60327134327963, 2185967.62384587386623 ], [ 3558645.927138180937618, 2185985.497407350689173 ], [ 3558709.03816688247025, 2186030.800395177677274 ], [ 3558721.848177273757756, 2186035.18277798127383 ], [ 3558724.777200939133763, 2186038.056972666177899 ], [ 3558734.942524478770792, 2186069.062010927591473 ], [ 3558743.663806921802461, 2186087.214521792717278 ], [ 3558752.37750322651118, 2186094.32011817349121 ], [ 3558762.652311281766742, 2186097.675426955334842 ], [ 3558772.775452396832407, 2186097.366106678266078 ], [ 3558802.270204660017043, 2186089.484841847792268 ], [ 3558834.961750686168671, 2186084.893398422282189 ], [ 3558847.640557380393147, 2186085.619848280679435 ], [ 3558849.887952086515725, 2186087.3765988657251 ], [ 3558848.550242471508682, 2186089.551522875204682 ], [ 3558794.143624782562256, 2186123.877143265679479 ], [ 3558776.387520156800747, 2186132.204427369870245 ], [ 3558740.920943384058774, 2186128.934971975162625 ], [ 3558715.068766528740525, 2186123.580375015735626 ], [ 3558702.991788679268211, 2186119.176607100758702 ], [ 3558687.95208320999518, 2186105.586545738391578 ], [ 3558682.336292488500476, 2186105.098128972575068 ], [ 3558670.916048812679946, 2186109.523270102217793 ], [ 3558666.047036391682923, 2186113.974903296213597 ], [ 3558657.126268437132239, 2186141.175667173229158 ], [ 3558626.149245290551335, 2186189.331403878051788 ], [ 3558596.723031497560441, 2186226.880720207933336 ], [ 3558591.421544898301363, 2186237.84053743025288 ], [ 3558592.037519020959735, 2186259.104455545544624 ], [ 3558584.186382005922496, 2186269.90052814502269 ], [ 3558581.050432417076081, 2186291.517884978558868 ], [ 3558578.885416118428111, 2186295.487540420610458 ], [ 3558569.240211678668857, 2186300.191601817496121 ], [ 3558563.968006333336234, 2186308.401877817697823 ], [ 3558560.689584377687424, 2186317.321242130827159 ], [ 3558561.456693227868527, 2186326.028715111780912 ], [ 3558549.526146107818931, 2186333.451148808933794 ], [ 3558548.897357276640832, 2186351.436972460709512 ], [ 3558546.51099278498441, 2186356.319955527316779 ], [ 3558529.003846007864922, 2186371.811353727709502 ], [ 3558518.450954389292747, 2186395.561323586851358 ], [ 3558517.269253248348832, 2186403.615510012488812 ], [ 3558519.603326064068824, 2186407.840758621692657 ], [ 3558525.157026986591518, 2186410.480231288820505 ], [ 3558552.236823325976729, 2186412.868422717787325 ], [ 3558559.250144979916513, 2186415.286707776598632 ], [ 3558564.191993143409491, 2186420.682315377052873 ], [ 3558564.227657136972994, 2186429.992497731000185 ], [ 3558562.030285999178886, 2186432.57144868792966 ], [ 3558550.809075545985252, 2186433.658988771494478 ], [ 3558536.12410753313452, 2186452.636295273434371 ], [ 3558503.071327914949507, 2186486.356413600966334 ], [ 3558497.945302226580679, 2186494.402149668894708 ], [ 3558496.300476249773055, 2186500.396346902474761 ], [ 3558497.019116306211799, 2186538.813416621647775 ], [ 3558487.775797159876674, 2186546.366278882138431 ], [ 3558470.529273898340762, 2186550.543881059158593 ], [ 3558461.212418757379055, 2186558.975680817849934 ], [ 3558460.837825322989374, 2186562.02968610310927 ], [ 3558467.623555668629706, 2186574.65540387481451 ], [ 3558466.702712767757475, 2186581.100645591970533 ], [ 3558463.7318399194628, 2186587.574077792465687 ], [ 3558457.269153203815222, 2186585.694150691851974 ], [ 3558449.527821218129247, 2186597.732895677909255 ], [ 3558448.052340271882713, 2186604.281971039250493 ], [ 3558449.333626729436219, 2186612.659230520483106 ], [ 3558459.089722405187786, 2186620.636139975860715 ], [ 3558445.004106316249818, 2186632.026486156042665 ], [ 3558443.524752479046583, 2186637.272814973257482 ], [ 3558443.387265222612768, 2186642.218444579746574 ], [ 3558452.662840962409973, 2186647.595411993563175 ], [ 3558438.786670474335551, 2186661.481404014397413 ], [ 3558432.510772775392979, 2186675.884589701890945 ], [ 3558427.52396446140483, 2186676.367935916408896 ], [ 3558419.713468560948968, 2186673.355248045641929 ], [ 3558415.233369245193899, 2186677.879915636498481 ], [ 3558409.974900221452117, 2186689.898336180485785 ], [ 3558409.951134176459163, 2186689.971056514885277 ], [ 3558409.098376133479178, 2186695.707870752550662 ], [ 3558414.952272043563426, 2186707.461312353145331 ], [ 3558414.262871166225523, 2186711.508362344000489 ], [ 3558402.60373610118404, 2186707.625692410394549 ], [ 3558395.064110315404832, 2186707.684821981936693 ], [ 3558387.741425985004753, 2186710.319373677950352 ], [ 3558390.782217897474766, 2186716.290454638656229 ], [ 3558384.54862268269062, 2186716.894584127701819 ], [ 3558372.889288300648332, 2186713.011952609755099 ], [ 3558364.042457457631826, 2186712.616326779592782 ], [ 3558354.482803881168365, 2186720.349869811907411 ], [ 3558343.561931740958244, 2186737.178041244857013 ], [ 3558320.671035992912948, 2186734.374082706402987 ], [ 3558279.078357252757996, 2186733.39283054554835 ], [ 3558271.134654350113124, 2186735.486166784074157 ], [ 3558249.103345700539649, 2186750.09261287143454 ], [ 3558230.829348437022418, 2186756.876624325290322 ], [ 3558215.52925376733765, 2186754.599843005649745 ], [ 3558198.55390015617013, 2186747.463064437266439 ], [ 3558185.907066104002297, 2186746.413139002863318 ], [ 3558173.498535042628646, 2186748.63838953897357 ], [ 3558156.691072622314095, 2186757.796366242691875 ], [ 3558137.822759610135108, 2186759.093792554922402 ], [ 3558131.854519417509437, 2186761.456787653733045 ], [ 3558126.270727261900902, 2186768.183566192165017 ], [ 3558123.074907174799591, 2186776.102653906680644 ], [ 3558125.336913894861937, 2186796.866317660547793 ], [ 3558106.715618346817791, 2186790.229438796639442 ], [ 3558102.605102220550179, 2186800.663360645994544 ], [ 3558080.919042068533599, 2186811.537200761958957 ], [ 3558066.824104322120547, 2186822.938818496186286 ], [ 3558069.333164574578404, 2186825.041749153286219 ], [ 3558083.554959994740784, 2186826.610228559933603 ], [ 3558085.409251922741532, 2186830.761491470504552 ], [ 3558084.138035139068961, 2186833.802443747874349 ], [ 3558061.904627984389663, 2186838.463561812415719 ], [ 3558057.123114420101047, 2186842.536114524118602 ], [ 3558048.795914389193058, 2186861.057590377517045 ], [ 3558038.606374892406166, 2186874.426595032215118 ], [ 3558020.260625389404595, 2186892.385498940013349 ], [ 3557997.313156790565699, 2186904.925785611383617 ], [ 3557992.283990282565355, 2186919.207973030861467 ], [ 3557985.795778307132423, 2186923.886866972781718 ], [ 3557978.997394043020904, 2186925.508431197144091 ], [ 3557969.722689342219383, 2186920.141681877430528 ], [ 3557929.586281068157405, 2186921.525721010286361 ], [ 3557924.28765357285738, 2186924.756101019214839 ], [ 3557920.707546940539032, 2186934.927726716734469 ], [ 3557925.041969555895776, 2186944.623091846238822 ], [ 3557932.434305178001523, 2186953.851752879563719 ], [ 3557954.255557674448937, 2186973.060383319854736 ], [ 3557955.515259422361851, 2186976.396955208387226 ], [ 3557953.776059101801366, 2186981.888934892136604 ], [ 3557948.951905607711524, 2186982.626991815399379 ], [ 3557927.91713465936482, 2186977.257226914633065 ], [ 3557922.047676857560873, 2186978.68857234949246 ], [ 3557924.455233148299158, 2186982.375061919447035 ], [ 3557965.899800189305097, 2187019.59155326988548 ], [ 3557972.712929030880332, 2187023.733425948768854 ], [ 3558010.570985159836709, 2187034.169515010435134 ], [ 3558048.363712525460869, 2187041.694702601060271 ], [ 3558062.950270840898156, 2187051.860036680474877 ], [ 3558073.215894869528711, 2187066.875190152786672 ], [ 3558115.04833011329174, 2187141.829640101175755 ], [ 3558122.555131822824478, 2187169.944706523325294 ], [ 3558129.951502984855324, 2187185.1579111199826 ], [ 3558144.316167436540127, 2187206.964131555985659 ], [ 3558151.445307339541614, 2187212.298487216234207 ], [ 3558158.894993211142719, 2187214.072519782930613 ], [ 3558191.581824129447341, 2187210.914427078794688 ], [ 3558205.708924658130854, 2187213.354558673687279 ], [ 3558228.012779512442648, 2187219.995383327826858 ], [ 3558235.625825368799269, 2187225.452664204873145 ], [ 3558240.426887459587306, 2187231.874955198727548 ], [ 3558241.828946333844215, 2187238.656479405704886 ], [ 3558235.981237697880715, 2187258.030908531975001 ], [ 3558219.679409195203334, 2187287.200169942341745 ], [ 3558205.804737915750593, 2187307.382488241419196 ], [ 3558191.786446314770728, 2187327.528381089679897 ], [ 3558174.428587515372783, 2187347.336441189050674 ], [ 3558172.20459426054731, 2187354.178950310219079 ], [ 3558179.682932566385716, 2187372.492086828686297 ], [ 3558188.254575115628541, 2187392.483815062791109 ], [ 3558202.432954987045377, 2187409.205171929206699 ], [ 3558209.877583966124803, 2187423.140593363437802 ], [ 3558217.337075017392635, 2187446.608530062250793 ], [ 3558218.094073228538036, 2187470.385157184675336 ], [ 3558210.47729993192479, 2187500.507752563804388 ], [ 3558192.776611375622451, 2187535.948166179005057 ], [ 3558183.107178641483188, 2187563.322149692103267 ], [ 3558162.584298074245453, 2187636.1501794308424 ], [ 3558150.697111540939659, 2187648.971830057911575 ], [ 3558147.874350929632783, 2187664.774628513026983 ], [ 3558148.259694496169686, 2187680.336429145652801 ], [ 3558156.702723356429487, 2187717.13316691108048 ], [ 3558149.828508927952498, 2187742.44169849762693 ], [ 3558153.001738076563925, 2187778.455741315614432 ], [ 3558150.450600365176797, 2187808.52833959273994 ], [ 3558152.591495741624385, 2187827.118063441943377 ], [ 3558161.75867208186537, 2187855.694097185973078 ], [ 3558173.038718038704246, 2187872.516055529005826 ], [ 3558203.726880656555295, 2187919.287144081667066 ], [ 3558213.379334901459515, 2187932.136395968496799 ], [ 3558218.744544508866966, 2187945.76234922837466 ], [ 3558221.028737492393702, 2187959.927241696976125 ], [ 3558214.337645654566586, 2187977.378065600991249 ], [ 3558215.214673711918294, 2187982.536488145589828 ], [ 3558226.898436288814992, 2187996.973114904016256 ], [ 3558256.651259189937264, 2188026.852051492314786 ], [ 3558263.111076036002487, 2188038.857901464216411 ], [ 3558263.813725127838552, 2188076.404772051144391 ], [ 3558265.568520673550665, 2188081.588233741000295 ], [ 3558289.98046204354614, 2188107.593604082707316 ], [ 3558300.603419057093561, 2188124.719987613148987 ], [ 3558315.580452648922801, 2188132.351384779904038 ], [ 3558329.967548036947846, 2188134.315381098538637 ], [ 3558332.913025220856071, 2188137.147778019309044 ], [ 3558340.888911630492657, 2188179.373210520949215 ], [ 3558353.71921013854444, 2188196.095303424634039 ], [ 3558374.278965539764613, 2188208.518753545824438 ], [ 3558380.0391009375453, 2188214.29673830838874 ], [ 3558383.43417557515204, 2188223.030782286077738 ], [ 3558384.208696080837399, 2188232.048439464066178 ], [ 3558381.585043368861079, 2188246.568801679648459 ], [ 3558388.328613077290356, 2188264.081120248883963 ], [ 3558405.961974132806063, 2188287.014170336071402 ], [ 3558412.171234587207437, 2188327.917199595365673 ], [ 3558406.47027740906924, 2188351.809144874103367 ], [ 3558394.820711673237383, 2188367.214314498007298 ], [ 3558393.901957464404404, 2188377.679389254190028 ], [ 3558400.88760774070397, 2188377.273016514256597 ], [ 3558415.344771213829517, 2188369.41552569065243 ], [ 3558418.493660653941333, 2188370.102886299137026 ], [ 3558420.721338967327029, 2188373.806752295233309 ], [ 3558417.496515698730946, 2188388.35554667795077 ], [ 3558418.969706527888775, 2188405.075171830132604 ], [ 3558408.153391234576702, 2188415.206304540857673 ], [ 3558400.599741167388856, 2188432.801288714632392 ], [ 3558396.478596869856119, 2188486.495437303092331 ], [ 3558394.42886573728174, 2188495.656731572933495 ], [ 3558386.308677134569734, 2188506.820234066806734 ], [ 3558390.761401323601604, 2188516.824864365160465 ], [ 3558398.435031893197447, 2188526.397438272833824 ], [ 3558432.567842768505216, 2188559.400772399269044 ], [ 3558451.941491026431322, 2188587.358559175860137 ], [ 3558458.545484500005841, 2188600.774233826901764 ], [ 3558463.470751658082008, 2188614.773057672195137 ], [ 3558467.250061375554651, 2188642.939371741842479 ], [ 3558482.48650991730392, 2188682.967477563768625 ], [ 3558478.803305473178625, 2188700.187063284218311 ], [ 3558478.109599946066737, 2188726.109705744776875 ], [ 3558483.964386150240898, 2188732.38955658255145 ], [ 3558487.736698143184185, 2188748.144762051757425 ], [ 3558490.228776462376118, 2188761.928775729611516 ], [ 3558488.372401135973632, 2188772.825607712846249 ], [ 3558477.410201356280595, 2188805.277680958155543 ], [ 3558473.032839245162904, 2188842.705784471705556 ], [ 3558476.079140036832541, 2188865.518555320333689 ], [ 3558488.02011124137789, 2188882.076297183986753 ], [ 3558497.341685536317527, 2188887.057727598585188 ], [ 3558506.453452859539539, 2188887.948953307233751 ], [ 3558522.382686256431043, 2188880.019100295379758 ], [ 3558545.183807340916246, 2188891.844790669158101 ], [ 3558556.645643435418606, 2188891.4354487801902 ], [ 3558567.91324261482805, 2188888.368898635730147 ], [ 3558583.18475231109187, 2188872.852975971065462 ], [ 3558590.970276393927634, 2188872.278882315382361 ], [ 3558604.040158407296985, 2188877.217714302241802 ], [ 3558614.959038109984249, 2188888.10989136248827 ], [ 3558635.190330501645803, 2188911.192530002910644 ], [ 3558652.488504364155233, 2188947.792906385846436 ], [ 3558652.988795625977218, 2188952.787439405918121 ], [ 3558647.928267318289727, 2188968.646619851700962 ], [ 3558649.823728037532419, 2188990.157611482776701 ], [ 3558633.022075112909079, 2189017.300742630381137 ], [ 3558627.681586698163301, 2189029.297415353357792 ], [ 3558627.966768960934132, 2189034.362855410203338 ], [ 3558635.809179155156016, 2189048.931250108405948 ], [ 3558631.730217172764242, 2189058.008486368693411 ], [ 3558636.959155961405486, 2189062.324125431478024 ], [ 3558658.275263346266001, 2189056.959876134060323 ], [ 3558663.352146436460316, 2189056.467880124691874 ], [ 3558668.633062895853072, 2189058.63275981741026 ], [ 3558676.756825048010796, 2189070.457251066341996 ], [ 3558678.046383988577873, 2189078.012091508600861 ], [ 3558675.087214036844671, 2189102.540257357992232 ], [ 3558676.424819723702967, 2189117.719236822798848 ], [ 3558674.526122209616005, 2189132.93127963040024 ], [ 3558664.538425546139479, 2189157.148116826079786 ], [ 3558653.674756312742829, 2189164.576986666303128 ], [ 3558649.834104441106319, 2189169.62122062407434 ], [ 3558647.179667945485562, 2189177.968758727423847 ], [ 3558649.606906293425709, 2189182.565806558355689 ], [ 3558665.23708863183856, 2189194.074110421352088 ], [ 3558685.869372299872339, 2189195.904184376355261 ], [ 3558697.138022501952946, 2189207.57448772341013 ], [ 3558718.929743170272559, 2189239.227945648133755 ], [ 3558726.079579354263842, 2189245.593093766830862 ], [ 3558730.630014872644097, 2189246.776175696402788 ], [ 3558745.008951799012721, 2189242.485109232831746 ], [ 3558758.198434971738607, 2189232.454907192848623 ], [ 3558762.333915477618575, 2189231.552655191160738 ], [ 3558766.77807956142351, 2189237.237443496473134 ], [ 3558765.042990799061954, 2189252.022648829035461 ], [ 3558770.302822319790721, 2189268.105019686277956 ], [ 3558774.867006064392626, 2189272.524868453387171 ], [ 3558793.807214983738959, 2189278.438957680016756 ], [ 3558801.047571561299264, 2189282.980744888540357 ], [ 3558809.99577092891559, 2189297.422071541659534 ], [ 3558812.936184276361018, 2189307.734148044139147 ], [ 3558813.311024365946651, 2189318.494918620213866 ], [ 3558811.181389250792563, 2189325.378044009208679 ], [ 3558805.735662291757762, 2189330.247019641567022 ], [ 3558800.689601595513523, 2189337.824097413569689 ], [ 3558800.450350725091994, 2189363.422257244121283 ], [ 3558787.23641520133242, 2189387.670899146236479 ], [ 3558781.510767033323646, 2189409.910776848904788 ], [ 3558778.848555343225598, 2189412.574660518672317 ], [ 3558765.450905824545771, 2189415.788193192332983 ], [ 3558761.882519850041717, 2189419.472623282112181 ], [ 3558760.420100850984454, 2189431.073187865782529 ], [ 3558761.53578426130116, 2189447.958347727544606 ], [ 3558765.114830607082695, 2189456.152918766252697 ], [ 3558796.346684888005257, 2189462.058750549796969 ], [ 3558811.354570834897459, 2189458.057635585777462 ], [ 3558838.998122648801655, 2189459.769615142606199 ], [ 3558847.663811685983092, 2189463.471596316434443 ], [ 3558899.334825722966343, 2189498.014354644808918 ], [ 3558907.95194376539439, 2189501.510078365448862 ], [ 3558935.865852597169578, 2189505.952779519371688 ], [ 3558951.005174597725272, 2189514.280550358816981 ], [ 3558955.78868855163455, 2189514.228052787017077 ], [ 3559006.367458898574114, 2189483.520920739974827 ], [ 3559023.381808471865952, 2189477.851928667631 ], [ 3559068.585715975146741, 2189472.67918073059991 ], [ 3559083.568226467818022, 2189474.896307165268809 ], [ 3559127.766055887565017, 2189505.221060141921043 ], [ 3559171.363649800885469, 2189520.515699514187872 ], [ 3559184.889022093266249, 2189529.029802815522999 ], [ 3559192.006342101842165, 2189537.192681866697967 ], [ 3559198.547654127702117, 2189551.606757334899157 ], [ 3559216.392233482096344, 2189616.325720210094005 ], [ 3559224.131824274547398, 2189631.09525827690959 ], [ 3559238.688448649365455, 2189646.396930288523436 ], [ 3559245.674587952438742, 2189650.792781469877809 ], [ 3559262.971664311364293, 2189653.928878997452557 ], [ 3559277.507465607486665, 2189651.758097406476736 ], [ 3559299.515106269158423, 2189642.02636756747961 ], [ 3559302.975040695630014, 2189638.14206433063373 ], [ 3559330.253816934768111, 2189595.988611760549247 ], [ 3559366.488870861940086, 2189551.703911478165537 ], [ 3559377.972326109185815, 2189533.38739822153002 ], [ 3559384.288070558570325, 2189526.288841192610562 ], [ 3559390.863012405112386, 2189522.594165769405663 ], [ 3559401.281027396675199, 2189520.611953500192612 ], [ 3559440.759206626564264, 2189514.159784698393196 ], [ 3559445.025692267343402, 2189514.091852901969105 ], [ 3559452.150543547235429, 2189513.978457979857922 ], [ 3559463.085134046617895, 2189515.685513945296407 ], [ 3559477.265536231454462, 2189522.612364609725773 ], [ 3559482.971970740705729, 2189527.894424942322075 ], [ 3559489.985761388204992, 2189541.049857835285366 ], [ 3559491.480644607450813, 2189551.050710905343294 ], [ 3559490.719473100733012, 2189563.415662472136319 ], [ 3559478.867417214438319, 2189624.816925481427461 ], [ 3559480.88879974372685, 2189651.749746078625321 ], [ 3559491.390020451974124, 2189676.056620181538165 ], [ 3559506.992781678214669, 2189699.237086894921958 ], [ 3559515.58152106590569, 2189708.460369455628097 ], [ 3559547.466336886864156, 2189726.915298072621226 ], [ 3559557.169134753756225, 2189729.143128448165953 ], [ 3559583.75896346475929, 2189727.689397831913084 ], [ 3559620.290380507241935, 2189735.628618908580393 ], [ 3559637.107568165753037, 2189733.77846162347123 ], [ 3559640.811451324727386, 2189736.196606744080782 ], [ 3559649.87062205420807, 2189751.900925214868039 ], [ 3559650.040304999798536, 2189752.250785870943218 ], [ 3559650.040304999798536, 2186949.496014572214335 ], [ 3559621.774343374185264, 2186905.795402174349874 ] ] ] ] } }
]
}
