{
"type": "FeatureCollection",
"name": "Cretas",
"crs": { "type": "name", "properties": { "name": "urn:ogc:def:crs:EPSG::3035" } },
"features": [
{ "type": "Feature", "properties": { "ENP_GRAL": 1.0, "ENP_GRAL_NAME": "Otros Parques", "color": "#38A800" }, "geometry": { "type": "Polygon", "coordinates": [ [ [ 3498361.647344848606735, 2024725.644269708078355 ], [ 3498363.874491006135941, 2024741.352158615365624 ], [ 3498364.577224800363183, 2024746.308502473635599 ], [ 3498365.848333375994116, 2024748.74127205950208 ], [ 3498369.745503070298582, 2024756.200192765565589 ], [ 3498374.099889562930912, 2024779.630808214889839 ], [ 3498377.659623737912625, 2024798.785399210173637 ], [ 3498382.704227665904909, 2024858.059994971845299 ], [ 3498379.321710608433932, 2024870.008604233851656 ], [ 3498375.194283953867853, 2024884.588462698506191 ], [ 3498370.344071815721691, 2024890.280602481216192 ], [ 3498359.91576919099316, 2024902.519033716060221 ], [ 3498347.36252708081156, 2024907.390597617020831 ], [ 3498341.828393786214292, 2024912.139841667609289 ], [ 3498328.975880917627364, 2024914.2815905099269 ], [ 3498306.630695346742868, 2024915.765797700267285 ], [ 3498279.832347837276757, 2024911.416589793516323 ], [ 3498230.782846719957888, 2024894.315116700716317 ], [ 3498182.504817321896553, 2024884.267227524193004 ], [ 3498160.268616513814777, 2024879.991258294321597 ], [ 3498118.102546737529337, 2024881.657026655739173 ], [ 3498088.805409257300198, 2024891.633425846230239 ], [ 3498072.930740908719599, 2024918.973698785062879 ], [ 3498094.679824631661177, 2024968.14749623532407 ], [ 3498098.74247860070318, 2024976.372092015342787 ], [ 3498122.008703598752618, 2025023.473801889223978 ], [ 3498161.412693162914366, 2025071.536441568518057 ], [ 3498236.989054489415139, 2025128.062228467781097 ], [ 3498277.198759625200182, 2025157.680080458754674 ], [ 3498288.313723731786013, 2025178.954699330497533 ], [ 3498287.301723523065448, 2025197.733743780991063 ], [ 3498281.573127700947225, 2025204.872903252253309 ], [ 3498257.177982629276812, 2025210.203283508541062 ], [ 3498244.442597310058773, 2025212.986017824849114 ], [ 3498224.567945055663586, 2025224.731755587738007 ], [ 3498178.354698813054711, 2025264.075366375269368 ], [ 3498159.733835658058524, 2025291.85646210424602 ], [ 3498146.785255718044937, 2025317.491209026193246 ], [ 3498129.871256552636623, 2025355.697385902749375 ], [ 3498127.151980838738382, 2025385.626512917689979 ], [ 3498122.08756048232317, 2025419.22632015729323 ], [ 3498124.440383948385715, 2025442.745604487834498 ], [ 3498124.627373538445681, 2025443.307188336504623 ], [ 3498130.760566542390734, 2025461.725797848310322 ], [ 3498133.974754309281707, 2025471.378153608180583 ], [ 3498134.830005210824311, 2025473.946532025467604 ], [ 3498137.407927185762674, 2025503.534027765505016 ], [ 3498134.963254872709513, 2025516.092395382700488 ], [ 3498134.414035378955305, 2025518.913932127179578 ], [ 3498139.64463120047003, 2025534.218592988559976 ], [ 3498149.208489881362766, 2025547.248077240074053 ], [ 3498151.928210515528917, 2025550.415060667088255 ], [ 3498157.404067765455693, 2025556.791390025056899 ], [ 3498157.80580781865865, 2025561.5522339574527 ], [ 3498158.658409643452615, 2025571.657766359858215 ], [ 3498168.994764545932412, 2025586.110792158171535 ], [ 3498170.652442904189229, 2025595.384273647563532 ], [ 3498171.714758338406682, 2025605.265542852692306 ], [ 3498177.491078339051455, 2025616.260367223760113 ], [ 3498184.13677523098886, 2025645.732003255048767 ], [ 3498188.523320861626416, 2025683.506396763259545 ], [ 3498188.481815256178379, 2025696.216201242757961 ], [ 3498188.456171837169677, 2025704.080548224970698 ], [ 3498184.144535844679922, 2025712.592150860698894 ], [ 3498178.213006765116006, 2025724.301591337891296 ], [ 3498159.049105974845588, 2025742.518267176579684 ], [ 3498145.941487848758698, 2025749.251248887041584 ], [ 3498083.850516781210899, 2025749.076461154036224 ], [ 3498051.315969539806247, 2025757.610835597384721 ], [ 3498025.521857650019228, 2025781.469167478382587 ], [ 3498014.41382990591228, 2025801.632518938044086 ], [ 3498020.342880865093321, 2025834.706082130549476 ], [ 3498017.643446150235832, 2025860.044495004694909 ], [ 3498021.587853197474033, 2025898.969232477713376 ], [ 3498027.799379835370928, 2025925.689374720677733 ], [ 3498023.815332980360836, 2025950.538437362760305 ], [ 3498013.026547853369266, 2025987.995632275706157 ], [ 3497979.484947947785258, 2026025.07509837532416 ], [ 3497948.903420449700207, 2026038.006924152607098 ], [ 3497902.665847049094737, 2026050.745088799390942 ], [ 3497870.47926970385015, 2026050.230774997035041 ], [ 3497850.590728867799044, 2026060.480769802350551 ], [ 3497826.257791741751134, 2026090.139704790897667 ], [ 3497817.677060988266021, 2026105.03893906599842 ], [ 3497822.291507765650749, 2026127.019112507579848 ], [ 3497826.806679538451135, 2026133.847526742145419 ], [ 3497842.697928888723254, 2026157.880321175791323 ], [ 3497859.269478587433696, 2026174.885956530459225 ], [ 3497862.358797825872898, 2026180.095588035881519 ], [ 3497868.529929048847407, 2026190.501974596409127 ], [ 3497913.058038350660354, 2026231.939180740620941 ], [ 3497918.035153679549694, 2026236.570764997042716 ], [ 3497925.927754838950932, 2026246.635700149927288 ], [ 3497934.627326188609004, 2026257.729655671631917 ], [ 3497958.658326107542962, 2026276.926372752524912 ], [ 3497974.842914675362408, 2026292.980814044596627 ], [ 3498013.548206898849458, 2026331.374681096756831 ], [ 3498042.286993880290538, 2026379.30191583163105 ], [ 3498062.505597088485956, 2026431.191284825326875 ], [ 3498068.133182061836123, 2026458.101016742410138 ], [ 3498064.284436768386513, 2026493.866609743563458 ], [ 3498064.052716902457178, 2026496.019975610310212 ], [ 3498043.143647043034434, 2026564.26661935960874 ], [ 3498035.608986747916788, 2026589.876891838619485 ], [ 3498021.691992353647947, 2026616.963790263282135 ], [ 3498003.663524799980223, 2026652.202425775351003 ], [ 3497964.403143861331046, 2026699.658861500909552 ], [ 3497940.994459128938615, 2026748.85114778438583 ], [ 3497938.068978803232312, 2026775.194921176647767 ], [ 3497958.907567165791988, 2026802.790123244747519 ], [ 3497967.496468500234187, 2026809.271320494357497 ], [ 3497988.898897281382233, 2026825.421644504647702 ], [ 3498018.596354803536087, 2026838.765572012169287 ], [ 3498030.217478471808136, 2026846.800979651976377 ], [ 3498075.500845504458994, 2026878.111901329830289 ], [ 3498106.074556377250701, 2026914.473838610341772 ], [ 3498129.82825184520334, 2026964.715697682462633 ], [ 3498145.498460043221712, 2027029.921833250205964 ], [ 3498159.466626971960068, 2027086.482449422124773 ], [ 3498164.942021765280515, 2027094.018783698789775 ], [ 3498182.471677265129983, 2027118.146673184353858 ], [ 3498222.725004413630813, 2027153.63209062279202 ], [ 3498245.979907489381731, 2027187.731530564604327 ], [ 3498249.120387057308108, 2027203.838277647038922 ], [ 3498243.393583247438073, 2027239.818449777085334 ], [ 3498240.370523227378726, 2027260.263317711418495 ], [ 3498238.159983363933861, 2027263.776411271188408 ], [ 3498231.699212005361915, 2027274.04391595791094 ], [ 3498228.979985988233238, 2027307.333660861477256 ], [ 3498225.494229154661298, 2027319.767426597885787 ], [ 3498228.366799033712596, 2027345.783198399469256 ], [ 3498229.606198768131435, 2027357.00753038120456 ], [ 3498240.643276210408658, 2027379.539438653737307 ], [ 3498243.9121741107665, 2027411.139404100831598 ], [ 3498225.654844713397324, 2027448.486557020572945 ], [ 3498225.097217149566859, 2027449.789560865610838 ], [ 3498200.586716519203037, 2027507.060938187874854 ], [ 3498193.77555388957262, 2027528.284058113582432 ], [ 3498201.890515690669417, 2027584.989014714490622 ], [ 3498209.573908992577344, 2027595.681069454876706 ], [ 3498225.439030868466944, 2027617.758806029567495 ], [ 3498230.024078359827399, 2027626.119605682557449 ], [ 3498240.263609495945275, 2027644.791397341061383 ], [ 3498262.140385457314551, 2027674.7448881783057 ], [ 3498265.116557190660387, 2027678.593993112444878 ], [ 3498286.592149034142494, 2027706.368568452307954 ], [ 3498294.975858846213669, 2027725.666393563617021 ], [ 3498296.782861102838069, 2027736.062774080084637 ], [ 3498300.341189838014543, 2027756.53434153390117 ], [ 3498327.513848097994924, 2027801.016108731273562 ], [ 3498329.155474362894893, 2027803.906810466432944 ], [ 3498335.745174976997077, 2027815.510558291105554 ], [ 3498367.982815028633922, 2027860.784595723729581 ], [ 3498390.654716010205448, 2027895.439186900155619 ], [ 3498415.256056049838662, 2027937.160007599275559 ], [ 3498430.640267442911863, 2027963.249782617203891 ], [ 3498439.917884237598628, 2027986.382370793260634 ], [ 3498442.568432967178524, 2027992.991052075056359 ], [ 3498448.108269838616252, 2028026.291322465753183 ], [ 3498443.546252383850515, 2028045.835969751235098 ], [ 3498437.779743085615337, 2028051.995896199950948 ], [ 3498437.434548987075686, 2028052.364692291244864 ], [ 3498426.623047778382897, 2028063.91368507547304 ], [ 3498426.10715190321207, 2028063.925414306577295 ], [ 3498443.423306848853827, 2028109.993769798893481 ], [ 3498360.362012220546603, 2028085.535465613007545 ], [ 3498311.940086218994111, 2028152.190024228999391 ], [ 3498293.851986152119935, 2028198.625909076770768 ], [ 3498267.758315639570355, 2028303.943024071631953 ], [ 3498254.400617055594921, 2028322.330194306559861 ], [ 3498195.524476640857756, 2028348.336622474249452 ], [ 3498161.851003809366375, 2028373.153029644861817 ], [ 3498136.559441434685141, 2028431.899769795825705 ], [ 3498123.728319514542818, 2028479.473970880033448 ], [ 3498130.568565773777664, 2028568.175651765195653 ], [ 3498123.954988138750196, 2028635.909638323122635 ], [ 3498089.325695595704019, 2028706.31417345488444 ], [ 3498047.087580836378038, 2028747.70718308724463 ], [ 3497985.861569095402956, 2028778.145645101554692 ], [ 3497823.827174711041152, 2028813.344232384581119 ], [ 3497672.370255499146879, 2028877.057393440511078 ], [ 3497510.991308736614883, 2028993.918689346639439 ], [ 3497402.372849777340889, 2029093.184578051092103 ], [ 3497459.82731798524037, 2029094.62787136551924 ], [ 3497561.850309607572854, 2029104.19064687914215 ], [ 3497676.61279322206974, 2029099.671490259235725 ], [ 3497810.210708872415125, 2029077.878661799710244 ], [ 3497922.934897393919528, 2029051.931595536647364 ], [ 3498035.982968103606254, 2028989.02680668188259 ], [ 3498109.439355010632426, 2028920.193221545545384 ], [ 3498126.601415629964322, 2028917.580272471997887 ], [ 3498148.112828749231994, 2028915.160804795101285 ], [ 3498168.303089978173375, 2028912.249936315696687 ], [ 3498180.702347953338176, 2028908.300392223289236 ], [ 3498214.426587557420135, 2028887.318985198624432 ], [ 3498247.83567589474842, 2028863.1839228074532 ], [ 3498267.570393407251686, 2028849.502544925082475 ], [ 3498294.208349958062172, 2028834.413187539204955 ], [ 3498316.918256620876491, 2028818.487355815479532 ], [ 3498345.838233011774719, 2028800.59076662757434 ], [ 3498379.745480827055871, 2028775.125160080613568 ], [ 3498417.461097916588187, 2028749.236277262447402 ], [ 3498439.976576561573893, 2028731.426735636778176 ], [ 3498464.903935192152858, 2028712.06909342482686 ], [ 3498482.245375988073647, 2028693.565176642034203 ], [ 3498498.505583177320659, 2028677.09004318062216 ], [ 3498511.217902853619307, 2028663.566392051521689 ], [ 3498527.479505826719105, 2028653.460190398152918 ], [ 3498537.792297828011215, 2028654.21169540961273 ], [ 3498554.185831832699478, 2028658.092278856318444 ], [ 3498570.201127463486046, 2028664.563688752241433 ], [ 3498591.022415154147893, 2028674.319158941041678 ], [ 3498615.890870607923716, 2028686.161398207070306 ], [ 3498642.414874004200101, 2028701.636847029905766 ], [ 3498668.928758562542498, 2028717.113188084214926 ], [ 3498706.587105568498373, 2028728.7933347329963 ], [ 3498731.962178612593561, 2028732.93514664680697 ], [ 3498753.160142223350704, 2028733.731172696920112 ], [ 3498782.840181259904057, 2028729.750224357703701 ], [ 3498802.771804879885167, 2028724.331322129350156 ], [ 3498826.629213476087898, 2028713.370538585120812 ], [ 3498853.202202938497066, 2028697.647041681688279 ], [ 3498886.796099942643195, 2028675.397149828029796 ], [ 3498924.447507811710238, 2028648.884045427665114 ], [ 3498952.729929678142071, 2028631.060302930884063 ], [ 3498978.609667071606964, 2028614.773952265735716 ], [ 3499003.031253687571734, 2028609.475945218233392 ], [ 3499030.115224945358932, 2028605.158769551897421 ], [ 3499054.602165919262916, 2028600.495338139822707 ], [ 3499085.233833361417055, 2028593.22672702325508 ], [ 3499115.541320593561977, 2028582.815377335995436 ], [ 3499147.047928488347679, 2028565.256676962366328 ], [ 3499175.01613553520292, 2028544.289435297250748 ], [ 3499198.040072184987366, 2028525.14878087118268 ], [ 3499211.583501044660807, 2028507.067491425434127 ], [ 3499218.030014620628208, 2028488.520393259357661 ], [ 3499226.48805759800598, 2028445.581719492794946 ], [ 3499235.370927726384252, 2028444.711029707919806 ], [ 3499253.325682542286813, 2028446.175811167340726 ], [ 3499270.231625842861831, 2028454.202322559198365 ], [ 3499292.236094321124256, 2028464.943789524724707 ], [ 3499318.633335568476468, 2028470.417847109725699 ], [ 3499331.415120478719473, 2028486.910069885198027 ], [ 3499354.394881874788553, 2028508.841942343628034 ], [ 3499376.957500563003123, 2028525.987702923128381 ], [ 3499401.887251800391823, 2028533.217958086635917 ], [ 3499425.637918582651764, 2028545.400580803398043 ], [ 3499442.961857385002077, 2028558.223186547169462 ], [ 3499457.489101167302579, 2028576.146574926562607 ], [ 3499471.877870914060622, 2028592.481463086558506 ], [ 3499494.439571246504784, 2028609.6175045913551 ], [ 3499510.843242219649255, 2028630.591593049699441 ], [ 3499541.226787438616157, 2028663.093903574161232 ], [ 3499555.614716689102352, 2028679.418844969710335 ], [ 3499572.519732271321118, 2028687.435661805793643 ], [ 3499586.90861734515056, 2028703.770541071891785 ], [ 3499606.674434473738074, 2028726.017537884414196 ], [ 3499628.734846709761769, 2028756.110968323657289 ], [ 3499639.909753957763314, 2028772.760842444375157 ], [ 3499651.36244711978361, 2028792.598080010153353 ], [ 3499661.905759640038013, 2028820.595775586785749 ], [ 3499663.08609072258696, 2028852.735914667835459 ], [ 3499668.111132927238941, 2028873.203091857722029 ], [ 3499678.515131235588342, 2028899.60224211239256 ], [ 3499687.451463345438242, 2028927.757500393781811 ], [ 3499700.158989288378507, 2028961.992417080560699 ], [ 3499703.850423740688711, 2028974.548873878316954 ], [ 3499747.345373205840588, 2029015.890690368134528 ], [ 3499767.734626930672675, 2029033.970839391229674 ], [ 3499785.202675017062575, 2029048.562039792537689 ], [ 3499807.042163076344877, 2029068.382701206486672 ], [ 3499830.266761682927608, 2029082.96051738737151 ], [ 3499848.750052868388593, 2029094.878578616771847 ], [ 3499867.039738901890814, 2029104.922891770489514 ], [ 3499874.767525850795209, 2029118.05523702991195 ], [ 3499877.810100417584181, 2029129.173200991004705 ], [ 3499883.264203417114913, 2029189.675327202770859 ], [ 3499885.5761922551319, 2029295.088722132146358 ], [ 3499890.649376317393035, 2029345.443625206593424 ], [ 3499886.92326030228287, 2029384.694098920095712 ], [ 3499885.100397970061749, 2029417.368886466138065 ], [ 3499888.028026168700308, 2029452.692514617927372 ], [ 3499887.839220250025392, 2029482.63352378597483 ], [ 3499889.174493979196995, 2029508.579788791248575 ], [ 3499889.652527622878551, 2029509.287618900416419 ], [ 3499889.148923844099045, 2029538.86177146807313 ], [ 3499888.396927679423243, 2029584.777852045604959 ], [ 3499925.883461522404104, 2029655.92844579089433 ], [ 3500018.254164648242295, 2029765.830970455892384 ], [ 3500173.199049691669643, 2029968.419756967341527 ], [ 3500251.679426682647318, 2029999.580006113275886 ], [ 3500356.654050888959318, 2030120.881035843165591 ], [ 3500501.487618786282837, 2030082.627950164256617 ], [ 3500492.940402141772211, 2029968.859204129548743 ], [ 3500514.482469130307436, 2029972.328672233968973 ], [ 3500567.896337953396142, 2029981.605297401314601 ], [ 3500618.074392436537892, 2029990.598226654808968 ], [ 3500652.950820602476597, 2030000.0391206194181 ], [ 3500679.215267301071435, 2030012.997663795948029 ], [ 3500705.231499803252518, 2030029.806102608796209 ], [ 3500740.359060126356781, 2030048.135090614203364 ], [ 3500852.949788444209844, 2030104.859585599275306 ], [ 3500898.899762540590018, 2030128.978171872207895 ], [ 3500930.357499159872532, 2030142.619751974008977 ], [ 3500970.35506187658757, 2030158.499086913187057 ], [ 3501000.167299739085138, 2030168.506512838182971 ], [ 3501035.229136904235929, 2030179.842271593865007 ], [ 3501074.661829994991422, 2030190.048782983329147 ], [ 3501102.211464999709278, 2030197.633152226451784 ], [ 3501102.211464999709278, 2024702.688334999140352 ], [ 3498353.702479049097747, 2024702.688334999140352 ], [ 3498361.647344848606735, 2024725.644269708078355 ] ] ] } },
{ "type": "Feature", "properties": { "ENP_GRAL": 2.0, "ENP_GRAL_NAME": "Reservas Naturales", "color": "#FFD37F" }, "geometry": { "type": "MultiPolygon", "coordinates": [ [ [ [ 3498755.385856743901968, 2032185.158019721973687 ], [ 3498768.608342995401472, 2032175.729639872908592 ], [ 3498775.361759691033512, 2032177.584700932260603 ], [ 3498779.935791126452386, 2032170.659836060600355 ], [ 3498793.309936392121017, 2032159.885080915410072 ], [ 3498815.346743225585669, 2032157.724795062560588 ], [ 3498837.919063433073461, 2032161.821133847814053 ], [ 3498862.688985834829509, 2032191.008434360148385 ], [ 3498861.583664030767977, 2032221.741043488495052 ], [ 3498843.019630760885775, 2032268.65697582741268 ], [ 3498842.986274985596538, 2032281.849971001734957 ], [ 3498843.070627314504236, 2032282.461673882324249 ], [ 3498842.983766684308648, 2032282.842985319206491 ], [ 3498842.531062771566212, 2032461.880441390909255 ], [ 3498856.979717841837555, 2032514.986194241093472 ], [ 3498887.321122109889984, 2032559.374991563847288 ], [ 3498905.263208805117756, 2032608.867499567568302 ], [ 3498905.756212226115167, 2032613.812368280952796 ], [ 3498913.025344140827656, 2032624.754233902553096 ], [ 3498916.085759778507054, 2032640.503380401292816 ], [ 3498917.22226137528196, 2032670.610584437148646 ], [ 3498914.722439781296998, 2032687.940576701192185 ], [ 3498912.112339739687741, 2032708.825317936018109 ], [ 3498912.363891828339547, 2032723.199107502354309 ], [ 3498917.949298827908933, 2032715.376186892855912 ], [ 3498921.010709276422858, 2032710.078799061244354 ], [ 3498923.096730357501656, 2032704.336332425009459 ], [ 3498923.519303156994283, 2032702.602547223446891 ], [ 3498932.562487179879099, 2032660.626620596274734 ], [ 3498933.321015944704413, 2032652.009965307544917 ], [ 3498932.16573272831738, 2032620.517472396604717 ], [ 3498931.891724854707718, 2032617.259563112165779 ], [ 3498927.172975791152567, 2032581.379516508895904 ], [ 3498923.971075389534235, 2032570.747684859903529 ], [ 3498908.506690309848636, 2032539.075759079074487 ], [ 3498907.54029384162277, 2032537.227705769008026 ], [ 3498882.470366543158889, 2032492.937764234375209 ], [ 3498870.777806570753455, 2032463.079195026308298 ], [ 3498860.611320616677403, 2032363.099949247203767 ], [ 3498874.937590376473963, 2032282.891942796995863 ], [ 3498894.187400256749243, 2032234.217479409649968 ], [ 3498896.62727616680786, 2032222.601801626617089 ], [ 3498897.741668673697859, 2032191.858400179073215 ], [ 3498897.640592711511999, 2032187.582194738090038 ], [ 3498896.575332147534937, 2032181.597796177724376 ], [ 3498896.134214923717082, 2032180.392835352569818 ], [ 3498894.487478274852037, 2032175.894008687930182 ], [ 3498891.444842631462961, 2032170.664319267263636 ], [ 3498889.585604841820896, 2032168.272868755972013 ], [ 3498864.816538813058287, 2032139.09541680989787 ], [ 3498862.749706825241446, 2032136.86460779607296 ], [ 3498858.064302201382816, 2032132.99760023294948 ], [ 3498856.521894386503845, 2032132.125594630138949 ], [ 3498852.780855201650411, 2032130.010580958565697 ], [ 3498849.368650902062654, 2032128.815447967266664 ], [ 3498847.039167148061097, 2032127.999477510806173 ], [ 3498844.617115053348243, 2032127.465928320074454 ], [ 3498822.024130246136338, 2032123.361529028043151 ], [ 3498812.316785715986043, 2032122.971312780864537 ], [ 3498790.269870379008353, 2032125.132574992952868 ], [ 3498784.257572471629828, 2032126.252577852457762 ], [ 3498778.505949556361884, 2032128.398871168028563 ], [ 3498773.2193548027426, 2032131.490908832289279 ], [ 3498771.416102644987404, 2032132.859257757663727 ], [ 3498758.062613279558718, 2032143.642064926913008 ], [ 3498754.39316921774298, 2032147.677089029690251 ], [ 3498750.723809140268713, 2032151.711998936953023 ], [ 3498724.896625655703247, 2032190.811624419409782 ], [ 3498699.069387530442327, 2032229.911315394099802 ], [ 3498694.336731272749603, 2032233.736968175275251 ], [ 3498687.24043002165854, 2032239.47313251439482 ], [ 3498657.891363483853638, 2032246.776669592596591 ], [ 3498611.209447309840471, 2032244.733400883385912 ], [ 3498567.71827704180032, 2032232.643679971573874 ], [ 3498518.001898218411952, 2032208.265486768446863 ], [ 3498430.059733697213233, 2032134.288130949949846 ], [ 3498411.994668598752469, 2032115.619893178110942 ], [ 3498395.497923200950027, 2032093.002208599820733 ], [ 3498385.065731006674469, 2032074.947414174443111 ], [ 3498382.588235439267009, 2032071.234676133608446 ], [ 3498346.355200906284153, 2032023.943629131885245 ], [ 3498338.39410128351301, 2031999.247611135710031 ], [ 3498335.461044319905341, 2031965.606270191958174 ], [ 3498336.063839309848845, 2031958.897503435611725 ], [ 3498338.37910365825519, 2031933.384159609908238 ], [ 3498338.569366902112961, 2031928.178126608021557 ], [ 3498337.752058664336801, 2031907.257907300954685 ], [ 3498333.998896413482726, 2031905.786314271157607 ], [ 3498330.905093635432422, 2031914.547053531743586 ], [ 3498322.903819695115089, 2031973.431970024015754 ], [ 3498327.502775613218546, 2032036.885440411511809 ], [ 3498334.143311068415642, 2032044.893335099332035 ], [ 3498384.488699598703533, 2032101.074870439711958 ], [ 3498425.82164034852758, 2032148.147908241488039 ], [ 3498465.709939866326749, 2032187.925631071440876 ], [ 3498483.357734296470881, 2032207.051599549362436 ], [ 3498508.105417119339108, 2032230.959761860314757 ], [ 3498517.210984407924116, 2032237.705367229180411 ], [ 3498603.53373811673373, 2032259.600301846861839 ], [ 3498638.785596652887762, 2032257.737051273696125 ], [ 3498707.097359384875745, 2032234.373202073387802 ], [ 3498735.865300464443862, 2032214.120192880276591 ], [ 3498755.385856743901968, 2032185.158019721973687 ] ] ], [ [ [ 3500710.59567515226081, 2034563.971419006120414 ], [ 3500777.588279575109482, 2034622.211530123837292 ], [ 3500809.201639495790005, 2034657.039180221501738 ], [ 3500819.375649207271636, 2034687.257800835417584 ], [ 3500811.951435983646661, 2034700.554448668844998 ], [ 3500835.19930961355567, 2034727.01672490616329 ], [ 3500844.824179129209369, 2034712.104103446006775 ], [ 3500848.82226484362036, 2034705.89401551312767 ], [ 3500849.201525742653757, 2034705.21096627577208 ], [ 3500851.162615527864546, 2034701.678872498916462 ], [ 3500853.248685300350189, 2034695.936228869482875 ], [ 3500854.314860845915973, 2034689.923227100400254 ], [ 3500854.31830261554569, 2034683.843901518033817 ], [ 3500853.262889189645648, 2034677.858425200916827 ], [ 3500852.53489129524678, 2034675.856778705958277 ], [ 3500851.29320559464395, 2034672.122802403755486 ], [ 3500849.42194182286039, 2034666.477617771131918 ], [ 3500845.271006284281611, 2034653.99164499877952 ], [ 3500842.476985299959779, 2034645.586628455901518 ], [ 3500841.000242896843702, 2034641.925818262156099 ], [ 3500837.957324525807053, 2034636.696029540384188 ], [ 3500835.348662010859698, 2034633.446285453159362 ], [ 3500803.725548333022743, 2034598.619758569868281 ], [ 3500800.820554750971496, 2034595.779827001038939 ], [ 3500735.44108375813812, 2034538.95382376993075 ], [ 3500702.404869511257857, 2034502.122734920587391 ], [ 3500683.274018266238272, 2034477.929344395175576 ], [ 3500656.022933088243008, 2034403.777468440355733 ], [ 3500654.133990212809294, 2034399.546103633474559 ], [ 3500619.924207534641027, 2034334.939278559060767 ], [ 3500617.611756352707744, 2034331.160114198923111 ], [ 3500613.686566944234073, 2034326.547354754991829 ], [ 3500611.425741509534419, 2034324.515470854472369 ], [ 3500580.622345123905689, 2034299.092593734618276 ], [ 3500573.271755552850664, 2034294.445046517299488 ], [ 3500532.556122520938516, 2034275.401346277678385 ], [ 3500510.135082378052175, 2034256.878280902514234 ], [ 3500486.174299822654575, 2034231.776232925709337 ], [ 3500460.331492910161614, 2034200.5595503593795 ], [ 3500457.369702968280762, 2034197.414755883393809 ], [ 3500433.143172431737185, 2034174.692304523894563 ], [ 3500413.268410871271044, 2034150.16129460465163 ], [ 3500410.696297206915915, 2034147.328948896145448 ], [ 3500406.010711164213717, 2034143.461829886771739 ], [ 3500403.434385049156845, 2034141.851551579777151 ], [ 3500370.033338403794914, 2034123.002553324447945 ], [ 3500363.256131037138402, 2034120.081492535304278 ], [ 3500335.572777023538947, 2034111.507862038444728 ], [ 3500259.018415953963995, 2034069.668294998817146 ], [ 3500222.016519709955901, 2034035.379204602213576 ], [ 3500198.369421657640487, 2033999.561234989902005 ], [ 3500183.754640471190214, 2033967.24440097855404 ], [ 3500182.308594224974513, 2033964.873720525065437 ], [ 3500179.362320722546428, 2033960.043602937133983 ], [ 3500152.606509930454195, 2033926.322741257259622 ], [ 3500149.664239855017513, 2033923.056062010349706 ], [ 3500120.164143609814346, 2033894.341017457656562 ], [ 3500117.191079224925488, 2033891.758320156252012 ], [ 3500089.95104312710464, 2033870.723459169035777 ], [ 3500088.393145134206861, 2033869.594279085751623 ], [ 3500083.109739501029253, 2033866.607023076619953 ], [ 3500077.36806060327217, 2033864.595893735764548 ], [ 3500073.557555369101465, 2033863.837623804807663 ], [ 3500054.327989507466555, 2033861.135544857708737 ], [ 3500047.208661628421396, 2033860.871786234201863 ], [ 3499950.830063231289387, 2033867.002538939472288 ], [ 3499940.642429958097637, 2033869.182691883761436 ], [ 3499900.669322615489364, 2033884.166536483680829 ], [ 3499893.375556255690753, 2033887.905833535594866 ], [ 3499860.69397284835577, 2033909.745948404073715 ], [ 3499793.540777076035738, 2033935.435212804470211 ], [ 3499761.253216269426048, 2033944.938960115658119 ], [ 3499729.939387404825538, 2033941.829192256322131 ], [ 3499701.064943537581712, 2033935.756081879837438 ], [ 3499698.346754157915711, 2033935.291498495964333 ], [ 3499639.198682707268745, 2033927.649193330435082 ], [ 3499614.166179206222296, 2033919.116765287239105 ], [ 3499597.950338154099882, 2033902.840224048588425 ], [ 3499568.746512996964157, 2033858.24351353617385 ], [ 3499562.856152415275574, 2033851.409996598260477 ], [ 3499517.122566705103964, 2033810.716996036935598 ], [ 3499462.466723375953734, 2033765.590778870740905 ], [ 3499461.144323255401105, 2033764.508704961510375 ], [ 3499456.567116611171514, 2033758.998585175955668 ], [ 3499442.23735392279923, 2033741.726078391540796 ], [ 3499421.950377517845482, 2033708.773737602168694 ], [ 3499415.622398546896875, 2033701.192002536728978 ], [ 3499406.986811537761241, 2033693.45483835414052 ], [ 3499397.628278890624642, 2033685.069814473390579 ], [ 3499388.603577928617597, 2033672.765303170541301 ], [ 3499385.794063393957913, 2033653.242013242095709 ], [ 3499383.267828249838203, 2033644.356127182487398 ], [ 3499369.380994663573802, 2033612.539196215569973 ], [ 3499363.331474443897605, 2033603.187623865203932 ], [ 3499356.556232215370983, 2033595.72447918751277 ], [ 3499347.519390162546188, 2033585.770148758543655 ], [ 3499346.201968675479293, 2033584.396992508322001 ], [ 3499341.516496237833053, 2033580.529994636541232 ], [ 3499336.232981516979635, 2033577.542797788744792 ], [ 3499330.491304682567716, 2033575.531820918200538 ], [ 3499327.823853367939591, 2033574.952141233952716 ], [ 3499305.705817907117307, 2033571.101438071578741 ], [ 3499293.509908801410347, 2033563.293779645115137 ], [ 3499266.650804345495999, 2033526.308939622947946 ], [ 3499261.399074302986264, 2033507.635874154279009 ], [ 3499259.414054438471794, 2033502.302501862635836 ], [ 3499256.028373431880027, 2033496.605641913367435 ], [ 3499239.816727233119309, 2033474.49032763321884 ], [ 3499236.233465742319822, 2033470.335034623043612 ], [ 3499230.383901362773031, 2033465.700799927813932 ], [ 3499198.850960697047412, 2033445.878572695190087 ], [ 3499184.946068417280912, 2033427.242318557808176 ], [ 3499175.461400781292468, 2033407.241884481627494 ], [ 3499173.541877988260239, 2033385.227731391321868 ], [ 3499170.78790116449818, 2033374.42172590107657 ], [ 3499156.502198711968958, 2033341.722604450536892 ], [ 3499153.459246336482465, 2033336.49284182023257 ], [ 3499149.533245090395212, 2033331.870256958762184 ], [ 3499147.65212939819321, 2033330.152004291769117 ], [ 3499090.893425811547786, 2033281.917751983040944 ], [ 3499049.86379466066137, 2033224.290353735676035 ], [ 3499008.440679223276675, 2033137.909850805066526 ], [ 3499004.450325665529817, 2033131.511116230860353 ], [ 3498946.55221841391176, 2033057.971946366596967 ], [ 3498901.516883129253983, 2032987.999183554435149 ], [ 3498900.920020297635347, 2032987.125075385905802 ], [ 3498900.536260899156332, 2032986.562985995551571 ], [ 3498873.849562036339194, 2032949.361284147482365 ], [ 3498863.21585700288415, 2032903.135420428356156 ], [ 3498858.031961238011718, 2032826.942580558825284 ], [ 3498861.992425899021327, 2032804.741307745687664 ], [ 3498847.503063137177378, 2032835.592989947879687 ], [ 3498831.55378365656361, 2032882.683688525110483 ], [ 3498836.788185223937035, 2032935.314535353798419 ], [ 3498862.868001089897007, 2032994.468002360314131 ], [ 3498871.927711064461619, 2033007.09311231598258 ], [ 3498917.837096883449703, 2033078.432490052422509 ], [ 3498976.773725485429168, 2033153.261769939213991 ], [ 3499019.455482894089073, 2033242.302986501250416 ], [ 3499064.69260689150542, 2033305.817066485062242 ], [ 3499124.722980915568769, 2033356.825072212144732 ], [ 3499138.590557440184057, 2033388.653889203676954 ], [ 3499141.050317325629294, 2033416.863968922989443 ], [ 3499154.683448480442166, 2033445.541212993906811 ], [ 3499174.459187878761441, 2033472.05398664670065 ], [ 3499211.423257663846016, 2033495.28965229424648 ], [ 3499227.625768369995058, 2033517.415884765330702 ], [ 3499234.552532044239342, 2033542.023528083227575 ], [ 3499268.815286454744637, 2033589.228526898426935 ], [ 3499292.354233297985047, 2033604.296370406169444 ], [ 3499321.382581281010062, 2033609.362516133347526 ], [ 3499337.19450884219259, 2033626.780217051273212 ], [ 3499351.070515207014978, 2033658.588265975704417 ], [ 3499355.127121893689036, 2033686.641992258606479 ], [ 3499371.328730322886258, 2033708.758296797983348 ], [ 3499392.008241286035627, 2033727.281237251823768 ], [ 3499413.317544747143984, 2033761.915898927953094 ], [ 3499432.945677978452295, 2033786.851035190979019 ], [ 3499494.554013586603105, 2033837.715147355571389 ], [ 3499539.307861625216901, 2033877.562886146828532 ], [ 3499570.427797899581492, 2033925.08620183984749 ], [ 3499594.817415317054838, 2033949.564793328754604 ], [ 3499630.814851108938456, 2033961.829494044650346 ], [ 3499693.435575747862458, 2033969.932612384203821 ], [ 3499724.155955592170358, 2033976.395416128914803 ], [ 3499764.190996039658785, 2033980.363089623861015 ], [ 3499804.468388100154698, 2033968.523980979807675 ], [ 3499876.666811293922365, 2033940.898095967946574 ], [ 3499912.68694001622498, 2033916.827888153726235 ], [ 3499952.650155895389616, 2033901.845184214878827 ], [ 3500049.019383654929698, 2033895.725347965024412 ], [ 3500068.249161288142204, 2033898.427483328385279 ], [ 3500087.298002348281443, 2033914.987429160159081 ], [ 3500110.764939394779503, 2033929.922742957714945 ], [ 3500127.263540307991207, 2033950.837169945705682 ], [ 3500154.735066174063832, 2033966.516647483920678 ], [ 3500216.541884372010827, 2034078.279816348804161 ], [ 3500238.098952995613217, 2034098.266946571180597 ], [ 3500321.47075838316232, 2034143.834906915202737 ], [ 3500352.464880122803152, 2034153.436007853131741 ], [ 3500385.866692574694753, 2034172.294959997758269 ], [ 3500407.236773581244051, 2034198.622243009041995 ], [ 3500433.17431924585253, 2034222.959582759533077 ], [ 3500459.78336350992322, 2034255.112682725768536 ], [ 3500486.003668152727187, 2034282.577052505221218 ], [ 3500513.379637152887881, 2034305.171205390244722 ], [ 3500532.600169897545129, 2034316.196543250232935 ], [ 3500558.07259231293574, 2034326.078474689740688 ], [ 3500588.876018949784338, 2034351.501438750186935 ], [ 3500623.086690668947995, 2034416.118220170727 ], [ 3500652.226589884143323, 2034495.422625107457861 ], [ 3500675.419900411739945, 2034524.766001960262656 ], [ 3500710.59567515226081, 2034563.971419006120414 ] ] ], [ [ [ 3500889.379196144174784, 2035002.006930196424946 ], [ 3500888.403309402987361, 2034999.260022824862972 ], [ 3500879.015297690872103, 2034976.555281289620325 ], [ 3500872.459680081345141, 2034950.318366395542398 ], [ 3500865.224767709616572, 2034903.70805421564728 ], [ 3500862.30459942901507, 2034894.229977422626689 ], [ 3500850.033030104823411, 2034868.352814181474969 ], [ 3500845.978963472880423, 2034848.870914681116119 ], [ 3500846.245931547135115, 2034818.340251795016229 ], [ 3500846.117348597384989, 2034815.017912368988618 ], [ 3500844.004768242128193, 2034790.789270533248782 ], [ 3500841.657532409299165, 2034780.954630325548351 ], [ 3500836.40614012023434, 2034767.829150800127536 ], [ 3500834.628522184211761, 2034759.898293122416362 ], [ 3500822.485371166840196, 2034892.402294397354126 ], [ 3500830.575688755139709, 2034909.446689282543957 ], [ 3500838.036264736205339, 2034957.60708315228112 ], [ 3500862.955639344174415, 2035036.644458725815639 ], [ 3500856.229191299527884, 2035091.102353053633124 ], [ 3500855.067819928750396, 2035095.649891037959605 ], [ 3500867.776683093514293, 2035162.957729123299941 ], [ 3500879.209655951708555, 2035139.474613418569788 ], [ 3500881.665068377740681, 2035132.7746247719042 ], [ 3500890.204633048735559, 2035099.340219480684027 ], [ 3500891.030881082639098, 2035094.963063439819962 ], [ 3500897.874722119886428, 2035039.31192907365039 ], [ 3500897.88822083035484, 2035033.231605282984674 ], [ 3500896.6146369013004, 2035026.476294739171863 ], [ 3500889.630640227347612, 2035002.714843731140718 ], [ 3500889.379196144174784, 2035002.006930196424946 ] ] ], [ [ [ 3500850.733156521804631, 2035184.952437315136194 ], [ 3500853.386884643696249, 2035182.00359233492054 ], [ 3500804.075277176685631, 2035214.654823808465153 ], [ 3500800.107618861366063, 2035218.574636902892962 ], [ 3500829.091197903733701, 2035204.914370014797896 ], [ 3500834.387723148334771, 2035201.821457504527643 ], [ 3500839.064970375504345, 2035197.857980591477826 ], [ 3500840.281034237705171, 2035196.567117669386789 ], [ 3500850.733156521804631, 2035184.952437315136194 ] ] ], [ [ [ 3501102.211464999709278, 2035857.319885602453724 ], [ 3501102.211464999709278, 2035785.60725021129474 ], [ 3501100.331533277407289, 2035783.474417132791132 ], [ 3501091.428136286791414, 2035776.254879320738837 ], [ 3501074.213756212033331, 2035766.535000441595912 ], [ 3501068.617397908121347, 2035763.998602333944291 ], [ 3500974.021367102395743, 2035730.885335305938497 ], [ 3500965.933541504666209, 2035729.09382091416046 ], [ 3500916.384029962588102, 2035724.174667790066451 ], [ 3500913.20858712727204, 2035724.005092896986753 ], [ 3500871.70746059063822, 2035723.655155859654769 ], [ 3500833.458850669208914, 2035713.622850569197908 ], [ 3500802.42025148216635, 2035699.699242932954803 ], [ 3500780.347472817637026, 2035685.978895098902285 ], [ 3500760.764878616668284, 2035660.297146748984233 ], [ 3500752.32832913659513, 2035625.88202019687742 ], [ 3500751.044758013915271, 2035621.781687803333625 ], [ 3500716.481047483626753, 2035531.420950755942613 ], [ 3500712.150490589439869, 2035496.763922084588557 ], [ 3500716.740389257203788, 2035465.248740964801982 ], [ 3500728.203036808408797, 2035398.389006248908117 ], [ 3500745.438113734126091, 2035343.472077037440613 ], [ 3500746.522061424329877, 2035339.049637028248981 ], [ 3500754.274706271477044, 2035294.97662429464981 ], [ 3500773.573342593386769, 2035259.686510046944022 ], [ 3500798.237774001900107, 2035220.421876632142812 ], [ 3500754.856970967724919, 2035263.277718236669898 ], [ 3500716.59280174318701, 2035315.082766591804102 ], [ 3500711.967290298081934, 2035333.402440623147413 ], [ 3500694.042743689380586, 2035390.570049795554951 ], [ 3500676.754177200607955, 2035496.817380431806669 ], [ 3500682.18484389455989, 2035540.279773958958685 ], [ 3500718.265949686523527, 2035634.537667360622436 ], [ 3500719.969409761950374, 2035641.482138883089647 ], [ 3500725.46482214005664, 2035650.826089043403044 ], [ 3500758.157654248178005, 2035690.784585472894832 ], [ 3500825.317628762219101, 2035747.705787777435035 ], [ 3500866.606863569933921, 2035758.545447116950527 ], [ 3500912.489255302585661, 2035758.926783033413813 ], [ 3500962.048680459614843, 2035763.845061091240495 ], [ 3501073.869056752882898, 2035806.677497652126476 ], [ 3501088.413458955474198, 2035823.178756134351715 ], [ 3501093.629564796108752, 2035845.481238951440901 ], [ 3501102.211464999709278, 2035857.319885602453724 ] ] ], [ [ [ 3501092.246998894028366, 2036111.277238701470196 ], [ 3501072.827637019567192, 2036136.200066180899739 ], [ 3501063.947201863396913, 2036162.555071988841519 ], [ 3501069.674860485829413, 2036198.951237141853198 ], [ 3501080.680330359842628, 2036219.152699120109901 ], [ 3501082.187313299626112, 2036221.463527816347778 ], [ 3501102.211464999709278, 2036235.466369222849607 ], [ 3501102.211464999709278, 2036187.716790529433638 ], [ 3501098.787516662385315, 2036182.472029610304162 ], [ 3501097.096212697215378, 2036171.040789462160319 ], [ 3501102.211464999709278, 2036156.183937742374837 ], [ 3501102.211464999709278, 2036104.098490715259686 ], [ 3501092.246998894028366, 2036111.277238701470196 ] ] ], [ [ [ 3501042.642217631917447, 2042907.141968219308183 ], [ 3501061.929239027667791, 2042902.697153756860644 ], [ 3501102.211464999709278, 2042898.115375532070175 ], [ 3501102.211464999709278, 2042885.750183341559023 ], [ 3501042.642217631917447, 2042907.141968219308183 ] ] ], [ [ [ 3500667.450814970768988, 2043690.745603577466682 ], [ 3500647.93353232042864, 2043653.017683416139334 ], [ 3500626.795789217110723, 2043588.647589820902795 ], [ 3500616.591118892189115, 2043526.380975126754493 ], [ 3500604.17604774562642, 2043419.983442092780024 ], [ 3500604.656220431439579, 2043413.376438429811969 ], [ 3500612.025304390583187, 2043312.241100712912157 ], [ 3500625.309046785812825, 2043262.735714422538877 ], [ 3500654.440576682332903, 2043208.562676710775122 ], [ 3500657.989115747157484, 2043202.360490190796554 ], [ 3500629.035339396446943, 2043242.246314726537094 ], [ 3500589.948933055624366, 2043316.443500646855682 ], [ 3500572.89782349858433, 2043362.747582178097218 ], [ 3500568.549932552035898, 2043417.725970001425594 ], [ 3500575.90378416609019, 2043487.693157590227202 ], [ 3500592.625493592116982, 2043597.304309805389494 ], [ 3500615.442693085409701, 2043666.847897850908339 ], [ 3500637.655185988172889, 2043709.739979999838397 ], [ 3500641.814764524344355, 2043715.155965000856668 ], [ 3500686.199091501999646, 2043715.155965000856668 ], [ 3500667.450814970768988, 2043690.745603577466682 ] ] ] ] } },
{ "type": "Feature", "properties": { "ENP_GRAL": 6.0, "ENP_GRAL_NAME": "Otros Espacios Naturales Protegidos", "color": "#7F8F0D" }, "geometry": { "type": "MultiPolygon", "coordinates": [ [ [ [ 3498361.647344848606735, 2024725.644269708078355 ], [ 3498363.874491006135941, 2024741.352158615365624 ], [ 3498364.577224800363183, 2024746.308502473635599 ], [ 3498365.848333375994116, 2024748.74127205950208 ], [ 3498369.745503070298582, 2024756.200192765565589 ], [ 3498374.099889562930912, 2024779.630808214889839 ], [ 3498377.659623737912625, 2024798.785399210173637 ], [ 3498382.704227665904909, 2024858.059994971845299 ], [ 3498379.321710608433932, 2024870.008604233851656 ], [ 3498375.194283953867853, 2024884.588462698506191 ], [ 3498370.344071815721691, 2024890.280602481216192 ], [ 3498359.91576919099316, 2024902.519033716060221 ], [ 3498347.36252708081156, 2024907.390597617020831 ], [ 3498341.828393786214292, 2024912.139841667609289 ], [ 3498328.975880917627364, 2024914.2815905099269 ], [ 3498306.630695346742868, 2024915.765797700267285 ], [ 3498279.832347837276757, 2024911.416589793516323 ], [ 3498230.782846719957888, 2024894.315116700716317 ], [ 3498182.504817321896553, 2024884.267227524193004 ], [ 3498160.268616513814777, 2024879.991258294321597 ], [ 3498118.102546737529337, 2024881.657026655739173 ], [ 3498088.805409257300198, 2024891.633425846230239 ], [ 3498072.930740908719599, 2024918.973698785062879 ], [ 3498094.679824631661177, 2024968.14749623532407 ], [ 3498098.74247860070318, 2024976.372092015342787 ], [ 3498122.008703598752618, 2025023.473801889223978 ], [ 3498161.412693162914366, 2025071.536441568518057 ], [ 3498236.989054489415139, 2025128.062228467781097 ], [ 3498277.198759625200182, 2025157.680080458754674 ], [ 3498288.313723731786013, 2025178.954699330497533 ], [ 3498287.301723523065448, 2025197.733743780991063 ], [ 3498281.573127700947225, 2025204.872903252253309 ], [ 3498257.177982629276812, 2025210.203283508541062 ], [ 3498244.442597310058773, 2025212.986017824849114 ], [ 3498224.567945055663586, 2025224.731755587738007 ], [ 3498178.354698813054711, 2025264.075366375269368 ], [ 3498159.733835658058524, 2025291.85646210424602 ], [ 3498146.785255718044937, 2025317.491209026193246 ], [ 3498129.871256552636623, 2025355.697385902749375 ], [ 3498127.151980838738382, 2025385.626512917689979 ], [ 3498122.08756048232317, 2025419.22632015729323 ], [ 3498124.440383948385715, 2025442.745604487834498 ], [ 3498124.627373538445681, 2025443.307188336504623 ], [ 3498130.760566542390734, 2025461.725797848310322 ], [ 3498133.974754309281707, 2025471.378153608180583 ], [ 3498134.830005210824311, 2025473.946532025467604 ], [ 3498137.407927185762674, 2025503.534027765505016 ], [ 3498134.963254872709513, 2025516.092395382700488 ], [ 3498134.414035378955305, 2025518.913932127179578 ], [ 3498139.64463120047003, 2025534.218592988559976 ], [ 3498149.208489881362766, 2025547.248077240074053 ], [ 3498151.928210515528917, 2025550.415060667088255 ], [ 3498157.404067765455693, 2025556.791390025056899 ], [ 3498157.80580781865865, 2025561.5522339574527 ], [ 3498158.658409643452615, 2025571.657766359858215 ], [ 3498168.994764545932412, 2025586.110792158171535 ], [ 3498170.652442904189229, 2025595.384273647563532 ], [ 3498171.714758338406682, 2025605.265542852692306 ], [ 3498177.491078339051455, 2025616.260367223760113 ], [ 3498184.13677523098886, 2025645.732003255048767 ], [ 3498188.523320861626416, 2025683.506396763259545 ], [ 3498188.481815256178379, 2025696.216201242757961 ], [ 3498188.456171837169677, 2025704.080548224970698 ], [ 3498184.144535844679922, 2025712.592150860698894 ], [ 3498178.213006765116006, 2025724.301591337891296 ], [ 3498159.049105974845588, 2025742.518267176579684 ], [ 3498145.941487848758698, 2025749.251248887041584 ], [ 3498083.850516781210899, 2025749.076461154036224 ], [ 3498051.315969539806247, 2025757.610835597384721 ], [ 3498025.521857650019228, 2025781.469167478382587 ], [ 3498014.41382990591228, 2025801.632518938044086 ], [ 3498020.342880865093321, 2025834.706082130549476 ], [ 3498017.643446150235832, 2025860.044495004694909 ], [ 3498021.587853197474033, 2025898.969232477713376 ], [ 3498027.799379835370928, 2025925.689374720677733 ], [ 3498023.815332980360836, 2025950.538437362760305 ], [ 3498013.026547853369266, 2025987.995632275706157 ], [ 3497979.484947947785258, 2026025.07509837532416 ], [ 3497948.903420449700207, 2026038.006924152607098 ], [ 3497902.665847049094737, 2026050.745088799390942 ], [ 3497870.47926970385015, 2026050.230774997035041 ], [ 3497850.590728867799044, 2026060.480769802350551 ], [ 3497826.257791741751134, 2026090.139704790897667 ], [ 3497817.677060988266021, 2026105.03893906599842 ], [ 3497822.291507765650749, 2026127.019112507579848 ], [ 3497826.806679538451135, 2026133.847526742145419 ], [ 3497842.697928888723254, 2026157.880321175791323 ], [ 3497859.269478587433696, 2026174.885956530459225 ], [ 3497862.358797825872898, 2026180.095588035881519 ], [ 3497868.529929048847407, 2026190.501974596409127 ], [ 3497913.058038350660354, 2026231.939180740620941 ], [ 3497918.035153679549694, 2026236.570764997042716 ], [ 3497925.927754838950932, 2026246.635700149927288 ], [ 3497934.627326188609004, 2026257.729655671631917 ], [ 3497958.658326107542962, 2026276.926372752524912 ], [ 3497974.842914675362408, 2026292.980814044596627 ], [ 3498013.548206898849458, 2026331.374681096756831 ], [ 3498042.286993880290538, 2026379.30191583163105 ], [ 3498062.505597088485956, 2026431.191284825326875 ], [ 3498068.133182061836123, 2026458.101016742410138 ], [ 3498064.284436768386513, 2026493.866609743563458 ], [ 3498064.052716902457178, 2026496.019975610310212 ], [ 3498043.143647043034434, 2026564.26661935960874 ], [ 3498035.608986747916788, 2026589.876891838619485 ], [ 3498021.691992353647947, 2026616.963790263282135 ], [ 3498003.663524799980223, 2026652.202425775351003 ], [ 3497964.403143861331046, 2026699.658861500909552 ], [ 3497940.994459128938615, 2026748.85114778438583 ], [ 3497938.068978803232312, 2026775.194921176647767 ], [ 3497958.907567165791988, 2026802.790123244747519 ], [ 3497967.496468500234187, 2026809.271320494357497 ], [ 3497988.898897281382233, 2026825.421644504647702 ], [ 3498018.596354803536087, 2026838.765572012169287 ], [ 3498030.217478471808136, 2026846.800979651976377 ], [ 3498075.500845504458994, 2026878.111901329830289 ], [ 3498106.074556377250701, 2026914.473838610341772 ], [ 3498129.82825184520334, 2026964.715697682462633 ], [ 3498145.498460043221712, 2027029.921833250205964 ], [ 3498159.466626971960068, 2027086.482449422124773 ], [ 3498164.942021765280515, 2027094.018783698789775 ], [ 3498182.471677265129983, 2027118.146673184353858 ], [ 3498222.725004413630813, 2027153.63209062279202 ], [ 3498245.979907489381731, 2027187.731530564604327 ], [ 3498249.120387057308108, 2027203.838277647038922 ], [ 3498243.393583247438073, 2027239.818449777085334 ], [ 3498240.370523227378726, 2027260.263317711418495 ], [ 3498238.159983363933861, 2027263.776411271188408 ], [ 3498231.699212005361915, 2027274.04391595791094 ], [ 3498228.979985988233238, 2027307.333660861477256 ], [ 3498225.494229154661298, 2027319.767426597885787 ], [ 3498228.366799033712596, 2027345.783198399469256 ], [ 3498229.606198768131435, 2027357.00753038120456 ], [ 3498240.643276210408658, 2027379.539438653737307 ], [ 3498243.9121741107665, 2027411.139404100831598 ], [ 3498225.654844713397324, 2027448.486557020572945 ], [ 3498225.097217149566859, 2027449.789560865610838 ], [ 3498200.586716519203037, 2027507.060938187874854 ], [ 3498193.77555388957262, 2027528.284058113582432 ], [ 3498201.890515690669417, 2027584.989014714490622 ], [ 3498209.573908992577344, 2027595.681069454876706 ], [ 3498225.439030868466944, 2027617.758806029567495 ], [ 3498230.024078359827399, 2027626.119605682557449 ], [ 3498240.263609495945275, 2027644.791397341061383 ], [ 3498262.140385457314551, 2027674.7448881783057 ], [ 3498265.116557190660387, 2027678.593993112444878 ], [ 3498286.592149034142494, 2027706.368568452307954 ], [ 3498294.975858846213669, 2027725.666393563617021 ], [ 3498296.782861102838069, 2027736.062774080084637 ], [ 3498300.341189838014543, 2027756.53434153390117 ], [ 3498327.513848097994924, 2027801.016108731273562 ], [ 3498329.155474362894893, 2027803.906810466432944 ], [ 3498335.745174976997077, 2027815.510558291105554 ], [ 3498367.982815028633922, 2027860.784595723729581 ], [ 3498390.654716010205448, 2027895.439186900155619 ], [ 3498415.256056049838662, 2027937.160007599275559 ], [ 3498430.640267442911863, 2027963.249782617203891 ], [ 3498439.917884237598628, 2027986.382370793260634 ], [ 3498442.568432967178524, 2027992.991052075056359 ], [ 3498448.108269838616252, 2028026.291322465753183 ], [ 3498443.546252383850515, 2028045.835969751235098 ], [ 3498437.779743085615337, 2028051.995896199950948 ], [ 3498437.434548987075686, 2028052.364692291244864 ], [ 3498426.623047778382897, 2028063.91368507547304 ], [ 3498426.10715190321207, 2028063.925414306577295 ], [ 3498420.635985710192472, 2028064.050332598853856 ], [ 3498411.707223505713046, 2028058.742325381841511 ], [ 3498388.553081906400621, 2028037.468110274989158 ], [ 3498364.634976525790989, 2028010.480109569383785 ], [ 3498354.188548351638019, 2028003.771894978359342 ], [ 3498343.247182963881642, 2028001.957229115301743 ], [ 3498329.972719867713749, 2028007.279458667850122 ], [ 3498321.397970699705184, 2028009.322128785774112 ], [ 3498315.198363279458135, 2028020.413025726564229 ], [ 3498303.383501151576638, 2028035.317596524488181 ], [ 3498297.166620031930506, 2028056.507321547484025 ], [ 3498303.828387495595962, 2028097.200636545894668 ], [ 3498306.052172505762428, 2028130.353093232493848 ], [ 3498293.957661829888821, 2028151.759631931781769 ], [ 3498286.638378436211497, 2028170.948792014503852 ], [ 3498277.568402687087655, 2028196.951488842023537 ], [ 3498260.530610569752753, 2028252.438131316099316 ], [ 3498242.346067904960364, 2028278.594982720911503 ], [ 3498229.881150159053504, 2028294.028010056354105 ], [ 3498214.742678914219141, 2028298.752412646776065 ], [ 3498199.084539056289941, 2028300.372204283019528 ], [ 3498175.932514854706824, 2028289.890928949927911 ], [ 3498162.18502767663449, 2028285.908279186347499 ], [ 3498146.223969032522291, 2028288.555184465833008 ], [ 3498133.415232210420072, 2028299.220204825745896 ], [ 3498123.323714704252779, 2028322.778635625494644 ], [ 3498116.204993182327598, 2028339.257210749899969 ], [ 3498109.250246916431934, 2028350.765044556465 ], [ 3498105.353947401978076, 2028370.467624366516247 ], [ 3498101.465944248717278, 2028402.794264888158068 ], [ 3498101.385631774086505, 2028438.756165548227727 ], [ 3498098.615495060570538, 2028450.981572484364733 ], [ 3498099.994237692561001, 2028481.327556698117405 ], [ 3498104.785276124253869, 2028498.711934632388875 ], [ 3498109.496141490992159, 2028530.565249564824626 ], [ 3498109.716480845585465, 2028546.954275505850092 ], [ 3498105.504766832105815, 2028574.11644827760756 ], [ 3498102.274572996422648, 2028597.115957375848666 ], [ 3498100.60346640413627, 2028618.03569288784638 ], [ 3498091.800496713258326, 2028640.245126402238384 ], [ 3498059.649662339128554, 2028684.260508538922295 ], [ 3498043.257781938649714, 2028708.312678790418431 ], [ 3498029.1275779241696, 2028718.88849311042577 ], [ 3498009.949432212393731, 2028729.610058469465002 ], [ 3497959.992362543940544, 2028735.443394163623452 ], [ 3497921.101173602044582, 2028739.000140156364068 ], [ 3497890.113312033936381, 2028746.31955706118606 ], [ 3497868.299675017595291, 2028750.017459580441937 ], [ 3497833.38664817251265, 2028762.180670132860541 ], [ 3497808.265327875968069, 2028773.383804521523416 ], [ 3497784.750387856271118, 2028780.269999877316877 ], [ 3497760.349673793651164, 2028790.460850550560281 ], [ 3497741.353802633006126, 2028802.137372514465824 ], [ 3497735.07784162601456, 2028807.728029801510274 ], [ 3497707.952435588464141, 2028819.701880200533196 ], [ 3497696.387331485748291, 2028828.229460722766817 ], [ 3497656.077563104685396, 2028844.872686631279066 ], [ 3497629.78451279271394, 2028858.487399553880095 ], [ 3497593.711863229982555, 2028884.39730815240182 ], [ 3497576.679371715057641, 2028897.104161277646199 ], [ 3497553.928868530783802, 2028919.025040115229785 ], [ 3497538.137671861797571, 2028924.206166648073122 ], [ 3497524.983723189681768, 2028934.783507188083604 ], [ 3497521.279156863223761, 2028943.802266942802817 ], [ 3497505.205727801658213, 2028948.876798676326871 ], [ 3497492.202866148669273, 2028961.188486542087048 ], [ 3497465.891539365518838, 2028979.68126382632181 ], [ 3497446.648447172250599, 2028996.506117376731709 ], [ 3497436.692106736823916, 2029006.499338687164709 ], [ 3497421.141346911434084, 2029008.839940547477454 ], [ 3497407.216352313756943, 2029025.213533257832751 ], [ 3497382.786910042632371, 2029038.910090881632641 ], [ 3497358.358892497606575, 2029057.007604222744703 ], [ 3497340.273062173742801, 2029072.857872886350378 ], [ 3497308.846202936023474, 2029092.362448212690651 ], [ 3497284.670796233229339, 2029118.016849027713761 ], [ 3497274.857507809065282, 2029129.76804115716368 ], [ 3497264.010091943666339, 2029150.168821674538776 ], [ 3497250.721781271509826, 2029192.636825933121145 ], [ 3497224.655808450654149, 2029233.36109778098762 ], [ 3497193.968616039957851, 2029268.867144346004352 ], [ 3497182.700876108370721, 2029282.762325881747529 ], [ 3497169.577692029997706, 2029303.791181370383129 ], [ 3497163.316812496632338, 2029329.67571925278753 ], [ 3497163.814553789794445, 2029351.163679664488882 ], [ 3497168.188823510892689, 2029393.399185034213588 ], [ 3497187.553932942450047, 2029431.492236241232604 ], [ 3497208.144895075354725, 2029460.941634312272072 ], [ 3497247.483192930929363, 2029496.06843117182143 ], [ 3497275.796797657385468, 2029520.828434664290398 ], [ 3497297.17096597654745, 2029529.003295335220173 ], [ 3497325.442407704889774, 2029540.75747258332558 ], [ 3497335.958677992690355, 2029545.129722626181319 ], [ 3497372.85652449214831, 2029564.355815309099853 ], [ 3497404.160438463557512, 2029579.144795134896412 ], [ 3497437.367508781142533, 2029587.619657037546858 ], [ 3497465.910745087079704, 2029594.969591649249196 ], [ 3497502.047046887222677, 2029596.14138692477718 ], [ 3497528.844116974622011, 2029594.028247160604224 ], [ 3497558.585490878671408, 2029591.375649599358439 ], [ 3497597.366723971907049, 2029587.91682002460584 ], [ 3497637.674369968473911, 2029578.613521444844082 ], [ 3497663.997461353428662, 2029566.297756782267243 ], [ 3497669.95250302972272, 2029563.511582025326788 ], [ 3497703.620224173180759, 2029558.010988902533427 ], [ 3497733.587412037886679, 2029550.260717500001192 ], [ 3497769.33243019040674, 2029552.030844867927954 ], [ 3497788.80126634798944, 2029564.849525065394118 ], [ 3497802.505969061516225, 2029587.681985036469996 ], [ 3497806.968480258248746, 2029595.947989941807464 ], [ 3497817.269590027630329, 2029615.02862242446281 ], [ 3497828.221493233926594, 2029649.343466828111559 ], [ 3497837.00717144459486, 2029681.549150939797983 ], [ 3497840.651676561683416, 2029720.426069993292913 ], [ 3497830.152942982502282, 2029754.262329531135038 ], [ 3497833.424311787821352, 2029772.688121729530394 ], [ 3497841.404425960499793, 2029786.3358610116411 ], [ 3497846.92957579344511, 2029808.853035414591432 ], [ 3497847.167711787857115, 2029823.173053063917905 ], [ 3497850.946907358709723, 2029840.927412160206586 ], [ 3497853.772599411662668, 2029862.108645151136443 ], [ 3497859.596150923520327, 2029881.746550465701148 ], [ 3497861.287303446792066, 2029903.144344759173691 ], [ 3497856.29681121557951, 2029928.883798010414466 ], [ 3497850.982195298187435, 2029947.851914709899575 ], [ 3497843.689487671013921, 2029963.151947292266414 ], [ 3497843.552078993991017, 2029976.922262069070712 ], [ 3497849.645793281495571, 2029995.626973704900593 ], [ 3497849.958672809880227, 2030012.01739510288462 ], [ 3497844.960602724924684, 2030034.029723880114034 ], [ 3497844.978215396404266, 2030053.805202211020514 ], [ 3497846.042374958749861, 2030070.045450961682945 ], [ 3497848.713624403811991, 2030097.324171067448333 ], [ 3497851.54973844345659, 2030115.414818798424676 ], [ 3497856.054514052346349, 2030130.14059338835068 ], [ 3497864.445882649626583, 2030160.17121729394421 ], [ 3497872.371894027106464, 2030178.756116622360423 ], [ 3497891.957065738271922, 2030200.933735101716593 ], [ 3497922.972630123607814, 2030231.206061058444902 ], [ 3497982.807575108483434, 2030277.358227946795523 ], [ 3498011.319578714668751, 2030295.742304348386824 ], [ 3498037.404787495266646, 2030309.459446813678369 ], [ 3498063.455287813674659, 2030316.827138804364949 ], [ 3498110.197086284868419, 2030338.552377283573151 ], [ 3498137.888717874418944, 2030350.106557123363018 ], [ 3498168.35063164960593, 2030365.17918171454221 ], [ 3498207.227441960480064, 2030390.666040586307645 ], [ 3498255.207140666432679, 2030439.469906873535365 ], [ 3498278.532096438575536, 2030455.50032026716508 ], [ 3498293.58317944034934, 2030468.529280011542141 ], [ 3498296.184499455615878, 2030480.325359252979979 ], [ 3498290.912382237613201, 2030495.904004559386522 ], [ 3498289.935540980659425, 2030498.790343201020733 ], [ 3498279.798218709416687, 2030513.726274909917265 ], [ 3498277.603821369353682, 2030516.959363920148462 ], [ 3498269.845730972476304, 2030543.831440476235002 ], [ 3498259.70649079605937, 2030584.216758547350764 ], [ 3498243.323568623978645, 2030619.131919234991074 ], [ 3498233.297203358262777, 2030651.846067729638889 ], [ 3498219.727508849930018, 2030672.528189468663186 ], [ 3498218.818597536999732, 2030705.005223451647907 ], [ 3498227.195163665339351, 2030738.975916760740802 ], [ 3498239.552080011926591, 2030779.737663381034508 ], [ 3498262.08279080921784, 2030808.382289368426427 ], [ 3498266.364008798263967, 2030814.878765443339944 ], [ 3498276.42061589891091, 2030830.139014181913808 ], [ 3498286.439580858219415, 2030865.34711067029275 ], [ 3498295.049794506281614, 2030886.99245347850956 ], [ 3498300.120846528559923, 2030896.951613389421254 ], [ 3498301.434420540928841, 2030903.042810034938157 ], [ 3498310.404839959926903, 2030925.593796022003517 ], [ 3498318.109315778594464, 2030961.656850669998676 ], [ 3498318.051295201294124, 2031000.028916870942339 ], [ 3498303.065163451712579, 2031098.444523494224995 ], [ 3498309.348184724338353, 2031144.841966219944879 ], [ 3498337.245518696960062, 2031186.610717713134363 ], [ 3498494.898199055343866, 2031321.572925856802613 ], [ 3498495.284194368869066, 2031321.903350379317999 ], [ 3498524.844750058371574, 2031334.017494634957984 ], [ 3498621.869455081876367, 2031365.953905516304076 ], [ 3498589.5164375891909, 2031339.244707779493183 ], [ 3498586.069486898835748, 2031336.791832852642983 ], [ 3498552.180975928436965, 2031316.159908515168354 ], [ 3498548.203149024862796, 2031314.13157162675634 ], [ 3498514.795689504593611, 2031300.154433217830956 ], [ 3498518.872395478654653, 2031295.767806495772675 ], [ 3498550.109107188880444, 2031273.858400741359219 ], [ 3498575.766706900671124, 2031260.347491938853636 ], [ 3498599.449691453948617, 2031242.313032274832949 ], [ 3498623.802135995123535, 2031232.074308794224635 ], [ 3498653.661429138854146, 2031224.246753260260448 ], [ 3498656.342723003122956, 2031234.011713334359229 ], [ 3498658.173529922962189, 2031255.012520320247859 ], [ 3498667.565891909878701, 2031268.763054083101451 ], [ 3498692.840640959329903, 2031258.133647129870951 ], [ 3498713.245432978961617, 2031247.991411606315523 ], [ 3498733.076332916505635, 2031231.376248742453754 ], [ 3498755.043643684126437, 2031201.512849575607106 ], [ 3498778.487360754981637, 2031169.882800398860127 ], [ 3498804.534377384930849, 2031149.403868180932477 ], [ 3498826.284122014418244, 2031135.865139653207734 ], [ 3498839.768675912171602, 2031121.504810334648937 ], [ 3498864.621045423671603, 2031106.029709836468101 ], [ 3498890.808239047881216, 2031087.159036785829812 ], [ 3498909.140021732077003, 2031085.222203701036051 ], [ 3498930.08433794323355, 2031086.573605483165011 ], [ 3498950.834597960114479, 2031099.210732488892972 ], [ 3498961.702626483514905, 2031111.184011561796069 ], [ 3498970.671646822243929, 2031120.078847085591406 ], [ 3498975.683271061163396, 2031121.219929211074486 ], [ 3498990.577094527892768, 2031123.024669216945767 ], [ 3499008.995804535690695, 2031127.738496012985706 ], [ 3499024.452440008986741, 2031135.997519620228559 ], [ 3499027.347217279020697, 2031150.384830110706389 ], [ 3499030.804968238808215, 2031171.226089793024585 ], [ 3499042.518566555343568, 2031192.90055416431278 ], [ 3499057.757275213487446, 2031217.484167610062286 ], [ 3499082.464933161158115, 2031237.874967285431921 ], [ 3499128.908717700280249, 2031282.212541916174814 ], [ 3499176.547004668507725, 2031321.545903682941571 ], [ 3499231.256095255725086, 2031362.549980777781457 ], [ 3499232.731746193487197, 2031364.928705525584519 ], [ 3499250.379251393023878, 2031379.502489766106009 ], [ 3499270.066175079904497, 2031398.763243488036096 ], [ 3499291.661681249272078, 2031421.091557052684948 ], [ 3499320.958513399586082, 2031437.778249079128727 ], [ 3499342.271172175649554, 2031456.869375890586525 ], [ 3499373.467305899597704, 2031476.634378632996231 ], [ 3499407.133766445331275, 2031505.921299845213071 ], [ 3499436.993991765193641, 2031529.072190852137282 ], [ 3499463.600720240734518, 2031552.541596236638725 ], [ 3499488.731934611685574, 2031577.788223920622841 ], [ 3499518.722355002071708, 2031602.54855317925103 ], [ 3499530.675995504949242, 2031603.419792829779908 ], [ 3499545.851300480775535, 2031608.452030038461089 ], [ 3499560.886451784987003, 2031611.875405824976042 ], [ 3499576.133944497443736, 2031636.448399032931775 ], [ 3499611.710823738947511, 2031668.822811504360288 ], [ 3499670.217179306317121, 2031720.1303641484119 ], [ 3499708.895845652557909, 2031750.558774187462404 ], [ 3499730.772985656280071, 2031776.124543042387813 ], [ 3499750.328783930279315, 2031793.76579711982049 ], [ 3499775.167526840232313, 2031815.776588547974825 ], [ 3499810.743667958304286, 2031848.141580961178988 ], [ 3499856.342764562927186, 2031882.789070656755939 ], [ 3499895.162310159765184, 2031914.83596471673809 ], [ 3499941.533205486368388, 2031939.633779388619587 ], [ 3499981.557109988294542, 2031966.675651503959671 ], [ 3500013.174835296347737, 2031991.276899507734925 ], [ 3500046.561107104644179, 2032017.347234451910481 ], [ 3500069.783074879087508, 2032039.516611310653389 ], [ 3500073.871844457928091, 2032048.890002129832283 ], [ 3500123.482732221484184, 2032082.333213040838018 ], [ 3500178.953173458110541, 2032117.635891494341195 ], [ 3500253.144752900116146, 2032160.88804472447373 ], [ 3500307.207094165030867, 2032180.035431815776974 ], [ 3500350.693195442669094, 2032190.445168562233448 ], [ 3500370.880162825342268, 2032196.618663727072999 ], [ 3500406.533264495898038, 2032211.050479531753808 ], [ 3500438.651801509317011, 2032222.574406464351341 ], [ 3500479.946664545685053, 2032226.669549031881616 ], [ 3500523.422706276644021, 2032237.080166935455054 ], [ 3500560.975317340809852, 2032254.591029516188428 ], [ 3500583.21063917921856, 2032265.441068614833057 ], [ 3500593.656335901468992, 2032272.569218433229253 ], [ 3500599.372569807805121, 2032281.793095204979181 ], [ 3500609.405019787605852, 2032284.06459344830364 ], [ 3500625.352328589651734, 2032279.247311759972945 ], [ 3500654.303454686421901, 2032273.145687578478828 ], [ 3500675.131221487186849, 2032267.850350908469409 ], [ 3500712.609147584997118, 2032265.80008404655382 ], [ 3500752.710677945520729, 2032274.909273668425158 ], [ 3500781.011920730117708, 2032280.288146548205987 ], [ 3500816.374006657395512, 2032291.494243378983811 ], [ 3500831.135897115804255, 2032291.669980437727645 ], [ 3500855.62965420121327, 2032290.902543525211513 ], [ 3500879.983001481276006, 2032288.516314588487148 ], [ 3500887.543588695116341, 2032281.256052396260202 ], [ 3500890.08359151892364, 2032272.865190741838887 ], [ 3500893.122770322486758, 2032251.377362421480939 ], [ 3500887.920480211265385, 2032233.96096467715688 ], [ 3500892.636519068852067, 2032226.979488305049017 ], [ 3500905.339261656627059, 2032222.470186530146748 ], [ 3500936.18985638814047, 2032219.447349139954895 ], [ 3501005.092197099234909, 2032220.847882755566388 ], [ 3501044.057343590538949, 2032217.030077193165198 ], [ 3501075.048620275221765, 2032215.625985169783235 ], [ 3501102.211464999709278, 2032212.020141749409959 ], [ 3501102.211464999709278, 2024702.688334999140352 ], [ 3498353.702479049097747, 2024702.688334999140352 ], [ 3498361.647344848606735, 2024725.644269708078355 ] ] ], [ [ [ 3498715.567914396524429, 2031515.21270438679494 ], [ 3498702.575088171754032, 2031476.558819795958698 ], [ 3498700.489864751696587, 2031471.794503089506179 ], [ 3498692.9874546257779, 2031458.089427909813821 ], [ 3498696.078599847387522, 2031484.913073320640251 ], [ 3498692.101872843690217, 2031528.157918339595199 ], [ 3498688.797691102605313, 2031537.942711473442614 ], [ 3498691.542249564547092, 2031558.101206298684701 ], [ 3498687.972115574870259, 2031571.7241021823138 ], [ 3498696.176129913888872, 2031615.73813110915944 ], [ 3498709.083552062045783, 2031599.369884412270039 ], [ 3498710.136620780918747, 2031597.951766593847424 ], [ 3498712.759366383776069, 2031593.404693227726966 ], [ 3498714.601831318810582, 2031588.305473116924986 ], [ 3498720.624136722646654, 2031565.362954069394618 ], [ 3498721.490844987798482, 2031560.392136812442914 ], [ 3498721.494558827485889, 2031555.174877979094163 ], [ 3498721.336528488434851, 2031553.756465384038165 ], [ 3498716.84052899107337, 2031520.659006111323833 ], [ 3498715.567914396524429, 2031515.21270438679494 ] ] ], [ [ [ 3498754.39316921774298, 2032147.677089029690251 ], [ 3498750.723809140268713, 2032151.711998936953023 ], [ 3498724.896625655703247, 2032190.811624419409782 ], [ 3498699.069387530442327, 2032229.911315394099802 ], [ 3498694.336731272749603, 2032233.736968175275251 ], [ 3498687.24043002165854, 2032239.47313251439482 ], [ 3498657.891363483853638, 2032246.776669592596591 ], [ 3498611.209447309840471, 2032244.733400883385912 ], [ 3498567.71827704180032, 2032232.643679971573874 ], [ 3498518.001898218411952, 2032208.265486768446863 ], [ 3498430.059733697213233, 2032134.288130949949846 ], [ 3498411.994668598752469, 2032115.619893178110942 ], [ 3498395.497923200950027, 2032093.002208599820733 ], [ 3498385.065731006674469, 2032074.947414174443111 ], [ 3498382.588235439267009, 2032071.234676133608446 ], [ 3498346.355200906284153, 2032023.943629131885245 ], [ 3498338.39410128351301, 2031999.247611135710031 ], [ 3498335.461044319905341, 2031965.606270191958174 ], [ 3498336.063839309848845, 2031958.897503435611725 ], [ 3498338.37910365825519, 2031933.384159609908238 ], [ 3498338.569366902112961, 2031928.178126608021557 ], [ 3498337.752058664336801, 2031907.257907300954685 ], [ 3498337.976634305901825, 2031894.522712586447597 ], [ 3498333.998896413482726, 2031905.786314271157607 ], [ 3498330.905093635432422, 2031914.547053531743586 ], [ 3498322.903819695115089, 2031973.431970024015754 ], [ 3498327.502775613218546, 2032036.885440411511809 ], [ 3498334.143311068415642, 2032044.893335099332035 ], [ 3498384.488699598703533, 2032101.074870439711958 ], [ 3498425.82164034852758, 2032148.147908241488039 ], [ 3498465.709939866326749, 2032187.925631071440876 ], [ 3498483.357734296470881, 2032207.051599549362436 ], [ 3498508.105417119339108, 2032230.959761860314757 ], [ 3498517.210984407924116, 2032237.705367229180411 ], [ 3498527.44331295741722, 2032245.285639283014461 ], [ 3498552.172787542454898, 2032258.698660759720951 ], [ 3498587.575552531518042, 2032268.911783918971196 ], [ 3498627.93138131313026, 2032269.181895847665146 ], [ 3498676.3655517953448, 2032256.008973935386166 ], [ 3498707.097359384875745, 2032234.373202073387802 ], [ 3498735.865300464443862, 2032214.120192880276591 ], [ 3498755.385856743901968, 2032185.158019721973687 ], [ 3498768.608342995401472, 2032175.729639872908592 ], [ 3498775.361759691033512, 2032177.584700932260603 ], [ 3498791.376423827372491, 2032181.983717659953982 ], [ 3498818.787323657423258, 2032196.622018669731915 ], [ 3498833.801679727155715, 2032222.022257591597736 ], [ 3498838.258766249753535, 2032247.576974341645837 ], [ 3498842.986274985596538, 2032281.849971001734957 ], [ 3498843.070627314504236, 2032282.461673882324249 ], [ 3498842.983766684308648, 2032282.842985319206491 ], [ 3498834.433866464532912, 2032320.374186486005783 ], [ 3498823.07575357472524, 2032351.519706934690475 ], [ 3498823.0781179536134, 2032379.70712966658175 ], [ 3498819.456472957972437, 2032404.757879135431722 ], [ 3498821.313403609208763, 2032435.347447565291077 ], [ 3498827.330582674592733, 2032463.332439879188314 ], [ 3498830.795396620407701, 2032481.132031208835542 ], [ 3498839.91655041789636, 2032526.750388783868402 ], [ 3498854.241808990947902, 2032552.303674162831157 ], [ 3498879.795952030457556, 2032584.299038572236896 ], [ 3498898.712877823039889, 2032603.210279444232583 ], [ 3498905.756212226115167, 2032613.812368280952796 ], [ 3498913.025344140827656, 2032624.754233902553096 ], [ 3498916.085759778507054, 2032640.503380401292816 ], [ 3498917.22226137528196, 2032670.610584437148646 ], [ 3498914.722439781296998, 2032687.940576701192185 ], [ 3498912.112339739687741, 2032708.825317936018109 ], [ 3498912.363891828339547, 2032723.199107502354309 ], [ 3498917.949298827908933, 2032715.376186892855912 ], [ 3498921.010709276422858, 2032710.078799061244354 ], [ 3498923.096730357501656, 2032704.336332425009459 ], [ 3498923.519303156994283, 2032702.602547223446891 ], [ 3498932.562487179879099, 2032660.626620596274734 ], [ 3498933.321015944704413, 2032652.009965307544917 ], [ 3498932.16573272831738, 2032620.517472396604717 ], [ 3498931.891724854707718, 2032617.259563112165779 ], [ 3498927.172975791152567, 2032581.379516508895904 ], [ 3498923.971075389534235, 2032570.747684859903529 ], [ 3498908.506690309848636, 2032539.075759079074487 ], [ 3498907.54029384162277, 2032537.227705769008026 ], [ 3498882.470366543158889, 2032492.937764234375209 ], [ 3498870.777806570753455, 2032463.079195026308298 ], [ 3498860.611320616677403, 2032363.099949247203767 ], [ 3498874.937590376473963, 2032282.891942796995863 ], [ 3498894.187400256749243, 2032234.217479409649968 ], [ 3498896.62727616680786, 2032222.601801626617089 ], [ 3498897.741668673697859, 2032191.858400179073215 ], [ 3498897.640592711511999, 2032187.582194738090038 ], [ 3498896.575332147534937, 2032181.597796177724376 ], [ 3498896.134214923717082, 2032180.392835352569818 ], [ 3498894.487478274852037, 2032175.894008687930182 ], [ 3498891.444842631462961, 2032170.664319267263636 ], [ 3498889.585604841820896, 2032168.272868755972013 ], [ 3498864.816538813058287, 2032139.09541680989787 ], [ 3498862.749706825241446, 2032136.86460779607296 ], [ 3498858.064302201382816, 2032132.99760023294948 ], [ 3498856.521894386503845, 2032132.125594630138949 ], [ 3498852.780855201650411, 2032130.010580958565697 ], [ 3498849.368650902062654, 2032128.815447967266664 ], [ 3498847.039167148061097, 2032127.999477510806173 ], [ 3498844.617115053348243, 2032127.465928320074454 ], [ 3498822.024130246136338, 2032123.361529028043151 ], [ 3498812.316785715986043, 2032122.971312780864537 ], [ 3498790.269870379008353, 2032125.132574992952868 ], [ 3498784.257572471629828, 2032126.252577852457762 ], [ 3498778.505949556361884, 2032128.398871168028563 ], [ 3498773.2193548027426, 2032131.490908832289279 ], [ 3498771.416102644987404, 2032132.859257757663727 ], [ 3498758.062613279558718, 2032143.642064926913008 ], [ 3498754.39316921774298, 2032147.677089029690251 ] ] ], [ [ [ 3499701.064943537581712, 2033935.756081879837438 ], [ 3499698.346754157915711, 2033935.291498495964333 ], [ 3499639.198682707268745, 2033927.649193330435082 ], [ 3499614.166179206222296, 2033919.116765287239105 ], [ 3499597.950338154099882, 2033902.840224048588425 ], [ 3499568.746512996964157, 2033858.24351353617385 ], [ 3499562.856152415275574, 2033851.409996598260477 ], [ 3499517.122566705103964, 2033810.716996036935598 ], [ 3499462.466723375953734, 2033765.590778870740905 ], [ 3499461.144323255401105, 2033764.508704961510375 ], [ 3499456.567116611171514, 2033758.998585175955668 ], [ 3499442.23735392279923, 2033741.726078391540796 ], [ 3499421.950377517845482, 2033708.773737602168694 ], [ 3499415.622398546896875, 2033701.192002536728978 ], [ 3499406.986811537761241, 2033693.45483835414052 ], [ 3499397.628278890624642, 2033685.069814473390579 ], [ 3499388.603577928617597, 2033672.765303170541301 ], [ 3499385.794063393957913, 2033653.242013242095709 ], [ 3499383.267828249838203, 2033644.356127182487398 ], [ 3499369.380994663573802, 2033612.539196215569973 ], [ 3499363.331474443897605, 2033603.187623865203932 ], [ 3499356.556232215370983, 2033595.72447918751277 ], [ 3499347.519390162546188, 2033585.770148758543655 ], [ 3499346.201968675479293, 2033584.396992508322001 ], [ 3499341.516496237833053, 2033580.529994636541232 ], [ 3499336.232981516979635, 2033577.542797788744792 ], [ 3499330.491304682567716, 2033575.531820918200538 ], [ 3499327.823853367939591, 2033574.952141233952716 ], [ 3499305.705817907117307, 2033571.101438071578741 ], [ 3499293.509908801410347, 2033563.293779645115137 ], [ 3499266.650804345495999, 2033526.308939622947946 ], [ 3499261.399074302986264, 2033507.635874154279009 ], [ 3499259.414054438471794, 2033502.302501862635836 ], [ 3499256.028373431880027, 2033496.605641913367435 ], [ 3499239.816727233119309, 2033474.49032763321884 ], [ 3499236.233465742319822, 2033470.335034623043612 ], [ 3499230.383901362773031, 2033465.700799927813932 ], [ 3499198.850960697047412, 2033445.878572695190087 ], [ 3499184.946068417280912, 2033427.242318557808176 ], [ 3499175.461400781292468, 2033407.241884481627494 ], [ 3499173.541877988260239, 2033385.227731391321868 ], [ 3499170.78790116449818, 2033374.42172590107657 ], [ 3499156.502198711968958, 2033341.722604450536892 ], [ 3499153.459246336482465, 2033336.49284182023257 ], [ 3499149.533245090395212, 2033331.870256958762184 ], [ 3499147.65212939819321, 2033330.152004291769117 ], [ 3499090.893425811547786, 2033281.917751983040944 ], [ 3499049.86379466066137, 2033224.290353735676035 ], [ 3499008.440679223276675, 2033137.909850805066526 ], [ 3499004.450325665529817, 2033131.511116230860353 ], [ 3498946.55221841391176, 2033057.971946366596967 ], [ 3498901.516883129253983, 2032987.999183554435149 ], [ 3498900.920020297635347, 2032987.125075385905802 ], [ 3498900.536260899156332, 2032986.562985995551571 ], [ 3498873.849562036339194, 2032949.361284147482365 ], [ 3498863.21585700288415, 2032903.135420428356156 ], [ 3498858.031961238011718, 2032826.942580558825284 ], [ 3498861.992425899021327, 2032804.741307745687664 ], [ 3498847.503063137177378, 2032835.592989947879687 ], [ 3498831.55378365656361, 2032882.683688525110483 ], [ 3498836.788185223937035, 2032935.314535353798419 ], [ 3498862.868001089897007, 2032994.468002360314131 ], [ 3498871.927711064461619, 2033007.09311231598258 ], [ 3498917.837096883449703, 2033078.432490052422509 ], [ 3498976.773725485429168, 2033153.261769939213991 ], [ 3499019.455482894089073, 2033242.302986501250416 ], [ 3499064.69260689150542, 2033305.817066485062242 ], [ 3499124.722980915568769, 2033356.825072212144732 ], [ 3499138.590557440184057, 2033388.653889203676954 ], [ 3499141.050317325629294, 2033416.863968922989443 ], [ 3499154.683448480442166, 2033445.541212993906811 ], [ 3499174.459187878761441, 2033472.05398664670065 ], [ 3499211.423257663846016, 2033495.28965229424648 ], [ 3499227.625768369995058, 2033517.415884765330702 ], [ 3499234.552532044239342, 2033542.023528083227575 ], [ 3499268.815286454744637, 2033589.228526898426935 ], [ 3499292.354233297985047, 2033604.296370406169444 ], [ 3499321.382581281010062, 2033609.362516133347526 ], [ 3499337.19450884219259, 2033626.780217051273212 ], [ 3499351.070515207014978, 2033658.588265975704417 ], [ 3499355.127121893689036, 2033686.641992258606479 ], [ 3499371.328730322886258, 2033708.758296797983348 ], [ 3499392.008241286035627, 2033727.281237251823768 ], [ 3499413.317544747143984, 2033761.915898927953094 ], [ 3499432.945677978452295, 2033786.851035190979019 ], [ 3499494.554013586603105, 2033837.715147355571389 ], [ 3499539.307861625216901, 2033877.562886146828532 ], [ 3499570.427797899581492, 2033925.08620183984749 ], [ 3499594.817415317054838, 2033949.564793328754604 ], [ 3499630.814851108938456, 2033961.829494044650346 ], [ 3499693.435575747862458, 2033969.932612384203821 ], [ 3499724.155955592170358, 2033976.395416128914803 ], [ 3499764.190996039658785, 2033980.363089623861015 ], [ 3499804.468388100154698, 2033968.523980979807675 ], [ 3499876.666811293922365, 2033940.898095967946574 ], [ 3499912.68694001622498, 2033916.827888153726235 ], [ 3499952.650155895389616, 2033901.845184214878827 ], [ 3500049.019383654929698, 2033895.725347965024412 ], [ 3500068.249161288142204, 2033898.427483328385279 ], [ 3500087.298002348281443, 2033914.987429160159081 ], [ 3500110.764939394779503, 2033929.922742957714945 ], [ 3500127.263540307991207, 2033950.837169945705682 ], [ 3500154.735066174063832, 2033966.516647483920678 ], [ 3500216.541884372010827, 2034078.279816348804161 ], [ 3500231.383693114388734, 2034105.117849699221551 ], [ 3500256.900105976033956, 2034138.19968002056703 ], [ 3500329.82302352366969, 2034188.584131537005305 ], [ 3500424.763332777656615, 2034243.359094547573477 ], [ 3500468.554674968589097, 2034276.410391509067267 ], [ 3500502.760918199084699, 2034313.085258159320801 ], [ 3500657.009933548048139, 2034544.699374006595463 ], [ 3500730.557989025488496, 2034631.323379887500778 ], [ 3500800.297199834138155, 2034687.28885935456492 ], [ 3500811.951435983646661, 2034700.554448668844998 ], [ 3500835.19930961355567, 2034727.01672490616329 ], [ 3500844.824179129209369, 2034712.104103446006775 ], [ 3500848.82226484362036, 2034705.89401551312767 ], [ 3500849.201525742653757, 2034705.21096627577208 ], [ 3500851.162615527864546, 2034701.678872498916462 ], [ 3500853.248685300350189, 2034695.936228869482875 ], [ 3500854.314860845915973, 2034689.923227100400254 ], [ 3500854.31830261554569, 2034683.843901518033817 ], [ 3500853.262889189645648, 2034677.858425200916827 ], [ 3500852.53489129524678, 2034675.856778705958277 ], [ 3500851.29320559464395, 2034672.122802403755486 ], [ 3500849.42194182286039, 2034666.477617771131918 ], [ 3500845.271006284281611, 2034653.99164499877952 ], [ 3500842.476985299959779, 2034645.586628455901518 ], [ 3500841.000242896843702, 2034641.925818262156099 ], [ 3500837.957324525807053, 2034636.696029540384188 ], [ 3500835.348662010859698, 2034633.446285453159362 ], [ 3500803.725548333022743, 2034598.619758569868281 ], [ 3500800.820554750971496, 2034595.779827001038939 ], [ 3500735.44108375813812, 2034538.95382376993075 ], [ 3500702.404869511257857, 2034502.122734920587391 ], [ 3500683.274018266238272, 2034477.929344395175576 ], [ 3500656.022933088243008, 2034403.777468440355733 ], [ 3500654.133990212809294, 2034399.546103633474559 ], [ 3500619.924207534641027, 2034334.939278559060767 ], [ 3500617.611756352707744, 2034331.160114198923111 ], [ 3500613.686566944234073, 2034326.547354754991829 ], [ 3500611.425741509534419, 2034324.515470854472369 ], [ 3500580.622345123905689, 2034299.092593734618276 ], [ 3500573.271755552850664, 2034294.445046517299488 ], [ 3500532.556122520938516, 2034275.401346277678385 ], [ 3500510.135082378052175, 2034256.878280902514234 ], [ 3500486.174299822654575, 2034231.776232925709337 ], [ 3500460.331492910161614, 2034200.5595503593795 ], [ 3500457.369702968280762, 2034197.414755883393809 ], [ 3500433.143172431737185, 2034174.692304523894563 ], [ 3500413.268410871271044, 2034150.16129460465163 ], [ 3500410.696297206915915, 2034147.328948896145448 ], [ 3500406.010711164213717, 2034143.461829886771739 ], [ 3500403.434385049156845, 2034141.851551579777151 ], [ 3500370.033338403794914, 2034123.002553324447945 ], [ 3500363.256131037138402, 2034120.081492535304278 ], [ 3500335.572777023538947, 2034111.507862038444728 ], [ 3500259.018415953963995, 2034069.668294998817146 ], [ 3500222.016519709955901, 2034035.379204602213576 ], [ 3500198.369421657640487, 2033999.561234989902005 ], [ 3500183.754640471190214, 2033967.24440097855404 ], [ 3500182.308594224974513, 2033964.873720525065437 ], [ 3500179.362320722546428, 2033960.043602937133983 ], [ 3500152.606509930454195, 2033926.322741257259622 ], [ 3500149.664239855017513, 2033923.056062010349706 ], [ 3500120.164143609814346, 2033894.341017457656562 ], [ 3500117.191079224925488, 2033891.758320156252012 ], [ 3500089.95104312710464, 2033870.723459169035777 ], [ 3500088.393145134206861, 2033869.594279085751623 ], [ 3500083.109739501029253, 2033866.607023076619953 ], [ 3500077.36806060327217, 2033864.595893735764548 ], [ 3500073.557555369101465, 2033863.837623804807663 ], [ 3500054.327989507466555, 2033861.135544857708737 ], [ 3500047.208661628421396, 2033860.871786234201863 ], [ 3499950.830063231289387, 2033867.002538939472288 ], [ 3499940.642429958097637, 2033869.182691883761436 ], [ 3499900.669322615489364, 2033884.166536483680829 ], [ 3499893.375556255690753, 2033887.905833535594866 ], [ 3499860.69397284835577, 2033909.745948404073715 ], [ 3499793.540777076035738, 2033935.435212804470211 ], [ 3499761.253216269426048, 2033944.938960115658119 ], [ 3499729.939387404825538, 2033941.829192256322131 ], [ 3499701.064943537581712, 2033935.756081879837438 ] ] ], [ [ [ 3500872.459680081345141, 2034950.318366395542398 ], [ 3500865.224767709616572, 2034903.70805421564728 ], [ 3500862.30459942901507, 2034894.229977422626689 ], [ 3500850.033030104823411, 2034868.352814181474969 ], [ 3500845.978963472880423, 2034848.870914681116119 ], [ 3500846.245931547135115, 2034818.340251795016229 ], [ 3500846.117348597384989, 2034815.017912368988618 ], [ 3500844.004768242128193, 2034790.789270533248782 ], [ 3500841.657532409299165, 2034780.954630325548351 ], [ 3500836.40614012023434, 2034767.829150800127536 ], [ 3500834.628522184211761, 2034759.898293122416362 ], [ 3500822.485371166840196, 2034892.402294397354126 ], [ 3500820.592347075697035, 2034913.060405051568523 ], [ 3500855.067819928750396, 2035095.649891037959605 ], [ 3500867.776683093514293, 2035162.957729123299941 ], [ 3500879.209655951708555, 2035139.474613418569788 ], [ 3500881.665068377740681, 2035132.7746247719042 ], [ 3500890.204633048735559, 2035099.340219480684027 ], [ 3500891.030881082639098, 2035094.963063439819962 ], [ 3500897.874722119886428, 2035039.31192907365039 ], [ 3500897.88822083035484, 2035033.231605282984674 ], [ 3500896.6146369013004, 2035026.476294739171863 ], [ 3500889.630640227347612, 2035002.714843731140718 ], [ 3500889.379196144174784, 2035002.006930196424946 ], [ 3500888.403309402987361, 2034999.260022824862972 ], [ 3500879.015297690872103, 2034976.555281289620325 ], [ 3500872.459680081345141, 2034950.318366395542398 ] ] ], [ [ [ 3500853.386884643696249, 2035182.00359233492054 ], [ 3500804.075277176685631, 2035214.654823808465153 ], [ 3500800.107618861366063, 2035218.574636902892962 ], [ 3500829.091197903733701, 2035204.914370014797896 ], [ 3500834.387723148334771, 2035201.821457504527643 ], [ 3500839.064970375504345, 2035197.857980591477826 ], [ 3500840.281034237705171, 2035196.567117669386789 ], [ 3500850.733156521804631, 2035184.952437315136194 ], [ 3500853.386884643696249, 2035182.00359233492054 ] ] ], [ [ [ 3501098.787516662385315, 2036182.472029610304162 ], [ 3501097.096212697215378, 2036171.040789462160319 ], [ 3501102.211464999709278, 2036156.183937742374837 ], [ 3501102.211464999709278, 2036077.324543737573549 ], [ 3501081.252279866952449, 2036111.197879125131294 ], [ 3501072.827637019567192, 2036136.200066180899739 ], [ 3501063.947201863396913, 2036162.555071988841519 ], [ 3501069.674860485829413, 2036198.951237141853198 ], [ 3501080.680330359842628, 2036219.152699120109901 ], [ 3501086.812284890562296, 2036230.408043844858184 ], [ 3501102.211464999709278, 2036244.93898188485764 ], [ 3501102.211464999709278, 2036187.716790529433638 ], [ 3501098.787516662385315, 2036182.472029610304162 ] ] ], [ [ [ 3501100.331533277407289, 2035783.474417132791132 ], [ 3501091.428136286791414, 2035776.254879320738837 ], [ 3501074.213756212033331, 2035766.535000441595912 ], [ 3501068.617397908121347, 2035763.998602333944291 ], [ 3500974.021367102395743, 2035730.885335305938497 ], [ 3500965.933541504666209, 2035729.09382091416046 ], [ 3500916.384029962588102, 2035724.174667790066451 ], [ 3500913.20858712727204, 2035724.005092896986753 ], [ 3500871.70746059063822, 2035723.655155859654769 ], [ 3500833.458850669208914, 2035713.622850569197908 ], [ 3500802.42025148216635, 2035699.699242932954803 ], [ 3500780.347472817637026, 2035685.978895098902285 ], [ 3500760.764878616668284, 2035660.297146748984233 ], [ 3500752.32832913659513, 2035625.88202019687742 ], [ 3500751.044758013915271, 2035621.781687803333625 ], [ 3500716.481047483626753, 2035531.420950755942613 ], [ 3500712.150490589439869, 2035496.763922084588557 ], [ 3500716.740389257203788, 2035465.248740964801982 ], [ 3500728.203036808408797, 2035398.389006248908117 ], [ 3500745.438113734126091, 2035343.472077037440613 ], [ 3500746.522061424329877, 2035339.049637028248981 ], [ 3500754.274706271477044, 2035294.97662429464981 ], [ 3500773.573342593386769, 2035259.686510046944022 ], [ 3500798.237774001900107, 2035220.421876632142812 ], [ 3500754.856970967724919, 2035263.277718236669898 ], [ 3500716.59280174318701, 2035315.082766591804102 ], [ 3500702.952729260548949, 2035333.550374421756715 ], [ 3500674.829398406669497, 2035412.966464476659894 ], [ 3500672.317528240848333, 2035532.51644319249317 ], [ 3500693.573586715850979, 2035596.600026028929278 ], [ 3500719.969409761950374, 2035641.482138883089647 ], [ 3500725.46482214005664, 2035650.826089043403044 ], [ 3500758.157654248178005, 2035690.784585472894832 ], [ 3500825.317628762219101, 2035747.705787777435035 ], [ 3500843.701591601595283, 2035763.287044834345579 ], [ 3500994.799607256893069, 2035832.891377341700718 ], [ 3501076.318858323153108, 2035879.818818978732452 ], [ 3501102.211464999709278, 2035911.539758724858984 ], [ 3501102.211464999709278, 2035785.60725021129474 ], [ 3501100.331533277407289, 2035783.474417132791132 ] ] ], [ [ [ 3501042.642217631917447, 2042907.141968219308183 ], [ 3500977.978000399656594, 2042930.363553524017334 ], [ 3500803.786265275906771, 2043049.404186889063567 ], [ 3500679.100117301102728, 2043173.278794724494219 ], [ 3500657.989115747157484, 2043202.360490190796554 ], [ 3500629.035339396446943, 2043242.246314726537094 ], [ 3500589.948933055624366, 2043316.443500646855682 ], [ 3500572.89782349858433, 2043362.747582178097218 ], [ 3500562.211270537227392, 2043391.768002866301686 ], [ 3500548.575425013434142, 2043472.807810951955616 ], [ 3500561.438573830761015, 2043554.456589925801381 ], [ 3500606.224898329004645, 2043671.144736822228879 ], [ 3500629.395302092190832, 2043715.155965000856668 ], [ 3501102.211464999709278, 2043715.155965000856668 ], [ 3501102.211464999709278, 2042885.750183341559023 ], [ 3501042.642217631917447, 2042907.141968219308183 ] ] ] ] } }
]
}
