{
"type": "FeatureCollection",
"name": "Molinos",
"crs": { "type": "name", "properties": { "name": "urn:ogc:def:crs:EPSG::3035" } },
"features": [
{ "type": "Feature", "properties": { "ENP_GRAL": 3.0, "ENP_GRAL_NAME": "Monumentos Naturales", "color": "#AAFF00" }, "geometry": { "type": "Polygon", "coordinates": [ [ [ 3438379.642473742365837, 2027024.123155747773126 ], [ 3438390.23499255347997, 2027002.273696706164628 ], [ 3438412.553066494874656, 2026988.041660853661597 ], [ 3438454.872973476536572, 2026978.286635817959905 ], [ 3438459.783523368649185, 2026970.480291960760951 ], [ 3438450.208393918350339, 2026931.969029162311926 ], [ 3438456.827458901330829, 2026923.874335086671636 ], [ 3438472.392131026368588, 2026916.88718503434211 ], [ 3438474.605394221842289, 2026908.663742961827666 ], [ 3438456.651004678569734, 2026883.77793316799216 ], [ 3438433.914164192508906, 2026878.066540305502713 ], [ 3438398.18861719686538, 2026857.874552825000137 ], [ 3438366.749225017614663, 2026830.902368809795007 ], [ 3438365.852634366601706, 2026791.799956393660977 ], [ 3438375.748877437319607, 2026757.838529046392068 ], [ 3438394.798469700850546, 2026724.984485649038106 ], [ 3438365.685845383442938, 2026707.214577842038125 ], [ 3438327.441419379319996, 2026692.730491614667699 ], [ 3438302.775214953348041, 2026688.87268229899928 ], [ 3438285.059597818180919, 2026679.816660418407992 ], [ 3438248.256395894102752, 2026663.343467753846198 ], [ 3438193.996272558346391, 2026730.939977196743712 ], [ 3438180.840246995911002, 2026753.221892847912386 ], [ 3438176.681921171024442, 2026771.369159982074052 ], [ 3438165.20388764096424, 2026782.02848334889859 ], [ 3438158.482371847610921, 2026800.608076617820188 ], [ 3438147.838890105485916, 2026827.700157591840252 ], [ 3438142.99057921487838, 2026858.176483378745615 ], [ 3438131.976975494064391, 2026894.054252395639196 ], [ 3438122.629331623669714, 2026890.396971100242808 ], [ 3438115.494975328445435, 2026878.515794032718986 ], [ 3438109.163697811774909, 2026871.733063584892079 ], [ 3438098.42657276801765, 2026864.820707540726289 ], [ 3438090.571435065940022, 2026853.933637585025281 ], [ 3438078.712026633322239, 2026845.466412261128426 ], [ 3438069.066064790822566, 2026828.774960957234725 ], [ 3438020.352556437719613, 2026809.078098738566041 ], [ 3438013.403088280465454, 2026792.804379713721573 ], [ 3437989.097953672055155, 2026777.713203322375193 ], [ 3437960.334789997898042, 2026767.735822439193726 ], [ 3437928.516801926773041, 2026761.752933994634077 ], [ 3437807.394477774389088, 2026739.920857748249546 ], [ 3437830.531124223954976, 2026695.421484026825055 ], [ 3437853.228580366354436, 2026627.915023936657235 ], [ 3437840.318656086921692, 2026596.07262485078536 ], [ 3437831.948355939239264, 2026565.209010991733521 ], [ 3437828.787688162177801, 2026539.573444788809866 ], [ 3437778.097316251136363, 2026518.465133914491162 ], [ 3437768.914889384526759, 2026526.992270715767518 ], [ 3437762.090866351965815, 2026556.057622493710369 ], [ 3437750.190974094439298, 2026580.744622611906379 ], [ 3437708.03544106753543, 2026602.684447195148095 ], [ 3437649.593259920366108, 2026560.204068761318922 ], [ 3437556.603063466027379, 2026532.274556773481891 ], [ 3437540.451513072475791, 2026541.105330391554162 ], [ 3437557.04660269478336, 2026574.070629451656714 ], [ 3437580.765345903113484, 2026591.005166204413399 ], [ 3437570.224231750704348, 2026607.612367729423568 ], [ 3437521.727020492777228, 2026594.857515066396445 ], [ 3437478.068611146882176, 2026596.116234353045002 ], [ 3437440.946847923565656, 2026583.187163107097149 ], [ 3437435.222245337907225, 2026557.983571052318439 ], [ 3437399.644465823192149, 2026532.581770870368928 ], [ 3437350.200957506429404, 2026558.368885273812339 ], [ 3437319.934570867568254, 2026527.709217326715589 ], [ 3437298.944159766659141, 2026522.526762958150357 ], [ 3437294.198545993305743, 2026542.518474039854482 ], [ 3437281.279411637224257, 2026555.165511125465855 ], [ 3437249.613605175167322, 2026565.741010129917413 ], [ 3437226.194458110257983, 2026561.840809198329225 ], [ 3437204.329436883330345, 2026573.380064019467682 ], [ 3437163.949153451249003, 2026577.537574120564386 ], [ 3437086.64125823462382, 2026599.484648247947916 ], [ 3437044.988082132302225, 2026653.818658672273159 ], [ 3437028.249515539966524, 2026642.625651087379083 ], [ 3436986.760268332436681, 2026636.483422737801448 ], [ 3436935.583192302379757, 2026613.578463743207976 ], [ 3436852.944836357608438, 2026581.088741920655593 ], [ 3436803.369898532517254, 2026540.39178778231144 ], [ 3436771.700509427115321, 2026479.153167837532237 ], [ 3436742.637313938699663, 2026428.864173864712939 ], [ 3436719.271552802063525, 2026409.152373204473406 ], [ 3436719.479169217403978, 2026460.804785704473034 ], [ 3436709.668397029396147, 2026471.220577432541177 ], [ 3436686.622513608075678, 2026447.950805666623637 ], [ 3436675.487351804971695, 2026433.184071839321405 ], [ 3436665.180228687822819, 2026479.601823249366134 ], [ 3436642.395445606671274, 2026502.719335220521316 ], [ 3436635.655477134510875, 2026549.411685716127977 ], [ 3436638.530201746150851, 2026562.068178664892912 ], [ 3436677.33330740313977, 2026623.85488122026436 ], [ 3436713.095866674557328, 2026660.748926150845364 ], [ 3436732.958161488175392, 2026702.95339318132028 ], [ 3436753.72974435146898, 2026739.748383360682055 ], [ 3436780.55932202655822, 2026770.265039415331557 ], [ 3436794.838109795935452, 2026799.394598730374128 ], [ 3436817.677784886676818, 2026843.724576468579471 ], [ 3436828.337960632517934, 2026877.845910455100238 ], [ 3436857.457261729054153, 2026893.665510013699532 ], [ 3436955.100954846013337, 2026932.46028401167132 ], [ 3436991.918374756816775, 2026926.467633846448734 ], [ 3437086.941898922435939, 2026948.10788582987152 ], [ 3437127.097804266028106, 2026973.748073587194085 ], [ 3437170.852607529610395, 2027011.045928431674838 ], [ 3437223.230811928864568, 2027086.311813774285838 ], [ 3437303.893114231992513, 2027133.701029907446355 ], [ 3437436.37248615315184, 2027186.125228256452829 ], [ 3437581.514628534205258, 2027298.183292128844187 ], [ 3437719.672968896571547, 2027365.905556121608242 ], [ 3437828.67330745048821, 2027435.295517705148086 ], [ 3437893.283951164223254, 2027492.667652987409383 ], [ 3437973.008551815524697, 2027521.481655858457088 ], [ 3438186.402401252649724, 2027589.517474063672125 ], [ 3438262.986487715970725, 2027722.894281340530142 ], [ 3438346.422247619368136, 2027781.825888433726504 ], [ 3438367.97699483577162, 2027835.724133445182815 ], [ 3438413.733756594359875, 2027889.252921728184447 ], [ 3438434.652527842670679, 2027915.419242724543437 ], [ 3438479.225238071754575, 2027933.494978173170239 ], [ 3438541.988529067952186, 2027854.636445650598034 ], [ 3438554.89341228408739, 2027837.602272829040885 ], [ 3438583.343431780580431, 2027804.964241523295641 ], [ 3438656.077384897507727, 2027698.042430485365912 ], [ 3438632.419746282510459, 2027642.642566294176504 ], [ 3438637.36429271614179, 2027508.180359818972647 ], [ 3438636.541056672576815, 2027396.553939950885251 ], [ 3438624.240029444452375, 2027365.630605876678601 ], [ 3438604.583176832646132, 2027282.76593903824687 ], [ 3438610.50143381441012, 2027259.087342940736562 ], [ 3438591.157415325753391, 2027230.947046029148623 ], [ 3438531.077402883674949, 2027166.935112530831248 ], [ 3438506.709403612650931, 2027129.174595919437706 ], [ 3438500.28457585722208, 2027088.388313704635948 ], [ 3438520.193200510926545, 2027058.861233442323282 ], [ 3438545.074131603818387, 2027044.196807912318036 ], [ 3438546.298851711675525, 2027035.267048159148544 ], [ 3438489.462781085632741, 2027002.983544664690271 ], [ 3438461.542500588111579, 2027032.703425421845168 ], [ 3438431.502988820895553, 2027070.279903919203207 ], [ 3438407.490625405684114, 2027083.976508230669424 ], [ 3438394.725732378195971, 2027080.895656201057136 ], [ 3438383.339022025465965, 2027053.158372705802321 ], [ 3438379.642473742365837, 2027024.123155747773126 ] ] ] } }
]
}
