{
"type": "FeatureCollection",
"name": "Talamantes",
"crs": { "type": "name", "properties": { "name": "urn:ogc:def:crs:EPSG::3035" } },
"features": [
{ "type": "Feature", "properties": { "ENP_GRAL": 1.0, "ENP_GRAL_NAME": "Otros Parques", "color": "#38A800" }, "geometry": { "type": "Polygon", "coordinates": [ [ [ 3345451.265539457090199, 2149417.286296064034104 ], [ 3345407.178165381774306, 2149318.357243705075234 ], [ 3345383.274546987377107, 2149283.894822332076728 ], [ 3345375.437189445830882, 2149252.741506065241992 ], [ 3345370.777681269682944, 2149221.142410331405699 ], [ 3345371.073072556871921, 2149203.979186836630106 ], [ 3345369.000595782417804, 2149184.085562076885253 ], [ 3345371.067923115566373, 2149175.885619436390698 ], [ 3345374.579436591826379, 2149161.957424907013774 ], [ 3345374.711321883834898, 2149161.434114378876984 ], [ 3345395.443586546927691, 2149153.308123069349676 ], [ 3345405.103642473462969, 2149150.227161081507802 ], [ 3345415.463635422289371, 2149145.81104081356898 ], [ 3345446.682320412248373, 2149134.056928467005491 ], [ 3345461.934707186184824, 2149133.557764669880271 ], [ 3345461.950423572212458, 2149133.655807130038738 ], [ 3345517.302941780071706, 2149124.227011394221336 ], [ 3345530.788878548424691, 2149124.740375260822475 ], [ 3345552.503164051566273, 2149129.709435323253274 ], [ 3345582.145632701925933, 2149137.262953043915331 ], [ 3345593.812413103878498, 2149141.632934093475342 ], [ 3345614.687942246440798, 2149154.037049717269838 ], [ 3345638.171224655583501, 2149170.042177596595138 ], [ 3345648.628702940884978, 2149178.266239787917584 ], [ 3345667.543386689387262, 2149191.109317263588309 ], [ 3345682.750826938077807, 2149202.362456986680627 ], [ 3345694.412879553623497, 2149212.403821325395256 ], [ 3345706.961157202720642, 2149220.368672160431743 ], [ 3345710.506131219211966, 2149221.581028090789914 ], [ 3345714.92710131732747, 2149207.353546335361898 ], [ 3345709.656948888208717, 2149190.946375988423824 ], [ 3345710.483021839056164, 2149163.161692024208605 ], [ 3345701.920689300633967, 2149119.88128313049674 ], [ 3345701.977419089525938, 2149084.129128342494369 ], [ 3345696.562867526896298, 2149002.843023893423378 ], [ 3345700.064103713724762, 2148980.977145176380873 ], [ 3345699.136898694559932, 2148917.549432624597102 ], [ 3345696.792529141530395, 2148896.588416409678757 ], [ 3345685.957288114354014, 2148880.936674308497459 ], [ 3345695.794633728917688, 2148831.45150501979515 ], [ 3345688.634593463037163, 2148819.723570193164051 ], [ 3345684.159518687985837, 2148800.040786304976791 ], [ 3345681.646691279485822, 2148717.850511810276657 ], [ 3345685.529579737223685, 2148658.454832650721073 ], [ 3345695.879890710581094, 2148640.674899650737643 ], [ 3345696.079794950783253, 2148625.452298855409026 ], [ 3345701.365056335926056, 2148595.078120549675077 ], [ 3345710.795347400475293, 2148574.722545374184847 ], [ 3345717.226606346201152, 2148547.694270955398679 ], [ 3345718.88671348663047, 2148520.677574947942048 ], [ 3345731.678910943679512, 2148487.086939508095384 ], [ 3345740.50157726649195, 2148434.435045224614441 ], [ 3345736.139998181257397, 2148419.896419877652079 ], [ 3345745.007495879661292, 2148385.260394695214927 ], [ 3345746.508672199212015, 2148364.852292750962079 ], [ 3345760.074937894009054, 2148342.568411909975111 ], [ 3345767.166486212983727, 2148330.919866953510791 ], [ 3345768.380076150409877, 2148294.382503613829613 ], [ 3345768.421410375740379, 2148293.138981551863253 ], [ 3345768.458667492028326, 2148293.107254180591553 ], [ 3345792.096490127034485, 2148272.963907987810671 ], [ 3345801.512652753386647, 2148242.384402604307979 ], [ 3345861.893965054303408, 2148157.265361484605819 ], [ 3345917.460037173703313, 2148101.021906815934926 ], [ 3345924.066856677643955, 2148084.759151745587587 ], [ 3345948.552190196234733, 2148024.48850941285491 ], [ 3345979.159857730381191, 2147934.167090277187526 ], [ 3346000.224897067528218, 2147900.873832878656685 ], [ 3346000.572710300330073, 2147900.510402268730104 ], [ 3346034.475477349944413, 2147868.753279278986156 ], [ 3346062.652547670528293, 2147805.074823155067861 ], [ 3346097.167428803630173, 2147708.715359488036484 ], [ 3346107.904371644835919, 2147674.972742054611444 ], [ 3346179.502691800706089, 2147555.927889861166477 ], [ 3346215.147227437701076, 2147487.522086810320616 ], [ 3346379.672344637103379, 2147378.706054481677711 ], [ 3346378.439113632775843, 2147358.971701129805297 ], [ 3346377.141377724241465, 2147343.906042590737343 ], [ 3346380.434119354002178, 2147323.898993918672204 ], [ 3346384.882650902029127, 2147313.008276687003672 ], [ 3346380.458274650387466, 2147298.075708672404289 ], [ 3346383.337089445907623, 2147271.05249510332942 ], [ 3346387.011517306789756, 2147257.864584767725319 ], [ 3346389.457072285935283, 2147243.977038711775094 ], [ 3346394.649208798073232, 2147230.122984977439046 ], [ 3346401.366981546394527, 2147216.918200994376093 ], [ 3346414.359898511786014, 2147190.279763848520815 ], [ 3346427.137321878690273, 2147178.765140363946557 ], [ 3346430.569822840858251, 2147169.770519394427538 ], [ 3346438.323636631481349, 2147154.159280405379832 ], [ 3346462.422968425787985, 2147110.016723467037082 ], [ 3346468.457675115671009, 2147093.183043983764946 ], [ 3346474.19295569229871, 2147074.477129887789488 ], [ 3346476.937907365616411, 2147062.46187446359545 ], [ 3346477.865755298640579, 2147046.709433327428997 ], [ 3346477.849906555376947, 2147026.96791611192748 ], [ 3346486.429754046723247, 2147013.341431000269949 ], [ 3346493.898103637155145, 2146983.907933503389359 ], [ 3346498.438394899480045, 2146969.153941785916686 ], [ 3346499.832544945646077, 2146955.042531594634056 ], [ 3346507.227065220009536, 2146939.088403222616762 ], [ 3346519.613490810617805, 2146924.502380774822086 ], [ 3346532.915622390806675, 2146915.63163258228451 ], [ 3346499.797082208562642, 2146874.351205246057361 ], [ 3346400.88046698551625, 2146815.338045938871801 ], [ 3346310.514997603837401, 2146786.241151751019061 ], [ 3346272.760175358969718, 2146766.718067510984838 ], [ 3346260.319053454324603, 2146737.876796714030206 ], [ 3346263.450417086947709, 2146730.490070532076061 ], [ 3346281.246480900794268, 2146688.50921007245779 ], [ 3346370.829541815910488, 2146677.240792634431273 ], [ 3346368.267682136967778, 2146659.355279413051903 ], [ 3346366.870202676393092, 2146649.369345833547413 ], [ 3346366.037916309665889, 2146641.007501329760998 ], [ 3346365.456129877828062, 2146627.236227406188846 ], [ 3346365.200174841098487, 2146621.20541494525969 ], [ 3346364.427076067775488, 2146613.845896647311747 ], [ 3346364.091081874910742, 2146612.384759163483977 ], [ 3346362.487637382466346, 2146608.712156956084073 ], [ 3346361.495567520149052, 2146606.959447318688035 ], [ 3346356.402284367009997, 2146601.153646762948483 ], [ 3346352.268420070875436, 2146596.903774940408766 ], [ 3346349.024378247559071, 2146592.50064233969897 ], [ 3346346.318090669810772, 2146586.385335923638195 ], [ 3346344.600374801084399, 2146580.099974211771041 ], [ 3346342.646023545414209, 2146567.273208672646433 ], [ 3346340.191497337073088, 2146548.154423833824694 ], [ 3346339.323637406341732, 2146540.203510526567698 ], [ 3346338.780377639457583, 2146530.475660051219165 ], [ 3346338.362276243977249, 2146524.067857932765037 ], [ 3346338.300615414045751, 2146518.610709191299975 ], [ 3346336.596185082569718, 2146502.906611207872629 ], [ 3346336.130364586599171, 2146498.734345463570207 ], [ 3346337.072309248615056, 2146493.206009224057198 ], [ 3346339.09725300129503, 2146488.098770834505558 ], [ 3346344.489204083569348, 2146483.727751796133816 ], [ 3346354.900733244605362, 2146481.530586499255151 ], [ 3346369.58887348510325, 2146479.407433426007628 ], [ 3346377.312928623054177, 2146478.179305134806782 ], [ 3346388.621158649213612, 2146477.144170382991433 ], [ 3346398.08350971294567, 2146476.629559598397464 ], [ 3346405.178600917570293, 2146475.914596967864782 ], [ 3346413.000983586534858, 2146474.668942921794951 ], [ 3346418.384601712226868, 2146474.046567484270781 ], [ 3346423.696747500449419, 2146474.245489827357233 ], [ 3346424.830207587685436, 2146474.513215751387179 ], [ 3346428.656765731051564, 2146475.417191174346954 ], [ 3346435.261028962209821, 2146479.241250844206661 ], [ 3346440.220478307921439, 2146482.94402124825865 ], [ 3346448.294110517948866, 2146490.869470746256411 ], [ 3346454.73168182419613, 2146497.456505265086889 ], [ 3346461.148943658452481, 2146504.552986981347203 ], [ 3346468.483230961952358, 2146512.302144271787256 ], [ 3346472.778636939823627, 2146516.929017069749534 ], [ 3346476.22885391395539, 2146520.081652592401952 ], [ 3346478.552452466916293, 2146521.909235192928463 ], [ 3346485.176070807501674, 2146525.224218356888741 ], [ 3346489.567328944802284, 2146527.910825456492603 ], [ 3346493.902059045154601, 2146531.51831981446594 ], [ 3346497.818236395716667, 2146536.312021339312196 ], [ 3346504.815611555241048, 2146547.66285343375057 ], [ 3346508.850203264970332, 2146554.460889685899019 ], [ 3346514.70932393707335, 2146566.311189908534288 ], [ 3346515.910274012945592, 2146568.736906477250159 ], [ 3346518.763258716091514, 2146572.599440134130418 ], [ 3346523.564445842988789, 2146577.847915848717093 ], [ 3346526.38591444445774, 2146581.513777344487607 ], [ 3346528.669461002573371, 2146586.892039393540472 ], [ 3346529.534163015428931, 2146590.388343684840947 ], [ 3346530.004632049705833, 2146591.420722410082817 ], [ 3346530.656148757319897, 2146592.321295717731118 ], [ 3346534.861141938716173, 2146595.749025192111731 ], [ 3346538.315027660690248, 2146598.293424302712083 ], [ 3346542.203595752827823, 2146602.281163391191512 ], [ 3346542.626165514811873, 2146603.018438627012074 ], [ 3346572.202304672449827, 2146647.540989267639816 ], [ 3346584.201254951301962, 2146673.622906838543713 ], [ 3346590.122653552796692, 2146710.573058373760432 ], [ 3346586.887174475938082, 2146739.176396237686276 ], [ 3346618.018717290833592, 2146752.852925275452435 ], [ 3346643.857252365909517, 2146751.240733365528286 ], [ 3346675.629108319990337, 2146742.936958221718669 ], [ 3346703.443856173660606, 2146740.984555067494512 ], [ 3346747.796336359810084, 2146757.954285252839327 ], [ 3346782.612538815010339, 2146786.387142224702984 ], [ 3346789.327204841189086, 2146810.544072600081563 ], [ 3346790.027986795175821, 2146823.788584882393479 ], [ 3346800.314102105330676, 2146835.383196018170565 ], [ 3346820.103456910699606, 2146840.380841722711921 ], [ 3346850.903337310999632, 2146851.988380609080195 ], [ 3346860.232700754888356, 2146866.481041144579649 ], [ 3346862.619825255125761, 2146885.814319424331188 ], [ 3346860.902356688864529, 2146896.639925228431821 ], [ 3346866.845584558323026, 2146903.312072580680251 ], [ 3346902.720330346375704, 2146916.172428205609322 ], [ 3346931.176339930854738, 2146928.993418015539646 ], [ 3346945.948947466444224, 2146938.815591558814049 ], [ 3346955.611890741623938, 2146945.240276672877371 ], [ 3346975.206026711966842, 2146957.258178018964827 ], [ 3346994.439473272301257, 2146976.526575558818877 ], [ 3347017.106263030320406, 2146981.737471945118159 ], [ 3347077.93532186280936, 2146987.468204499222338 ], [ 3347097.696204135194421, 2146996.722954084631056 ], [ 3347118.828560451045632, 2147005.033309861086309 ], [ 3347149.2361179147847, 2147023.69520140811801 ], [ 3347161.774433387443423, 2147040.470913644880056 ], [ 3347174.104487768840045, 2147068.622669938020408 ], [ 3347184.89922939427197, 2147087.825048646423966 ], [ 3347205.541737941559404, 2147115.254794783890247 ], [ 3347209.454725180752575, 2147196.69531748816371 ], [ 3347296.887504662852734, 2147204.327008498832583 ], [ 3347359.507240497507155, 2147308.671256504021585 ], [ 3347445.199019549414515, 2147328.246800226159394 ], [ 3347461.550491441506892, 2147308.625024081673473 ], [ 3347522.911064536310732, 2147264.448724815621972 ], [ 3347636.867319495882839, 2147205.044836060609668 ], [ 3347682.966553478967398, 2147201.869475249201059 ], [ 3347734.54447681736201, 2147215.774154406972229 ], [ 3347811.898845429997891, 2147242.25219316361472 ], [ 3347854.020328034646809, 2147268.112065006047487 ], [ 3347864.498811289668083, 2147268.231970643624663 ], [ 3347904.376073234248906, 2147268.05164429731667 ], [ 3347924.400295328348875, 2147284.652870450168848 ], [ 3347939.818168450612575, 2147311.15988758020103 ], [ 3347956.954770005308092, 2147341.420627593994141 ], [ 3347983.573045649565756, 2147390.299673600587994 ], [ 3348002.536679735407233, 2147435.129408130422235 ], [ 3348009.09688686626032, 2147460.224274393171072 ], [ 3348018.217967020813376, 2147468.982196293771267 ], [ 3348018.446915539912879, 2147469.145497970283031 ], [ 3348020.549528875388205, 2147472.124703851528466 ], [ 3348023.35501202614978, 2147475.691902567632496 ], [ 3348025.204379633069038, 2147477.09468422178179 ], [ 3348030.796056627295911, 2147482.207898385822773 ], [ 3348037.087857152801007, 2147488.516068748664111 ], [ 3348037.421682463027537, 2147488.816133292391896 ], [ 3348043.137835372705013, 2147493.954602513462305 ], [ 3348049.812650475651026, 2147499.488509104587138 ], [ 3348055.887087387498468, 2147503.809281636029482 ], [ 3348062.538613063748926, 2147507.929386814590544 ], [ 3348068.948624116834253, 2147511.180511265061796 ], [ 3348075.85341040417552, 2147514.345878803171217 ], [ 3348082.548580006696284, 2147516.838770834729075 ], [ 3348089.034235782455653, 2147518.658562154509127 ], [ 3348095.030143745243549, 2147519.95554089313373 ], [ 3348101.784866631962359, 2147520.91922649089247 ], [ 3348106.077448751777411, 2147521.091737243812531 ], [ 3348110.587014394346625, 2147520.720552549231797 ], [ 3348117.520031430292875, 2147519.628749861381948 ], [ 3348118.393567724619061, 2147519.377064909320325 ], [ 3348123.224268620833755, 2147517.837265242822468 ], [ 3348129.161367643158883, 2147515.59989495947957 ], [ 3348131.754197103902698, 2147514.040428418200463 ], [ 3348133.458249011542648, 2147512.63310798117891 ], [ 3348135.612762645818293, 2147510.237517200876027 ], [ 3348138.917927741073072, 2147505.517138639464974 ], [ 3348143.64261158881709, 2147500.147768646012992 ], [ 3348148.745797062292695, 2147497.143371419049799 ], [ 3348153.60790383676067, 2147495.800166034139693 ], [ 3348157.098105757497251, 2147495.402420980855823 ], [ 3348162.868674898520112, 2147495.928184764459729 ], [ 3348167.022473377175629, 2147497.136785413138568 ], [ 3348173.855954149272293, 2147498.59317881334573 ], [ 3348174.464952716603875, 2147498.589724243618548 ], [ 3348178.302868445403874, 2147497.827883160673082 ], [ 3348191.362674334086478, 2147495.681698499247432 ], [ 3348196.836993825156242, 2147496.258449108339846 ], [ 3348201.741825011558831, 2147498.350508634001017 ], [ 3348205.9468336366117, 2147501.778211067430675 ], [ 3348209.226569581311196, 2147505.769643815234303 ], [ 3348213.039528192952275, 2147511.188775326125324 ], [ 3348216.955544427968562, 2147515.981859284453094 ], [ 3348219.488675074651837, 2147518.482584298588336 ], [ 3348223.729372891131788, 2147521.498739228118211 ], [ 3348225.605420805048198, 2147523.081310514360666 ], [ 3348229.012689746916294, 2147525.955672558397055 ], [ 3348232.388337071985006, 2147528.007350182160735 ], [ 3348235.257493377197534, 2147529.437440203037113 ], [ 3348236.194161728024483, 2147529.5796915050596 ], [ 3348240.19021459389478, 2147529.803345217369497 ], [ 3348246.885811867192388, 2147529.765124824363738 ], [ 3348249.350786013994366, 2147529.447431087493896 ], [ 3348251.561580086592585, 2147529.162545481696725 ], [ 3348260.909697671886533, 2147528.566490924917161 ], [ 3348265.984552189707756, 2147529.819291944149882 ], [ 3348269.853654756210744, 2147531.785847865976393 ], [ 3348285.686162561178207, 2147540.603699053637683 ], [ 3348312.571951325051486, 2147556.935527770314366 ], [ 3348350.233607647009194, 2147570.80520723387599 ], [ 3348391.998316301498562, 2147561.491758311167359 ], [ 3348424.017629448324442, 2147540.793771576602012 ], [ 3348461.042973932344466, 2147553.862278845626861 ], [ 3348502.749222198966891, 2147560.657155469059944 ], [ 3348519.737190361600369, 2147581.122779826633632 ], [ 3348641.784224479459226, 2147583.609408615157008 ], [ 3348752.986215928569436, 2147581.786644761450589 ], [ 3348806.613770570605993, 2147584.403915256261826 ], [ 3348791.368419627193362, 2147566.575026588048786 ], [ 3348772.547429230995476, 2147542.273962465580553 ], [ 3348749.528433383908123, 2147518.391765565611422 ], [ 3348717.707453832961619, 2147472.533895327709615 ], [ 3348706.255468739196658, 2147458.102235066704452 ], [ 3348697.070279072038829, 2147441.355231219436973 ], [ 3348694.635353927500546, 2147436.915671107824892 ], [ 3348689.616210399195552, 2147412.568393051624298 ], [ 3348695.781511812005192, 2147395.914979494176805 ], [ 3348704.101946907117963, 2147376.865916378796101 ], [ 3348714.029464744497091, 2147363.412285685073584 ], [ 3348728.045112330466509, 2147343.788188759237528 ], [ 3348752.15709793381393, 2147319.996513185091317 ], [ 3348765.729063435457647, 2147305.20722437556833 ], [ 3348776.378958339802921, 2147296.894806288648397 ], [ 3348800.220867411233485, 2147276.490490315016359 ], [ 3348808.783923961222172, 2147270.359884387813509 ], [ 3348812.633858971297741, 2147267.773342825472355 ], [ 3348816.401392345782369, 2147265.302433467470109 ], [ 3348820.04662161692977, 2147258.903941730968654 ], [ 3348820.667555539868772, 2147257.075951503589749 ], [ 3348821.482629460282624, 2147253.290611082687974 ], [ 3348821.467470659408718, 2147250.660834316164255 ], [ 3348822.097205560654402, 2147245.085301742423326 ], [ 3348822.853868465870619, 2147235.235247785225511 ], [ 3348822.942477523349226, 2147226.917240596376359 ], [ 3348823.868581616319716, 2147221.290811854880303 ], [ 3348826.036743964068592, 2147212.007664052769542 ], [ 3348828.774002529680729, 2147201.209197437390685 ], [ 3348831.423541161231697, 2147193.665808602236211 ], [ 3348836.058762332890183, 2147182.034398330841213 ], [ 3348839.055680400691926, 2147176.65872233081609 ], [ 3348843.361601755023003, 2147169.944356623105705 ], [ 3348849.316039182245731, 2147160.2118772380054 ], [ 3348855.100640144199133, 2147151.319227950181812 ], [ 3348859.813117421232164, 2147145.243451016023755 ], [ 3348866.26552767213434, 2147137.349228570703417 ], [ 3348870.780852825846523, 2147131.307278923690319 ], [ 3348873.178059259429574, 2147127.514363651163876 ], [ 3348873.939967573620379, 2147126.308799022808671 ], [ 3348879.356681766919792, 2147118.289256118237972 ], [ 3348887.682992280460894, 2147105.617618911899626 ], [ 3348888.353331455029547, 2147104.192306201905012 ], [ 3348888.667490052990615, 2147103.524372562766075 ], [ 3348889.478416542988271, 2147100.347353245131671 ], [ 3348889.843123273923993, 2147097.550865798257291 ], [ 3348889.764254072681069, 2147097.058697292581201 ], [ 3348889.005909287370741, 2147094.860356478020549 ], [ 3348887.820173416752368, 2147092.53336488455534 ], [ 3348885.212323919404298, 2147088.93194186501205 ], [ 3348880.758882706984878, 2147083.319470410700887 ], [ 3348874.938258271664381, 2147075.512479905970395 ], [ 3348869.564400438219309, 2147067.324560260400176 ], [ 3348865.399874261580408, 2147060.346741463989019 ], [ 3348861.211703104898334, 2147051.954692372120917 ], [ 3348858.201928742229939, 2147044.575264963321388 ], [ 3348854.792531250044703, 2147035.340767079032958 ], [ 3348853.062457813415676, 2147028.348325493745506 ], [ 3348851.780099868308753, 2147020.97580405138433 ], [ 3348851.350367018952966, 2147013.861056953668594 ], [ 3348851.802288021426648, 2147007.809386510401964 ], [ 3348852.902970538008958, 2146998.203607557807118 ], [ 3348854.4301991853863, 2146991.258361761923879 ], [ 3348856.902011202182621, 2146983.239334104582667 ], [ 3348859.124721352476627, 2146978.098249766975641 ], [ 3348863.090740582440048, 2146970.531155203469098 ], [ 3348863.446867080871016, 2146968.950934761203825 ], [ 3348864.084071852266788, 2146964.689768608659506 ], [ 3348864.175642006099224, 2146960.826847961172462 ], [ 3348863.650862855836749, 2146955.652295662090182 ], [ 3348863.921259874477983, 2146949.733216059394181 ], [ 3348864.792142200283706, 2146942.495919944252819 ], [ 3348865.500525865703821, 2146939.944349522702396 ], [ 3348866.504589221440256, 2146937.341393832117319 ], [ 3348869.573444331996143, 2146928.611838758457452 ], [ 3348872.492236199788749, 2146922.743993075098842 ], [ 3348875.765986448619515, 2146917.826445947866887 ], [ 3348881.534228080883622, 2146908.835200555622578 ], [ 3348882.471466397400945, 2146906.446344956755638 ], [ 3348883.80081756785512, 2146902.06689218711108 ], [ 3348884.588524034246802, 2146897.476288265082985 ], [ 3348884.731683585327119, 2146893.300341755151749 ], [ 3348885.837207379750907, 2146880.555025672540069 ], [ 3348887.292266126256436, 2146876.963834600057453 ], [ 3348890.417060651816428, 2146867.313422715291381 ], [ 3348891.987300158943981, 2146861.272031715139747 ], [ 3348894.546361743472517, 2146852.529367274604738 ], [ 3348898.762863137293607, 2146839.552994837984443 ], [ 3348901.151516974437982, 2146834.180669967085123 ], [ 3348903.31486006686464, 2146828.037225196138024 ], [ 3348904.078292728867382, 2146824.564339377917349 ], [ 3348904.482031646650285, 2146820.749060272239149 ], [ 3348904.312911329325289, 2146816.525300228968263 ], [ 3348903.760293705388904, 2146813.076677528209984 ], [ 3348902.476720348466188, 2146808.235503460280597 ], [ 3348900.699462403543293, 2146803.478671831078827 ], [ 3348898.233826143201441, 2146798.233101733960211 ], [ 3348895.400912317447364, 2146793.86072183586657 ], [ 3348891.323170496150851, 2146786.158830595202744 ], [ 3348888.063562133349478, 2146781.657072003465146 ], [ 3348885.269966182298958, 2146776.265235185157508 ], [ 3348881.983255659695715, 2146768.427229594439268 ], [ 3348881.126468315254897, 2146763.714711252134293 ], [ 3348880.598549698945135, 2146756.616878635250032 ], [ 3348880.64305275445804, 2146749.926691560074687 ], [ 3348880.475219428073615, 2146740.640874628908932 ], [ 3348879.867815025150776, 2146735.581698682624847 ], [ 3348878.222046477720141, 2146723.411378510762006 ], [ 3348876.599525374360383, 2146715.185664053075016 ], [ 3348875.2958113104105, 2146710.853696829639375 ], [ 3348873.447020947933197, 2146706.919673949480057 ], [ 3348869.531543253455311, 2146699.594759330619127 ], [ 3348866.924424973782152, 2146693.462398958392441 ], [ 3348862.526688814163208, 2146684.397786364890635 ], [ 3348858.690667712595314, 2146677.565545887686312 ], [ 3348856.604041365906596, 2146674.684532266110182 ], [ 3348853.940515541471541, 2146672.004137315787375 ], [ 3348845.685393320396543, 2146664.211174001451582 ], [ 3348837.907943440135568, 2146656.234565714374185 ], [ 3348833.71580761205405, 2146650.982032991014421 ], [ 3348830.930123744998127, 2146646.904972373507917 ], [ 3348822.60309606557712, 2146642.466001044027507 ], [ 3348811.348175837658346, 2146633.062492274679244 ], [ 3348786.454330368898809, 2146599.378340926021338 ], [ 3348795.166531934402883, 2146556.164089401252568 ], [ 3348788.84142405865714, 2146545.204569203779101 ], [ 3348782.867100618779659, 2146535.803657331969589 ], [ 3348777.180643396452069, 2146527.568703683558851 ], [ 3348773.407777026761323, 2146521.13049587700516 ], [ 3348769.152209423482418, 2146512.952971310354769 ], [ 3348767.086726299487054, 2146507.030960531905293 ], [ 3348765.503049452789128, 2146500.317404337227345 ], [ 3348765.081581904087216, 2146494.517398153897375 ], [ 3348765.256562219932675, 2146488.006963894702494 ], [ 3348765.958543205633759, 2146476.5467185867019 ], [ 3348765.682918046601117, 2146473.556684019044042 ], [ 3348764.707581820897758, 2146469.370310542173684 ], [ 3348763.336593839339912, 2146465.252726539038122 ], [ 3348761.519332610536367, 2146461.515376197174191 ], [ 3348758.868069621734321, 2146457.011004582047462 ], [ 3348754.972104087937623, 2146451.707514437846839 ], [ 3348751.723971121944487, 2146447.912833807058632 ], [ 3348748.435630030464381, 2146445.137154165655375 ], [ 3348743.978667372837663, 2146440.132896406110376 ], [ 3348737.887358767911792, 2146434.897140898741782 ], [ 3348736.323608933016658, 2146433.553023021668196 ], [ 3348730.506607316900045, 2146427.669257479254156 ], [ 3348724.936371159274131, 2146422.464934122748673 ], [ 3348713.668156428262591, 2146411.937128631863743 ], [ 3348700.867967411875725, 2146402.394636169075966 ], [ 3348680.098758971318603, 2146393.818402810953557 ], [ 3348657.179107221309096, 2146387.029894031584263 ], [ 3348634.998424916528165, 2146382.949504677671939 ], [ 3348629.093207863625139, 2146382.852205524221063 ], [ 3348623.163783871103078, 2146383.872505181469023 ], [ 3348617.143849494867027, 2146386.224614321254194 ], [ 3348610.102270243689418, 2146388.746347203385085 ], [ 3348605.715953468345106, 2146390.31718550529331 ], [ 3348599.632190611679107, 2146392.275386856868863 ], [ 3348588.817845510318875, 2146393.225023435428739 ], [ 3348574.794415273703635, 2146391.891696510836482 ], [ 3348567.103564384393394, 2146388.25441487133503 ], [ 3348561.357139403931797, 2146384.079137252643704 ], [ 3348555.512304459698498, 2146379.921502671204507 ], [ 3348552.010990832932293, 2146377.430739594623446 ], [ 3348550.469661045819521, 2146376.334269060287625 ], [ 3348540.775097982957959, 2146369.699656684882939 ], [ 3348533.036736501846462, 2146365.766503262333572 ], [ 3348529.563021948561072, 2146363.731876675970852 ], [ 3348526.47211805684492, 2146363.453856981359422 ], [ 3348523.412925465032458, 2146363.372473407536745 ], [ 3348516.986264536622912, 2146362.555125406011939 ], [ 3348506.054016790818423, 2146358.96866347361356 ], [ 3348502.180682291742414, 2146357.610498879104853 ], [ 3348497.714646835345775, 2146356.353716817684472 ], [ 3348491.592630830593407, 2146354.2684565060772 ], [ 3348482.371701017022133, 2146350.590322153642774 ], [ 3348469.293952853418887, 2146345.652027932927012 ], [ 3348464.843338240869343, 2146344.494653260335326 ], [ 3348458.468050841242075, 2146343.364217940717936 ], [ 3348453.421356129460037, 2146342.916402893140912 ], [ 3348447.713170734699816, 2146342.784508593380451 ], [ 3348441.507469271775335, 2146343.346124609466642 ], [ 3348427.187194366008043, 2146344.595538008958101 ], [ 3348420.040458561386913, 2146345.622632166370749 ], [ 3348403.589306093286723, 2146348.150071451440454 ], [ 3348391.039339085575193, 2146350.30964951403439 ], [ 3348382.110222050920129, 2146352.251054389867932 ], [ 3348376.208656814880669, 2146354.076378027908504 ], [ 3348366.01807426661253, 2146357.652647627517581 ], [ 3348353.337680687662214, 2146359.632587577216327 ], [ 3348343.091728518716991, 2146364.129429866559803 ], [ 3348339.434614202007651, 2146367.289768311195076 ], [ 3348324.338177051395178, 2146373.836376899853349 ], [ 3348316.934615753125399, 2146376.426621498540044 ], [ 3348310.938386110588908, 2146377.66115595260635 ], [ 3348302.309712766204029, 2146378.943383888341486 ], [ 3348295.759705640375614, 2146379.260521530173719 ], [ 3348287.024697564076632, 2146379.24481231207028 ], [ 3348278.277607354335487, 2146378.522541208192706 ], [ 3348269.072506138589233, 2146377.47419145423919 ], [ 3348259.278225045185536, 2146375.919937954284251 ], [ 3348245.966087071225047, 2146373.957946403883398 ], [ 3348238.452562541235238, 2146373.327154502272606 ], [ 3348224.116489633917809, 2146371.946972719859332 ], [ 3348212.314557432197034, 2146370.535507356282324 ], [ 3348203.425849792081863, 2146368.926273867487907 ], [ 3348191.773561826441437, 2146367.185111419297755 ], [ 3348184.884845255874097, 2146366.649508610367775 ], [ 3348171.631793962325901, 2146365.689959056209773 ], [ 3348163.292036683298647, 2146365.606759689282626 ], [ 3348154.572211540304124, 2146365.689606818370521 ], [ 3348148.382223559077829, 2146366.349907303228974 ], [ 3348142.157051521353424, 2146367.421158849261701 ], [ 3348136.093440055847168, 2146368.86950493324548 ], [ 3348128.47615085169673, 2146371.395209220703691 ], [ 3348122.491989286150783, 2146373.407815964892507 ], [ 3348116.143121236935258, 2146375.542921078391373 ], [ 3348105.015659406315535, 2146378.976221994031221 ], [ 3348095.540803378913552, 2146381.315851862542331 ], [ 3348086.481077576987445, 2146383.077090955339372 ], [ 3348079.022375437431037, 2146384.057078854180872 ], [ 3348068.99858595058322, 2146384.87078426592052 ], [ 3348059.82838807720691, 2146385.942598009482026 ], [ 3348049.436611060984433, 2146387.629526374395937 ], [ 3348037.895267028361559, 2146389.109790819697082 ], [ 3348030.392613395117223, 2146389.185599711257964 ], [ 3348022.744464561343193, 2146388.983306902926415 ], [ 3348010.314007292035967, 2146388.085247139446437 ], [ 3348002.835640178993344, 2146387.043339959345758 ], [ 3347994.919498817063868, 2146385.165423405356705 ], [ 3347983.635189359541982, 2146382.550986228510737 ], [ 3347975.125435394234955, 2146380.775731588713825 ], [ 3347962.707102559506893, 2146378.052903722971678 ], [ 3347955.97669694526121, 2146375.971143779344857 ], [ 3347949.577680719085038, 2146373.427156213205308 ], [ 3347940.617938854731619, 2146370.109150462783873 ], [ 3347933.689702107105404, 2146368.061437025666237 ], [ 3347923.725758070126176, 2146364.814691659994423 ], [ 3347916.441652724053711, 2146361.816030283458531 ], [ 3347907.798136468976736, 2146357.937362603843212 ], [ 3347898.502601590007544, 2146353.158102881163359 ], [ 3347888.192093131132424, 2146347.744121965486556 ], [ 3347878.813265699893236, 2146343.080650161486119 ], [ 3347870.971842971164733, 2146339.772397275082767 ], [ 3347859.127251911442727, 2146334.926268878858536 ], [ 3347848.871223941445351, 2146331.122200102545321 ], [ 3347836.006511918269098, 2146326.248622460756451 ], [ 3347829.825510116294026, 2146323.161588363349438 ], [ 3347822.419335836078972, 2146318.765538857784122 ], [ 3347816.261948758270591, 2146314.560393925290555 ], [ 3347808.832576586399227, 2146308.751553765498102 ], [ 3347802.78199480380863, 2146303.313137114979327 ], [ 3347797.375983066856861, 2146297.459541893098503 ], [ 3347793.416973739396781, 2146291.762030956801027 ], [ 3347792.489060562103987, 2146287.871635691262782 ], [ 3347788.436612975783646, 2146273.989200733602047 ], [ 3347788.290363009087741, 2146273.710823050234467 ], [ 3347785.438957381993532, 2146262.254187516402453 ], [ 3347783.179598025046289, 2146255.757836020085961 ], [ 3347780.781393648590893, 2146250.297974310815334 ], [ 3347775.594361504074186, 2146238.838382201269269 ], [ 3347773.83611664827913, 2146236.103678211569786 ], [ 3347771.386418281123042, 2146233.487764099147171 ], [ 3347764.889578378293663, 2146225.898658864665776 ], [ 3347762.064895409159362, 2146220.309489467181265 ], [ 3347760.391297494061291, 2146209.86495881807059 ], [ 3347769.163041796069592, 2146204.406600946560502 ], [ 3347769.214821320027113, 2146204.094144491944462 ], [ 3347768.852159046567976, 2146199.296684821601957 ], [ 3347768.537991001736373, 2146189.732259672600776 ], [ 3347768.599368199240416, 2146180.609151136130095 ], [ 3347768.772349450737238, 2146167.112912104465067 ], [ 3347768.307111776433885, 2146160.409773337654769 ], [ 3347767.443054163362831, 2146154.381751274690032 ], [ 3347765.607297877781093, 2146143.56074279313907 ], [ 3347763.057625615037978, 2146128.913564531132579 ], [ 3347739.40853117313236, 2146113.138147015124559 ], [ 3347721.781159134581685, 2146107.059598671272397 ], [ 3347694.998170802835375, 2146090.102265506982803 ], [ 3347624.193123959004879, 2146029.08446294721216 ], [ 3347608.821288339793682, 2146012.998887879773974 ], [ 3347600.145180496387184, 2145979.763440871611238 ], [ 3347700.582444636616856, 2145917.726869100704789 ], [ 3347692.178382627665997, 2145885.558891196735203 ], [ 3347694.590286997612566, 2145864.4887038115412 ], [ 3347700.879698407370597, 2145844.168942216318101 ], [ 3347690.946752758696675, 2145809.428603479638696 ], [ 3347690.81120624858886, 2145726.833124828524888 ], [ 3347701.621479227673262, 2145640.936213592998683 ], [ 3347754.410590352490544, 2145411.433882872574031 ], [ 3348124.584924839902669, 2145257.724864426068962 ], [ 3348154.815257374662906, 2145256.269567798823118 ], [ 3348121.343879223801196, 2145208.974951460957527 ], [ 3348088.143307658843696, 2145153.230469656176865 ], [ 3348076.985511186067015, 2145102.602696840651333 ], [ 3348086.067060683388263, 2145092.737794291693717 ], [ 3348088.491330795921385, 2145089.486110674217343 ], [ 3348091.116224238183349, 2145085.591608403250575 ], [ 3348093.568371650297195, 2145080.613812570460141 ], [ 3348095.008239030838013, 2145076.923219243064523 ], [ 3348096.24677107995376, 2145071.344065734185278 ], [ 3348097.733353279065341, 2145067.949482320807874 ], [ 3348102.891159461811185, 2145054.507743526715785 ], [ 3348105.612690893001854, 2145046.141607902478427 ], [ 3348107.7793656331487, 2145041.921571474522352 ], [ 3348110.524690653197467, 2145034.969623905606568 ], [ 3348113.226140495855361, 2145027.113186181988567 ], [ 3348117.402866144664586, 2145015.156494251452386 ], [ 3348119.072799129411578, 2145006.566422445233911 ], [ 3348118.941570841241628, 2144994.338319419883192 ], [ 3348117.718159752897918, 2144987.967823571059853 ], [ 3348114.488604576792568, 2144971.615145525429398 ], [ 3348108.926502405200154, 2144942.60276248678565 ], [ 3348105.585403335280716, 2144930.62293693004176 ], [ 3348102.090283927507699, 2144919.581249170936644 ], [ 3348096.964189705438912, 2144901.529654800891876 ], [ 3348095.870831350795925, 2144895.339584378525615 ], [ 3348092.310994181316346, 2144874.386150166857988 ], [ 3348087.364739592187107, 2144863.796352272387594 ], [ 3348087.598149414174259, 2144846.240235335193574 ], [ 3348087.020093989092857, 2144834.392573742195964 ], [ 3348087.702742873691022, 2144823.591659122146666 ], [ 3348089.448971204925328, 2144810.890071744099259 ], [ 3348091.801686079706997, 2144791.349440642632544 ], [ 3348094.63676964584738, 2144771.017385131679475 ], [ 3348096.778541374951601, 2144758.397694306448102 ], [ 3348098.55849383957684, 2144753.029347658157349 ], [ 3348101.049972398206592, 2144747.031726262532175 ], [ 3348106.622440784238279, 2144735.5432448531501 ], [ 3348109.801889389753342, 2144730.035038457717746 ], [ 3348118.588898233603686, 2144712.627329657785594 ], [ 3348119.891042816452682, 2144704.910958260297775 ], [ 3348120.16965484013781, 2144697.775895008817315 ], [ 3348119.783544459380209, 2144691.56478321691975 ], [ 3348120.391745861619711, 2144679.513028932735324 ], [ 3348121.893012599553913, 2144666.700024619698524 ], [ 3348122.56791112665087, 2144654.433897637762129 ], [ 3348125.076568721327931, 2144643.472813424654305 ], [ 3348128.005098449997604, 2144628.794274448417127 ], [ 3348124.609935485757887, 2144612.67294021230191 ], [ 3348125.193912059534341, 2144601.738782689440995 ], [ 3348126.048638335429132, 2144582.354607843328267 ], [ 3348124.973343396559358, 2144568.668533829506487 ], [ 3348123.008119031786919, 2144555.136396246962249 ], [ 3348122.991544998250902, 2144542.989464032463729 ], [ 3348123.656978555489331, 2144537.002418397925794 ], [ 3348124.996013354510069, 2144523.812258910387754 ], [ 3348126.360764116980135, 2144504.441692125983536 ], [ 3348126.723755921237171, 2144492.12861495744437 ], [ 3348126.75885938340798, 2144479.669057346414775 ], [ 3348126.4068737719208, 2144466.061542785726488 ], [ 3348125.388613720890135, 2144458.440303252078593 ], [ 3348121.898370909038931, 2144444.25925129186362 ], [ 3348119.445582805201411, 2144437.188583539333194 ], [ 3348114.610476744361222, 2144424.757339099422097 ], [ 3348112.951791487634182, 2144419.474341574124992 ], [ 3348111.85841313842684, 2144413.283794464543462 ], [ 3348108.510134435724467, 2144399.988836161792278 ], [ 3348106.199509609024972, 2144393.805541727226228 ], [ 3348102.969060174189508, 2144382.515660147182643 ], [ 3348101.954609824344516, 2144376.817770068068057 ], [ 3348100.100458074826747, 2144363.974867284763604 ], [ 3348098.546876362990588, 2144350.472766010090709 ], [ 3348096.534358442761004, 2144336.6444406285882 ], [ 3348094.150741204153746, 2144321.766047708690166 ], [ 3348090.372136821039021, 2144306.41925435885787 ], [ 3348085.853182041086257, 2144293.42718414356932 ], [ 3348084.526681774295866, 2144287.681641308125108 ], [ 3348081.683587281964719, 2144277.539982928428799 ], [ 3348079.141110049560666, 2144266.739421606063843 ], [ 3348079.192595119588077, 2144266.426315443590283 ], [ 3348078.115025303326547, 2144245.755024578422308 ], [ 3347442.355441515333951, 2143817.326331703923643 ], [ 3347441.969206340610981, 2143808.5473254583776 ], [ 3347433.358642521314323, 2143612.837261951994151 ], [ 3347450.245760243851691, 2143577.532491499558091 ], [ 3347455.030493187252432, 2143570.634579974226654 ], [ 3347460.18614115472883, 2143564.786260818131268 ], [ 3347464.247020214330405, 2143560.341178548987955 ], [ 3347468.643927935976535, 2143554.826213318388909 ], [ 3347472.514730557799339, 2143549.198976560495794 ], [ 3347476.572230953723192, 2143542.831090410705656 ], [ 3347480.502804642077535, 2143535.675272359512746 ], [ 3347484.872797344345599, 2143526.823389874771237 ], [ 3347490.971355653833598, 2143515.446650986559689 ], [ 3347496.24645924102515, 2143506.540585323236883 ], [ 3347501.481661402154714, 2143498.653856186196208 ], [ 3347506.108545392751694, 2143490.770451127551496 ], [ 3347511.004378726705909, 2143482.030391409061849 ], [ 3347514.492269903887063, 2143474.64721701014787 ], [ 3347519.317710371688008, 2143464.19797600666061 ], [ 3347525.048279808368534, 2143451.163479215465486 ], [ 3347531.07593234302476, 2143438.078678925521672 ], [ 3347535.762278667651117, 2143428.665948557667434 ], [ 3347542.077635408379138, 2143416.745802685618401 ], [ 3347545.166556594427675, 2143410.03826184105128 ], [ 3347549.181599057279527, 2143400.235620914027095 ], [ 3347552.24708339292556, 2143392.114560039713979 ], [ 3347555.22212169598788, 2143382.794305049814284 ], [ 3347558.825291937682778, 2143372.960480714216828 ], [ 3347565.150373940356076, 2143354.76178923714906 ], [ 3347566.353789265267551, 2143349.593641104176641 ], [ 3347568.985684500075877, 2143337.497225780971348 ], [ 3347571.042801121249795, 2143330.056010524742305 ], [ 3347570.991872093640268, 2143330.368817074224353 ], [ 3347573.32633023802191, 2143320.854849378578365 ], [ 3347576.428154753055423, 2143309.791599068790674 ], [ 3347577.876872443128377, 2143302.353822620585561 ], [ 3347579.725664732977748, 2143291.708363291341811 ], [ 3347580.510175306815654, 2143285.194744260981679 ], [ 3347580.998945257626474, 2143276.201555953361094 ], [ 3347580.818255459424108, 2143271.271260653622448 ], [ 3347580.053351486567408, 2143265.226932406425476 ], [ 3347578.816260853316635, 2143251.164024965837598 ], [ 3347580.556320808827877, 2143246.814767802134156 ], [ 3347584.206377521157265, 2143239.807902276050299 ], [ 3347587.651238559745252, 2143234.051909601781517 ], [ 3347589.537634653504938, 2143229.981012512929738 ], [ 3347590.929715444333851, 2143225.995674027130008 ], [ 3347592.20045179175213, 2143220.613156045787036 ], [ 3347594.97394984588027, 2143209.403719515074044 ], [ 3347596.34005882171914, 2143202.081515257246792 ], [ 3347596.763918808661401, 2143197.756335749290884 ], [ 3347596.563592144288123, 2143193.33606093749404 ], [ 3347595.88130815140903, 2143187.176073097158223 ], [ 3347591.740143510513008, 2143154.983609228394926 ], [ 3347590.986232037190348, 2143152.177484300918877 ], [ 3347589.946880215778947, 2143150.128893300890923 ], [ 3347588.089825681876391, 2143147.411024399101734 ], [ 3347584.367781531997025, 2143143.191710283048451 ], [ 3347580.148378257639706, 2143137.133986020926386 ], [ 3347578.043056359514594, 2143132.231615507043898 ], [ 3347576.372400132007897, 2143126.241790249943733 ], [ 3347575.571709538344294, 2143120.608511506579816 ], [ 3347575.367817117832601, 2143114.26476623211056 ], [ 3347575.496669807471335, 2143104.928130494430661 ], [ 3347576.321363782510161, 2143097.395451018586755 ], [ 3347577.397955353371799, 2143091.439170427620411 ], [ 3347577.976557732094079, 2143086.175647013820708 ], [ 3347578.409491641446948, 2143078.102795735932887 ], [ 3347578.055138123221695, 2143074.620142996311188 ], [ 3347576.942449591588229, 2143066.408245130442083 ], [ 3347575.576354400254786, 2143061.682020396925509 ], [ 3347573.504038201645017, 2143051.914149122312665 ], [ 3347572.277229215484113, 2143043.620540495030582 ], [ 3347571.737738613970578, 2143035.816151360049844 ], [ 3347572.048171862028539, 2143028.878394329920411 ], [ 3347573.12028724513948, 2143023.529961280524731 ], [ 3347575.055373673792928, 2143017.223988255485892 ], [ 3347578.366067601367831, 2143009.364218659698963 ], [ 3347581.35929218493402, 2143004.597170455846936 ], [ 3347585.154982084408402, 2143000.40047266613692 ], [ 3347589.970684940461069, 2142996.230463364161551 ], [ 3347595.95630991179496, 2142991.758319951593876 ], [ 3347605.974331649485976, 2142984.567247697152197 ], [ 3347617.051821108907461, 2142976.383819613605738 ], [ 3347625.124848250299692, 2142969.730099488515407 ], [ 3347651.198022809810936, 2142952.3827452249825 ], [ 3347650.217576685361564, 2142957.428059238474816 ], [ 3347779.844704051502049, 2143026.666455816477537 ], [ 3347759.704478399828076, 2143052.513443277217448 ], [ 3347748.657280819490552, 2143083.647585014346987 ], [ 3347725.576368185691535, 2143105.433363041374832 ], [ 3347672.019745755009353, 2143188.645644566044211 ], [ 3347665.842893839348108, 2143213.003902559168637 ], [ 3347638.284535031765699, 2143238.30051451176405 ], [ 3347628.971838471479714, 2143254.519705376587808 ], [ 3347633.46065404266119, 2143271.105060048401356 ], [ 3347610.741585932672024, 2143338.048998521640897 ], [ 3347579.390311674680561, 2143408.305599795188755 ], [ 3347563.566382052376866, 2143432.497169283218682 ], [ 3347547.68989548413083, 2143453.499718087725341 ], [ 3347537.349015109241009, 2143511.919615708291531 ], [ 3347617.091192438267171, 2143529.259472985751927 ], [ 3347610.626348722260445, 2143563.259430469945073 ], [ 3347654.120061461348087, 2143628.859668187331408 ], [ 3347667.661953378468752, 2143667.639577154070139 ], [ 3347717.226471127010882, 2143702.504744089208543 ], [ 3347744.22109307628125, 2143716.588114965707064 ], [ 3347804.501684513874352, 2143758.288073431700468 ], [ 3347840.551969597581774, 2143783.146017299965024 ], [ 3347979.636597947217524, 2143882.087095592170954 ], [ 3348048.508505989797413, 2143937.383332076482475 ], [ 3348116.953194449655712, 2143990.011869008652866 ], [ 3348203.791561410296708, 2144077.38795886747539 ], [ 3348251.926339649129659, 2144126.203163896687329 ], [ 3348382.605646263808012, 2144249.887107155751437 ], [ 3348471.61399199673906, 2144290.755574328824878 ], [ 3348551.808390907011926, 2144350.955168209969997 ], [ 3348651.597885542549193, 2144421.944033427163959 ], [ 3348723.863237948156893, 2144458.385333401151001 ], [ 3348793.472135553136468, 2144492.543498055078089 ], [ 3348835.176564680412412, 2144515.515192258171737 ], [ 3348909.717730591539294, 2144577.601485065184534 ], [ 3348974.809940291568637, 2144632.177714406047016 ], [ 3349052.394839163869619, 2144716.122742717154324 ], [ 3349116.64816111093387, 2144774.041068476159126 ], [ 3349172.293899835087359, 2144809.688072481192648 ], [ 3349202.889020582195371, 2144829.090044441632926 ], [ 3349264.011937974020839, 2144856.029277146793902 ], [ 3349390.328318673186004, 2144889.566977446898818 ], [ 3349440.685688381548971, 2144895.063687628135085 ], [ 3349526.511338050477207, 2144901.765975798480213 ], [ 3349598.286893146112561, 2144900.8371387924999 ], [ 3349670.664286263287067, 2144920.815890591125935 ], [ 3349679.134831958916038, 2144919.358553493861109 ], [ 3349703.729373510926962, 2144904.165193567983806 ], [ 3349707.422887579537928, 2144895.764399535488337 ], [ 3349741.420706102624536, 2144862.052366273477674 ], [ 3349754.764117151498795, 2144842.399018705822527 ], [ 3349760.93793245125562, 2144829.461259415838867 ], [ 3349803.747845850419253, 2144849.872205833904445 ], [ 3349823.867486494593322, 2144852.043808159418404 ], [ 3349840.197184518910944, 2144839.377373588271439 ], [ 3349835.310555336531252, 2144817.688563919626176 ], [ 3349824.210179671645164, 2144801.292596171610057 ], [ 3349811.783293256070465, 2144811.878984074108303 ], [ 3349803.155649237334728, 2144802.09888456761837 ], [ 3349819.103470411617309, 2144778.233725586906075 ], [ 3349823.455720405094326, 2144743.690525177400559 ], [ 3349806.475965713616461, 2144717.040868937969208 ], [ 3349798.840348609723151, 2144695.82508800458163 ], [ 3349787.415051936171949, 2144659.77194647397846 ], [ 3349785.773279927205294, 2144631.892237427644432 ], [ 3349757.083030018955469, 2144611.48204433079809 ], [ 3349734.004597494378686, 2144573.209434790536761 ], [ 3349709.933437710162252, 2144546.371919917408377 ], [ 3349678.33244778169319, 2144516.606305645313114 ], [ 3349633.597787870559841, 2144466.569972969591618 ], [ 3349603.590371839702129, 2144437.937960593961179 ], [ 3349585.513204266317189, 2144404.437118683941662 ], [ 3349601.566683510318398, 2144398.858958781231195 ], [ 3349626.076746007427573, 2144428.436584632378072 ], [ 3349700.932803148403764, 2144490.188122495543212 ], [ 3349749.733557801693678, 2144547.97354977671057 ], [ 3349782.317839024588466, 2144601.508590681478381 ], [ 3349815.074378969613463, 2144629.667829999700189 ], [ 3349842.838438222184777, 2144617.850667454302311 ], [ 3349860.3238121336326, 2144603.577676776796579 ], [ 3349903.530836924444884, 2144608.817390292417258 ], [ 3349933.709834195673466, 2144612.074334035627544 ], [ 3349943.664428086020052, 2144594.873012960888445 ], [ 3349984.838747855275869, 2144596.238403484690934 ], [ 3350035.413929122965783, 2144594.578016764484346 ], [ 3350045.817274298984557, 2144544.913325049448758 ], [ 3350001.626570974476635, 2144515.904605806805193 ], [ 3349962.828875720500946, 2144467.663392974063754 ], [ 3349880.079199644736946, 2144321.375298666767776 ], [ 3349812.877496625296772, 2144210.431946739088744 ], [ 3349777.601602911483496, 2144148.91129706799984 ], [ 3349764.048544155433774, 2144055.492329075932503 ], [ 3349733.774058047682047, 2143998.744146136566997 ], [ 3349713.387365004979074, 2143968.457210424356163 ], [ 3349690.643715430982411, 2143914.637924708425999 ], [ 3349675.764223043806851, 2143848.201298247091472 ], [ 3349648.839764735661447, 2143803.54984855465591 ], [ 3349609.880240582395345, 2143745.479442385956645 ], [ 3349575.91176293278113, 2143727.385963677428663 ], [ 3349495.605806681327522, 2143693.325514917261899 ], [ 3349404.02804234623909, 2143668.245101805776358 ], [ 3349312.889417418278754, 2143645.905608504079282 ], [ 3349243.673947343602777, 2143663.44510423950851 ], [ 3349205.687637842260301, 2143664.347947652451694 ], [ 3349170.06833617715165, 2143653.578646605834365 ], [ 3349184.623100896831602, 2143645.536033168435097 ], [ 3349235.569466258399189, 2143586.06994815915823 ], [ 3349283.323402782902122, 2143526.696983644738793 ], [ 3349314.319272917229682, 2143454.21927461354062 ], [ 3349323.258027899544686, 2143438.52174034807831 ], [ 3349352.788501684553921, 2143439.836569297593087 ], [ 3349376.179861617274582, 2143394.246432088315487 ], [ 3349511.214659992139786, 2143433.593407853506505 ], [ 3349544.986348833423108, 2143444.227616142947227 ], [ 3349581.055471171624959, 2143466.342044665943831 ], [ 3349563.605383330024779, 2143500.404343443922698 ], [ 3349585.41139187105, 2143513.553738257382065 ], [ 3349653.977084062993526, 2143515.461477718316019 ], [ 3349763.460884277708828, 2143481.097448149695992 ], [ 3349826.793907367624342, 2143510.398227164521813 ], [ 3349955.793291311245412, 2143454.863915340974927 ], [ 3350017.603381791617721, 2143446.058149597607553 ], [ 3350045.031580497976393, 2143439.970142954029143 ], [ 3350107.804649258498102, 2143431.455572376493365 ], [ 3350376.783528356812894, 2143463.294998894911259 ], [ 3350405.944397835526615, 2143508.066376879811287 ], [ 3350411.550717446021736, 2143545.926848665811121 ], [ 3350423.03081910777837, 2143560.395173218101263 ], [ 3350435.582261368166655, 2143570.112405070569366 ], [ 3350453.214437071233988, 2143571.842015495058149 ], [ 3350460.298352465499192, 2143569.971642085816711 ], [ 3350469.561173838563263, 2143571.793363516684622 ], [ 3350479.503783026710153, 2143572.606199946254492 ], [ 3350486.31466017011553, 2143575.088603343814611 ], [ 3350494.767420062795281, 2143576.375578904524446 ], [ 3350501.997464284766465, 2143578.16505708033219 ], [ 3350510.0123654846102, 2143582.888650682289153 ], [ 3350520.105712085496634, 2143582.979715936817229 ], [ 3350532.337743333540857, 2143584.986482980195433 ], [ 3350544.855595842935145, 2143588.77134286146611 ], [ 3350551.686645007226616, 2143588.602346663363278 ], [ 3350563.348239964805543, 2143586.960296402685344 ], [ 3350571.286580378655344, 2143588.119202973786741 ], [ 3350579.308834264986217, 2143586.499108622316271 ], [ 3350595.997100175358355, 2143587.508775538764894 ], [ 3350618.027090332005173, 2143586.965574667789042 ], [ 3350625.477799567393959, 2143585.865576799958944 ], [ 3350650.264945101924241, 2143586.169694532640278 ], [ 3350675.04889971902594, 2143597.893572583794594 ], [ 3350681.272140178829432, 2143599.563849287573248 ], [ 3350687.94111295696348, 2143601.15715703740716 ], [ 3350696.310603077989072, 2143600.711520035751164 ], [ 3350713.57284119585529, 2143606.162983324378729 ], [ 3350722.533505605533719, 2143611.194004341494292 ], [ 3350729.539892468601465, 2143617.753610423300415 ], [ 3350735.778210413642228, 2143628.099823487922549 ], [ 3350743.586616589687765, 2143636.805546356365085 ], [ 3350751.252097428776324, 2143644.622126720380038 ], [ 3350762.698262101970613, 2143653.159074885305017 ], [ 3350769.741968740709126, 2143654.231528233736753 ], [ 3350775.429530281573534, 2143658.277605391573161 ], [ 3350783.002145885955542, 2143679.81311692437157 ], [ 3350786.457171729300171, 2143695.662589055951685 ], [ 3350792.352052255067974, 2143723.88144316105172 ], [ 3350878.267520455177873, 2143794.061656064819545 ], [ 3350899.788229613564909, 2143805.433238375931978 ], [ 3350936.631478029303253, 2143800.922746731899679 ], [ 3350980.798892199061811, 2143690.554374852217734 ], [ 3350987.579489436931908, 2143675.685421661473811 ], [ 3350960.808343106415123, 2143628.675669528543949 ], [ 3350917.718370592687279, 2143568.970450067892671 ], [ 3350894.643493568524718, 2143524.494825934059918 ], [ 3350885.319577847607434, 2143454.84415007289499 ], [ 3350863.755829528905451, 2143406.025091785006225 ], [ 3350890.767549047712237, 2143363.011413390748203 ], [ 3350875.349320350214839, 2143338.257137332577258 ], [ 3350877.895220687612891, 2143291.229970385320485 ], [ 3350889.854419622570276, 2143191.425977912731469 ], [ 3350856.996441990602762, 2143166.474747153930366 ], [ 3350823.459996837191284, 2143143.009838124271482 ], [ 3350650.527046569623053, 2143175.951988011598587 ], [ 3350508.378383195959032, 2143189.439514562953264 ], [ 3350460.316099038347602, 2143141.06774398079142 ], [ 3350413.848137645516545, 2143065.472946957219392 ], [ 3350390.941000259015709, 2143039.723574317526072 ], [ 3350375.97247271053493, 2143003.473661147989333 ], [ 3350363.044999530538917, 2142939.923281927593052 ], [ 3350320.946243647485971, 2142865.860718254931271 ], [ 3350262.393483214080334, 2142832.082992484793067 ], [ 3350247.223336041439325, 2142814.594810173846781 ], [ 3350227.422037077601999, 2142779.632987587712705 ], [ 3350193.794185848906636, 2142704.113399559631944 ], [ 3350183.135113371070474, 2142689.046998995821923 ], [ 3350171.429766253102571, 2142653.148901404812932 ], [ 3350165.876493636518717, 2142618.47660753224045 ], [ 3350164.193181414622813, 2142582.22568039316684 ], [ 3350230.575661053881049, 2142436.063108573667705 ], [ 3350194.74251192715019, 2142401.118016375228763 ], [ 3350099.562664861790836, 2142307.409824335947633 ], [ 3350080.226033517159522, 2142269.62732 ], [ 3350087.134374485816807, 2142246.971720756031573 ], [ 3350078.111137765459716, 2142187.7746128491126 ], [ 3350098.285575081128627, 2142113.506791441701353 ], [ 3350113.874380649067461, 2142047.792887981515378 ], [ 3350137.75400960072875, 2141985.220049390569329 ], [ 3350153.897853541653603, 2141968.740625710226595 ], [ 3350194.402385668363422, 2141949.898102758917958 ], [ 3350216.480088341515511, 2141836.022700342349708 ], [ 3350236.767000701744109, 2141799.646461843512952 ], [ 3350232.619480568915606, 2141776.608508148230612 ], [ 3350249.096636908594519, 2141722.160842333454639 ], [ 3350258.819094113074243, 2141711.353602173738182 ], [ 3350258.27948189387098, 2141670.795076780952513 ], [ 3350240.242800355888903, 2141638.27018123306334 ], [ 3350217.909659888595343, 2141604.657511716708541 ], [ 3350191.881786983460188, 2141579.444971372373402 ], [ 3350178.405117421410978, 2141563.949104866944253 ], [ 3350155.427347131539136, 2141537.755696701817214 ], [ 3350138.830295592080802, 2141577.150563891977072 ], [ 3350105.489558336790651, 2141612.117319481913 ], [ 3350088.984273597132415, 2141624.672900190576911 ], [ 3349998.254590651020408, 2141686.285949115641415 ], [ 3349956.5181327117607, 2141711.734573626425117 ], [ 3349909.438246697187424, 2141715.264778840355575 ], [ 3349891.881747403647751, 2141688.595387178007513 ], [ 3349888.754627538844943, 2141677.715894681401551 ], [ 3349888.142389262560755, 2141670.968382976949215 ], [ 3349885.774433109443635, 2141659.043389749713242 ], [ 3349881.346727666445076, 2141644.305995124392211 ], [ 3349874.459348958916962, 2141631.299808187410235 ], [ 3349880.592743400484324, 2141580.915040627121925 ], [ 3349830.837182406336069, 2141476.197442308999598 ], [ 3349820.234657306224108, 2141452.899194858968258 ], [ 3349892.202630770392716, 2141358.761715601198375 ], [ 3349923.775061101187021, 2141278.423304263502359 ], [ 3349940.357602170668542, 2141230.352370459586382 ], [ 3349922.838863346725702, 2141198.195080525241792 ], [ 3349903.314980776980519, 2141187.850044037215412 ], [ 3349857.509462829679251, 2141167.866455185227096 ], [ 3349832.306324392557144, 2141130.636359772644937 ], [ 3349821.52752408804372, 2141100.517825945280492 ], [ 3349795.259985427372158, 2141045.200656334869564 ], [ 3349795.166707000695169, 2141004.5654660272412 ], [ 3349798.524091920349747, 2140936.844515754841268 ], [ 3349774.652287075761706, 2140872.584914568811655 ], [ 3349760.332046378869563, 2140868.006649668328464 ], [ 3349767.876876016613096, 2140854.346373460255563 ], [ 3349765.509805455803871, 2140847.974624103400856 ], [ 3349758.728570357430726, 2140862.844115206506103 ], [ 3349756.120757689699531, 2140875.167805606964976 ], [ 3349752.569043681956828, 2140884.457426348701119 ], [ 3349750.657740357331932, 2140892.550802618265152 ], [ 3349744.983808743301779, 2140902.357591123320162 ], [ 3349737.023914105724543, 2140921.844576988369226 ], [ 3349732.260595699772239, 2140929.767061078455299 ], [ 3349727.297747823875397, 2140944.070932192727923 ], [ 3349721.810395900625736, 2140952.771971153095365 ], [ 3349719.231001399923116, 2140962.358471704181284 ], [ 3349714.682698654010892, 2140965.42495980206877 ], [ 3349713.165038075298071, 2140970.253419602289796 ], [ 3349649.112582114059478, 2141068.053605439607054 ], [ 3349636.355809792876244, 2141088.518373524770141 ], [ 3349626.02602377673611, 2141101.256738941185176 ], [ 3349599.800163290463388, 2141137.740888330154121 ], [ 3349595.83942577149719, 2141141.619146936573088 ], [ 3349591.789273222908378, 2141147.797016686759889 ], [ 3349588.627654717769474, 2141153.819026880897582 ], [ 3349568.095895036123693, 2141182.931934466119856 ], [ 3349564.206862688995898, 2141187.254774509929121 ], [ 3349560.122330196201801, 2141198.90151060372591 ], [ 3349553.072106899693608, 2141209.267357271630317 ], [ 3349544.327902078162879, 2141229.042065373621881 ], [ 3349533.979425597470254, 2141244.524546157568693 ], [ 3349534.939604790881276, 2141249.972084084525704 ], [ 3349530.854866810608655, 2141256.48111302498728 ], [ 3349525.97683304361999, 2141286.095702926628292 ], [ 3349527.704073208849877, 2141294.02002912061289 ], [ 3349518.105025423225015, 2141308.460726859048009 ], [ 3349501.335358697455376, 2141329.615440442692488 ], [ 3349491.804160488769412, 2141355.919649541378021 ], [ 3349487.353460902348161, 2141388.20173301640898 ], [ 3349482.584177407436073, 2141412.773404913023114 ], [ 3349480.228709948249161, 2141438.51688932068646 ], [ 3349478.594025564845651, 2141453.654531453736126 ], [ 3349479.17848613858223, 2141465.886091988999397 ], [ 3349478.13702601287514, 2141487.989874177146703 ], [ 3349473.922527580522001, 2141507.441874191630632 ], [ 3349464.61996955703944, 2141543.755600329488516 ], [ 3349456.831041749101132, 2141560.008604648057371 ], [ 3349448.753183411434293, 2141584.852577190846205 ], [ 3349443.983248211909086, 2141594.805140481330454 ], [ 3349435.831538812723011, 2141618.591794326901436 ], [ 3349426.607943716458976, 2141631.190697729587555 ], [ 3349424.198734546545893, 2141637.492983979173005 ], [ 3349406.493066249415278, 2141677.45552478544414 ], [ 3349400.820264888927341, 2141691.758113980293274 ], [ 3349394.840929710306227, 2141708.772787793539464 ], [ 3349385.099737795069814, 2141722.324357183184475 ], [ 3349359.568549791350961, 2141740.403051679953933 ], [ 3349356.131734139751643, 2141747.404727472458035 ], [ 3349358.526367765851319, 2141788.101457021664828 ], [ 3349357.18158409325406, 2141811.170529388822615 ], [ 3349354.682271349709481, 2141818.452072649262846 ], [ 3349343.427974542602897, 2141825.412301193922758 ], [ 3349333.814244782086462, 2141831.176824411377311 ], [ 3349327.943263141438365, 2141843.149112610146403 ], [ 3349325.691728885751218, 2141857.695791768375784 ], [ 3349327.307098194025457, 2141882.083161336369812 ], [ 3349328.835849820636213, 2141897.350137010216713 ], [ 3349328.011977036017925, 2141909.367809393908828 ], [ 3349317.817944278940558, 2141945.835341887548566 ], [ 3349307.481502141337842, 2141981.413467342965305 ], [ 3349298.700214544311166, 2142006.675481629557908 ], [ 3349294.414268187247217, 2142025.683132188394666 ], [ 3349289.611807504668832, 2142044.32322833314538 ], [ 3349282.545361902564764, 2142057.41431487724185 ], [ 3349274.498627714347094, 2142072.958590993657708 ], [ 3349271.482088599354029, 2142079.871719897259027 ], [ 3349262.685818421654403, 2142096.458051328547299 ], [ 3349254.102672602981329, 2142114.378266322892159 ], [ 3349240.810008957516402, 2142137.219086333177984 ], [ 3349229.196191567927599, 2142153.376576476264745 ], [ 3349215.656129544135183, 2142168.95159015012905 ], [ 3349194.623368071392179, 2142194.951413814909756 ], [ 3349183.706394385080785, 2142206.878161547705531 ], [ 3349173.609395947307348, 2142218.207054214552045 ], [ 3349164.172490622382611, 2142230.792945134453475 ], [ 3349150.41895208042115, 2142245.034189392346889 ], [ 3349136.219681470654905, 2142259.353027784731239 ], [ 3349120.289797004312277, 2142277.166555020026863 ], [ 3349108.836985334288329, 2142291.468876642175019 ], [ 3349100.917095520533621, 2142299.226221656426787 ], [ 3349095.600684058852494, 2142306.078808874357492 ], [ 3349093.476146446540952, 2142312.839149824343622 ], [ 3349079.531516360118985, 2142311.583479546941817 ], [ 3349044.300529820844531, 2142314.491647458635271 ], [ 3348989.872144711203873, 2142312.328481575008482 ], [ 3348947.233248376753181, 2142306.479550431948155 ], [ 3348870.929992418270558, 2142296.3110217358917 ], [ 3348802.615254463162273, 2142290.248931988608092 ], [ 3348782.428683927748352, 2142290.067607823759317 ], [ 3348771.301416139118373, 2142289.241392550058663 ], [ 3348755.074962675571442, 2142285.181237763725221 ], [ 3348741.632289737462997, 2142275.617546837311238 ], [ 3348727.121299419552088, 2142259.386629211716354 ], [ 3348702.341159236151725, 2142227.53121735714376 ], [ 3348686.245353954844177, 2142212.977093738038093 ], [ 3348676.332018663175404, 2142208.287646097131073 ], [ 3348665.455623204819858, 2142203.307056540157646 ], [ 3348636.265443188603967, 2142195.539446939714253 ], [ 3348612.621169778518379, 2142190.928631417453289 ], [ 3348586.35994988353923, 2142190.683945512864739 ], [ 3348544.167183172889054, 2142184.544403207022697 ], [ 3348501.659429062157869, 2142182.031491428613663 ], [ 3348469.855599378701299, 2142184.823461716528982 ], [ 3348431.773130046203732, 2142193.16127076651901 ], [ 3348387.514961835928261, 2142213.280306170228869 ], [ 3348332.881654568947852, 2142246.361591832712293 ], [ 3348308.969899831805378, 2142259.841685554012656 ], [ 3348216.009487353265285, 2142300.088399830739945 ], [ 3348191.090085461735725, 2142306.918023894540966 ], [ 3348185.686350916512311, 2142308.890491466969252 ], [ 3348180.6222506435588, 2142311.396610642783344 ], [ 3348177.562364153563976, 2142313.824407108128071 ], [ 3348174.485076347365975, 2142315.395425147376955 ], [ 3348172.403805342502892, 2142316.734242677688599 ], [ 3348165.062255029566586, 2142320.72247943514958 ], [ 3348158.695440230891109, 2142324.651864595711231 ], [ 3348151.783598393667489, 2142328.045880129095167 ], [ 3348133.742050183936954, 2142336.181500339880586 ], [ 3348123.533480826765299, 2142341.273290767800063 ], [ 3348109.49822710454464, 2142347.829538471531123 ], [ 3348102.890335653908551, 2142350.5897211083211 ], [ 3348098.56885961163789, 2142353.307162367738783 ], [ 3348078.426206503529102, 2142362.004042944870889 ], [ 3348062.007862715050578, 2142367.335593993309885 ], [ 3348054.764759582933038, 2142369.889993127435446 ], [ 3348044.568229487165809, 2142374.478066843934357 ], [ 3348039.955215531866997, 2142375.707454564981163 ], [ 3348022.921197846066207, 2142377.875230288133025 ], [ 3348007.981408254709095, 2142376.73982242308557 ], [ 3348000.153517343103886, 2142377.713662470690906 ], [ 3347994.610370471607894, 2142379.258184680715203 ], [ 3347985.702926493249834, 2142383.063192978966981 ], [ 3347983.405087978579104, 2142383.692699117120355 ], [ 3347976.283481481485069, 2142388.978663691319525 ], [ 3347971.803261984139681, 2142391.792886347509921 ], [ 3347963.295972017105669, 2142396.166396244429052 ], [ 3347954.324661226943135, 2142399.377359136939049 ], [ 3347947.838954859878868, 2142402.564357145689428 ], [ 3347938.327752073761076, 2142405.290401964448392 ], [ 3347932.055809324607253, 2142406.384030070155859 ], [ 3347924.007756040431559, 2142409.389080471359193 ], [ 3347919.091555510181934, 2142412.172517132014036 ], [ 3347908.950371997430921, 2142417.756575078237802 ], [ 3347891.699373449664563, 2142433.58571810182184 ], [ 3347884.419485203921795, 2142443.623554260004312 ], [ 3347877.493390994146466, 2142454.777300707995892 ], [ 3347867.070785048417747, 2142469.321214515250176 ], [ 3347860.797819244209677, 2142477.486926577985287 ], [ 3347847.844120419118553, 2142494.211587269324809 ], [ 3347841.748044825624675, 2142502.563032460398972 ], [ 3347829.099798380862921, 2142523.922115764580667 ], [ 3347822.818105523474514, 2142541.352199686691165 ], [ 3347818.613039497286081, 2142554.859545621089637 ], [ 3347814.080703648272902, 2142576.20797561109066 ], [ 3347813.74638190632686, 2142583.677281477022916 ], [ 3347813.455250465776771, 2142590.048741751350462 ], [ 3347814.134977938607335, 2142594.291938612237573 ], [ 3347812.812076411210001, 2142603.369928887113929 ], [ 3347811.773388432338834, 2142608.213526658713818 ], [ 3347809.627193737775087, 2142616.58665033057332 ], [ 3347807.356867713853717, 2142622.270785357803106 ], [ 3347802.926021357998252, 2142632.346596061252058 ], [ 3347799.713407587260008, 2142639.390184378251433 ], [ 3347793.843984630890191, 2142653.70592726347968 ], [ 3347774.290022383909672, 2142692.921301745343953 ], [ 3347767.492493353318423, 2142704.926750786602497 ], [ 3347743.260496541857719, 2142747.962544698268175 ], [ 3347733.798899591434747, 2142761.57895281445235 ], [ 3347727.455861021298915, 2142772.479797615669668 ], [ 3347725.439423247240484, 2142776.703334600199014 ], [ 3347721.200196854770184, 2142788.706841019913554 ], [ 3347713.794590562582016, 2142810.036195508204401 ], [ 3347704.71563366195187, 2142832.524888467974961 ], [ 3347699.831188475713134, 2142844.831888916902244 ], [ 3347696.438513319939375, 2142851.824382011778653 ], [ 3347687.684846027288586, 2142868.153712657280266 ], [ 3347675.935597858857363, 2142893.964096497744322 ], [ 3347664.960347758606076, 2142918.059759694617242 ], [ 3347652.867839303798974, 2142946.299607650376856 ], [ 3347651.888274704106152, 2142949.876497798133641 ], [ 3347651.887845904100686, 2142949.869383099488914 ], [ 3347646.664471939671785, 2142867.107013394124806 ], [ 3347641.736734688282013, 2142807.814603133592755 ], [ 3347637.645619880408049, 2142753.744416763074696 ], [ 3347626.3872588025406, 2142689.163285295013338 ], [ 3347603.887875083833933, 2142622.871487957891077 ], [ 3347597.1438002968207, 2142601.193597864825279 ], [ 3347594.470170887187123, 2142592.599492194596678 ], [ 3347583.482537935953587, 2142575.354586605448276 ], [ 3347545.214699598029256, 2142541.845344465225935 ], [ 3347505.55240839580074, 2142466.191706688143313 ], [ 3347499.448592593427747, 2142454.549008632078767 ], [ 3347447.629142581485212, 2142285.614341624081135 ], [ 3347445.258295302279294, 2142277.885239963419735 ], [ 3347442.378928884398192, 2142274.869342013727874 ], [ 3347387.057738458737731, 2142216.925511612556875 ], [ 3347210.778084125369787, 2142239.764055990613997 ], [ 3347079.817152752075344, 2142018.700682810973376 ], [ 3347039.674318640492857, 2141939.245768644846976 ], [ 3346982.627856228034943, 2141800.53416199889034 ], [ 3346946.061310549732298, 2141763.695273618213832 ], [ 3346856.415305147413164, 2141631.302118401043117 ], [ 3346823.302401152439415, 2141584.959345468319952 ], [ 3346791.420634154230356, 2141493.047083884477615 ], [ 3346834.299007145687938, 2140673.990340263117105 ], [ 3346780.383995013777167, 2140421.65112725738436 ], [ 3346768.338654002174735, 2140188.534180874936283 ], [ 3346744.758802752941847, 2140148.448499210178852 ], [ 3346701.605171103961766, 2140095.835350255481899 ], [ 3346633.648519525304437, 2139996.766556331887841 ], [ 3346469.285039627924562, 2139873.98932752572 ], [ 3346419.065223082900047, 2139947.831344556063414 ], [ 3346296.492475649341941, 2139913.960844711400568 ], [ 3346296.456252958159894, 2139913.95087774656713 ], [ 3346329.259440844878554, 2139774.462267894297838 ], [ 3346329.205180005170405, 2139774.412578034214675 ], [ 3346127.304674251005054, 2139589.409108551219106 ], [ 3345767.166649268940091, 2139611.889348778408021 ], [ 3345767.154903410933912, 2139611.793162587098777 ], [ 3345692.848766342736781, 2139007.594753473065794 ], [ 3345525.0933405184187, 2138806.373370000161231 ], [ 3344526.542669999413192, 2138806.373370000161231 ], [ 3344526.542669999413192, 2149508.319729999639094 ], [ 3344680.454763734713197, 2149508.319729999639094 ], [ 3345451.265539457090199, 2149417.286296064034104 ] ] ] } }
]
}
