{
"type": "FeatureCollection",
"name": "Albuera,_La",
"crs": { "type": "name", "properties": { "name": "urn:ogc:def:crs:EPSG::3035" } },
"features": [
{ "type": "Feature", "properties": { "ENP_GRAL": 1.0, "ENP_GRAL_NAME": "Otros Parques", "color": "#38A800" }, "geometry": { "type": "Polygon", "coordinates": [ [ [ 2863161.294876694213599, 1895840.84056627494283 ], [ 2863163.400182945653796, 1895838.188570130150765 ], [ 2863165.324131984263659, 1895833.241350019583479 ], [ 2863170.271865854971111, 1895830.278080511605367 ], [ 2863177.330304706003517, 1895827.135541282827035 ], [ 2863188.553770317696035, 1895824.069208971923217 ], [ 2863200.264722325839102, 1895819.474542410112917 ], [ 2863209.044135921634734, 1895812.12335465522483 ], [ 2863214.341611012816429, 1895805.530946290120482 ], [ 2863218.516159324906766, 1895796.941166374832392 ], [ 2863219.763160611502826, 1895792.276302967686206 ], [ 2863221.299725470133126, 1895784.941762883448973 ], [ 2863222.355690684635192, 1895770.818665841827169 ], [ 2863222.303625856060535, 1895768.276053601643071 ], [ 2863222.225521136075258, 1895764.938768764492124 ], [ 2863222.191648652777076, 1895763.202083442592993 ], [ 2863222.714002737775445, 1895761.059196838643402 ], [ 2863224.010647218674421, 1895755.796843450982124 ], [ 2863227.581302749924362, 1895751.392067651031539 ], [ 2863233.285013426095247, 1895747.952184953726828 ], [ 2863239.869828603230417, 1895743.675814289599657 ], [ 2863261.427507365122437, 1895733.577079835347831 ], [ 2863277.398047122173011, 1895728.840084746479988 ], [ 2863290.452341052703559, 1895727.851233131950721 ], [ 2863302.976614210754633, 1895726.840454049175605 ], [ 2863314.575075028464198, 1895724.337438881397247 ], [ 2863324.672845728695393, 1895719.438261965289712 ], [ 2863334.126566158607602, 1895710.522314282599837 ], [ 2863341.604491038247943, 1895699.432280560256913 ], [ 2863347.919799718540162, 1895687.031301495153457 ], [ 2863351.515409142710268, 1895675.979033778421581 ], [ 2863352.825586191378534, 1895671.955432488583028 ], [ 2863357.714260993991047, 1895657.529975347686559 ], [ 2863362.840935968793929, 1895648.372874073218554 ], [ 2863371.378285878803581, 1895638.095055432058871 ], [ 2863389.846258774865419, 1895622.682881188578904 ], [ 2863399.590123751200736, 1895617.995577484834939 ], [ 2863411.448897750116885, 1895616.86412839172408 ], [ 2863419.777662038803101, 1895618.320933307986706 ], [ 2863432.11362442234531, 1895620.334953274345025 ], [ 2863444.520715605467558, 1895619.354187473887578 ], [ 2863454.876179250888526, 1895615.817035604733974 ], [ 2863462.542214815504849, 1895610.40819063433446 ], [ 2863469.184793560765684, 1895600.399447496747598 ], [ 2863472.178532587364316, 1895590.278050828492269 ], [ 2863472.92613825481385, 1895576.612150709144771 ], [ 2863472.141688704490662, 1895569.119556378107518 ], [ 2863471.33083776012063, 1895561.510336111765355 ], [ 2863473.025724765844643, 1895557.503352125408128 ], [ 2863477.705835153348744, 1895554.812526922440156 ], [ 2863485.791377237997949, 1895555.016142680309713 ], [ 2863502.131677052937448, 1895554.221128706354648 ], [ 2863511.494296011514962, 1895550.255573452915996 ], [ 2863519.206284857355058, 1895538.336609209422022 ], [ 2863521.429904395714402, 1895533.530001627514139 ], [ 2863524.344898079521954, 1895527.236414011335 ], [ 2863526.726988165639341, 1895519.320764194475487 ], [ 2863526.066658908966929, 1895511.15037082391791 ], [ 2863523.881020616739988, 1895506.554379428736866 ], [ 2863520.726611214224249, 1895500.230390550335869 ], [ 2863518.507794743869454, 1895494.082330922596157 ], [ 2863518.86857732385397, 1895488.551251981407404 ], [ 2863522.575055735185742, 1895486.196527666877955 ], [ 2863528.446278468705714, 1895483.628505168249831 ], [ 2863533.463183622341603, 1895478.656444514868781 ], [ 2863537.475638763513416, 1895471.164182239677757 ], [ 2863541.39439623337239, 1895464.485873688245192 ], [ 2863545.375678092241287, 1895460.892651078524068 ], [ 2863550.280201653484255, 1895457.375719781033695 ], [ 2863555.409433102235198, 1895450.948751465184614 ], [ 2863559.424457988236099, 1895444.102505234768614 ], [ 2863565.054792424663901, 1895437.570673510665074 ], [ 2863569.500567697919905, 1895435.708400367759168 ], [ 2863575.022717150859535, 1895439.448689338983968 ], [ 2863579.659033349715173, 1895444.683127242140472 ], [ 2863588.159144442062825, 1895453.108412309549749 ], [ 2863594.339946641586721, 1895454.897641305811703 ], [ 2863605.380115469917655, 1895453.561018908163533 ], [ 2863609.867707530036569, 1895446.483649286441505 ], [ 2863610.362258779816329, 1895440.272306336322799 ], [ 2863617.348593386355788, 1895428.648039954248816 ], [ 2863624.450955594424158, 1895424.385946432128549 ], [ 2863629.212413204833865, 1895423.368585702031851 ], [ 2863631.930290899705142, 1895422.780656780349091 ], [ 2863634.249461002647877, 1895423.565514909802005 ], [ 2863635.632031159475446, 1895412.83060922450386 ], [ 2863622.376871641725302, 1895396.244105122052133 ], [ 2863597.967822516337037, 1895366.886912522139028 ], [ 2863592.802111835218966, 1895372.019251529825851 ], [ 2863590.688453015871346, 1895372.548351359553635 ], [ 2863588.09760403400287, 1895373.196899752598256 ], [ 2863583.27628076216206, 1895373.315564404707402 ], [ 2863580.884961077943444, 1895372.938952646683902 ], [ 2863575.734059879090637, 1895371.333390076411888 ], [ 2863571.929904017597437, 1895367.597827729769051 ], [ 2863556.076364615932107, 1895380.277089212555438 ], [ 2863550.257394718937576, 1895372.689626527018845 ], [ 2863536.196766918059438, 1895383.939198990119621 ], [ 2863396.09662212152034, 1895245.951044761110097 ], [ 2863406.575856102630496, 1895160.094427437288687 ], [ 2863568.358305038884282, 1895169.736363965086639 ], [ 2863580.070253005251288, 1895159.950430291472003 ], [ 2863223.237771118059754, 1895135.060060624266043 ], [ 2863221.44324988219887, 1895134.636621623765677 ], [ 2863220.378417372703552, 1895134.389954688958824 ], [ 2863217.511976744048297, 1895134.368326679803431 ], [ 2862977.30045039858669, 1895116.216106471139938 ], [ 2862974.713534248061478, 1895115.385377265047282 ], [ 2862974.391312069259584, 1895115.281226709717885 ], [ 2862973.347092881798744, 1895115.306498692836612 ], [ 2862971.033350711688399, 1895115.362138792639598 ], [ 2862965.636518374085426, 1895115.121977662201971 ], [ 2862957.823056858964264, 1895112.171377255581319 ], [ 2862937.70218815933913, 1895110.822419461794198 ], [ 2862871.812251738272607, 1895106.098415578948334 ], [ 2862868.792654944583774, 1895105.991995650576428 ], [ 2862868.413837221451104, 1895108.858607375295833 ], [ 2862863.526604629121721, 1895145.785450279479846 ], [ 2862876.619000257458538, 1895193.086504260310903 ], [ 2862896.293818800710142, 1895237.414897384122014 ], [ 2862913.430969003587961, 1895268.52055533323437 ], [ 2862930.36532230861485, 1895296.556170609081164 ], [ 2862946.040246134623885, 1895319.404642360517755 ], [ 2862963.461605249438435, 1895345.911935351090506 ], [ 2862975.07788644079119, 1895359.76738926791586 ], [ 2862982.759488825686276, 1895370.706793098011985 ], [ 2862989.337923519313335, 1895383.319021629402414 ], [ 2862992.838304117321968, 1895391.394485561177135 ], [ 2862997.576357886195183, 1895409.32255644374527 ], [ 2862997.241255412809551, 1895426.529655852355063 ], [ 2862996.194663521833718, 1895438.699315243167803 ], [ 2862991.745402995496988, 1895448.621065298793837 ], [ 2862987.979046301916242, 1895452.027728592278436 ], [ 2862981.821542892605066, 1895456.463577023940161 ], [ 2862975.881330338306725, 1895462.036321923835203 ], [ 2862962.651422231458127, 1895479.032415406079963 ], [ 2862953.368694477248937, 1895494.280708585865796 ], [ 2862941.675934285856783, 1895512.513940318254754 ], [ 2862936.930921442806721, 1895521.585858372272924 ], [ 2862933.299850842915475, 1895533.797409082064405 ], [ 2862931.393100630491972, 1895544.848371199797839 ], [ 2862930.442294294945896, 1895555.443998920498416 ], [ 2862931.02139026299119, 1895563.891516284784302 ], [ 2862934.285156623926014, 1895576.820270366733894 ], [ 2862942.192436958663166, 1895622.77043428295292 ], [ 2862952.652613752055913, 1895683.367819677339867 ], [ 2862954.951894322875887, 1895698.713284306460992 ], [ 2862956.86512329429388, 1895708.684892111457884 ], [ 2862959.443922553211451, 1895718.7767877089791 ], [ 2862962.681876931339502, 1895724.833940235199407 ], [ 2862968.580949659459293, 1895731.867518392857164 ], [ 2862972.85222869226709, 1895739.257243264233693 ], [ 2862976.166156346909702, 1895748.415680035017431 ], [ 2862976.884008191525936, 1895769.034390694228932 ], [ 2862972.248995564412326, 1895801.720307283801958 ], [ 2862968.54642924759537, 1895816.926959201693535 ], [ 2862969.481733854394406, 1895825.172256785444915 ], [ 2862970.173158295452595, 1895832.164164966205135 ], [ 2862964.973907817155123, 1895851.071615185355768 ], [ 2862957.87245749682188, 1895870.260132413357496 ], [ 2862952.037606590427458, 1895880.559582435525954 ], [ 2862936.708406381309032, 1895928.847512091509998 ], [ 2862914.399740279652178, 1896008.467705562943593 ], [ 2862901.631654395721853, 1896054.523819263558835 ], [ 2862896.635570278391242, 1896081.808223153930157 ], [ 2862896.318394073285162, 1896100.181277173571289 ], [ 2862899.094803785905242, 1896114.904993309173733 ], [ 2862903.691556361503899, 1896126.268185254419222 ], [ 2862911.927552363835275, 1896138.290518301306292 ], [ 2862919.135686810594052, 1896146.23858759063296 ], [ 2862924.452949638478458, 1896142.772120592882857 ], [ 2862931.524240483529866, 1896134.791049131890759 ], [ 2862936.404842786025256, 1896128.949573036283255 ], [ 2862938.930097516160458, 1896123.74904064158909 ], [ 2862939.320031587965786, 1896118.210576028330252 ], [ 2862938.447063212282956, 1896113.593877834035084 ], [ 2862936.677228278946131, 1896107.610626745270565 ], [ 2862934.296438264660537, 1896101.883428799919784 ], [ 2862931.844010677654296, 1896096.430187057703733 ], [ 2862929.990719467401505, 1896090.714133565546945 ], [ 2862929.643129042349756, 1896084.693042064085603 ], [ 2862930.746600968763232, 1896077.446287665050477 ], [ 2862934.75382562354207, 1896073.876696845050901 ], [ 2862939.643452476710081, 1896070.886800542473793 ], [ 2862947.017461447045207, 1896068.681496236007661 ], [ 2862956.56354452110827, 1896070.6033840700984 ], [ 2862955.877811159938574, 1896076.380176995648071 ], [ 2862950.094583001919091, 1896078.156466888729483 ], [ 2862943.161939439829439, 1896081.308655969100073 ], [ 2862939.29576691519469, 1896085.6334308818914 ], [ 2862939.158746044151485, 1896093.192575067747384 ], [ 2862942.24731620401144, 1896106.16486205207184 ], [ 2862944.290900164283812, 1896117.027739880373701 ], [ 2862944.053246689029038, 1896126.819251311477274 ], [ 2862939.501344623975456, 1896138.553089041728526 ], [ 2862933.721043154131621, 1896147.822722202865407 ], [ 2862926.643075410276651, 1896153.690744299208745 ], [ 2862932.832116190809757, 1896161.729096075287089 ], [ 2862940.385635150130838, 1896174.282135543646291 ], [ 2862946.933566226158291, 1896191.202981432667002 ], [ 2862951.356004148721695, 1896207.783904371783137 ], [ 2862952.472271976061165, 1896226.896058736834675 ], [ 2862949.958977284841239, 1896248.066638376330957 ], [ 2862938.932861275039613, 1896279.211573645472527 ], [ 2862911.865116824861616, 1896358.402792137581855 ], [ 2862870.196815247647464, 1896442.111289191292599 ], [ 2862872.200294623617083, 1896449.350223620189354 ], [ 2862875.175216587260365, 1896455.472755877533928 ], [ 2862879.341052987612784, 1896461.082141452468932 ], [ 2862885.556783259380609, 1896466.517036240547895 ], [ 2862892.688626670278609, 1896470.593417848926038 ], [ 2862899.477347451262176, 1896473.564330713357776 ], [ 2862905.369756645523012, 1896476.123580418061465 ], [ 2862909.088200490921736, 1896472.143726051319391 ], [ 2862906.386011857539415, 1896470.941532293101773 ], [ 2862897.841375601477921, 1896466.901169158983976 ], [ 2862888.456358345691115, 1896461.879873250378296 ], [ 2862881.286345828324556, 1896454.825751945842057 ], [ 2862877.500185783021152, 1896448.485304029658437 ], [ 2862876.028089110739529, 1896444.131607797928154 ], [ 2862942.487056788057089, 1896307.79446940892376 ], [ 2862964.334447235334665, 1896265.142685022670776 ], [ 2862966.347225785255432, 1896257.185742897214368 ], [ 2862969.283963065594435, 1896244.501631326973438 ], [ 2863011.393579163122922, 1896082.560975007014349 ], [ 2863006.789154509548098, 1896077.513102665077895 ], [ 2863007.49692855682224, 1896076.504405908985063 ], [ 2863129.958807407878339, 1895902.775339749874547 ], [ 2863135.143891158513725, 1895896.005686721531674 ], [ 2863138.880303414538503, 1895890.789505284046754 ], [ 2863144.280703259631991, 1895882.836644755210727 ], [ 2863144.776202088221908, 1895882.117201421875507 ], [ 2863146.574027669150382, 1895877.704633661778644 ], [ 2863151.261831987649202, 1895866.203761114971712 ], [ 2863155.292463956400752, 1895854.395116702420637 ], [ 2863157.277082709595561, 1895849.443019367055967 ], [ 2863159.829346785787493, 1895843.363233996555209 ], [ 2863161.294876694213599, 1895840.84056627494283 ] ] ] } },
{ "type": "Feature", "properties": { "ENP_GRAL": 6.0, "ENP_GRAL_NAME": "Otros Espacios Naturales Protegidos", "color": "#7F8F0D" }, "geometry": { "type": "Polygon", "coordinates": [ [ [ 2865531.397997995838523, 1893956.594837868586183 ], [ 2865479.302857735194266, 1894010.892416091868654 ], [ 2865142.496569761075079, 1894359.815327699761838 ], [ 2865130.689774134196341, 1894370.613362384727225 ], [ 2864809.341351449023932, 1894702.024255173979327 ], [ 2864807.020918711554259, 1894704.104470445076004 ], [ 2864804.656333863269538, 1894705.928589007118717 ], [ 2864761.569679759442806, 1894750.977744107833132 ], [ 2864672.300623182207346, 1894842.153992968611419 ], [ 2864670.009056041017175, 1894845.007101839175448 ], [ 2864667.887401510495692, 1894846.776652599219233 ], [ 2864662.3108233762905, 1894851.404305156553164 ], [ 2864659.820610250812024, 1894854.568170418730006 ], [ 2864306.394123303703964, 1895184.260611696634442 ], [ 2864305.856716866604984, 1895184.105204198742285 ], [ 2864304.660737700760365, 1895183.759237639373168 ], [ 2864302.550089563243091, 1895183.148738044779748 ], [ 2864301.455849229358137, 1895184.162570756161585 ], [ 2863733.395914354827255, 1895710.40475663379766 ], [ 2863468.672901949845254, 1895953.126532005611807 ], [ 2863385.439352409914136, 1896029.447655539028347 ], [ 2863380.993543030694127, 1896033.470523790223524 ], [ 2863376.798470210283995, 1896037.266313964966685 ], [ 2863336.230415723286569, 1896075.405217448249459 ], [ 2863304.512188121676445, 1896104.94685822725296 ], [ 2863122.347403711639345, 1896270.020020043011755 ], [ 2863115.721115368418396, 1896276.10014121979475 ], [ 2863106.69945007096976, 1896284.378211493603885 ], [ 2863048.62696252996102, 1896340.213633027859032 ], [ 2863020.384051041211933, 1896374.097317549400032 ], [ 2863016.734207548201084, 1896378.017558706924319 ], [ 2863013.446359112858772, 1896382.512049067066982 ], [ 2863007.712642302270979, 1896386.350340980803594 ], [ 2862986.438417805358768, 1896415.338421593653038 ], [ 2862985.917484938632697, 1896416.236914537614211 ], [ 2862971.228968259412795, 1896441.573104120790958 ], [ 2862962.670543909072876, 1896458.564326918916777 ], [ 2862952.604985537007451, 1896480.551960566779599 ], [ 2862926.334560619667172, 1896536.193160378141329 ], [ 2862891.163692378439009, 1896613.338167401729152 ], [ 2862886.144919218029827, 1896624.346477270824835 ], [ 2862873.242588776629418, 1896652.829282811842859 ], [ 2862861.883435353636742, 1896677.905331078916788 ], [ 2862830.987575660925359, 1896746.110198540845886 ], [ 2862827.28144637029618, 1896754.291778926271945 ], [ 2862830.679681200999767, 1896757.905389722203836 ], [ 2862834.022251724265516, 1896765.707872453844175 ], [ 2862835.950368004385382, 1896780.076796194771305 ], [ 2862830.247673992067575, 1896790.578964922577143 ], [ 2862813.612432520836592, 1896798.516982052940875 ], [ 2862805.475860157050192, 1896802.429456213722005 ], [ 2862801.188555077649653, 1896811.894154690206051 ], [ 2862773.444749236106873, 1896873.141167947323993 ], [ 2862764.694379035383463, 1896892.458727637305856 ], [ 2862690.855353209190071, 1897055.888508192962036 ], [ 2862646.589515219442546, 1897153.864037706051022 ], [ 2862653.755695655941963, 1897154.834559909533709 ], [ 2862696.609225981868804, 1897160.667979679768905 ], [ 2862753.289703306276351, 1897168.38361542718485 ], [ 2862756.011428171303123, 1897167.817988326074556 ], [ 2862759.459322115406394, 1897167.744554092409089 ], [ 2862860.672522185835987, 1897183.368798062670976 ], [ 2862888.88081889366731, 1897189.851427281275392 ], [ 2862917.415745386388153, 1897196.409066926455125 ], [ 2862962.720113697461784, 1897205.278757224790752 ], [ 2862978.698826783336699, 1897204.026992383878678 ], [ 2862997.150228027254343, 1897202.592377924825996 ], [ 2863009.241870686411858, 1897201.652265254408121 ], [ 2863205.701443963684142, 1897186.334046175004914 ], [ 2863212.606782840564847, 1897184.906521307770163 ], [ 2863227.399609113112092, 1897291.119383080629632 ], [ 2863256.100244563538581, 1897497.188188032479957 ], [ 2863195.05942886415869, 1897509.280811188044026 ], [ 2863189.799315241165459, 1897510.901931861881167 ], [ 2863190.112318751402199, 1897513.009026334621012 ], [ 2863190.467340697534382, 1897515.398946070577949 ], [ 2863191.180581649765372, 1897520.201498410897329 ], [ 2863193.42445105407387, 1897516.637670011492446 ], [ 2863194.495099124033004, 1897530.516752244438976 ], [ 2863198.088421340100467, 1897577.093197854235768 ], [ 2863204.096007882151753, 1897654.962553171440959 ], [ 2863210.30268017668277, 1897735.412966806441545 ], [ 2863214.562659012619406, 1897790.628073900006711 ], [ 2863214.846950164996088, 1897794.313343486748636 ], [ 2863217.656565551646054, 1897830.729097749805078 ], [ 2863221.990699999034405, 1897923.994462267728522 ], [ 2863229.500727486796677, 1898085.594221414299682 ], [ 2863227.678453643340617, 1898104.62239011307247 ], [ 2863228.098107898142189, 1898104.49254940636456 ], [ 2863226.454735711216927, 1898109.651292448863387 ], [ 2863224.502055973745883, 1898110.281260813353583 ], [ 2863213.72344943927601, 1898113.289441512199119 ], [ 2863210.82933240570128, 1898114.08942837594077 ], [ 2863203.143907199148089, 1898116.214054969605058 ], [ 2863199.058485442772508, 1898117.599984811386093 ], [ 2863114.262263808399439, 1898146.21454237960279 ], [ 2863093.910928826779127, 1898152.928080421639606 ], [ 2863049.351051305420697, 1898166.986418025335297 ], [ 2863001.548186269588768, 1898181.576077532954514 ], [ 2862992.769499321002513, 1898184.256988137960434 ], [ 2862991.715469765011221, 1898184.580109093338251 ], [ 2862967.796170300338417, 1898191.879139534663409 ], [ 2862953.512066538911313, 1898195.26829024264589 ], [ 2862946.262779141776264, 1898196.987066952511668 ], [ 2862903.331810815725476, 1898207.543143313378096 ], [ 2862860.004826698452234, 1898219.205650692339987 ], [ 2862838.475212377030402, 1898224.997439318569377 ], [ 2862751.084246483631432, 1898250.732838239520788 ], [ 2862734.026684235781431, 1898256.981012606993318 ], [ 2862647.941964806057513, 1898287.33747848845087 ], [ 2862600.133784543722868, 1898297.860401270678267 ], [ 2862592.525181437842548, 1898300.025156675837934 ], [ 2862580.452055418863893, 1898304.276107435114682 ], [ 2862570.17079431284219, 1898310.1951323102694 ], [ 2862567.810079471208155, 1898311.696604026248679 ], [ 2862551.368431540206075, 1898322.140471893828362 ], [ 2862530.142270365264267, 1898337.454833321040496 ], [ 2862523.823203424923122, 1898342.005859401309863 ], [ 2862433.516793346963823, 1898407.143283422337845 ], [ 2862354.411018067505211, 1898464.035982351284474 ], [ 2862351.106563583947718, 1898466.406089726835489 ], [ 2862350.553102699108422, 1898466.806447844952345 ], [ 2862283.299799716100097, 1898515.174299628706649 ], [ 2862198.025317382067442, 1898577.499559352174401 ], [ 2862191.217679771594703, 1898582.474749465705827 ], [ 2862170.735643240157515, 1898593.012910669436678 ], [ 2862170.405586265958846, 1898593.18275158922188 ], [ 2862162.067711748182774, 1898595.974886932875961 ], [ 2862152.336836929433048, 1898598.852751917205751 ], [ 2862082.866399512160569, 1898619.507332587614655 ], [ 2862101.835298962891102, 1898587.532530752010643 ], [ 2862102.398082229308784, 1898586.53390103741549 ], [ 2862103.129440096206963, 1898585.053731108084321 ], [ 2862103.763804099522531, 1898583.530973013490438 ], [ 2862103.864235562738031, 1898583.261585050961003 ], [ 2862110.62888632202521, 1898564.808942483505234 ], [ 2862111.063033571466804, 1898563.519671636167914 ], [ 2862111.495692948810756, 1898561.931476514786482 ], [ 2862111.824408645741642, 1898560.320798735134304 ], [ 2862112.047929172869772, 1898558.694449869217351 ], [ 2862112.16523136338219, 1898557.059402473038062 ], [ 2862112.175815985538065, 1898555.422736172797158 ], [ 2862112.130941953510046, 1898554.443792008794844 ], [ 2862111.129748836625367, 1898539.161474480992183 ], [ 2862120.56856680335477, 1898498.310561153572053 ], [ 2862128.417411141563207, 1898468.812150594545528 ], [ 2862145.983104212675244, 1898437.340487741166726 ], [ 2862146.206567626446486, 1898436.931391364661977 ], [ 2862146.937931786291301, 1898435.451223779469728 ], [ 2862147.572219091467559, 1898433.928584366105497 ], [ 2862147.819294997490942, 1898433.24840095336549 ], [ 2862159.526714077219367, 1898399.548462670762092 ], [ 2862159.81430609151721, 1898398.669873112579808 ], [ 2862159.821699732914567, 1898398.645534078590572 ], [ 2862167.736553802154958, 1898372.805387889733538 ], [ 2862168.161728668026626, 1898371.241552438819781 ], [ 2862168.383082347922027, 1898370.218954782234505 ], [ 2862173.096727887168527, 1898346.041389358229935 ], [ 2862173.204196276143193, 1898345.453293941449374 ], [ 2862173.42764204274863, 1898343.827064180048183 ], [ 2862173.526653650216758, 1898342.582261225441471 ], [ 2862175.249359890818596, 1898311.057165771257132 ], [ 2862175.267642993479967, 1898310.666825507534668 ], [ 2862175.27822058647871, 1898309.030063467333093 ], [ 2862175.222105115652084, 1898307.888177770888433 ], [ 2862173.643835776019841, 1898285.993870817590505 ], [ 2862173.603706023655832, 1898285.504383242689073 ], [ 2862173.507474842481315, 1898284.627982746809721 ], [ 2862171.703406596556306, 1898270.509423601441085 ], [ 2862170.740956199355423, 1898253.409425042336807 ], [ 2862170.711350915022194, 1898252.95752062718384 ], [ 2862168.391665518749505, 1898221.821319577749819 ], [ 2862168.452873491682112, 1898193.234876581234857 ], [ 2862168.444384267553687, 1898192.524900280870497 ], [ 2862168.348225182853639, 1898190.893411781638861 ], [ 2862168.145630587358028, 1898189.274229978676885 ], [ 2862167.936958466190845, 1898188.190735129173845 ], [ 2862168.26875467132777, 1898186.972689210670069 ], [ 2862168.597582570277154, 1898185.361997987842187 ], [ 2862168.821132035925984, 1898183.735751947155222 ], [ 2862168.9384471536614, 1898182.100708782207221 ], [ 2862168.94902863772586, 1898180.463948098244146 ], [ 2862168.85267283488065, 1898178.832495638402179 ], [ 2862168.650177134666592, 1898177.213296002941206 ], [ 2862168.482628848403692, 1898176.274638762930408 ], [ 2862158.960043760016561, 1898128.266195504926145 ], [ 2862158.819458713755012, 1898127.60490463161841 ], [ 2862158.407175109256059, 1898126.031027036020532 ], [ 2862157.892538938205689, 1898124.490083092125133 ], [ 2862157.277680346742272, 1898122.98847065330483 ], [ 2862156.565253423992544, 1898121.532694675028324 ], [ 2862155.758373746648431, 1898120.12897344562225 ], [ 2862154.860338361933827, 1898118.783390881028026 ], [ 2862153.875102891586721, 1898117.501708323135972 ], [ 2862152.806856131181121, 1898116.289239485515282 ], [ 2862151.66019665915519, 1898115.151324681704864 ], [ 2862150.440054771490395, 1898114.09283863613382 ], [ 2862149.151625165715814, 1898113.118405332323164 ], [ 2862147.800304483622313, 1898112.232004233403131 ], [ 2862146.392065004911274, 1898111.437408616533503 ], [ 2862144.933044874109328, 1898110.738158956635743 ], [ 2862143.429107073694468, 1898110.137339469976723 ], [ 2862142.517233519814909, 1898109.841660968726501 ], [ 2862142.182842257898301, 1898107.989236558787525 ], [ 2862142.911197035107762, 1898091.700732931960374 ], [ 2862148.276747516356409, 1898072.759131429716945 ], [ 2862164.5991340726614, 1898023.416210546158254 ], [ 2862181.843644958455116, 1897979.550762588623911 ], [ 2862207.23776285815984, 1897927.234678473556414 ], [ 2862207.339878718368709, 1897927.021907529095188 ], [ 2862211.270630802959204, 1897918.731148074381053 ], [ 2862226.766640746500343, 1897886.039846311556175 ], [ 2862226.937598161399364, 1897885.67171954899095 ], [ 2862226.954658755101264, 1897885.634173903614283 ], [ 2862284.370233198162168, 1897758.859420093940571 ], [ 2862284.374657650478184, 1897758.849599535576999 ], [ 2862328.279526081867516, 1897661.799578339327127 ], [ 2862328.310347208753228, 1897661.731165754375979 ], [ 2862351.525616543367505, 1897610.013387031620368 ], [ 2862371.435818400699645, 1897565.656906894408166 ], [ 2862434.593872443772852, 1897437.269046829314902 ], [ 2862434.871113416738808, 1897436.686888155993074 ], [ 2862519.265851644799113, 1897253.68972415314056 ], [ 2862592.230912247207016, 1897101.904348339419812 ], [ 2862592.462174935732037, 1897101.410078843357041 ], [ 2862592.549351784400642, 1897101.216238665394485 ], [ 2862632.4280716762878, 1897011.58509310008958 ], [ 2862680.941831783857197, 1896905.533544430974871 ], [ 2862680.964686123654246, 1896905.483296174090356 ], [ 2862681.072039239574224, 1896905.244051575660706 ], [ 2862688.729696885682642, 1896887.943100191885605 ], [ 2862717.395844894926995, 1896823.198761573527008 ], [ 2862728.247950188815594, 1896799.890129310777411 ], [ 2862769.249155054800212, 1896711.817653889069334 ], [ 2862821.471753661520779, 1896599.645412947749719 ], [ 2862838.263406834565103, 1896563.584118908504024 ], [ 2862838.358848148956895, 1896563.37651950167492 ], [ 2862838.993315441533923, 1896561.853893111459911 ], [ 2862839.528078288771212, 1896560.295247880276293 ], [ 2862839.960836954414845, 1896558.707181080942973 ], [ 2862840.289634177461267, 1896557.096531435614452 ], [ 2862840.513218132313341, 1896555.470110411755741 ], [ 2862840.630596527829766, 1896553.835087321233004 ], [ 2862840.641238585114479, 1896552.198344811797142 ], [ 2862840.545070154592395, 1896550.567087459610775 ], [ 2862840.342530305031687, 1896548.947919924277812 ], [ 2862840.034545961767435, 1896547.347965651657432 ], [ 2862839.622308461926877, 1896545.77409735112451 ], [ 2862839.107698973733932, 1896544.233062053099275 ], [ 2862838.492894297000021, 1896542.731552889337763 ], [ 2862837.780501520261168, 1896541.275779481045902 ], [ 2862836.973651689477265, 1896539.872058537323028 ], [ 2862836.075641718693078, 1896538.526473983889446 ], [ 2862835.090427121147513, 1896537.244787161471322 ], [ 2862834.022295154631138, 1896536.032293850556016 ], [ 2862832.875647231936455, 1896534.894370306748897 ], [ 2862831.655512146651745, 1896533.835873336764053 ], [ 2862830.366986017674208, 1896532.861444913083687 ], [ 2862829.015761116053909, 1896531.975010701455176 ], [ 2862827.607514106668532, 1896531.18039791029878 ], [ 2862827.242547201924026, 1896531.005542793544009 ], [ 2862869.35765497200191, 1896440.560722053982317 ], [ 2862910.814467092044652, 1896362.017070399131626 ], [ 2862910.841143140569329, 1896361.962783944327384 ], [ 2862910.866461997851729, 1896361.901857574470341 ], [ 2862910.873822807334363, 1896361.881779114017263 ], [ 2862939.45322144869715, 1896281.547840418992564 ], [ 2862951.252044441644102, 1896249.480819688877091 ], [ 2862951.269851451739669, 1896249.428149340907112 ], [ 2862951.287155056372285, 1896249.364632230252028 ], [ 2862951.300267013721168, 1896249.30025835102424 ], [ 2862951.307855408173054, 1896249.247728116344661 ], [ 2862953.825328818522394, 1896227.762715687276796 ], [ 2862953.826691960915923, 1896227.750212153652683 ], [ 2862953.831431380007416, 1896227.684831766877323 ], [ 2862953.831792786251754, 1896227.619337549433112 ], [ 2862953.830171377398074, 1896227.582259810529649 ], [ 2862952.598831128329039, 1896208.158157485770062 ], [ 2862952.596596929244697, 1896208.130002967780456 ], [ 2862952.588555532041937, 1896208.065229556523263 ], [ 2862952.576178070157766, 1896208.001246205065399 ], [ 2862952.567300306633115, 1896207.965085505275056 ], [ 2862948.046492614783347, 1896191.030481478665024 ], [ 2862948.038885173853487, 1896191.003609853331 ], [ 2862948.018271736335009, 1896190.942038707900792 ], [ 2862948.014578735921532, 1896190.932178246090189 ], [ 2862941.36895558424294, 1896173.601822630502284 ], [ 2862941.348104011267424, 1896173.551537223625928 ], [ 2862941.319607796147466, 1896173.493326755706221 ], [ 2862941.299899652600288, 1896173.457924054702744 ], [ 2862933.74270286783576, 1896160.562005265848711 ], [ 2862933.730191471986473, 1896160.54129386972636 ], [ 2862933.694279831834137, 1896160.48747302335687 ], [ 2862933.685990272089839, 1896160.476120605366305 ], [ 2862927.595859856344759, 1896152.233488508267328 ], [ 2862927.587502971291542, 1896152.222350918222219 ], [ 2862927.556401496753097, 1896152.182238285429776 ], [ 2862927.526418143417686, 1896152.147897564107552 ], [ 2862927.513723269104958, 1896152.133701662067324 ], [ 2862923.522578914649785, 1896147.727429310791194 ], [ 2862923.509604012127966, 1896147.713385721668601 ], [ 2862923.476872073486447, 1896147.680254791164771 ], [ 2862920.11731967702508, 1896144.444072139216587 ], [ 2862913.088678235188127, 1896136.3439872385934 ], [ 2862905.06496209371835, 1896124.187769719865173 ], [ 2862900.606025449931622, 1896112.789540972560644 ], [ 2862897.892829832620919, 1896098.060991548001766 ], [ 2862898.231319366954267, 1896079.705323789268732 ], [ 2862903.591618932783604, 1896051.853818938368931 ], [ 2862941.269158407114446, 1895924.020229338202626 ], [ 2862956.816360138356686, 1895876.482278885086998 ], [ 2862962.660319310612977, 1895866.40905502368696 ], [ 2862962.677789874374866, 1895866.377917973557487 ], [ 2862962.70703181438148, 1895866.318707935046405 ], [ 2862962.732284081168473, 1895866.257996644126251 ], [ 2862969.946943221613765, 1895847.260330826044083 ], [ 2862969.968371719121933, 1895847.197885497007519 ], [ 2862969.976822771131992, 1895847.168695703847334 ], [ 2862975.136018963996321, 1895828.415302786743268 ], [ 2862975.144773547537625, 1895828.380993600701913 ], [ 2862975.157984633930027, 1895828.316601955564693 ], [ 2862975.166936732828617, 1895828.251568367239088 ], [ 2862975.17156252078712, 1895828.186107677640393 ], [ 2862975.172038592398167, 1895828.120694111101329 ], [ 2862975.16818346362561, 1895828.055462013697252 ], [ 2862975.166087916120887, 1895828.034574637422338 ], [ 2862973.481156365945935, 1895813.136228799587116 ], [ 2862977.220784841571003, 1895798.17734660115093 ], [ 2862977.223481876775622, 1895798.16622059373185 ], [ 2862977.236594456247985, 1895798.101846910314634 ], [ 2862977.24032299593091, 1895798.078682979336008 ], [ 2862982.019798805937171, 1895765.563946353970096 ], [ 2862982.025022436864674, 1895765.522076722234488 ], [ 2862982.029746857471764, 1895765.456598103744909 ], [ 2862982.030223011504859, 1895765.391184565145522 ], [ 2862982.02897357288748, 1895765.360926379449666 ], [ 2862980.871250228025019, 1895744.855887477518991 ], [ 2862980.868644630536437, 1895744.820913596311584 ], [ 2862980.860505231190473, 1895744.756158325588331 ], [ 2862980.848226835485548, 1895744.692157195881009 ], [ 2862980.831742116250098, 1895744.629125050734729 ], [ 2862980.811144731007516, 1895744.56765249883756 ], [ 2862980.79685691324994, 1895744.531262309988961 ], [ 2862977.011946782935411, 1895735.461679162923247 ], [ 2862977.001690429635346, 1895735.437923620687798 ], [ 2862976.973194586113095, 1895735.379713288508356 ], [ 2862976.940876830369234, 1895735.323617263929918 ], [ 2862976.92736935429275, 1895735.302378448890522 ], [ 2862972.133017044514418, 1895727.999756002798676 ], [ 2862972.110597564838827, 1895727.967075648484752 ], [ 2862972.071139453910291, 1895727.915825505042449 ], [ 2862972.028103359043598, 1895727.866949079558253 ], [ 2862965.548877485096455, 1895721.004910537041724 ], [ 2862962.024406393058598, 1895715.204957094509155 ], [ 2862959.066282010637224, 1895705.349595425417647 ], [ 2862956.798910824116319, 1895695.507334692869335 ], [ 2862933.849156285636127, 1895573.251040395814925 ], [ 2862933.841674177907407, 1895573.214726898353547 ], [ 2862933.832349942531437, 1895573.177027255529538 ], [ 2862930.386404474265873, 1895560.352668630424887 ], [ 2862929.911004262045026, 1895552.167111615883186 ], [ 2862930.977711312007159, 1895541.800430822651833 ], [ 2862932.99231290537864, 1895530.95962591888383 ], [ 2862936.709634290076792, 1895519.01959482440725 ], [ 2862941.471213084179908, 1895510.112887314986438 ], [ 2862953.335458423942327, 1895491.934803842101246 ], [ 2862953.343031197786331, 1895491.923093324061483 ], [ 2862962.929927580989897, 1895476.794900734676048 ], [ 2862977.593002886511385, 1895460.251815758878365 ], [ 2862984.194624558091164, 1895454.935530197340995 ], [ 2862991.00127815362066, 1895450.667322845663875 ], [ 2862991.00792092923075, 1895450.663175344467163 ], [ 2862991.062425336800516, 1895450.625797185115516 ], [ 2862991.08697772398591, 1895450.60734681552276 ], [ 2862995.344621751923114, 1895447.291653598891571 ], [ 2862995.37223797570914, 1895447.269505267264321 ], [ 2862995.421531220898032, 1895447.225480489432812 ], [ 2862995.468011534772813, 1895447.178423385135829 ], [ 2862995.511398882605135, 1895447.128486254950985 ], [ 2862995.551511777099222, 1895447.0758034538012 ], [ 2862995.588117015082389, 1895447.020822598366067 ], [ 2862995.608600025065243, 1895446.986300956923515 ], [ 2863001.138047387823462, 1895437.245012230239809 ], [ 2863001.150547804776579, 1895437.2221744726412 ], [ 2863001.17979038041085, 1895437.162964642280713 ], [ 2863001.205224759876728, 1895437.102119196439162 ], [ 2863001.226570911705494, 1895437.039790449896827 ], [ 2863001.243974211160094, 1895436.976255754008889 ], [ 2863001.25707168225199, 1895436.911783796967939 ], [ 2863001.262666267342865, 1895436.874809519154951 ], [ 2863002.870220614597201, 1895424.785349764861166 ], [ 2863002.873464511707425, 1895424.757210155483335 ], [ 2863002.878204991109669, 1895424.691830120747909 ], [ 2863002.878665971104056, 1895424.626318290131167 ], [ 2863002.877443057484925, 1895424.596865639090538 ], [ 2863001.905593385454267, 1895407.157849561423063 ], [ 2863001.902961680665612, 1895407.122070297831669 ], [ 2863001.894921229220927, 1895407.05729721696116 ], [ 2863001.882544664666057, 1895406.993314178660512 ], [ 2863001.866075911559165, 1895406.930380593752488 ], [ 2863001.854973971843719, 1895406.89553693938069 ], [ 2862995.706039950717241, 1895388.731088968692347 ], [ 2862995.696529235690832, 1895388.704361755633727 ], [ 2862995.671985390596092, 1895388.644216150743887 ], [ 2862995.655696527101099, 1895388.609912449028343 ], [ 2862991.620236199349165, 1895380.480627016630024 ], [ 2862991.607930967118591, 1895380.456738450331613 ], [ 2862991.588820324745029, 1895380.422543763183057 ], [ 2862984.179322103969753, 1895367.74043746269308 ], [ 2862984.166115265339613, 1895367.718536242377013 ], [ 2862984.130204170010984, 1895367.664715616498142 ], [ 2862984.116755273193121, 1895367.646403351332992 ], [ 2862975.807860914617777, 1895356.611337698996067 ], [ 2862975.781950472854078, 1895356.578381977742538 ], [ 2862975.765118796378374, 1895356.558559158351272 ], [ 2862963.611520332749933, 1895342.58082064660266 ], [ 2862946.331840087659657, 1895316.180493805557489 ], [ 2862946.326768478844315, 1895316.172808951931074 ], [ 2862931.172055860981345, 1895293.489643615204841 ], [ 2862914.916126064956188, 1895265.399592079455033 ], [ 2862898.510345285758376, 1895234.389874913264066 ], [ 2862878.811319735832512, 1895190.124939599772915 ], [ 2862865.13826654618606, 1895142.984579737298191 ], [ 2862866.307129738852382, 1895131.13105144794099 ], [ 2862866.693986412603408, 1895131.143412133911625 ], [ 2862868.326233406085521, 1895131.115821211365983 ], [ 2862869.955731693655252, 1895130.981373104266822 ], [ 2862871.575442432425916, 1895130.740438796579838 ], [ 2862873.178436039015651, 1895130.394078325945884 ], [ 2862874.757663886062801, 1895129.943879835074767 ], [ 2862876.306845220737159, 1895129.391797960735857 ], [ 2862877.818926516920328, 1895128.740029418142512 ], [ 2862879.287570405751467, 1895127.991450686007738 ], [ 2862880.706486348062754, 1895127.149233552860096 ], [ 2862882.069560390431434, 1895126.217024033423513 ], [ 2862883.370953728444874, 1895125.198924430413172 ], [ 2862884.605237350799143, 1895124.099063644418493 ], [ 2862885.766894412226975, 1895122.922295544994995 ], [ 2862886.851129126735032, 1895121.67354520293884 ], [ 2862887.853337903041393, 1895120.358310338575393 ], [ 2862888.769031306728721, 1895118.982169154332951 ], [ 2862889.594373632222414, 1895117.550985877634957 ], [ 2862890.325773091055453, 1895116.070884130895138 ], [ 2862890.960276008583605, 1895114.548175101866946 ], [ 2862891.495089698582888, 1895112.989545786054805 ], [ 2862891.927898600231856, 1895111.401494957972318 ], [ 2862892.256745235063136, 1895109.790861266199499 ], [ 2862892.480393180623651, 1895108.16455455427058 ], [ 2862892.597818713169545, 1895106.529547179350629 ], [ 2862892.608506464399397, 1895104.892820168519393 ], [ 2862892.512465021573007, 1895103.261461640242487 ], [ 2862892.309967398643494, 1895101.64230896695517 ], [ 2862892.002023275010288, 1895100.042369146598503 ], [ 2862891.807354339864105, 1895099.246320198057219 ], [ 2862888.411895188502967, 1895086.292804269585758 ], [ 2862888.415695176459849, 1895082.409093222348019 ], [ 2862890.181913521606475, 1895063.236527878558263 ], [ 2862893.33090796507895, 1895037.374894500942901 ], [ 2862896.516351458616555, 1895019.954280946403742 ], [ 2862906.57611951045692, 1894994.344199676299468 ], [ 2862919.51352515630424, 1894972.045327391242608 ], [ 2862933.714984082151204, 1894948.247809994732961 ], [ 2862934.205502271652222, 1894947.388801815453917 ], [ 2862957.830492747016251, 1894904.111957323504612 ], [ 2862957.935912947170436, 1894903.916723250877112 ], [ 2862958.13132467539981, 1894903.54405582556501 ], [ 2862967.24546701926738, 1894885.810966483550146 ], [ 2862967.62976442836225, 1894885.030866214074194 ], [ 2862978.926833167672157, 1894861.094730576733127 ], [ 2862979.078517897054553, 1894860.767301940126345 ], [ 2862979.580784965772182, 1894859.585904406150803 ], [ 2862987.751035277731717, 1894838.948198063997552 ], [ 2862987.883313526399434, 1894838.60708767385222 ], [ 2862988.418024759739637, 1894837.048382180510089 ], [ 2862988.85084512270987, 1894835.460335447220132 ], [ 2862989.179801474325359, 1894833.849687651731074 ], [ 2862989.403346093837172, 1894832.223304067272693 ], [ 2862989.520782076288015, 1894830.588300046045333 ], [ 2862989.531479846220464, 1894828.951576102059335 ], [ 2862989.435447952244431, 1894827.320220356807113 ], [ 2862989.23297497164458, 1894825.701168593717739 ], [ 2862988.925039330497384, 1894824.101230929605663 ], [ 2862988.808951082639396, 1894823.612736882641912 ], [ 2862983.889390011318028, 1894803.807374955387786 ], [ 2862973.049534459598362, 1894757.58335867500864 ], [ 2862968.709792124573141, 1894721.472707164939493 ], [ 2862968.626136716455221, 1894720.844714992213994 ], [ 2862965.720079262275249, 1894700.959136780817062 ], [ 2862965.787628561258316, 1894698.731312587391585 ], [ 2862968.751182575710118, 1894678.248462577117607 ], [ 2862971.660302310716361, 1894664.746889815432951 ], [ 2862976.665032552555203, 1894645.468579145614058 ], [ 2862976.789373602718115, 1894644.968689505709335 ], [ 2862977.11833608429879, 1894643.358043643878773 ], [ 2862977.342000880744308, 1894641.73174250475131 ], [ 2862977.405200432054698, 1894641.034253355814144 ], [ 2862978.771713704802096, 1894623.19261603965424 ], [ 2862978.825956361368299, 1894622.255103272385895 ], [ 2862978.8452072981745, 1894621.298341989051551 ], [ 2862978.854242208879441, 1894612.341762413503602 ], [ 2862982.797289741225541, 1894598.120601592585444 ], [ 2862982.807543063070625, 1894598.083589051384479 ], [ 2862986.177182666491717, 1894585.859435733640566 ], [ 2862989.726995319128036, 1894575.803082487545907 ], [ 2862997.681027629412711, 1894554.969258652301505 ], [ 2862997.699440441094339, 1894554.921036545187235 ], [ 2862998.234260184690356, 1894553.362316217971966 ], [ 2862998.667007447220385, 1894551.774388996185735 ], [ 2862998.97768628410995, 1894550.269673501607031 ], [ 2863002.213611519429833, 1894531.786240833811462 ], [ 2863007.231049332767725, 1894515.751284562516958 ], [ 2863012.580534950830042, 1894500.782174292951822 ], [ 2863012.942903177347034, 1894499.691698567010462 ], [ 2863013.035910871811211, 1894499.382355759618804 ], [ 2863023.665138069540262, 1894463.191742083290592 ], [ 2863028.928021126426756, 1894448.162968182237819 ], [ 2863046.466306279879063, 1894415.887885593110695 ], [ 2863046.547955591697246, 1894415.736483260756359 ], [ 2863047.279497514478862, 1894414.256472140550613 ], [ 2863047.369993855245411, 1894414.05534968781285 ], [ 2863058.643783320207149, 1894388.699303186032921 ], [ 2863059.117808648385108, 1894387.560329836327583 ], [ 2863067.834243247285485, 1894365.108561519766226 ], [ 2863067.871847078204155, 1894365.011266842018813 ], [ 2863078.52033312804997, 1894337.249212610069662 ], [ 2863094.106792238540947, 1894302.674748270306736 ], [ 2863111.812090713530779, 1894265.711851101834327 ], [ 2863124.487559707835317, 1894239.602902340469882 ], [ 2863138.483070663642138, 1894222.896455525420606 ], [ 2863138.717761680949479, 1894222.612244188552722 ], [ 2863139.719909636303782, 1894221.297042159596458 ], [ 2863140.635625270195305, 1894219.920817190082744 ], [ 2863141.461103925481439, 1894218.489630307536572 ], [ 2863141.666354286018759, 1894218.097754164598882 ], [ 2863155.321580997668207, 1894191.474785196129233 ], [ 2863159.367801145650446, 1894184.104852728778496 ], [ 2863159.50273696705699, 1894183.855932731414214 ], [ 2863160.234175650402904, 1894182.37584567326121 ], [ 2863160.868733003269881, 1894180.853249325416982 ], [ 2863161.403569342568517, 1894179.294535296736285 ], [ 2863161.836415769997984, 1894177.706497620558366 ], [ 2863162.165314645506442, 1894176.095974883064628 ], [ 2863162.197852715849876, 1894175.900855282321572 ], [ 2863163.49160065734759, 1894167.949821823043749 ], [ 2863163.674239167012274, 1894166.597372068092227 ], [ 2863164.779512485954911, 1894156.34161266637966 ], [ 2863164.787905545439571, 1894156.26280675153248 ], [ 2863164.905366083607078, 1894154.627810684032738 ], [ 2863164.916087470017374, 1894152.991094185505062 ], [ 2863164.819963992573321, 1894151.359664854360744 ], [ 2863164.752711643464863, 1894150.718053022166714 ], [ 2863139.975394759792835, 1893940.814675 ], [ 2862948.820618706289679, 1893940.814675 ], [ 2862949.797295709140599, 1893963.40619857236743 ], [ 2862949.878493901342154, 1893964.610309477429837 ], [ 2862950.080942545086145, 1893966.229352090507746 ], [ 2862950.388854992110282, 1893967.829280698671937 ], [ 2862950.801024599000812, 1893969.403124266304076 ], [ 2862951.315570479724556, 1893970.944135887315497 ], [ 2862951.930217550136149, 1893972.445640472695231 ], [ 2862952.642556057311594, 1893973.901392605155706 ], [ 2862952.740813981741667, 1893974.08432849845849 ], [ 2862993.13042205106467, 1894048.562967917183414 ], [ 2862993.839064526837319, 1894049.783716347301379 ], [ 2862994.737031873315573, 1894051.129283930175006 ], [ 2862995.722126244567335, 1894052.4110717556905 ], [ 2862996.790293750353158, 1894053.623336518416181 ], [ 2862997.936915510334074, 1894054.761248075403273 ], [ 2862999.157128722406924, 1894055.81971689267084 ], [ 2863000.445557323284447, 1894056.794253359083086 ], [ 2863001.796773524954915, 1894057.680681123863906 ], [ 2863003.204903608188033, 1894058.475208919029683 ], [ 2863004.664136281237006, 1894059.174439222086221 ], [ 2863004.852398684248328, 1894059.256104102591053 ], [ 2863034.749619339127094, 1894072.073889003368095 ], [ 2863034.965249160304666, 1894072.504035398596898 ], [ 2863034.97173911659047, 1894072.51682960963808 ], [ 2863038.799608029425144, 1894080.139669510768726 ], [ 2863042.839249501936138, 1894090.033822023309767 ], [ 2863044.861357766669244, 1894103.306924592703581 ], [ 2863045.289728104136884, 1894120.935888402629644 ], [ 2863042.264495351351798, 1894128.89369242428802 ], [ 2863042.259267725050449, 1894128.907406182726845 ], [ 2863042.099295073188841, 1894129.34055917756632 ], [ 2863021.492545309476554, 1894186.737894139718264 ], [ 2863015.547571655362844, 1894198.543387460755184 ], [ 2863005.157565419562161, 1894211.923220842843875 ], [ 2863004.522568537853658, 1894212.776641167933121 ], [ 2863004.407186147291213, 1894212.939759771805257 ], [ 2862996.591708235442638, 1894224.088754908414558 ], [ 2862995.791347833350301, 1894225.301667867926881 ], [ 2862994.965873306617141, 1894226.732858003582805 ], [ 2862994.696583347860724, 1894227.25034337118268 ], [ 2862979.375645573250949, 1894257.527744146995246 ], [ 2862978.913404996041209, 1894258.4903678544797 ], [ 2862978.278953310102224, 1894260.012950155418366 ], [ 2862977.912345838733017, 1894261.044744353974238 ], [ 2862968.425994548946619, 1894289.676139117684215 ], [ 2862968.257757463026792, 1894290.202964160824195 ], [ 2862967.824919036589563, 1894291.791005357867107 ], [ 2862967.533489412628114, 1894293.187587389023975 ], [ 2862966.123462837655097, 1894301.041329742176458 ], [ 2862966.085918452590704, 1894301.255389906000346 ], [ 2862965.862341253086925, 1894302.881669506663457 ], [ 2862965.744888793677092, 1894304.51666796230711 ], [ 2862965.734159492421895, 1894306.153287895023823 ], [ 2862965.830191686749458, 1894307.784736539237201 ], [ 2862965.930707715451717, 1894308.694961002329364 ], [ 2862967.924168949946761, 1894324.135948826326057 ], [ 2862968.334033571183681, 1894326.444703102344647 ], [ 2862968.522866789717227, 1894327.218717879382893 ], [ 2862971.124353586230427, 1894337.181369610596448 ], [ 2862971.397335956804454, 1894340.5120682453271 ], [ 2862970.950991242658347, 1894341.608829116681591 ], [ 2862967.845554309897125, 1894348.8852740873117 ], [ 2862961.789210588671267, 1894362.152108586626127 ], [ 2862952.326618601102382, 1894381.970951528288424 ], [ 2862952.125580710358918, 1894382.402169205015525 ], [ 2862951.4910510154441, 1894383.924869635840878 ], [ 2862951.355839380528778, 1894384.289706193143502 ], [ 2862942.938985153101385, 1894407.526849346933886 ], [ 2862932.292027922812849, 1894436.433064179494977 ], [ 2862923.181978756096214, 1894457.29459388460964 ], [ 2862922.706859957426786, 1894458.459899887209758 ], [ 2862922.172038699500263, 1894460.018620322691277 ], [ 2862921.73920703260228, 1894461.606663872487843 ], [ 2862921.410338135436177, 1894463.217290345113724 ], [ 2862921.186652914155275, 1894464.843491506297141 ], [ 2862921.145082782022655, 1894465.276443872833624 ], [ 2862919.423375954385847, 1894485.022737714229152 ], [ 2862919.34741709753871, 1894486.224902268964797 ], [ 2862919.331241065170616, 1894486.818011370487511 ], [ 2862919.038376006763428, 1894505.690516414120793 ], [ 2862917.901079440489411, 1894525.770301102893427 ], [ 2862915.313409488648176, 1894535.385391077259555 ], [ 2862909.434937976300716, 1894551.315438587684184 ], [ 2862909.174249349161983, 1894552.05660751182586 ], [ 2862902.830448866356164, 1894571.018912325613201 ], [ 2862902.638719413429499, 1894571.616257241694257 ], [ 2862902.205990508198738, 1894573.204284258652478 ], [ 2862901.877027184702456, 1894574.814930069027469 ], [ 2862901.761240807827562, 1894575.559980671852827 ], [ 2862891.203682569786906, 1894650.848184957867488 ], [ 2862891.095820389688015, 1894651.729534181300551 ], [ 2862891.028374240733683, 1894652.484008245868608 ], [ 2862889.060490516014397, 1894678.966816064668819 ], [ 2862889.010497086681426, 1894679.847344658570364 ], [ 2862888.999796194955707, 1894681.484067133162171 ], [ 2862889.002386488951743, 1894681.575861951336265 ], [ 2862890.233648406341672, 1894722.886163198156282 ], [ 2862890.250569176860154, 1894723.324765758356079 ], [ 2862892.529567671939731, 1894771.422332204412669 ], [ 2862892.581065992824733, 1894772.231197045883164 ], [ 2862896.07167103420943, 1894815.866485252976418 ], [ 2862896.131424644030631, 1894817.159690758446231 ], [ 2862893.956805104855448, 1894823.701537224696949 ], [ 2862887.743681315332651, 1894839.821847967570648 ], [ 2862887.696085563860834, 1894839.946284174919128 ], [ 2862887.676580225583166, 1894839.997845272766426 ], [ 2862866.204755066428334, 1894896.950526710134 ], [ 2862865.689538347534835, 1894898.457575040869415 ], [ 2862865.377099492121488, 1894899.56103920773603 ], [ 2862861.492211234755814, 1894914.564594466472045 ], [ 2862856.692677366547287, 1894928.412885627709329 ], [ 2862850.213366300798953, 1894942.380987693322822 ], [ 2862843.099659526720643, 1894954.305574193131179 ], [ 2862834.551617074757814, 1894966.812062454177067 ], [ 2862834.252260134555399, 1894967.260083889355883 ], [ 2862821.367082205601037, 1894986.983113009948283 ], [ 2862821.040269944816828, 1894987.496500732842833 ], [ 2862820.662025207653642, 1894988.126111311139539 ], [ 2862808.701689434237778, 1895008.695779000408947 ], [ 2862808.254491209983826, 1895009.497370124794543 ], [ 2862807.522991617210209, 1895010.977490354562178 ], [ 2862806.888570094481111, 1895012.500083341263235 ], [ 2862806.353869064711034, 1895014.058793317526579 ], [ 2862806.34157389588654, 1895014.098912715213373 ], [ 2862803.571066020987928, 1895023.161972369067371 ], [ 2862803.15056679956615, 1895024.710002356441692 ], [ 2862802.821817655581981, 1895026.320618009427562 ], [ 2862802.598153077065945, 1895027.946826009545475 ], [ 2862802.570824437774718, 1895028.222732497146353 ], [ 2862801.355550955515355, 1895041.221791858552024 ], [ 2862801.265469028614461, 1895042.580990814371035 ], [ 2862801.254780713003129, 1895044.217717276886106 ], [ 2862801.344354534521699, 1895045.776318149641156 ], [ 2862802.42126470990479, 1895057.888695102650672 ], [ 2862802.427814718335867, 1895057.961335609201342 ], [ 2862802.630197941791266, 1895059.580406971275806 ], [ 2862802.791166354902089, 1895060.486206391360611 ], [ 2862805.858552303165197, 1895076.065550504485145 ], [ 2862806.005642069503665, 1895076.759770449250937 ], [ 2862806.279609648045152, 1895077.85129056032747 ], [ 2862811.241356171667576, 1895095.864931860705838 ], [ 2862811.37957264482975, 1895096.347166675841436 ], [ 2862811.794016031548381, 1895097.613526861183345 ], [ 2862817.185757025610656, 1895112.688743964303285 ], [ 2862817.285872301086783, 1895112.963306278456002 ], [ 2862817.900660039391369, 1895114.464900125283748 ], [ 2862818.613022783771157, 1895115.920660289935768 ], [ 2862819.419829613529146, 1895117.324270124547184 ], [ 2862820.317830558866262, 1895118.669941086322069 ], [ 2862821.303023372311145, 1895119.951616566162556 ], [ 2862822.371235040016472, 1895121.164081325056031 ], [ 2862823.517851531505585, 1895122.301896651741117 ], [ 2862824.737973880954087, 1895123.360384700354189 ], [ 2862826.026407483965158, 1895124.334921499248594 ], [ 2862827.377724527381361, 1895125.221330700209364 ], [ 2862828.785952735692263, 1895126.015838987194002 ], [ 2862830.245182269252837, 1895126.715066802222282 ], [ 2862831.749057380482554, 1895127.316019686870277 ], [ 2862833.291186205111444, 1895127.816114869900048 ], [ 2862834.865026611369103, 1895128.213100816588849 ], [ 2862836.463834480382502, 1895128.505370473721996 ], [ 2862837.283914398867637, 1895128.613403707742691 ], [ 2862844.278111414983869, 1895129.415587379131466 ], [ 2862845.997898909728974, 1895138.820671989582479 ], [ 2862846.004377823788673, 1895138.853218142408878 ], [ 2862850.057841163594276, 1895157.470510943094268 ], [ 2862850.05969188734889, 1895157.478985197143629 ], [ 2862850.076160425320268, 1895157.541918626520783 ], [ 2862850.081386919133365, 1895157.558893108507618 ], [ 2862861.044554140418768, 1895192.116280930582434 ], [ 2862861.059955726377666, 1895192.160975595004857 ], [ 2862861.072700733318925, 1895192.193392860237509 ], [ 2862869.271541400812566, 1895212.082023774506524 ], [ 2862869.283423024695367, 1895212.109635579865426 ], [ 2862869.289498496800661, 1895212.123011824674904 ], [ 2862875.597261259332299, 1895225.632854998344555 ], [ 2862875.615932665765285, 1895225.670674460241571 ], [ 2862901.344875168986619, 1895275.074252264807001 ], [ 2862901.348540776409209, 1895275.081383041106164 ], [ 2862901.380858174525201, 1895275.137478840304539 ], [ 2862901.383739359676838, 1895275.142220504814759 ], [ 2862935.522231865674257, 1895329.500147131504491 ], [ 2862954.810493976809084, 1895360.819872478721663 ], [ 2862954.812015064526349, 1895360.822431209962815 ], [ 2862954.847926154732704, 1895360.876251812325791 ], [ 2862954.887384035624564, 1895360.927501821191981 ], [ 2862954.926761074457318, 1895360.972487115766853 ], [ 2862972.365202384069562, 1895379.664234962314367 ], [ 2862983.399402230512351, 1895392.05234486865811 ], [ 2862987.254810125567019, 1895401.676130515988916 ], [ 2862989.172302067745477, 1895411.508685206295922 ], [ 2862988.220907643903047, 1895419.414569130865857 ], [ 2862983.492507210932672, 1895430.588984673842788 ], [ 2862975.020894826389849, 1895439.077109335223213 ], [ 2862963.262752401642501, 1895448.081814765464514 ], [ 2862963.228566581383348, 1895448.109211392700672 ], [ 2862963.179159217979759, 1895448.153155725914985 ], [ 2862963.152063954155892, 1895448.179868114646524 ], [ 2862951.939837600104511, 1895459.647634589346126 ], [ 2862951.920452602207661, 1895459.667979352641851 ], [ 2862951.877065322361887, 1895459.717916530324146 ], [ 2862951.837035431992263, 1895459.770482988096774 ], [ 2862951.800347324460745, 1895459.825580292381346 ], [ 2862951.794065445661545, 1895459.83584021916613 ], [ 2862944.292630025185645, 1895472.252045229543 ], [ 2862932.429203433450311, 1895490.535716812359169 ], [ 2862932.417940380051732, 1895490.553568919189274 ], [ 2862932.384941479191184, 1895490.610829955432564 ], [ 2862932.380329094827175, 1895490.619469037279487 ], [ 2862920.165699787903577, 1895513.993036359082907 ], [ 2862920.141069780103862, 1895514.04360720445402 ], [ 2862920.124038862995803, 1895514.083272983320057 ], [ 2862914.21917168982327, 1895528.661225008079782 ], [ 2862914.210866968147457, 1895528.68238680367358 ], [ 2862914.18952102214098, 1895528.744715644279495 ], [ 2862914.17221647221595, 1895528.808232467854396 ], [ 2862914.159020644146949, 1895528.872722445987165 ], [ 2862914.157520798034966, 1895528.881807228550315 ], [ 2862912.635090816766024, 1895538.319719481514767 ], [ 2862912.627638227306306, 1895538.37566817831248 ], [ 2862912.622897955123335, 1895538.441048278473318 ], [ 2862912.6225357176736, 1895538.506542202085257 ], [ 2862912.622867279686034, 1895538.516306109260768 ], [ 2862913.07084103859961, 1895550.988844130421057 ], [ 2862913.074379912577569, 1895551.0444106310606 ], [ 2862913.081457664258778, 1895551.102472064783797 ], [ 2862918.12695425376296, 1895584.369862698484212 ], [ 2862920.545879018492997, 1895600.285807071253657 ], [ 2862920.54695608979091, 1895600.292599260574207 ], [ 2862933.118316975887865, 1895679.013727651676163 ], [ 2862933.119851630181074, 1895679.022765952162445 ], [ 2862943.976738101802766, 1895743.203970817383379 ], [ 2862950.038058318197727, 1895815.336371760349721 ], [ 2862950.832121754065156, 1895827.648248011246324 ], [ 2862949.409793244209141, 1895842.124447533627972 ], [ 2862944.59065515268594, 1895858.151260925456882 ], [ 2862933.695929480716586, 1895879.673534478060901 ], [ 2862933.677316291257739, 1895879.712172046303749 ], [ 2862933.651996745727956, 1895879.77309819846414 ], [ 2862933.630231690593064, 1895879.836617718683556 ], [ 2862901.04200331447646, 1895986.727276407182217 ], [ 2862893.707914842292666, 1896010.455353681230918 ], [ 2862893.704326060600579, 1896010.467249901499599 ], [ 2862882.19759450526908, 1896049.477357409894466 ], [ 2862882.183693092316389, 1896049.529721185099334 ], [ 2862882.172732477076352, 1896049.581447837641463 ], [ 2862875.946991238743067, 1896083.467748598894104 ], [ 2862875.9448396936059, 1896083.480395769700408 ], [ 2862875.935888002626598, 1896083.545429492136464 ], [ 2862875.931148448958993, 1896083.610809823963791 ], [ 2862875.930688365362585, 1896083.676321946084499 ], [ 2862875.934543850831687, 1896083.741554139181972 ], [ 2862875.935649239458144, 1896083.753000177210197 ], [ 2862877.837243208661675, 1896102.132778823375702 ], [ 2862877.844293284229934, 1896102.186186623759568 ], [ 2862877.856811152771115, 1896102.251055849948898 ], [ 2862881.392692130059004, 1896117.707010853569955 ], [ 2862881.408797730691731, 1896117.76828919374384 ], [ 2862881.429328174330294, 1896117.829976669512689 ], [ 2862881.453955639153719, 1896117.89000609354116 ], [ 2862881.46383747830987, 1896117.911399165634066 ], [ 2862886.796403203159571, 1896129.065467772539705 ], [ 2862886.815017541404814, 1896129.102285116212443 ], [ 2862886.847351206466556, 1896129.158479640726 ], [ 2862886.859514275565743, 1896129.177633971208706 ], [ 2862910.422409416176379, 1896165.257093989988789 ], [ 2862910.434951071627438, 1896165.276078067021444 ], [ 2862910.458419604226947, 1896165.310896856943145 ], [ 2862910.497877970337868, 1896165.362147075124085 ], [ 2862910.540556199848652, 1896165.410683682188392 ], [ 2862910.58640745934099, 1896165.456211355514824 ], [ 2862910.635301983915269, 1896165.498551188968122 ], [ 2862910.686798751819879, 1896165.537479687482119 ], [ 2862910.740783603396267, 1896165.57291636033915 ], [ 2862910.79714238550514, 1896165.604780743364245 ], [ 2862910.855517011135817, 1896165.632732937810943 ], [ 2862910.862349894829094, 1896165.635539225302637 ], [ 2862916.698377451393753, 1896168.143581897486001 ], [ 2862925.66103589721024, 1896180.46234730980359 ], [ 2862931.090840887278318, 1896194.178977183066308 ], [ 2862934.32155429199338, 1896211.144561579218134 ], [ 2862933.064952775835991, 1896232.976330767618492 ], [ 2862928.982478404883295, 1896249.367600415600464 ], [ 2862908.492501495406032, 1896294.773370674112812 ], [ 2862908.46878858236596, 1896294.830358216073364 ], [ 2862897.018701446708292, 1896324.904439087724313 ], [ 2862897.015852349810302, 1896324.912047991296276 ], [ 2862884.432794542051852, 1896358.823456124402583 ], [ 2862868.444949121214449, 1896394.566608412191272 ], [ 2862834.134222253225744, 1896466.422847396694124 ], [ 2862801.597943334840238, 1896533.154145718319342 ], [ 2862801.309535718988627, 1896533.351430226815864 ], [ 2862800.0081886081025, 1896534.369543048553169 ], [ 2862798.773952648974955, 1896535.469417712884024 ], [ 2862798.027454911731184, 1896536.208273667609319 ], [ 2862754.41925186663866, 1896581.154472163645551 ], [ 2862754.004158053547144, 1896581.592497801873833 ], [ 2862752.920058967545629, 1896582.841148344567046 ], [ 2862751.91800222825259, 1896584.156382222194225 ], [ 2862751.002279940992594, 1896585.532657039351761 ], [ 2862750.176991999149323, 1896586.963857761584222 ], [ 2862749.445517248474061, 1896588.443798150634393 ], [ 2862749.372632572427392, 1896588.605660556117073 ], [ 2862736.323219505604357, 1896617.826927123125643 ], [ 2862723.727840608917177, 1896644.319970426615328 ], [ 2862723.726239492185414, 1896644.323300659190863 ], [ 2862708.177134931087494, 1896677.041198191931471 ], [ 2862708.059251704253256, 1896677.292691700393334 ], [ 2862677.899270921014249, 1896742.563155587296933 ], [ 2862655.403517818078399, 1896789.097594039980322 ], [ 2862655.147851075977087, 1896789.642594515578821 ], [ 2862654.513411736115813, 1896791.165324816480279 ], [ 2862654.250508611090481, 1896791.891016007168218 ], [ 2862643.895372353028506, 1896821.876135079190135 ], [ 2862629.774861897341907, 1896852.478518308838829 ], [ 2862629.716774706728756, 1896852.605173241347075 ], [ 2862629.574024789966643, 1896852.924905742984265 ], [ 2862599.725867225788534, 1896920.989872657228261 ], [ 2862538.025547328870744, 1897055.464318736223504 ], [ 2862457.898516706656665, 1897227.648183074081317 ], [ 2862457.884833111427724, 1897227.677617968292907 ], [ 2862446.159001206979156, 1897252.958849543705583 ], [ 2862446.088366689626127, 1897253.112505000317469 ], [ 2862419.043483536224812, 1897312.440568788908422 ], [ 2862402.821115708909929, 1897345.018214121228084 ], [ 2862402.432351081632078, 1897345.834403518820181 ], [ 2862401.798020027577877, 1897347.357027435908094 ], [ 2862401.66727954056114, 1897347.709618416847661 ], [ 2862399.306556961033493, 1897354.218036947539076 ], [ 2862392.397585678845644, 1897368.001467908732593 ], [ 2862367.864355633035302, 1897410.323629930382594 ], [ 2862357.899946608580649, 1897424.874840709380805 ], [ 2862357.474616260267794, 1897425.516093170037493 ], [ 2862348.487505611032248, 1897439.516695668222383 ], [ 2862348.272548188455403, 1897439.857388758100569 ], [ 2862347.447201950475574, 1897441.288624589098617 ], [ 2862346.729268974158913, 1897442.739280781242996 ], [ 2862336.189810912590474, 1897465.833745475392789 ], [ 2862336.176423172000796, 1897465.863126585958526 ], [ 2862335.542014942504466, 1897467.385869256453589 ], [ 2862335.007310419809073, 1897468.944629722973332 ], [ 2862334.963266247883439, 1897469.089490180136636 ], [ 2862327.738668080419302, 1897493.096924570621923 ], [ 2862323.538271045777947, 1897506.551900075515732 ], [ 2862305.203367956914008, 1897548.062379642156884 ], [ 2862280.908393318764865, 1897600.614092989824712 ], [ 2862280.842247397638857, 1897600.758322323439643 ], [ 2862280.579832223709673, 1897601.35530382883735 ], [ 2862264.663665424566716, 1897638.844390123849735 ], [ 2862264.291762315668166, 1897639.770037608221173 ], [ 2862263.861562239006162, 1897640.996790925739333 ], [ 2862254.672044177539647, 1897669.503556760260835 ], [ 2862231.410571986343712, 1897726.012999808648601 ], [ 2862180.554672458209097, 1897840.041047000559047 ], [ 2862150.35667060315609, 1897902.20075621153228 ], [ 2862131.736211421433836, 1897940.120164784835652 ], [ 2862126.13063918845728, 1897948.238698774250224 ], [ 2862125.433869571425021, 1897949.302961027715355 ], [ 2862124.608645410276949, 1897950.734188735485077 ], [ 2862123.877265065908432, 1897952.21435188408941 ], [ 2862123.242863177321851, 1897953.737004718976095 ], [ 2862123.176425269804895, 1897953.913901695050299 ], [ 2862119.377066592685878, 1897964.15536850807257 ], [ 2862109.211577672511339, 1897986.533268881030381 ], [ 2862108.693478849716485, 1897987.756803631782532 ], [ 2862102.599369288422167, 1898003.254110474372283 ], [ 2862102.596121537964791, 1898003.262399946106598 ], [ 2862089.299238689709455, 1898037.11129889707081 ], [ 2862089.159385549835861, 1898037.137292090337723 ], [ 2862087.854744489304721, 1898037.331395796500146 ], [ 2862086.25191849283874, 1898037.677681333618239 ], [ 2862084.672583861276507, 1898038.127958823693916 ], [ 2862083.123695174232125, 1898038.680049320682883 ], [ 2862081.611714293248951, 1898039.331863650819287 ], [ 2862080.143175248987973, 1898040.080489214044064 ], [ 2862078.724368143826723, 1898040.922754022758454 ], [ 2862077.361307920888066, 1898041.855029800906777 ], [ 2862076.059931446798146, 1898042.87319607147947 ], [ 2862074.825864347629249, 1898043.973087809048593 ], [ 2862073.664327316917479, 1898045.149904784513637 ], [ 2862072.580214188434184, 1898046.398703769315034 ], [ 2862071.57822656724602, 1898047.713968856958672 ], [ 2862070.662557721138, 1898049.090175486868247 ], [ 2862069.837338468059897, 1898050.521405367646366 ], [ 2862069.105962974950671, 1898052.001570577966049 ], [ 2862068.471581480000168, 1898053.524323809426278 ], [ 2862067.936903202906251, 1898055.08309426298365 ], [ 2862067.504310507327318, 1898056.671168149681762 ], [ 2862067.175563267432153, 1898058.281742540188134 ], [ 2862066.952027183026075, 1898059.908086349721998 ], [ 2862066.834709871560335, 1898061.543128614779562 ], [ 2862066.824126228690147, 1898063.179888160666451 ], [ 2862066.920381366275251, 1898064.811357209924608 ], [ 2862067.122859367635101, 1898066.430456817615777 ], [ 2862067.174582882784307, 1898066.743114970391616 ], [ 2862070.31772312708199, 1898085.043536040233448 ], [ 2862070.574131776578724, 1898086.330824596108869 ], [ 2862070.986414993181825, 1898087.904700954677537 ], [ 2862071.100217473227531, 1898088.276337249670178 ], [ 2862074.425887971185148, 1898098.83869276358746 ], [ 2862076.173708940390497, 1898109.057190223829821 ], [ 2862077.608137569855899, 1898124.376562602585182 ], [ 2862077.806724547408521, 1898125.953225104603916 ], [ 2862077.911361931357533, 1898126.563030907185748 ], [ 2862078.768503755796701, 1898131.213074729079381 ], [ 2862079.715950243640691, 1898136.384481930639595 ], [ 2862079.7187022222206, 1898136.399274360854179 ], [ 2862081.463622545823455, 1898145.89057556912303 ], [ 2862081.669210099615157, 1898146.891983712092042 ], [ 2862082.081479194574058, 1898148.465762342093512 ], [ 2862082.596131970174611, 1898150.006804039003327 ], [ 2862083.210991424042732, 1898151.508415630087256 ], [ 2862083.923320528119802, 1898152.964208577526733 ], [ 2862084.730299322865903, 1898154.367910725297406 ], [ 2862085.628335124347359, 1898155.713492045877501 ], [ 2862086.613570846151561, 1898156.995173245668411 ], [ 2862087.681817688979208, 1898158.207640628796071 ], [ 2862088.828477072063833, 1898159.345553906401619 ], [ 2862090.048603083472699, 1898160.403939919779077 ], [ 2862091.33694932796061, 1898161.378487990703434 ], [ 2862092.688269411213696, 1898162.264887432102114 ], [ 2862094.096508126705885, 1898163.059481377713382 ], [ 2862095.55561026930809, 1898163.758612975711003 ], [ 2862097.059562618844211, 1898164.359529253095388 ], [ 2862098.179750547744334, 1898164.722680591279641 ], [ 2862103.67129772901535, 1898190.54486405197531 ], [ 2862103.743508814834058, 1898190.873539428925142 ], [ 2862104.155794507358223, 1898192.447417149553075 ], [ 2862104.670448239892721, 1898193.988459539134055 ], [ 2862104.964075645897537, 1898194.705622558947653 ], [ 2862104.947988558094949, 1898194.929557 ], [ 2862104.93740848172456, 1898196.566317918710411 ], [ 2862105.033552954904735, 1898198.197707949904725 ], [ 2862105.037674983032048, 1898198.242230916162953 ], [ 2862106.524305986240506, 1898214.102787240408361 ], [ 2862106.657168796285987, 1898215.23888957570307 ], [ 2862111.965787433553487, 1898253.06169680156745 ], [ 2862113.074580759741366, 1898270.928894778247923 ], [ 2862113.101206765510142, 1898271.310240466147661 ], [ 2862115.902914980426431, 1898307.48624656512402 ], [ 2862113.939111728221178, 1898325.000323209445924 ], [ 2862108.087843888439238, 1898356.501575049012899 ], [ 2862100.000593649689108, 1898385.449166671605781 ], [ 2862076.714335340540856, 1898433.82424427033402 ], [ 2862076.476869886741042, 1898434.331708245677873 ], [ 2862076.12727016909048, 1898435.136418907670304 ], [ 2862063.421305001713336, 1898465.811097800265998 ], [ 2862063.136438327841461, 1898466.529162367107347 ], [ 2862062.60177433071658, 1898468.087937210220844 ], [ 2862062.291797835379839, 1898469.18269809987396 ], [ 2862042.947942822705954, 1898543.806561968987808 ], [ 2862034.601851940155029, 1898574.210679758805782 ], [ 2862021.257050373125821, 1898611.541104739764705 ], [ 2862020.893133827950805, 1898612.636481065303087 ], [ 2862020.885581477545202, 1898612.664292801870033 ], [ 2862019.982646516524255, 1898614.021578388987109 ], [ 2862019.157349564135075, 1898615.452832858078182 ], [ 2862018.425994897726923, 1898616.933004719438031 ], [ 2862018.24525788705796, 1898617.339785606833175 ], [ 2862015.726380311883986, 1898623.142628740519285 ], [ 2861995.038494995329529, 1898620.105619902256876 ], [ 2861994.989090419374406, 1898620.098418032517657 ], [ 2861994.768913569394499, 1898620.395909101469442 ], [ 2861961.032813099212945, 1898665.984211815986782 ], [ 2861958.671713114716113, 1898669.174832261400297 ], [ 2861982.321451148949564, 1898745.288017070386559 ], [ 2861981.873249251861125, 1898749.13537722826004 ], [ 2861981.840291413478553, 1898749.433185928734019 ], [ 2861981.722997548989952, 1898751.068235887680203 ], [ 2861981.712535104714334, 1898752.704984909854829 ], [ 2861981.808812006376684, 1898754.3364610937424 ], [ 2861982.011409330181777, 1898755.955549553968012 ], [ 2861982.198822194710374, 1898756.993800739757717 ], [ 2861984.504704366438091, 1898768.3735794974491 ], [ 2861984.625360168516636, 1898768.935397742083296 ], [ 2861985.037661761045456, 1898770.509280092315748 ], [ 2861985.552330263890326, 1898772.05032664607279 ], [ 2861986.146305865608156, 1898773.505210021743551 ], [ 2861992.293960337992758, 1898787.280320466728881 ], [ 2861996.777739834971726, 1898797.324379560770467 ], [ 2861996.797573633491993, 1898797.36887537362054 ], [ 2861997.510014983825386, 1898798.824654702097178 ], [ 2861998.110235906671733, 1898799.88875658181496 ], [ 2862000.560858357697725, 1898803.988932358566672 ], [ 2862008.289466135203838, 1898828.862604988738894 ], [ 2861979.160663750953972, 1898875.357092521619052 ], [ 2862086.143391996622086, 1899042.108239648398012 ], [ 2862140.720432357862592, 1899104.737674681469798 ], [ 2861894.277649104595184, 1899025.748739331029356 ], [ 2861860.219191513489932, 1899013.905918196775019 ], [ 2861771.172252676915377, 1898982.400370841380209 ], [ 2861771.169357815757394, 1898982.399379156297073 ], [ 2861770.99759498750791, 1898982.338614989072084 ], [ 2861770.887660762760788, 1898982.287953607272357 ], [ 2861769.791255393996835, 1898981.783235422801226 ], [ 2861768.209074806421995, 1898980.258381681051105 ], [ 2861637.885646033100784, 1898936.68320074561052 ], [ 2861604.512237683404237, 1898913.910549833672121 ], [ 2861601.276632698252797, 1898893.514452639501542 ], [ 2861624.199229954741895, 1898806.267560662236065 ], [ 2861624.538910620380193, 1898804.974732726113871 ], [ 2861607.707480774261057, 1898801.95087199122645 ], [ 2861591.9096087096259, 1898801.426552806980908 ], [ 2861591.893468922935426, 1898801.420682586729527 ], [ 2861563.857991578057408, 1898805.547990231309086 ], [ 2861553.155145689379424, 1898808.741843892959878 ], [ 2861525.696403407491744, 1898816.936007176991552 ], [ 2861483.846674191765487, 1898829.424605157924816 ], [ 2861471.386417431291193, 1898833.142982782330364 ], [ 2861417.483323249965906, 1898848.950863137841225 ], [ 2861415.863088679034263, 1898852.490845118882135 ], [ 2861382.991698248311877, 1898861.046011089812964 ], [ 2861371.259461456444114, 1898863.065054420148954 ], [ 2861358.295056424103677, 1898864.525644815061241 ], [ 2861345.087060718331486, 1898864.891076768282801 ], [ 2861330.41084513720125, 1898863.382642714772373 ], [ 2861313.055334618315101, 1898861.908292262814939 ], [ 2861290.666284102015197, 1898856.978600896429271 ], [ 2861267.025771573185921, 1898850.915039300685748 ], [ 2861266.39607001747936, 1898850.752898732433096 ], [ 2861262.886203788220882, 1898849.852687959326431 ], [ 2861153.881058014929295, 1898820.854432282969356 ], [ 2861140.304743583314121, 1898815.115656955400482 ], [ 2861134.637203658465296, 1898813.286154343513772 ], [ 2861110.346579105593264, 1898801.238954355940223 ], [ 2861090.141771465539932, 1898793.089151819003746 ], [ 2861050.482321294955909, 1898773.930601794272661 ], [ 2861036.979594173841178, 1898768.593621724052355 ], [ 2861026.483099889941514, 1898765.135183113627136 ], [ 2861011.660919311456382, 1898759.620709151029587 ], [ 2860999.04767485614866, 1898755.879521933849901 ], [ 2860969.743645855225623, 1898748.528427172452211 ], [ 2860973.196428036317229, 1898753.575910773128271 ], [ 2860970.688246328383684, 1898752.611448239767924 ], [ 2860957.947629532776773, 1898749.089276693994179 ], [ 2860944.431743567809463, 1898746.863580975215882 ], [ 2860928.13133842498064, 1898744.705254964297637 ], [ 2860833.339636673219502, 1898741.85590254701674 ], [ 2860811.743677223101258, 1898741.814915556460619 ], [ 2860785.82200115872547, 1898741.010539140785113 ], [ 2860754.056329222396016, 1898740.717297736788169 ], [ 2860750.415420584380627, 1898740.683312490116805 ], [ 2860709.800773749593645, 1898739.915620937943459 ], [ 2860679.91863214969635, 1898739.748873844509944 ], [ 2860665.05432638945058, 1898739.82405639719218 ], [ 2860649.157911332324147, 1898739.333819050807506 ], [ 2860620.71370806498453, 1898739.156298159621656 ], [ 2860572.747750258073211, 1898738.385043617337942 ], [ 2860532.994817489758134, 1898737.747215911047533 ], [ 2860496.888130720239133, 1898737.17057607951574 ], [ 2860474.58787436876446, 1898738.373028961708769 ], [ 2860460.018038656096905, 1898739.64650694350712 ], [ 2860439.748543751426041, 1898743.289871190674603 ], [ 2860416.773993538692594, 1898749.682587545132264 ], [ 2860358.530686053913087, 1898765.290685725631192 ], [ 2860355.067725757136941, 1898728.641018707770854 ], [ 2860359.111554526723921, 1898709.003092955332249 ], [ 2860360.158074483275414, 1898686.904900929890573 ], [ 2860362.095323025248945, 1898654.264214568538591 ], [ 2860369.570933124981821, 1898626.428124236874282 ], [ 2860393.99363780207932, 1898570.614524899283424 ], [ 2860413.088612547609955, 1898521.887262867297977 ], [ 2860426.839085867162794, 1898485.22115786629729 ], [ 2860441.305698307231069, 1898445.304441979853436 ], [ 2860456.745209381915629, 1898401.413833341794088 ], [ 2860467.260308634024113, 1898363.358556878753006 ], [ 2860475.309064636472613, 1898341.89517727214843 ], [ 2860495.341879900544882, 1898302.965799693018198 ], [ 2860505.979154970962554, 1898278.91272269259207 ], [ 2860513.310931804589927, 1898257.924842223292217 ], [ 2860517.620116722770035, 1898241.402097598649561 ], [ 2860517.840409222524613, 1898229.756213604239747 ], [ 2860517.911031873896718, 1898225.786241493653506 ], [ 2860522.345003586262465, 1898134.421056829858571 ], [ 2860522.427064313553274, 1898132.79658201825805 ], [ 2860526.598773957695812, 1898038.506483781849965 ], [ 2860526.766545392107219, 1898034.647745998576283 ], [ 2860562.210935972630978, 1897746.044188423780724 ], [ 2860554.06623775139451, 1897744.849953858647496 ], [ 2860538.593649418093264, 1897739.672825304092839 ], [ 2860521.77572518074885, 1897731.938397373072803 ], [ 2860500.017157298512757, 1897717.040012839483097 ], [ 2860487.010854091495275, 1897706.230925850337371 ], [ 2860472.471156804822385, 1897700.16850472567603 ], [ 2860465.508669541217387, 1897698.251356492284685 ], [ 2860457.843805432319641, 1897697.918407610384747 ], [ 2860441.986556108109653, 1897702.247697414131835 ], [ 2860431.53493659151718, 1897705.813335347454995 ], [ 2860425.919844046235085, 1897708.753391304286197 ], [ 2860417.122272937558591, 1897712.563649260438979 ], [ 2860399.005877466872334, 1897717.383874874329194 ], [ 2860381.56946247536689, 1897719.512903013033792 ], [ 2860348.097303671762347, 1897719.624414258403704 ], [ 2860168.094241256825626, 1897711.698232987662777 ], [ 2860114.827626763843, 1897708.95987044996582 ], [ 2860086.958000340033323, 1897707.142705503851175 ], [ 2860074.759522883221507, 1897706.350695948582143 ], [ 2859905.669061247259378, 1897694.200364378746599 ], [ 2859888.688790813088417, 1897692.976917868247256 ], [ 2859724.122723886277527, 1897687.746352861868218 ], [ 2859722.035473356954753, 1897687.685271402122453 ], [ 2859686.842307371087372, 1897686.563228835817426 ], [ 2859654.623311039991677, 1897685.976875238819048 ], [ 2859609.906419992446899, 1897683.15599882719107 ], [ 2859573.677753880620003, 1897684.074331781594083 ], [ 2859567.553859037347138, 1897684.535067311022431 ], [ 2859564.655166431330144, 1897684.742863556370139 ], [ 2859547.656726001296192, 1897686.014695360092446 ], [ 2859530.926695052534342, 1897689.535848950734362 ], [ 2859511.575138025917113, 1897693.601390287745744 ], [ 2859489.425006476696581, 1897699.14493353641592 ], [ 2859414.112673053052276, 1897721.959659243002534 ], [ 2859336.740826783236116, 1897747.284112046007067 ], [ 2859232.348372400738299, 1897775.546940276399255 ], [ 2859140.368292710743845, 1897801.597366784932092 ], [ 2859130.887137892190367, 1897804.204651467036456 ], [ 2859114.698576436378062, 1897807.081772144883871 ], [ 2859105.306817023083568, 1897808.765962660079822 ], [ 2859078.581113643944263, 1897813.899839122081175 ], [ 2859059.531906240154058, 1897818.278890192508698 ], [ 2859048.063205670565367, 1897821.354321068152785 ], [ 2859037.117769221775234, 1897824.397147504612803 ], [ 2859017.797950063366443, 1897828.61883991304785 ], [ 2858982.736833734437823, 1897836.120927981799468 ], [ 2858961.016197257675231, 1897839.801472207065672 ], [ 2858939.744198895059526, 1897841.64131790609099 ], [ 2858920.326835568528622, 1897843.204703304450959 ], [ 2858905.856455633416772, 1897844.097447793232277 ], [ 2858890.170013816095889, 1897843.553992339875549 ], [ 2858843.434502929914743, 1897839.578525434713811 ], [ 2858783.147762923035771, 1897843.104280386818573 ], [ 2858739.738380469381809, 1897845.497771044494584 ], [ 2858713.555959796532989, 1897846.936348128132522 ], [ 2858621.578013943508267, 1897847.548171574715525 ], [ 2858590.040499128866941, 1897846.794280116911978 ], [ 2858527.393168206326663, 1897844.781678581610322 ], [ 2858470.4399827811867, 1897843.688028633361682 ], [ 2858411.22649318119511, 1897844.113365903962404 ], [ 2858331.668762699700892, 1897843.481228732503951 ], [ 2858315.524841723963618, 1897842.671711841132492 ], [ 2858307.431109477765858, 1897841.440136189805344 ], [ 2858304.144530907273293, 1897836.70759304962121 ], [ 2858293.654037630185485, 1897829.867567572742701 ], [ 2858280.879499991424382, 1897822.916342597687617 ], [ 2858263.21370870154351, 1897817.317782151978463 ], [ 2858236.422075000125915, 1897809.561694675358012 ], [ 2858236.422075000125915, 1901236.703425000887364 ], [ 2868673.853625000920147, 1901236.703425000887364 ], [ 2868673.853625000920147, 1893940.814675 ], [ 2865548.028894561342895, 1893940.814675 ], [ 2865531.397997995838523, 1893956.594837868586183 ] ] ] } }
]
}
