{
"type": "FeatureCollection",
"name": "Jarilla",
"crs": { "type": "name", "properties": { "name": "urn:ogc:def:crs:EPSG::3035" } },
"features": [
{ "type": "Feature", "properties": { "ENP_GRAL": 6.0, "ENP_GRAL_NAME": "Otros Espacios Naturales Protegidos", "color": "#7F8F0D" }, "geometry": { "type": "MultiPolygon", "coordinates": [ [ [ [ 2967869.685571547597647, 2037333.96852859784849 ], [ 2967829.236972537823021, 2037345.486929952166975 ], [ 2967794.146807381883264, 2037359.111307438695803 ], [ 2967763.139778068754822, 2037371.150361913722008 ], [ 2967729.482443284243345, 2037373.155933876056224 ], [ 2967704.342506473883986, 2037366.951276321429759 ], [ 2967670.923132187686861, 2037349.706339618889615 ], [ 2967645.110258088447154, 2037342.204205038025975 ], [ 2967629.19376968126744, 2037346.678929965710267 ], [ 2967618.368746415246278, 2037356.13884239201434 ], [ 2967607.69069722853601, 2037369.864242308307439 ], [ 2967595.162368619814515, 2037392.565208640880883 ], [ 2967579.478908137883991, 2037409.891174805583432 ], [ 2967563.820496493019164, 2037424.044608358992264 ], [ 2967510.994261849671602, 2037449.506842145463452 ], [ 2967487.756470657885075, 2037458.518723154906183 ], [ 2967457.842527862638235, 2037466.049860918661579 ], [ 2967447.224980304948986, 2037470.10732918092981 ], [ 2967438.767394480295479, 2037465.266597300302237 ], [ 2967436.287312283180654, 2037455.476199389901012 ], [ 2967426.016167682595551, 2037443.195762204006314 ], [ 2967416.350830620154738, 2037435.343378910562024 ], [ 2967409.989442037418485, 2037429.555892776697874 ], [ 2967408.12335663381964, 2037419.472668570932001 ], [ 2967415.081554489210248, 2037396.228247900726274 ], [ 2967418.322710355743766, 2037379.182884222827852 ], [ 2967418.423979598097503, 2037363.541153362719342 ], [ 2967415.273628926370293, 2037344.377361436607316 ], [ 2967406.20921473344788, 2037317.349093275843188 ], [ 2967386.754339033737779, 2037267.267511774785817 ], [ 2967381.920668607577682, 2037254.015860385494307 ], [ 2967377.968985988758504, 2037243.197775616310537 ], [ 2967374.783950896002352, 2037234.478242655051872 ], [ 2967374.261807836592197, 2037226.780825357185677 ], [ 2967376.157604460604489, 2037211.892828207695857 ], [ 2967382.718652083538473, 2037194.215479776030406 ], [ 2967387.929783125407994, 2037186.460737525951117 ], [ 2967395.491768488660455, 2037177.850577061064541 ], [ 2967405.046507390215993, 2037163.413834470091388 ], [ 2967406.873728068545461, 2037155.151551435003057 ], [ 2967407.31755883898586, 2037153.144537101034075 ], [ 2967403.449889508076012, 2037143.485227614408359 ], [ 2967403.316037555225194, 2037143.151112850289792 ], [ 2967389.216593622229993, 2037133.086494323564693 ], [ 2967382.246584708802402, 2037128.445295198587701 ], [ 2967358.986250008456409, 2037123.882622425211594 ], [ 2967350.983552099205554, 2037120.2611612114124 ], [ 2967342.813706478569657, 2037116.564142944524065 ], [ 2967338.096772474236786, 2037107.219643220072612 ], [ 2967335.215355552267283, 2037095.935052432119846 ], [ 2967328.997355253435671, 2037090.61635553999804 ], [ 2967318.171499122865498, 2037086.530488988617435 ], [ 2967302.636013337410986, 2037090.276485387468711 ], [ 2967290.999594899825752, 2037095.581877681426704 ], [ 2967286.14906960632652, 2037097.793413653504103 ], [ 2967269.336594100110233, 2037106.72169605945237 ], [ 2967261.640647822525352, 2037115.618389188079163 ], [ 2967257.658806380815804, 2037127.6018499257043 ], [ 2967251.05612180987373, 2037133.200524962041527 ], [ 2967231.815575029700994, 2037136.73043589736335 ], [ 2967220.191290263086557, 2037137.017910357564688 ], [ 2967206.694860727526248, 2037136.918085687095299 ], [ 2967194.717278329655528, 2037129.741676600649953 ], [ 2967178.150232794694602, 2037127.529504776699468 ], [ 2967160.029505619779229, 2037127.288019383791834 ], [ 2967142.458161504939198, 2037124.310589384520426 ], [ 2967131.648752074688673, 2037114.291613923385739 ], [ 2967124.376949553843588, 2037106.525096356635913 ], [ 2967115.849940024316311, 2037099.691945214290172 ], [ 2967098.694498718716204, 2037089.411877195583656 ], [ 2967084.394377095624804, 2037081.538831345969811 ], [ 2967072.118402015883476, 2037074.326445268699899 ], [ 2967057.425223708152771, 2037062.077815672848374 ], [ 2967048.916951996739954, 2037053.999279126524925 ], [ 2967038.268160356208682, 2037043.634773624595255 ], [ 2967028.889020864851773, 2037028.717929113656282 ], [ 2967021.268615075387061, 2037017.202436704887077 ], [ 2967017.378408853430301, 2037008.561624936293811 ], [ 2967008.92740298435092, 2037000.160203938372433 ], [ 2966995.26706632738933, 2036994.823457820806652 ], [ 2966977.388377727009356, 2036983.932890708791092 ], [ 2966952.467736627906561, 2036979.862692315364257 ], [ 2966934.594398823566735, 2036978.972986068110913 ], [ 2966927.59255987778306, 2036972.183564213337377 ], [ 2966927.813717761542648, 2036968.034114180598408 ], [ 2966923.86625469615683, 2036966.140367635758594 ], [ 2966919.713835221715271, 2036964.148366749752313 ], [ 2966909.979368749540299, 2036966.594861930701882 ], [ 2966888.611953436862677, 2036968.956962865078822 ], [ 2966872.496654108632356, 2036972.367776394356042 ], [ 2966851.012482157442719, 2036979.005542138591409 ], [ 2966834.333748256787658, 2036982.081830970244482 ], [ 2966818.458090733736753, 2036983.505373464664444 ], [ 2966803.823130873963237, 2036984.375128043582663 ], [ 2966789.845593115780503, 2036982.750965198501945 ], [ 2966775.868746424093843, 2036979.509411958046257 ], [ 2966758.78240121062845, 2036972.784041130915284 ], [ 2966747.910197839140892, 2036967.582959999563172 ], [ 2966735.131571365520358, 2036959.792600148823112 ], [ 2966732.784384054597467, 2036952.178905197419226 ], [ 2966729.649197788443416, 2036944.919995540287346 ], [ 2966711.354772413149476, 2036943.708139118272811 ], [ 2966687.059036098886281, 2036943.649631138890982 ], [ 2966674.714416273869574, 2036948.317206771345809 ], [ 2966670.943693464621902, 2036953.939637896139175 ], [ 2966660.388643947429955, 2036953.795791782904416 ], [ 2966656.33409824129194, 2036956.481665391474962 ], [ 2966655.662125076167285, 2036966.035863760858774 ], [ 2966650.243193422444165, 2036970.796045303344727 ], [ 2966639.167429261375219, 2036966.798029964324087 ], [ 2966629.695969114545733, 2036968.64750876207836 ], [ 2966615.125247200485319, 2036977.761851135175675 ], [ 2966601.213893440552056, 2036981.531342955306172 ], [ 2966591.042517133057117, 2036974.946789690759033 ], [ 2966580.981219859793782, 2036961.843627081252635 ], [ 2966568.189052623230964, 2036963.493133163079619 ], [ 2966565.448253896087408, 2036968.486672607949004 ], [ 2966542.628064641263336, 2036976.35906940838322 ], [ 2966520.499589949380606, 2036968.52005630126223 ], [ 2966514.768160606734455, 2036961.244545335881412 ], [ 2966496.436895220540464, 2036950.403415259905159 ], [ 2966487.509363950230181, 2036954.785765598993748 ], [ 2966492.068337337113917, 2036961.424233749276027 ], [ 2966481.132032529450953, 2036963.578338114079088 ], [ 2966468.865997985005379, 2036962.048157741781324 ], [ 2966463.550602519884706, 2036968.989281826419756 ], [ 2966453.377010638825595, 2036968.734533298760653 ], [ 2966439.24604997690767, 2036968.596303897676989 ], [ 2966427.402574533596635, 2036977.183508778689429 ], [ 2966416.77754120528698, 2036974.228817363269627 ], [ 2966403.505605655256659, 2036982.296159128891304 ], [ 2966390.880965885706246, 2036984.089851559605449 ], [ 2966379.49631982576102, 2036988.743366103153676 ], [ 2966366.697075261734426, 2036986.1219397271052 ], [ 2966355.521873042918742, 2036992.465135657694191 ], [ 2966338.33949280763045, 2036997.576875687111169 ], [ 2966315.401567363645881, 2037003.435406242962927 ], [ 2966290.897010509856045, 2037004.962155929300934 ], [ 2966279.084526256658137, 2037000.79209892754443 ], [ 2966276.10175340808928, 2036999.73903094115667 ], [ 2966248.072249999269843, 2036991.894365756539628 ], [ 2966237.874592489562929, 2037014.758624291513115 ], [ 2966233.282294844277203, 2037020.380494094453752 ], [ 2966215.509634633548558, 2037034.631926637375727 ], [ 2966196.36065037548542, 2037042.371794269187376 ], [ 2966184.396989055909216, 2037046.240937157301232 ], [ 2966178.711856352165341, 2037052.674104769481346 ], [ 2966172.75786171015352, 2037056.705790219595656 ], [ 2966170.02875783899799, 2037054.337753169238567 ], [ 2966166.163080304395407, 2037066.874414362479001 ], [ 2966165.436651510186493, 2037069.229910788824782 ], [ 2966158.265003772452474, 2037092.487855533370748 ], [ 2966161.038155618589371, 2037099.841228696983308 ], [ 2966156.419708164408803, 2037124.077195653226227 ], [ 2966149.771208112128079, 2037127.87643164396286 ], [ 2966111.497621770948172, 2037120.575460874009877 ], [ 2966109.31678275950253, 2037122.410498926416039 ], [ 2966085.127945949323475, 2037117.815779513912275 ], [ 2966072.875277106650174, 2037125.684529117075726 ], [ 2966066.624094272963703, 2037115.525319238426164 ], [ 2966053.769212153274566, 2037114.424826861359179 ], [ 2966045.322964480146766, 2037113.701716541545466 ], [ 2966040.190965888090432, 2037108.468408927088603 ], [ 2966038.78642887994647, 2037108.295864354586229 ], [ 2966031.46372291771695, 2037107.395910252584144 ], [ 2966026.144497261382639, 2037112.629073441028595 ], [ 2966020.45630718069151, 2037068.042211603140458 ], [ 2966018.528198426123708, 2037052.928673774935305 ], [ 2966013.472357315476984, 2037052.705140423960984 ], [ 2965993.008168027736247, 2037051.800840361975133 ], [ 2965965.414448762778193, 2037053.358805305324495 ], [ 2965962.536649753339589, 2037023.38688201806508 ], [ 2965959.622351616621017, 2037003.21867341385223 ], [ 2965935.86692432500422, 2037005.349690799834207 ], [ 2965934.224493525456637, 2037005.509857869939879 ], [ 2965917.349333448335528, 2036992.31359058059752 ], [ 2965886.312907165847719, 2036962.510564559837803 ], [ 2965883.184749289415777, 2036962.776122772833332 ], [ 2965869.82174622733146, 2036963.30404619500041 ], [ 2965856.693935714196414, 2036957.20088387443684 ], [ 2965844.394721131771803, 2036953.241776224924251 ], [ 2965831.372667400166392, 2036949.928190272767097 ], [ 2965828.943936517462134, 2036950.206923890393227 ], [ 2965806.32018659170717, 2036966.930329143768176 ], [ 2965788.002917796373367, 2036944.736744187073782 ], [ 2965773.431792889721692, 2036944.049383163684979 ], [ 2965765.603056009858847, 2036938.994669660227373 ], [ 2965753.940311312209815, 2036931.46449254010804 ], [ 2965753.473578294273466, 2036921.992907836567611 ], [ 2965744.604614776559174, 2036916.623820787295699 ], [ 2965720.658703089691699, 2036905.566754241008312 ], [ 2965719.396042432636023, 2036904.98369527165778 ], [ 2965706.759590971283615, 2036899.145451048389077 ], [ 2965698.036244621966034, 2036902.47863573464565 ], [ 2965692.886885095387697, 2036899.484863163437694 ], [ 2965691.736181960906833, 2036898.815843753051013 ], [ 2965687.405841649044305, 2036894.892171390354633 ], [ 2965686.569979935418814, 2036896.028898971620947 ], [ 2965686.413136646151543, 2036894.32640896551311 ], [ 2965675.547233594581485, 2036882.944630613783374 ], [ 2965681.547389637678862, 2036865.299315445590764 ], [ 2965690.843948067631572, 2036849.43095950782299 ], [ 2965692.342762450687587, 2036844.474840000271797 ], [ 2961863.723714746534824, 2036844.474840000271797 ], [ 2961862.123332268558443, 2036850.630812075221911 ], [ 2961855.748720906209201, 2036876.549493697006255 ], [ 2961845.237225392367691, 2036921.008504792815074 ], [ 2961835.883930652402341, 2036963.71549757453613 ], [ 2961833.107490456197411, 2036976.696903101168573 ], [ 2961830.209371419623494, 2036986.967626182362437 ], [ 2961823.356563343666494, 2037002.717548124259338 ], [ 2961818.298525121062994, 2037009.579677851404995 ], [ 2961812.502758498303592, 2037017.445773252751678 ], [ 2961798.192853711545467, 2037031.958246136782691 ], [ 2961791.867454803548753, 2037040.175678159343079 ], [ 2961784.351319739595056, 2037051.117789769312367 ], [ 2961779.871131052728742, 2037064.893955829320475 ], [ 2961778.961802861653268, 2037080.166669503320009 ], [ 2961781.124642310198396, 2037098.472838478162885 ], [ 2961784.022998806554824, 2037123.263529329095036 ], [ 2961789.111832583323121, 2037161.970534599153325 ], [ 2961793.22297590598464, 2037196.540688132867217 ], [ 2961796.981926385313272, 2037233.519193488638848 ], [ 2961803.967604760546237, 2037286.964316963916644 ], [ 2961806.85398577619344, 2037315.408128137001768 ], [ 2961808.457795119844377, 2037331.999323345953599 ], [ 2961808.440812249202281, 2037347.454925364814699 ], [ 2961803.029475243762136, 2037369.617316821822897 ], [ 2961796.249532619956881, 2037411.818922492442653 ], [ 2961796.259143668226898, 2037424.49576009507291 ], [ 2961802.900037184823304, 2037474.162561136530712 ], [ 2961802.567209059372544, 2037496.343748351559043 ], [ 2961802.511039524804801, 2037498.779066196177155 ], [ 2961801.634021653793752, 2037536.793957738205791 ], [ 2961810.989800051786005, 2037568.523105573840439 ], [ 2961818.025369613431394, 2037597.861610590713099 ], [ 2961828.449319649487734, 2037655.487877634586766 ], [ 2961840.043405870441347, 2037672.126014843815938 ], [ 2961871.017200340516865, 2037717.430161600699648 ], [ 2961877.23274892475456, 2037726.538310673320666 ], [ 2961890.384424583986402, 2037760.38998298253864 ], [ 2961931.322834485210478, 2037859.709088400006294 ], [ 2961942.905914434231818, 2037888.943312783492729 ], [ 2961952.732798390556127, 2037912.204770646989346 ], [ 2961972.268804459832609, 2037955.328748228028417 ], [ 2961981.109293407760561, 2037975.895279036602005 ], [ 2961989.843061569146812, 2037991.56005622074008 ], [ 2961998.93597206659615, 2038006.315939521649852 ], [ 2962010.416310770437121, 2038017.245261302916333 ], [ 2962027.682810364291072, 2038029.783472354756668 ], [ 2962047.647819389589131, 2038044.398431460140273 ], [ 2962061.489909999072552, 2038057.830597809515893 ], [ 2962061.585234282538295, 2038057.99451149860397 ], [ 2962067.339174159336835, 2038067.885680165374652 ], [ 2962067.767145439982414, 2038074.859721705550328 ], [ 2962066.55154073657468, 2038084.884399568429217 ], [ 2962060.227856202982366, 2038088.872997589409351 ], [ 2962050.254912698175758, 2038090.364920795662329 ], [ 2962042.169407482724637, 2038087.797423230018467 ], [ 2962012.455638826824725, 2038108.096915643429384 ], [ 2962006.140837578568608, 2038133.806183079490438 ], [ 2961987.919472097884864, 2038147.583797307219356 ], [ 2962011.802302982658148, 2038181.96511048823595 ], [ 2962037.111147545743734, 2038215.355348805198446 ], [ 2962054.560393561609089, 2038238.195214313687757 ], [ 2962071.934946874622256, 2038256.687441087095067 ], [ 2962091.536125016864389, 2038270.453825883800164 ], [ 2962145.674737219698727, 2038307.350436100270599 ], [ 2962167.20242357486859, 2038329.690523187862709 ], [ 2962177.636679502204061, 2038338.049671020358801 ], [ 2962177.832942018285394, 2038339.144944072933868 ], [ 2962181.223475682549179, 2038340.923235897440463 ], [ 2962186.93424181593582, 2038343.918178071733564 ], [ 2962207.637925014831126, 2038354.776578177465126 ], [ 2962223.330382425803691, 2038360.178532998543233 ], [ 2962238.732003397773951, 2038364.425909481011331 ], [ 2962246.667108084075153, 2038366.964672103524208 ], [ 2962253.267552997916937, 2038372.231249556178227 ], [ 2962257.09663793630898, 2038375.678856470622122 ], [ 2962261.583676322363317, 2038379.71920095058158 ], [ 2962267.657858056016266, 2038394.823424704605713 ], [ 2962266.17434492148459, 2038409.524968440178782 ], [ 2962268.56810015719384, 2038409.603829820873216 ], [ 2962265.969652030616999, 2038411.55350416735746 ], [ 2962301.082169929519296, 2038427.192058743210509 ], [ 2962313.283203221857548, 2038419.628695525228977 ], [ 2962334.647335290908813, 2038411.78956551826559 ], [ 2962337.262966800481081, 2038413.505496367812157 ], [ 2962340.128352503292263, 2038418.390382788144052 ], [ 2962346.47438330668956, 2038429.208235956495628 ], [ 2962358.509761039167643, 2038444.695666305953637 ], [ 2962374.957999994512647, 2038442.475283713079989 ], [ 2962382.912257445510477, 2038457.6208476270549 ], [ 2962392.656002399511635, 2038474.957361097680405 ], [ 2962396.627093851100653, 2038482.023153894115239 ], [ 2962403.211217627860606, 2038491.954334824113175 ], [ 2962416.124727074522525, 2038495.529722770908847 ], [ 2962430.894974714145064, 2038493.957401486346498 ], [ 2962438.759757068939507, 2038493.120116879465058 ], [ 2962448.858181488700211, 2038508.947495746659115 ], [ 2962459.138225709088147, 2038563.139444360043854 ], [ 2962471.822732175700366, 2038642.161427365848795 ], [ 2962484.835564496926963, 2038699.908128505572677 ], [ 2962497.526155778206885, 2038725.521323692752048 ], [ 2962510.570961317047477, 2038749.997570871142671 ], [ 2962519.648480968549848, 2038799.157556458143517 ], [ 2962534.204634647350758, 2038817.098195879952982 ], [ 2962549.06468694191426, 2038842.856967656174675 ], [ 2962553.555039121303707, 2038860.826551083941013 ], [ 2962542.755958524532616, 2038872.415201862808317 ], [ 2962528.488403887953609, 2038885.193971102125943 ], [ 2962524.023047050926834, 2038896.648545245174319 ], [ 2962527.62071246560663, 2038913.249842395773157 ], [ 2962554.311576177831739, 2038949.217575783841312 ], [ 2962605.416272108443081, 2039010.296191440429538 ], [ 2962647.560318906325847, 2039032.212797544896603 ], [ 2962662.706866490654647, 2039039.678159928647801 ], [ 2962694.859344233758748, 2039062.858301145490259 ], [ 2962738.715074754785746, 2039088.759029357694089 ], [ 2962761.644158532842994, 2039101.260708583286032 ], [ 2962773.3942676121369, 2039113.616965166991577 ], [ 2962779.067824794910848, 2039119.583030723500997 ], [ 2962788.275407132692635, 2039146.896969533991069 ], [ 2962798.206839457154274, 2039179.345165942097083 ], [ 2962810.237328096292913, 2039203.568302026251331 ], [ 2962843.018871917854995, 2039237.365912565728649 ], [ 2962866.783898450899869, 2039255.08239750075154 ], [ 2962878.236428346019238, 2039256.23843994224444 ], [ 2962895.174460854381323, 2039254.796589586185291 ], [ 2962919.41307573299855, 2039252.039704626658931 ], [ 2962930.77795186964795, 2039239.26174768130295 ], [ 2962945.231968767009676, 2039232.365590639645234 ], [ 2962965.155481545720249, 2039239.507108261808753 ], [ 2963030.391921795904636, 2039261.556408766191453 ], [ 2963052.293913525529206, 2039257.61080140969716 ], [ 2963084.103874728549272, 2039251.880505559267476 ], [ 2963111.260445688851178, 2039240.550008591730148 ], [ 2963135.873283636756241, 2039233.433664732379839 ], [ 2963153.830630852840841, 2039229.285848062485456 ], [ 2963165.076009403448552, 2039228.172995480708778 ], [ 2963164.160447214730084, 2039235.84933944651857 ], [ 2963143.516513673122972, 2039261.029272243147716 ], [ 2963118.832259661518037, 2039307.861892448505387 ], [ 2963108.07641865266487, 2039334.479793926468119 ], [ 2963108.801066253334284, 2039351.691994314081967 ], [ 2963139.09477601852268, 2039400.78717042086646 ], [ 2963155.018000349868089, 2039423.135667868889868 ], [ 2963190.799976964481175, 2039465.554793609771878 ], [ 2963204.799421282485127, 2039488.661821694578975 ], [ 2963227.997663875576109, 2039526.952584253624082 ], [ 2963240.39804895222187, 2039557.447156929178163 ], [ 2963241.051072753965855, 2039578.254220916889608 ], [ 2963236.346196182072163, 2039609.147504746215418 ], [ 2963228.384952636435628, 2039633.115943331737071 ], [ 2963225.557833192870021, 2039649.150912209181115 ], [ 2963233.507156426087022, 2039670.713212563190609 ], [ 2963245.880844594910741, 2039682.0077497898601 ], [ 2963258.754763392265886, 2039692.028917161514983 ], [ 2963284.979877892881632, 2039705.010214152047411 ], [ 2963335.324694757349789, 2039734.571363949682564 ], [ 2963381.596900079399347, 2039748.770237195538357 ], [ 2963438.426190882455558, 2039768.57884387485683 ], [ 2963480.478717590682209, 2039763.149879803648219 ], [ 2963520.214391279965639, 2039753.30942110856995 ], [ 2963556.92059637978673, 2039727.918761892011389 ], [ 2963603.845224120188504, 2039692.639519186224788 ], [ 2963645.519662320613861, 2039678.157687519676983 ], [ 2963669.252746379002929, 2039658.859781498555094 ], [ 2963692.424612369854003, 2039646.101270076818764 ], [ 2963723.625758304260671, 2039626.531276147812605 ], [ 2963749.568084171973169, 2039600.933589994208887 ], [ 2963762.413920694030821, 2039587.352622280362993 ], [ 2963784.29213242419064, 2039573.217678883112967 ], [ 2963800.698833907954395, 2039563.488386586774141 ], [ 2963814.410618971567601, 2039560.28117142082192 ], [ 2963827.288985995575786, 2039559.999315274879336 ], [ 2963832.741326696239412, 2039566.227726283716038 ], [ 2963825.325979084707797, 2039578.166596971917897 ], [ 2963819.913293975871056, 2039588.45999365276657 ], [ 2963817.368594437837601, 2039615.547404274810106 ], [ 2963805.613639887422323, 2039649.320063498103991 ], [ 2963798.926188626792282, 2039677.887781033525243 ], [ 2963799.349080328829587, 2039702.457736485404894 ], [ 2963810.753646334633231, 2039744.969738993095234 ], [ 2963821.844347543548793, 2039790.723166619194672 ], [ 2963822.724290864542127, 2039802.904981543077156 ], [ 2963816.844808414578438, 2039813.084970018593594 ], [ 2963792.737554924562573, 2039836.742614630609751 ], [ 2963773.873294498771429, 2039883.063086614944041 ], [ 2963749.10564542375505, 2039929.373988399514928 ], [ 2963739.480729595758021, 2039969.737992902286351 ], [ 2963735.405103292316198, 2040011.248552557313815 ], [ 2963730.306276022456586, 2040049.724280046531931 ], [ 2963720.434850471094251, 2040101.93651741463691 ], [ 2963723.074677487835288, 2040138.481771430699155 ], [ 2963714.664393821265548, 2040193.113448942778632 ], [ 2963711.440491682849824, 2040223.20357540412806 ], [ 2963704.773269784171134, 2040248.548577423440292 ], [ 2963694.081623419653624, 2040278.910813769092783 ], [ 2963690.174758247099817, 2040286.074164165882394 ], [ 2963686.617984191514552, 2040292.59549401816912 ], [ 2963689.480494818184525, 2040307.102734617656097 ], [ 2963697.99553890991956, 2040320.055322603555396 ], [ 2963721.323097796645015, 2040338.387732602190226 ], [ 2963745.211686526425183, 2040350.180570784490556 ], [ 2963800.747433878481388, 2040368.613132822327316 ], [ 2963817.852553746663034, 2040368.214657047064975 ], [ 2963879.470291120000184, 2040357.651993681211025 ], [ 2963893.27953838929534, 2040356.774160203523934 ], [ 2963907.649455812759697, 2040362.679292585002258 ], [ 2963908.285508380271494, 2040364.56583943287842 ], [ 2963908.888416683766991, 2040373.8142969829496 ], [ 2963907.766130477190018, 2040386.893297827104107 ], [ 2963914.485813466832042, 2040395.34062153659761 ], [ 2963937.247198736295104, 2040416.721036909846589 ], [ 2963936.754874808713794, 2040430.496304768137634 ], [ 2963943.183994689024985, 2040443.824666582047939 ], [ 2963954.306547092273831, 2040456.307742031523958 ], [ 2963973.89590121479705, 2040461.363612589426339 ], [ 2963986.720290436409414, 2040469.431565976236016 ], [ 2963991.797530058771372, 2040472.625642416533083 ], [ 2963993.199009463656694, 2040484.713488396024331 ], [ 2963993.936798094306141, 2040505.102379503892735 ], [ 2963994.525416902266443, 2040523.105061600450426 ], [ 2963997.845641960855573, 2040533.77425109827891 ], [ 2964010.281719278078526, 2040544.411119492491707 ], [ 2964029.179778979625553, 2040547.397156630409881 ], [ 2964035.38964469358325, 2040549.968066266737878 ], [ 2964063.938615625724196, 2040557.817169741960242 ], [ 2964084.102548451162875, 2040570.134672625456005 ], [ 2964099.7689333059825, 2040584.238400296773762 ], [ 2964112.731794890016317, 2040603.956698447698727 ], [ 2964125.056213880423456, 2040614.411837999010459 ], [ 2964129.098992363549769, 2040623.628512329654768 ], [ 2964113.504513376392424, 2040629.36948519712314 ], [ 2964095.589496396481991, 2040635.109476936748251 ], [ 2964070.707934414967895, 2040653.518654557177797 ], [ 2964031.463033815845847, 2040699.947031207149848 ], [ 2964018.525084695778787, 2040707.977823813911527 ], [ 2963977.324961216188967, 2040731.601499159121886 ], [ 2963943.888073110952973, 2040752.742674904409796 ], [ 2963931.994412457570434, 2040754.510454243281856 ], [ 2963909.825073977001011, 2040757.805384300649166 ], [ 2963887.361966634634882, 2040768.290198372676969 ], [ 2963862.212445742450655, 2040792.135720783378929 ], [ 2963835.168340863194317, 2040827.589802302885801 ], [ 2963828.585022493265569, 2040853.456396263558418 ], [ 2963825.484763246029615, 2040877.622545380843803 ], [ 2963821.154551528394222, 2040904.156469486653805 ], [ 2963826.875312564894557, 2040919.758682177402079 ], [ 2963865.979108628816903, 2040956.174312594113871 ], [ 2963887.073461529798806, 2040970.616785377496853 ], [ 2963937.86530639603734, 2041026.388777829706669 ], [ 2963968.394623149186373, 2041059.52027544612065 ], [ 2963980.894929965026677, 2041078.146352813811973 ], [ 2963993.772969456389546, 2041097.335478082764894 ], [ 2964009.332750745117664, 2041122.170270629692823 ], [ 2964016.125997902825475, 2041133.012829667655751 ], [ 2964044.210728023201227, 2041154.24436845164746 ], [ 2964074.814775051549077, 2041161.072141410317272 ], [ 2964093.341481581330299, 2041169.538746567443013 ], [ 2964112.515680714976043, 2041183.632647488033399 ], [ 2964134.392475767061114, 2041220.944456120720133 ], [ 2964148.186564316041768, 2041243.896271765232086 ], [ 2964160.113162092864513, 2041286.187594551825896 ], [ 2964161.866114912554622, 2041292.403406734811142 ], [ 2964180.441211997997016, 2041321.250027872156352 ], [ 2964219.437360564246774, 2041346.954602158861235 ], [ 2964241.343726872932166, 2041356.422277717385441 ], [ 2964269.237031442113221, 2041366.421048448421061 ], [ 2964313.742969227954745, 2041399.718001689296216 ], [ 2964343.786054612603039, 2041413.085480583366007 ], [ 2964355.720549463294446, 2041420.593547070631757 ], [ 2964370.148040146101266, 2041430.379605705151334 ], [ 2964374.719049766194075, 2041463.265357494819909 ], [ 2964378.626428520306945, 2041472.963586730184034 ], [ 2964414.238712494261563, 2041561.357358235167339 ], [ 2964443.562557916156948, 2041607.046789717162028 ], [ 2964454.719863407313824, 2041619.177043239818886 ], [ 2964471.504645694978535, 2041637.425537982024252 ], [ 2964492.200805301312357, 2041646.038156246300787 ], [ 2964513.103807894513011, 2041649.248105098726228 ], [ 2964537.824339792132378, 2041652.843643611297011 ], [ 2964543.105118841398507, 2041668.671777251409367 ], [ 2964556.221657881978899, 2041710.695551949320361 ], [ 2964573.792704231105745, 2041728.757761935004964 ], [ 2964575.219628202728927, 2041755.562319314340129 ], [ 2964578.843599891290069, 2041766.223273447714746 ], [ 2964586.390851806849241, 2041788.425328724086285 ], [ 2964587.649667580146343, 2041809.660220204154029 ], [ 2964583.5022197579965, 2041820.601506354287267 ], [ 2964566.996004189364612, 2041864.888301676372066 ], [ 2964562.262720595113933, 2041876.667391011258587 ], [ 2964559.32596265617758, 2041883.975632098736241 ], [ 2964563.774862292222679, 2041907.995396116282791 ], [ 2964582.854577930644155, 2041940.366958013968542 ], [ 2964600.928186380304396, 2041966.084684111177921 ], [ 2964634.881762085016817, 2042007.184796877438203 ], [ 2964661.92385879252106, 2042028.604502532863989 ], [ 2964693.2015948491171, 2042053.017230958677828 ], [ 2964750.705048001371324, 2042090.412142519839108 ], [ 2964789.686464454978704, 2042132.75286998366937 ], [ 2964832.214864418841898, 2042177.13742101076059 ], [ 2964862.326685263775289, 2042207.662306559970602 ], [ 2964884.818349981680512, 2042220.780598069773987 ], [ 2964913.233441750518978, 2042230.685815264238045 ], [ 2964947.217418259941041, 2042238.514995412901044 ], [ 2964971.898542790673673, 2042248.556276516290382 ], [ 2965012.061160255223513, 2042268.149734945269302 ], [ 2965037.367211565375328, 2042275.395779471611604 ], [ 2965064.818360948003829, 2042272.597780249547213 ], [ 2965081.343354317359626, 2042263.609848507679999 ], [ 2965092.870039699599147, 2042256.814516642130911 ], [ 2965108.927701121196151, 2042243.191618273500353 ], [ 2965135.287324908189476, 2042220.201658797217533 ], [ 2965160.451715962961316, 2042179.721016684547067 ], [ 2965176.216535669751465, 2042155.453285245690495 ], [ 2965198.136977754998952, 2042142.150700820842758 ], [ 2965223.890934160910547, 2042126.981639462523162 ], [ 2965242.950003555044532, 2042105.306608909508213 ], [ 2965259.317998284939677, 2042083.579664542572573 ], [ 2965270.513863333500922, 2042057.775695458753034 ], [ 2965278.599046592134982, 2042039.866686581168324 ], [ 2965282.835925366729498, 2042039.282097213435918 ], [ 2965311.146493672393262, 2042055.466447001090273 ], [ 2965336.683605942875147, 2042067.499909777892753 ], [ 2965365.895336905494332, 2042089.065786751220003 ], [ 2965381.982105961069465, 2042099.045650871004909 ], [ 2965412.315989729017019, 2042107.532576072495431 ], [ 2965434.532778887078166, 2042108.896721794269979 ], [ 2965452.656765784136951, 2042098.121070582652465 ], [ 2965477.619461758062243, 2042076.456046651583165 ], [ 2965513.294374937657267, 2042036.285395148443058 ], [ 2965536.862435829360038, 2042013.079836854012683 ], [ 2965553.378635627683252, 2041996.817722562234849 ], [ 2965566.888586584012955, 2041973.996110403677449 ], [ 2965570.869009177200496, 2041960.832025484647602 ], [ 2965574.952743353322148, 2041947.326394547009841 ], [ 2965582.22909524012357, 2041935.821653640596196 ], [ 2965586.541439122054726, 2041936.752849697368219 ], [ 2965586.696046441793442, 2041936.786249414784834 ], [ 2965589.340085458941758, 2041937.357197004137561 ], [ 2965597.085883498191833, 2041948.169120983686298 ], [ 2965599.095777320209891, 2041963.839646155247465 ], [ 2965601.083580427803099, 2041979.338231333065778 ], [ 2965620.529038913547993, 2042060.91291444376111 ], [ 2965627.356512066908181, 2042065.427913699531928 ], [ 2965651.138071558438241, 2042081.154377124737948 ], [ 2965666.564907103776932, 2042113.78775599016808 ], [ 2965687.47720144642517, 2042143.823744337074459 ], [ 2965700.021621342748404, 2042165.172410106984898 ], [ 2965706.737338949926198, 2042183.465763589600101 ], [ 2965710.009378332644701, 2042233.238718514796346 ], [ 2965724.041300714015961, 2042254.741228461964056 ], [ 2965735.555121872574091, 2042267.178128266008571 ], [ 2965747.51689035911113, 2042277.340473185991868 ], [ 2965756.60254421364516, 2042278.356984785525128 ], [ 2965767.731415814720094, 2042279.601952884811908 ], [ 2965769.650833888910711, 2042295.396397276781499 ], [ 2965770.559145596344024, 2042313.967939150519669 ], [ 2965780.658838720992208, 2042323.416489680530503 ], [ 2965788.731940733734518, 2042323.572197521338239 ], [ 2965800.746772350277752, 2042300.303690484724939 ], [ 2965814.765508413314819, 2042277.737959903897718 ], [ 2965835.150485975202173, 2042258.688651676289737 ], [ 2965847.981634224765003, 2042243.915190369822085 ], [ 2965866.444932362996042, 2042222.657215941697359 ], [ 2965876.205523371696472, 2042216.607046256773174 ], [ 2965881.735179926734418, 2042220.976684192428365 ], [ 2965885.032052804715931, 2042255.517531881574541 ], [ 2965888.217680565081537, 2042268.097962739411741 ], [ 2965900.865459613502026, 2042286.745367428753525 ], [ 2965908.051316726952791, 2042292.851558943046257 ], [ 2965910.284316602628678, 2042294.749183077132329 ], [ 2965917.016124978661537, 2042300.469608437037095 ], [ 2965932.099438372068107, 2042304.191786762559786 ], [ 2965953.002863719128072, 2042307.402365087065846 ], [ 2965977.497135144192725, 2042319.624111195560545 ], [ 2966017.493006691336632, 2042338.175268373219296 ], [ 2966048.181302436627448, 2042345.525862209266052 ], [ 2966062.07427039090544, 2042345.170178320026025 ], [ 2966072.392052380833775, 2042342.506288275122643 ], [ 2966082.682574719190598, 2042339.849439266137779 ], [ 2966097.519567400217056, 2042336.751576619688421 ], [ 2966138.751491432078183, 2042328.142900394741446 ], [ 2966160.904951213859022, 2042312.275973899988458 ], [ 2966179.869396007619798, 2042304.056042364565656 ], [ 2966201.280588926747441, 2042296.494345223298296 ], [ 2966215.24622138030827, 2042300.807451440254226 ], [ 2966220.794401254039258, 2042302.520995861152187 ], [ 2966242.51228891685605, 2042311.631960897007957 ], [ 2966259.783461064100266, 2042326.736418224405497 ], [ 2966266.258128540590405, 2042324.327404360286891 ], [ 2966305.631126708816737, 2042310.125987093662843 ], [ 2966340.582636778708547, 2042297.519279011525214 ], [ 2966357.153054590336978, 2042304.910290012601763 ], [ 2966369.816009920556098, 2042306.922433187486604 ], [ 2966394.722056179307401, 2042303.718441414646804 ], [ 2966412.160147869959474, 2042299.144456661073491 ], [ 2966421.614570485427976, 2042312.081537393620238 ], [ 2966429.467374938540161, 2042332.440471229609102 ], [ 2966442.359642077237368, 2042341.074827907141298 ], [ 2966456.419825482182205, 2042341.762235061498359 ], [ 2966473.075324748642743, 2042335.58377813664265 ], [ 2966504.254556449595839, 2042326.044837571913376 ], [ 2966513.656985920853913, 2042328.114549021236598 ], [ 2966526.027863370720297, 2042330.837589811999351 ], [ 2966546.728880630340427, 2042352.863993489881977 ], [ 2966581.607829704880714, 2042397.209682004991919 ], [ 2966589.114613301120698, 2042406.397187100723386 ], [ 2966599.671988348476589, 2042412.007732657948509 ], [ 2966609.845208814833313, 2042410.114454540424049 ], [ 2966652.728798865806311, 2042400.91596756898798 ], [ 2966722.431207989808172, 2042392.356020770035684 ], [ 2966732.212464969605207, 2042388.678330214461312 ], [ 2966742.972058026120067, 2042375.473527624504641 ], [ 2966749.766841112170368, 2042357.617317398544401 ], [ 2966752.373227867297828, 2042333.801911936141551 ], [ 2966755.277708227746189, 2042324.481192076811567 ], [ 2966766.843627556692809, 2042333.617483530193567 ], [ 2966782.5366783849895, 2042351.180204900214449 ], [ 2966801.083580582402647, 2042356.425273482920602 ], [ 2966815.311064936220646, 2042358.155743703711778 ], [ 2966825.927713952958584, 2042354.097898885142058 ], [ 2966849.043285100720823, 2042365.46673023654148 ], [ 2966875.438247974030674, 2042378.448510908987373 ], [ 2966891.835256159305573, 2042380.324849735945463 ], [ 2966910.9396290499717, 2042378.740410499274731 ], [ 2966950.373855257406831, 2042390.70950663369149 ], [ 2966978.725653638131917, 2042396.871939431410283 ], [ 2967007.810072911903262, 2042410.950402184156701 ], [ 2967041.189596111420542, 2042418.353741640690714 ], [ 2967053.768841120414436, 2042415.288500932045281 ], [ 2967066.491551200859249, 2042412.188409117050469 ], [ 2967083.784347135573626, 2042409.611283583333716 ], [ 2967095.045718896668404, 2042399.53542922437191 ], [ 2967103.679957972839475, 2042393.151988916564733 ], [ 2967110.459312865510583, 2042391.93135717860423 ], [ 2967114.635643166489899, 2042404.592838075244799 ], [ 2967111.771460895426571, 2042430.960397116141394 ], [ 2967107.840557927265763, 2042449.700142605463043 ], [ 2967104.645800318103284, 2042458.941999119706452 ], [ 2967099.096917239949107, 2042474.994694416876882 ], [ 2967092.357222515158355, 2042488.353995161363855 ], [ 2967095.499378843232989, 2042509.444295713678002 ], [ 2967101.277047663927078, 2042533.666895544389263 ], [ 2967103.757312384899706, 2042548.348361571552232 ], [ 2967100.016102917026728, 2042563.253180535044521 ], [ 2967094.439184104092419, 2042583.141142507549375 ], [ 2967081.470320555381477, 2042602.645560724660754 ], [ 2967074.198234784416854, 2042627.562755443388596 ], [ 2967068.884527529589832, 2042644.615685962373391 ], [ 2967063.909704598598182, 2042677.167305660434067 ], [ 2967056.315822187345475, 2042690.875021113781258 ], [ 2967053.051185743417591, 2042706.485956319607794 ], [ 2967057.694631670136005, 2042726.7096779323183 ], [ 2967063.391080810222775, 2042747.547464521368966 ], [ 2967070.947202233597636, 2042761.210084203863516 ], [ 2967085.306952467188239, 2042783.841868596151471 ], [ 2967084.683159149251878, 2042798.476427236106247 ], [ 2967080.121945472434163, 2042814.059736543567851 ], [ 2967080.289177792146802, 2042829.112487081671134 ], [ 2967080.491861429996789, 2042838.382362826028839 ], [ 2967079.58525606431067, 2042850.740320102777332 ], [ 2967079.05239341314882, 2042861.426402966259047 ], [ 2967077.636548456735909, 2042880.615096148336306 ], [ 2967075.685028746724129, 2042902.467677154345438 ], [ 2967073.442584934644401, 2042912.498834111029282 ], [ 2967068.966864398680627, 2042922.611188235227019 ], [ 2967061.251058051362634, 2042944.538919040933251 ], [ 2967059.446845256723464, 2042959.304824581835419 ], [ 2967053.393394866958261, 2042989.597901321249083 ], [ 2967048.893977368250489, 2043003.565535546978936 ], [ 2967038.830215882975608, 2043018.855882414849475 ], [ 2967023.511401007417589, 2043027.390739706344903 ], [ 2967017.049538998864591, 2043031.121475794818252 ], [ 2967011.67356719262898, 2043035.619543382665142 ], [ 2966994.659738816320896, 2043049.59408345958218 ], [ 2966989.674762587063015, 2043066.537316715577617 ], [ 2966993.152197916060686, 2043092.226077714469284 ], [ 2966997.577172104269266, 2043115.818729394115508 ], [ 2967008.440379147417843, 2043139.535801778314635 ], [ 2967015.031328132376075, 2043148.618202307028696 ], [ 2967012.241539754904807, 2043163.240684576099738 ], [ 2966995.104122615419328, 2043180.446675724815577 ], [ 2966954.314696315210313, 2043210.255292265443131 ], [ 2966921.982197723351419, 2043232.76458914601244 ], [ 2966914.301990318112075, 2043248.909602869534865 ], [ 2966918.856296461075544, 2043285.315505905542523 ], [ 2966926.924218845553696, 2043307.610509051475674 ], [ 2966941.724798942450434, 2043315.85651617241092 ], [ 2966958.94410925777629, 2043319.174263358814642 ], [ 2966980.129957468248904, 2043319.210361238569021 ], [ 2967006.506430249661207, 2043319.595727514242753 ], [ 2967045.930058343335986, 2043309.287906341254711 ], [ 2967084.830036520957947, 2043299.716249419143423 ], [ 2967121.234683149959892, 2043290.593931580428034 ], [ 2967135.529524500016123, 2043279.676313527394086 ], [ 2967154.467558096162975, 2043273.698987057898194 ], [ 2967187.005819076672196, 2043268.482071362901479 ], [ 2967226.235117954201996, 2043272.971534539246932 ], [ 2967262.821923315059394, 2043284.997004163684323 ], [ 2967285.684751121792942, 2043299.493422612082213 ], [ 2967303.780821450985968, 2043312.280773016391322 ], [ 2967320.476527922786772, 2043316.334781019715592 ], [ 2967338.94365430995822, 2043319.428016267716885 ], [ 2967364.072609187103808, 2043320.038130444008857 ], [ 2967383.039808315224946, 2043326.250420366413891 ], [ 2967397.087415001820773, 2043321.795660358853638 ], [ 2967413.03008727170527, 2043313.148694183910266 ], [ 2967429.396515096537769, 2043303.1417704555206 ], [ 2967442.320159863680601, 2043295.680324343731627 ], [ 2967459.710544261150062, 2043288.05629235948436 ], [ 2967472.034008270129561, 2043276.852013986092061 ], [ 2967484.804826613515615, 2043260.432421517325565 ], [ 2967488.371385725215077, 2043254.655602746177465 ], [ 2967489.542619872838259, 2043249.951988785527647 ], [ 2967473.970865565352142, 2043248.904719325946644 ], [ 2967461.210393968038261, 2043231.980835245223716 ], [ 2967456.069283216260374, 2043221.320203125476837 ], [ 2967453.001615638844669, 2043207.652404187014326 ], [ 2967450.696685918606818, 2043199.82363471807912 ], [ 2967450.891416701488197, 2043185.026596699142829 ], [ 2967451.986224483698606, 2043175.843806447461247 ], [ 2967457.647771299816668, 2043167.122662493027747 ], [ 2967464.433358255773783, 2043161.408005592180416 ], [ 2967447.626642070244998, 2043124.640814770478755 ], [ 2967436.58712690230459, 2043095.820840205997229 ], [ 2967428.995864707045257, 2043080.500258299987763 ], [ 2967423.802107663825154, 2043064.927486250409856 ], [ 2967433.029302563518286, 2043055.893800178775564 ], [ 2967448.797454048879445, 2043047.938593931728974 ], [ 2967472.84125713724643, 2043038.134361117845401 ], [ 2967484.353706199210137, 2043031.430771143408492 ], [ 2967504.990112913772464, 2043014.066260210238397 ], [ 2967519.286412456072867, 2043002.429475729819387 ], [ 2967526.876603382639587, 2042996.301281408406794 ], [ 2967533.565390081144869, 2042990.988772751297802 ], [ 2967542.340349495410919, 2042987.664088262943551 ], [ 2967547.762700766324997, 2042988.743722667219117 ], [ 2967555.683001457713544, 2042990.320854768622667 ], [ 2967571.294315275736153, 2043004.092344490345567 ], [ 2967586.467782713472843, 2043013.833219255553558 ], [ 2967599.36679875664413, 2043019.92899899603799 ], [ 2967606.022494114004076, 2043023.671183358645067 ], [ 2967606.513230111915618, 2043023.306223835097626 ], [ 2967625.408534358255565, 2043026.951564203714952 ], [ 2967643.209560269955546, 2043028.002311346353963 ], [ 2967678.485473664943129, 2043025.075137561652809 ], [ 2967701.278078255243599, 2043019.493220228934661 ], [ 2967712.604526450391859, 2043015.965937562985346 ], [ 2967727.306819947902113, 2043009.2965001182165 ], [ 2967737.581598831340671, 2043005.987362912390381 ], [ 2967753.999973752070218, 2043004.662777226418257 ], [ 2967776.92082738224417, 2043004.45417481707409 ], [ 2967780.284459018614143, 2043004.23247800860554 ], [ 2967792.492228926159441, 2043003.427898354828358 ], [ 2967805.549497562460601, 2042998.439818584593013 ], [ 2967813.351554973982275, 2042994.164460859494284 ], [ 2967824.649491002783179, 2042987.973521885229275 ], [ 2967834.422770319972187, 2042982.284813387086615 ], [ 2967853.039756870828569, 2042959.016335936496034 ], [ 2967856.395537327975035, 2042954.821976127801463 ], [ 2967864.272354189306498, 2042942.279502818826586 ], [ 2967868.695007130969316, 2042930.934522724011913 ], [ 2967869.262600713409483, 2042929.916332214837894 ], [ 2967880.949400071054697, 2042915.700247650034726 ], [ 2967889.284956497140229, 2042904.944213700247929 ], [ 2967896.357431980781257, 2042899.816696251276881 ], [ 2967903.708476817701012, 2042899.530633866088465 ], [ 2967905.045760000124574, 2042899.855362804606557 ], [ 2967905.045760000124574, 2037326.177223812323064 ], [ 2967869.685571547597647, 2037333.96852859784849 ] ] ], [ [ [ 2960893.959121507592499, 2036845.702702875249088 ], [ 2960899.210716021247208, 2036851.572019229177386 ], [ 2960904.996577072888613, 2036856.728609099052846 ], [ 2960910.868938194587827, 2036860.877596511738375 ], [ 2960916.207513913046569, 2036864.718817931367084 ], [ 2960923.29799485206604, 2036868.804468095535412 ], [ 2960932.284917219541967, 2036875.367819351842627 ], [ 2960938.341172506567091, 2036882.211319680092856 ], [ 2960943.240310846827924, 2036888.023593291407451 ], [ 2960946.706208075396717, 2036895.635164676699787 ], [ 2960950.280639505945146, 2036897.913234135136008 ], [ 2960953.424760412424803, 2036902.057998078875244 ], [ 2960957.898962439503521, 2036905.21919561480172 ], [ 2960961.429172676987946, 2036911.773932324489579 ], [ 2960962.31767019815743, 2036917.317033101338893 ], [ 2960962.580562247894704, 2036926.692112541524693 ], [ 2960961.811390006449074, 2036934.269519990077242 ], [ 2960960.550970867276192, 2036943.423265716526657 ], [ 2960961.111979455221444, 2036950.017089289845899 ], [ 2960960.467878661118448, 2036956.828152073314413 ], [ 2960959.876710049808025, 2036962.546812420478091 ], [ 2960959.199970368295908, 2036973.67007431294769 ], [ 2960960.44528325740248, 2036979.892596557270736 ], [ 2960964.832974001765251, 2036984.061300784349442 ], [ 2960969.664117939770222, 2036987.902099203784019 ], [ 2960973.656232981476933, 2036991.15016231755726 ], [ 2960979.210299202706665, 2036994.860604008892551 ], [ 2960984.475444442592561, 2036999.863026242470369 ], [ 2960990.047448678873479, 2037001.61185219255276 ], [ 2960994.85455101262778, 2037007.836045850533992 ], [ 2960998.900665616616607, 2037009.413886154070497 ], [ 2961002.381081914063543, 2037011.985294999321923 ], [ 2961004.217851405031979, 2037012.662384741939604 ], [ 2961007.626212935894728, 2037014.16056502237916 ], [ 2961009.001006410922855, 2037017.945212463848293 ], [ 2961009.473261117935181, 2037018.196134620346129 ], [ 2961011.295190609060228, 2037019.033664396964014 ], [ 2961013.879959657788277, 2037018.858226681360975 ], [ 2961016.53790540015325, 2037018.234125822084025 ], [ 2961018.800645064096898, 2037016.955469700274989 ], [ 2961021.774311591871083, 2037014.677762638544664 ], [ 2961026.069299829658121, 2037015.210329451831058 ], [ 2961029.636173374485224, 2037015.728894602973014 ], [ 2961033.80200729938224, 2037017.746196440886706 ], [ 2961039.829891267232597, 2037019.553316805744544 ], [ 2961041.653063181787729, 2037020.96663159201853 ], [ 2961045.390181906055659, 2037024.35767869418487 ], [ 2961048.071823034435511, 2037027.503422478446737 ], [ 2961050.302253743633628, 2037031.456228510243818 ], [ 2961052.622951006516814, 2037035.973442300455645 ], [ 2961054.108094614930451, 2037038.899291686713696 ], [ 2961055.695871909148991, 2037043.64072772837244 ], [ 2961058.721734859980643, 2037048.664484670385718 ], [ 2961062.865802991203964, 2037054.594979454064742 ], [ 2961066.089103585574776, 2037057.497936168219894 ], [ 2961068.905456175096333, 2037057.861447009490803 ], [ 2961071.563501555472612, 2037057.237331392243505 ], [ 2961074.49717901693657, 2037053.805590524803847 ], [ 2961075.839250645600259, 2037049.499380723107606 ], [ 2961075.544181176461279, 2037044.03651981567964 ], [ 2961074.927295383997262, 2037037.470502996118739 ], [ 2961073.096641183830798, 2037029.671654242090881 ], [ 2961070.717694032937288, 2037019.358625259716064 ], [ 2961067.667809596285224, 2037011.198683629976586 ], [ 2961063.883601943962276, 2037000.26789731788449 ], [ 2961063.024290264118463, 2036994.906905703712255 ], [ 2961064.982274037785828, 2036993.537970030913129 ], [ 2961067.911694424692541, 2036994.606872048927471 ], [ 2961071.450518306344748, 2036995.856258135056123 ], [ 2961079.979146524798125, 2036999.254838067106903 ], [ 2961089.890518266707659, 2037003.130043484270573 ], [ 2961097.48210193682462, 2037006.116992806317285 ], [ 2961102.635547433048487, 2037008.381897792685777 ], [ 2961112.890498880762607, 2037009.872720539337024 ], [ 2961115.904935646336526, 2037012.377834315877408 ], [ 2961121.070038666948676, 2037016.527747196378186 ], [ 2961144.512502199038863, 2037031.464599837083369 ], [ 2961153.826117952354252, 2037037.044241644907743 ], [ 2961156.095268469303846, 2037038.522399732843041 ], [ 2961159.301497562322766, 2037040.4123903256841 ], [ 2961162.626028940081596, 2037042.135872717015445 ], [ 2961164.85005456674844, 2037043.331876665819436 ], [ 2961167.928494329564273, 2037044.928144147619605 ], [ 2961170.613712233491242, 2037046.22761382907629 ], [ 2961173.537902798503637, 2037047.781307709636167 ], [ 2961176.190379884094, 2037049.185838134260848 ], [ 2961180.073786806315184, 2037051.161064464831725 ], [ 2961184.660357811488211, 2037053.505100533831865 ], [ 2961186.155013000592589, 2037054.177021538140252 ], [ 2961188.464627749286592, 2037055.296567770186812 ], [ 2961191.941664820536971, 2037056.899294173810631 ], [ 2961195.274118051864207, 2037058.527969901217148 ], [ 2961198.616104427725077, 2037059.907430584076792 ], [ 2961218.772970269434154, 2037070.079368017613888 ], [ 2961196.679586421232671, 2037116.960193094797432 ], [ 2961188.797584064304829, 2037158.259430524660274 ], [ 2961216.426439535804093, 2037164.761598799843341 ], [ 2961225.19066196680069, 2037170.433249674271792 ], [ 2961244.683312833774835, 2037148.794103215681389 ], [ 2961258.329831762239337, 2037139.688804448815063 ], [ 2961300.716472419910133, 2037162.867208007257432 ], [ 2961327.215760642662644, 2037162.322224997682497 ], [ 2961335.343499647453427, 2037160.253637390211225 ], [ 2961347.371496340725571, 2037159.899113664869219 ], [ 2961355.834952254313976, 2037182.543244429631159 ], [ 2961365.822906693909317, 2037195.849278979469091 ], [ 2961372.991156686097383, 2037206.642372253118083 ], [ 2961392.815325484611094, 2037194.611293560359627 ], [ 2961403.408883028663695, 2037189.077172363875434 ], [ 2961413.908331065904349, 2037182.955917072948068 ], [ 2961422.246874784119427, 2037178.432384633459151 ], [ 2961433.190279356203973, 2037163.771917308913544 ], [ 2961444.493129114620388, 2037158.080512467073277 ], [ 2961458.398830755148083, 2037145.52131485263817 ], [ 2961478.881517755798995, 2037121.723444734700024 ], [ 2961498.518565447069705, 2037103.104755738284439 ], [ 2961512.13210466504097, 2037093.949530744226649 ], [ 2961530.140603499487042, 2037075.624378424603492 ], [ 2961547.334805871360004, 2037057.445846828632057 ], [ 2961559.058737098239362, 2037046.95548806595616 ], [ 2961571.957252607680857, 2037043.793716874904931 ], [ 2961587.82074230350554, 2037043.448966022115201 ], [ 2961600.750445269048214, 2037035.254785157972947 ], [ 2961605.56825777888298, 2037023.495284027419984 ], [ 2961610.579044202342629, 2037002.485118531156331 ], [ 2961613.507118314970285, 2036989.390385383041576 ], [ 2961624.348514588549733, 2036968.167461742414162 ], [ 2961631.118544108234346, 2036947.678159581962973 ], [ 2961643.265175470151007, 2036934.598290787776932 ], [ 2961627.954906152561307, 2036933.167643529595807 ], [ 2961612.253102014772594, 2036929.294246128993109 ], [ 2961609.319195845164359, 2036921.444635334890336 ], [ 2961608.306231312453747, 2036909.897845802363008 ], [ 2961608.368800241965801, 2036899.832883217372 ], [ 2961608.561707125045359, 2036890.582339725689963 ], [ 2961610.93664470128715, 2036879.262873853091151 ], [ 2961612.074470398016274, 2036870.679891034495085 ], [ 2961610.769269032869488, 2036862.536850641481578 ], [ 2961617.47666232008487, 2036852.112536770291626 ], [ 2961610.515636631753296, 2036844.474840000271797 ], [ 2960891.545217101462185, 2036844.474840000271797 ], [ 2960893.959121507592499, 2036845.702702875249088 ] ] ], [ [ [ 2967904.660343523602933, 2043264.341188169084489 ], [ 2967896.516458795405924, 2043286.330026783281937 ], [ 2967889.512921209447086, 2043302.882472930010408 ], [ 2967887.795346390455961, 2043304.66852407134138 ], [ 2967870.474111698567867, 2043323.286601201398298 ], [ 2967857.875903841108084, 2043343.990178293315694 ], [ 2967852.075382125098258, 2043355.496989908395335 ], [ 2967845.382611121051013, 2043373.567979792598635 ], [ 2967843.931572030764073, 2043377.485952253220603 ], [ 2967842.631950470618904, 2043388.743359345011413 ], [ 2967838.714509523939341, 2043396.294168926542625 ], [ 2967827.198012798558921, 2043398.606970669003204 ], [ 2967821.319693412166089, 2043399.902355681871995 ], [ 2967822.967042347416282, 2043407.839602341642603 ], [ 2967821.447187539655715, 2043422.63785650045611 ], [ 2967832.127226647920907, 2043423.225800014799461 ], [ 2967849.317800648510456, 2043431.61988453567028 ], [ 2967860.18257412314415, 2043437.995903108967468 ], [ 2967866.973793485667557, 2043443.549906783271581 ], [ 2967872.52556810900569, 2043451.009110419312492 ], [ 2967875.508096798323095, 2043456.441813978599384 ], [ 2967874.386540121398866, 2043469.132032496156171 ], [ 2967871.323397104162723, 2043478.848060066346079 ], [ 2967862.280808974057436, 2043493.369136798894033 ], [ 2967851.93179913982749, 2043504.969279393553734 ], [ 2967842.69036465510726, 2043514.529181156074628 ], [ 2967841.321429741568863, 2043515.51430983399041 ], [ 2967833.180462867021561, 2043521.372866038465872 ], [ 2967810.883477929513901, 2043510.725568264489993 ], [ 2967799.27299618255347, 2043505.419091420946643 ], [ 2967781.436041889712214, 2043500.139772919006646 ], [ 2967765.949654810130596, 2043500.98063680739142 ], [ 2967752.777187223546207, 2043504.157092269044369 ], [ 2967747.58983560744673, 2043505.871368005406111 ], [ 2967739.401719661429524, 2043508.577217256883159 ], [ 2967720.251991250552237, 2043509.610621958971024 ], [ 2967703.670154949650168, 2043516.620238405885175 ], [ 2967686.084799532778561, 2043517.371906056301668 ], [ 2967664.719698878005147, 2043519.542765824124217 ], [ 2967643.626756113022566, 2043528.637931161792949 ], [ 2967627.218261658679694, 2043539.237928938120604 ], [ 2967599.495036845561117, 2043548.335057749645784 ], [ 2967580.311625719070435, 2043560.2251706791576 ], [ 2967508.940216930583119, 2043612.992358227726072 ], [ 2967488.911699667572975, 2043631.820309430826455 ], [ 2967478.681340720504522, 2043640.827513424679637 ], [ 2967469.829676209948957, 2043649.926571674877778 ], [ 2967459.040352897718549, 2043658.063861582661048 ], [ 2967449.356767935212702, 2043662.480990578653291 ], [ 2967438.400699238292873, 2043668.267734647030011 ], [ 2967429.838234655093402, 2043674.035385489929467 ], [ 2967426.882796361111104, 2043676.764357499312609 ], [ 2967418.560343860648572, 2043684.740600779885426 ], [ 2967412.56737463362515, 2043690.764010495739058 ], [ 2967395.111632611602545, 2043694.032451760722324 ], [ 2967379.502056664787233, 2043699.196269900770858 ], [ 2967365.195668781176209, 2043710.356952838134021 ], [ 2967355.312034658621997, 2043722.330879886401817 ], [ 2967348.183328295592219, 2043738.101182755548507 ], [ 2967337.443576862104237, 2043748.083114177919924 ], [ 2967330.95941764023155, 2043757.835306577850133 ], [ 2967328.460120687261224, 2043769.01616690820083 ], [ 2967328.883022308349609, 2043785.036459542112425 ], [ 2967326.432296195998788, 2043790.31320149358362 ], [ 2967322.900657658465207, 2043797.917636812198907 ], [ 2967317.188810992520303, 2043809.140343456994742 ], [ 2967303.292911445256323, 2043817.331890494329855 ], [ 2967293.661245719529688, 2043823.97054086998105 ], [ 2967284.714198676869273, 2043824.108914903830737 ], [ 2967280.13698489498347, 2043833.292064448585734 ], [ 2967272.395251299720258, 2043851.008155378745869 ], [ 2967261.198018139228225, 2043864.828314924845472 ], [ 2967244.928933775052428, 2043870.440389061579481 ], [ 2967232.05557216424495, 2043880.918478759238496 ], [ 2967217.932017661165446, 2043887.413935622898862 ], [ 2967184.604513130150735, 2043896.280940321972594 ], [ 2967164.971175743732601, 2043906.285151022719219 ], [ 2967147.653102578129619, 2043919.611989078577608 ], [ 2967138.207478947937489, 2043930.970653054537252 ], [ 2967132.546812875661999, 2043935.155903981532902 ], [ 2967132.451551763340831, 2043935.226391047937796 ], [ 2967128.471404750831425, 2043947.210520745720714 ], [ 2967126.951227930840105, 2043954.459400943247601 ], [ 2967131.605019685812294, 2043960.059913612436503 ], [ 2967134.527125332504511, 2043960.839039124315605 ], [ 2967140.012696748133749, 2043962.301761977141723 ], [ 2967145.02076255902648, 2043966.765509474556893 ], [ 2967142.728269474580884, 2043972.543784162029624 ], [ 2967129.735495335888118, 2043981.858405881328508 ], [ 2967111.257427817210555, 2043993.770379752852023 ], [ 2967091.00828996906057, 2044011.366657234961167 ], [ 2967077.390751167666167, 2044023.476444229250774 ], [ 2967074.172762130387127, 2044027.741233094362542 ], [ 2967069.425903357565403, 2044034.032023430569097 ], [ 2967070.11951479036361, 2044048.393851492088288 ], [ 2967083.599176363088191, 2044058.843849915778264 ], [ 2967097.496890326961875, 2044071.901225937763229 ], [ 2967111.89651007251814, 2044088.087573675671592 ], [ 2967121.287865636870265, 2044099.810214311117306 ], [ 2967129.095256923232228, 2044115.037405691575259 ], [ 2967142.909441899508238, 2044127.573249131673947 ], [ 2967165.947747090831399, 2044150.788884595036507 ], [ 2967175.634305737912655, 2044171.043127899058163 ], [ 2967177.390601963270456, 2044181.994384523481131 ], [ 2967181.882119917310774, 2044199.964805189752951 ], [ 2967200.922115487977862, 2044226.599779072217643 ], [ 2967212.832009822130203, 2044257.178028129041195 ], [ 2967245.378634985070676, 2044316.373553852550685 ], [ 2967253.29524418246001, 2044327.398812342900783 ], [ 2967268.486407927703112, 2044348.554523831000552 ], [ 2967319.507326955441386, 2044395.705312224803492 ], [ 2967334.059480863623321, 2044429.570299157872796 ], [ 2967342.742611603811383, 2044443.566794492537156 ], [ 2967356.743741502054036, 2044453.922899945639074 ], [ 2967370.095513676758856, 2044456.8843550584279 ], [ 2967375.639120220206678, 2044459.541554720839486 ], [ 2967378.232513737864792, 2044460.78475950518623 ], [ 2967382.576528428122401, 2044474.489360549254343 ], [ 2967378.275004731491208, 2044493.584956056205556 ], [ 2967380.487249155528843, 2044500.796867011114955 ], [ 2967382.463405884802341, 2044507.23909864993766 ], [ 2967377.878323915414512, 2044518.795695944922045 ], [ 2967358.918266326654702, 2044524.355926930438727 ], [ 2967332.013108542654663, 2044537.248639894416556 ], [ 2967325.799640162847936, 2044545.342507094843313 ], [ 2967323.925389682874084, 2044553.728255020221695 ], [ 2967317.594828313216567, 2044562.204688637051731 ], [ 2967315.365342547185719, 2044590.681712368037552 ], [ 2967312.679396562278271, 2044604.042645867913961 ], [ 2967311.474144170992076, 2044616.600277458317578 ], [ 2967304.635965574532747, 2044627.48950219899416 ], [ 2967303.243748449720442, 2044642.226970144081861 ], [ 2967298.612076664343476, 2044667.430996959796175 ], [ 2967297.227223625872284, 2044674.966740081086755 ], [ 2967306.918914900161326, 2044708.633875572821125 ], [ 2967318.576703969854861, 2044738.13519025570713 ], [ 2967321.431992510799319, 2044748.944793850649148 ], [ 2967321.727252225391567, 2044757.476312376558781 ], [ 2967329.637914937920868, 2044770.002248569624498 ], [ 2967343.206407233607024, 2044794.386681808158755 ], [ 2967349.139533755369484, 2044817.99965389422141 ], [ 2967358.511416050605476, 2044832.945160553092137 ], [ 2967374.774264439474791, 2044843.293049328029156 ], [ 2967384.801831586286426, 2044849.673410216113552 ], [ 2967402.330415514297783, 2044865.296533379936591 ], [ 2967410.620018544606864, 2044886.8755448742304 ], [ 2967422.911107929423451, 2044942.839809982571751 ], [ 2967489.556037060916424, 2045037.171565202064812 ], [ 2967498.98031544778496, 2045058.15968597959727 ], [ 2967513.742150215432048, 2045066.270851457724348 ], [ 2967555.743062517605722, 2045082.356904526241124 ], [ 2967610.011645928956568, 2045114.185149429133162 ], [ 2967675.16976, 2045166.746531754266471 ], [ 2967715.91354460362345, 2045208.575533344876021 ], [ 2967746.222024991177022, 2045256.066994508495554 ], [ 2967793.001057264395058, 2045311.936823314288631 ], [ 2967849.038982505910099, 2045354.795224799076095 ], [ 2967905.045760000124574, 2045377.445096987532452 ], [ 2967905.045760000124574, 2043263.061410501832142 ], [ 2967904.660343523602933, 2043264.341188169084489 ] ] ], [ [ [ 2956990.641496727243066, 2046306.912738357437775 ], [ 2956962.5766398049891, 2046282.46200036117807 ], [ 2956766.783348130993545, 2046182.284509799443185 ], [ 2956714.120039999485016, 2046154.556755885947496 ], [ 2956714.120039999485016, 2046579.087360000237823 ], [ 2957288.210187584161758, 2046579.087360000237823 ], [ 2956990.641496727243066, 2046306.912738357437775 ] ] ] ] } }
]
}
