{
"type": "FeatureCollection",
"name": "Navalvillar_de_Ibor",
"crs": { "type": "name", "properties": { "name": "urn:ogc:def:crs:EPSG::3035" } },
"features": [
{ "type": "Feature", "properties": { "ENP_GRAL": 3.0, "ENP_GRAL_NAME": "Monumentos Naturales", "color": "#AAFF00" }, "geometry": { "type": "Polygon", "coordinates": [ [ [ 2999454.246539263054729, 1972793.304562196368352 ], [ 2999501.230847710743546, 1973088.845767724560574 ], [ 2999797.255707053467631, 1973035.90967375296168 ], [ 2999750.27221039775759, 1972740.368484682170674 ], [ 2999454.246539263054729, 1972793.304562196368352 ] ] ] } },
{ "type": "Feature", "properties": { "ENP_GRAL": 6.0, "ENP_GRAL_NAME": "Otros Espacios Naturales Protegidos", "color": "#7F8F0D" }, "geometry": { "type": "MultiPolygon", "coordinates": [ [ [ [ 2995197.492645656690001, 1973967.966597815742716 ], [ 2995217.975881157442927, 1973961.154526120983064 ], [ 2995252.439818556420505, 1973949.692788228392601 ], [ 2995265.50231780204922, 1973933.8223914897535 ], [ 2995273.938011984340847, 1973910.183261157711968 ], [ 2995266.21249424200505, 1973841.33082465082407 ], [ 2995259.521834585815668, 1973810.029449376743287 ], [ 2995236.139415063429624, 1973772.315341464243829 ], [ 2995203.000134147237986, 1973738.620326609350741 ], [ 2995196.619525, 1973735.510717820143327 ], [ 2995196.619525, 1973968.25698298192583 ], [ 2995197.492645656690001, 1973967.966597815742716 ] ] ], [ [ [ 2995252.22829188965261, 1973569.902519779512659 ], [ 2995284.919969054404646, 1973567.442425186280161 ], [ 2995359.162996403872967, 1973684.91999733960256 ], [ 2995408.963334642350674, 1973723.558842727914453 ], [ 2995475.773523948155344, 1973750.264514471869916 ], [ 2995500.324824744835496, 1973786.461057883920148 ], [ 2995498.830007318407297, 1973939.285130108706653 ], [ 2995507.595679980237037, 1974094.235875118291005 ], [ 2995504.75272454880178, 1974213.620252710068598 ], [ 2995498.416295363102108, 1974286.079510194249451 ], [ 2995512.206171930301934, 1974347.085634657181799 ], [ 2995530.257217577192932, 1974386.755737605737522 ], [ 2995551.568411448039114, 1974391.494581648148596 ], [ 2995567.973904059268534, 1974386.565093273995444 ], [ 2995617.677230880595744, 1974312.289587368490174 ], [ 2995680.763368228916079, 1974209.863283701939508 ], [ 2995804.505702246446162, 1974061.248315847944468 ], [ 2995818.728376314975321, 1974016.770102918148041 ], [ 2995810.854962124489248, 1973954.778759227134287 ], [ 2995790.45118609815836, 1973916.860582231543958 ], [ 2995786.616394855082035, 1973892.745225739432499 ], [ 2995798.012112630531192, 1973888.995673169847578 ], [ 2995848.290442395955324, 1973930.457724311389029 ], [ 2995897.643110737670213, 1973966.099042628193274 ], [ 2995931.159035459626466, 1974012.503293253481388 ], [ 2995946.229109466075897, 1974057.356938983080909 ], [ 2995944.59417205164209, 1974115.914965503616259 ], [ 2995955.382483097724617, 1974138.540514563443139 ], [ 2995953.58364237844944, 1974157.020958420354873 ], [ 2995930.35737444460392, 1974268.661666329950094 ], [ 2995894.489426482468843, 1974382.025479732546955 ], [ 2995867.282203156501055, 1974529.8815551714506 ], [ 2995851.541960254311562, 1974647.865033311303705 ], [ 2995826.363480243831873, 1974734.186558842891827 ], [ 2995757.229347859974951, 1974829.631936304038391 ], [ 2995677.491454041097313, 1974959.996914996998385 ], [ 2995602.482150214258581, 1975156.168274441035464 ], [ 2995583.637255654670298, 1975219.506974999094382 ], [ 2995753.452558388467878, 1975219.506974999094382 ], [ 2995783.191428576596081, 1975193.227610202506185 ], [ 2995827.735644372180104, 1975144.727091273060068 ], [ 2995843.302762911189348, 1975110.852178938454017 ], [ 2995860.985047328285873, 1975085.649167052237317 ], [ 2995949.21621366078034, 1975020.744732515653595 ], [ 2996019.728803379461169, 1974965.135316897416487 ], [ 2996067.042967445682734, 1974914.760610677069053 ], [ 2996150.334896329790354, 1974887.91871932009235 ], [ 2996241.58934589382261, 1974841.076239438029006 ], [ 2996290.747892748564482, 1974873.990837390068918 ], [ 2996247.901237304788083, 1974950.696975238155574 ], [ 2996245.299172918777913, 1974970.841123833786696 ], [ 2996221.47742179967463, 1975002.585080003133044 ], [ 2996184.787769887596369, 1975022.584312104387209 ], [ 2996161.478726800531149, 1975079.844037127215415 ], [ 2996143.174094191752374, 1975150.84624040639028 ], [ 2996101.377998549491167, 1975155.4844430598896 ], [ 2996082.92906049778685, 1975164.397591437678784 ], [ 2996067.473659120500088, 1975182.394275101134554 ], [ 2996057.837029683403671, 1975219.506974999094382 ], [ 3009996.658274999354035, 1975219.506974999094382 ], [ 3009996.658274999354035, 1959253.816324999323115 ], [ 2995196.619525, 1959253.816324999323115 ], [ 2995196.619525, 1961275.766819890821353 ], [ 2995201.969659889116883, 1961270.134830072289333 ], [ 2995206.344523898791522, 1961265.224753596819937 ], [ 2995218.282914054580033, 1961250.932713237125427 ], [ 2995234.545333666726947, 1961223.933177523082122 ], [ 2995242.584684661123902, 1961204.260396661004052 ], [ 2995249.545073188375682, 1961176.845334302866831 ], [ 2995250.784916760399938, 1961165.479776217136532 ], [ 2995251.363246136810631, 1961156.313132259063423 ], [ 2995250.14612045744434, 1961138.939627734245732 ], [ 2995247.443849981762469, 1961126.857782769249752 ], [ 2995244.850565016269684, 1961117.063146146014333 ], [ 2995247.736802080646157, 1961110.716120095225051 ], [ 2995251.562925581820309, 1961104.798676956444979 ], [ 2995261.160505505278707, 1961090.195476813707501 ], [ 2995269.691167994402349, 1961074.344797934172675 ], [ 2995274.87823284836486, 1961062.273537622531876 ], [ 2995281.312433352693915, 1961041.355075455270708 ], [ 2995283.539096842519939, 1961029.8133328424301 ], [ 2995285.125006285030395, 1961017.688922791741788 ], [ 2995286.051905050873756, 1961004.353681399021298 ], [ 2995285.061770100612193, 1960981.75181382894516 ], [ 2995283.653947006911039, 1960972.886242882581428 ], [ 2995280.104103087913245, 1960961.059447695268318 ], [ 2995287.550232183653861, 1960953.238460195949301 ], [ 2995294.444236412644386, 1960945.997526582563296 ], [ 2995308.084350081626326, 1960929.088126719696447 ], [ 2995317.736384890973568, 1960913.179151826770976 ], [ 2995325.010612664744258, 1960895.177873942069709 ], [ 2995332.845420076977462, 1960875.789469206472859 ], [ 2995334.573739440646023, 1960883.12960820295848 ], [ 2995338.917059465311468, 1960927.079537109704688 ], [ 2995320.784451263491064, 1960956.467568766791373 ], [ 2995314.858179667033255, 1960988.438817247981206 ], [ 2995314.590181576088071, 1961022.213364932918921 ], [ 2995330.333909588865936, 1961072.524792433250695 ], [ 2995323.25326899625361, 1961127.205895942868665 ], [ 2995333.457454375457019, 1961158.268185541266575 ], [ 2995364.633893625810742, 1961180.317053998820484 ], [ 2995350.28708539577201, 1961214.455305160721764 ], [ 2995360.601691269315779, 1961243.125928821740672 ], [ 2995350.872874381486326, 1961249.406732339644805 ], [ 2995340.227694880217314, 1961256.279050124110654 ], [ 2995311.230033029336482, 1961255.910781319951639 ], [ 2995304.973430708050728, 1961272.584569576662034 ], [ 2995318.778796696104109, 1961303.446584537858143 ], [ 2995314.237849817611277, 1961330.923985437955707 ], [ 2995289.304890224710107, 1961363.160147862276062 ], [ 2995289.489213968627155, 1961385.348145407391712 ], [ 2995307.280638413503766, 1961413.275095837423578 ], [ 2995306.950383957475424, 1961432.222017114982009 ], [ 2995295.176557249389589, 1961463.215400757733732 ], [ 2995293.143461406230927, 1961492.466401663608849 ], [ 2995303.240219147875905, 1961513.992428452009335 ], [ 2995308.889131241478026, 1961528.536662665661424 ], [ 2995289.988215353339911, 1961549.694482644554228 ], [ 2995286.701236931607127, 1961578.058678363915533 ], [ 2995268.539654528256506, 1961596.862058812985197 ], [ 2995235.621813137084246, 1961613.860851445235312 ], [ 2995216.153429466765374, 1961638.453376336256042 ], [ 2995212.523589896038175, 1961664.656918513122946 ], [ 2995226.672200706321746, 1961697.679739360464737 ], [ 2995245.031289919279516, 1961722.172057004179806 ], [ 2995245.862180110067129, 1961776.465059964219108 ], [ 2995231.52825814858079, 1961812.360774640692398 ], [ 2995222.143695881590247, 1961837.371587221510708 ], [ 2995229.917360806837678, 1961879.312149703735486 ], [ 2995224.241727789398283, 1961913.659092566464096 ], [ 2995210.990080412942916, 1961949.361287538893521 ], [ 2995217.061185615137219, 1962001.60597469471395 ], [ 2995196.619525, 1962055.593651636503637 ], [ 2995196.619525, 1973580.838256082264706 ], [ 2995252.22829188965261, 1973569.902519779512659 ] ] ] ] } }
]
}
