{
"type": "FeatureCollection",
"name": "Torre_de_Santa_María",
"crs": { "type": "name", "properties": { "name": "urn:ogc:def:crs:EPSG::3035" } },
"features": [
{ "type": "Feature", "properties": { "ENP_GRAL": 6.0, "ENP_GRAL_NAME": "Otros Espacios Naturales Protegidos", "color": "#7F8F0D" }, "geometry": { "type": "Polygon", "coordinates": [ [ [ 2934245.999366972595453, 1944024.998765497934073 ], [ 2934245.858533173799515, 1944024.899302896112204 ], [ 2934245.702082454692572, 1944024.826238777022809 ], [ 2934245.534768493846059, 1944024.781793164787814 ], [ 2934245.361675039865077, 1944024.767316509969532 ], [ 2934245.188061449676752, 1944024.783248680876568 ], [ 2934245.019202884286642, 1944024.829105583252385 ], [ 2934244.860230027232319, 1944024.903493885416538 ], [ 2934244.715973189100623, 1944025.004153339890763 ], [ 2934244.59081553760916, 1944025.128025442361832 ], [ 2934244.48855992872268, 1944025.271346418885514 ], [ 2934244.412313344422728, 1944025.429761525709182 ], [ 2934244.364392500370741, 1944025.598457403713837 ], [ 2934244.346253445371985, 1944025.772308309562504 ], [ 2934244.358447326812893, 1944025.946031874511391 ], [ 2934244.400603639893234, 1944026.114349596435204 ], [ 2934244.471441483590752, 1944026.272147220559418 ], [ 2934244.568808489479125, 1944026.414630157640204 ], [ 2934244.689746207557619, 1944026.537469127681106 ], [ 2934244.830580006353557, 1944026.636931728338823 ], [ 2934244.987030724063516, 1944026.709995845099911 ], [ 2934245.154344683513045, 1944026.754441457334906 ], [ 2934245.327438133768737, 1944026.768918107962236 ], [ 2934245.501051722094417, 1944026.752985939150676 ], [ 2934245.669910282827914, 1944026.707129030488431 ], [ 2934245.82888313755393, 1944026.632740732049569 ], [ 2934245.973139975219965, 1944026.532081288285553 ], [ 2934246.09829762391746, 1944026.408209180925041 ], [ 2934246.200553232803941, 1944026.26488820486702 ], [ 2934246.276799818966538, 1944026.106473103631288 ], [ 2934246.32472066488117, 1944025.937777226325125 ], [ 2934246.342859722673893, 1944025.763926323270425 ], [ 2934246.330665843561292, 1944025.590202754130587 ], [ 2934246.288509535603225, 1944025.421885036863387 ], [ 2934246.217671693302691, 1944025.264087406918406 ], [ 2934246.120304690673947, 1944025.121604471933097 ], [ 2934245.999366972595453, 1944024.998765497934073 ] ] ] } }
]
}
