{
"type": "FeatureCollection",
"name": "Almuradiel",
"crs": { "type": "name", "properties": { "name": "urn:ogc:def:crs:EPSG::3035" } },
"features": [
{ "type": "Feature", "properties": { "ENP_GRAL": 1.0, "ENP_GRAL_NAME": "Otros Parques", "color": "#38A800" }, "geometry": { "type": "Polygon", "coordinates": [ [ [ 3136851.265971287153661, 1812481.596306677907705 ], [ 3136857.493796673603356, 1812476.471218338236213 ], [ 3136870.630287824664265, 1812466.102891507558525 ], [ 3136881.776509715244174, 1812461.133376356912777 ], [ 3136892.091118703596294, 1812454.287368018645793 ], [ 3136905.500288182869554, 1812446.903306202730164 ], [ 3136910.238790207076818, 1812444.058402207912877 ], [ 3136914.329493334516883, 1812440.315428097965196 ], [ 3136916.652499571442604, 1812438.901016015326604 ], [ 3136922.537858394905925, 1812434.846062206896022 ], [ 3136933.069148913957179, 1812427.962403707904741 ], [ 3136940.532892173156142, 1812423.63307033595629 ], [ 3136953.475913841277361, 1812417.340650568017736 ], [ 3136962.763383213430643, 1812413.704873043345287 ], [ 3136973.410439828410745, 1812410.843333602882922 ], [ 3136987.527495208662003, 1812405.357521580299363 ], [ 3137002.07573615713045, 1812400.807140218326822 ], [ 3137018.693340184632689, 1812397.918199283070862 ], [ 3137026.864841695874929, 1812395.487018208019435 ], [ 3137036.647553865332156, 1812391.76517274370417 ], [ 3137048.099212537053972, 1812388.763790532946587 ], [ 3137061.500492483377457, 1812385.423399930587038 ], [ 3137076.331171749159694, 1812378.802794085815549 ], [ 3137087.167980099096894, 1812373.887146787717938 ], [ 3137099.267628514673561, 1812371.783721767365932 ], [ 3137111.187495343387127, 1812366.679811707232147 ], [ 3137121.650930577423424, 1812362.839662199607119 ], [ 3137145.823290555737913, 1812356.616263829637319 ], [ 3137153.685349711216986, 1812354.238907478982583 ], [ 3137170.51945963408798, 1812351.312409349251539 ], [ 3137182.097053952515125, 1812347.278604975668713 ], [ 3137189.959117238409817, 1812344.901257007615641 ], [ 3137195.31268475856632, 1812343.970543124014512 ], [ 3137200.546447846107185, 1812341.039597789291292 ], [ 3137210.203274180181324, 1812338.350271130679175 ], [ 3137226.047326844185591, 1812335.595903355162591 ], [ 3137237.315472444519401, 1812331.615911160362884 ], [ 3137298.30122937168926, 1812321.014164290390909 ], [ 3137314.274925656616688, 1812299.202050818828866 ], [ 3137368.688074982725084, 1812224.901269040768966 ], [ 3137478.488511600531638, 1812100.210453354055062 ], [ 3137630.367749490775168, 1811917.172543685883284 ], [ 3137729.9956168923527, 1811861.45339107257314 ], [ 3137749.187870365101844, 1811855.085665359161794 ], [ 3137780.550874507986009, 1811857.718521816190332 ], [ 3137808.290667108260095, 1811854.412650327431038 ], [ 3137858.389384971931577, 1811839.135802845703438 ], [ 3137911.578039282467216, 1811817.763865039916709 ], [ 3137934.318640038371086, 1811808.25311259762384 ], [ 3137959.539969279430807, 1811780.121107077924535 ], [ 3137978.121400760486722, 1811769.817624867195264 ], [ 3138018.142456642352045, 1811758.81910168286413 ], [ 3138049.357278524897993, 1811734.698252129601315 ], [ 3138068.82464270060882, 1811718.835038866614923 ], [ 3138080.046166244428605, 1811702.691752888960764 ], [ 3138247.649854370392859, 1811461.579560515703633 ], [ 3138248.353565389290452, 1811458.588580444455147 ], [ 3138251.420364854857326, 1811440.876256280811504 ], [ 3138253.883241816423833, 1811431.353279809467494 ], [ 3138258.014197504147887, 1811407.392657556105405 ], [ 3138261.091023602988571, 1811384.625802818220109 ], [ 3138264.528354644775391, 1811351.690804111538455 ], [ 3138266.939369362778962, 1811337.124055333668366 ], [ 3138269.881591152399778, 1811304.275123292114586 ], [ 3138270.20945175178349, 1811263.796185221523046 ], [ 3138271.342873862013221, 1811238.335543995490298 ], [ 3138272.347669773735106, 1811199.760008783312514 ], [ 3138272.948190882336348, 1811162.2654087562114 ], [ 3138273.52138671092689, 1811154.081535262987018 ], [ 3138274.173704756423831, 1811121.630739637650549 ], [ 3138274.710297081619501, 1811085.157639461336657 ], [ 3138276.287773793563247, 1811069.725346033927053 ], [ 3138275.602848035283387, 1811025.380509571870789 ], [ 3138275.898690945468843, 1811001.075856837676838 ], [ 3138274.589388503693044, 1810975.029256013222039 ], [ 3138273.195488946512341, 1810944.955144287319854 ], [ 3138272.43258358258754, 1810908.708157383603975 ], [ 3138271.534480865113437, 1810893.706119607435539 ], [ 3138270.669251939281821, 1810877.687817008933052 ], [ 3138270.663820927962661, 1810849.393549276515841 ], [ 3138269.751612906344235, 1810841.467748245457187 ], [ 3138267.794535227119923, 1810814.523214277811348 ], [ 3138267.058674588799477, 1810780.292687032138929 ], [ 3138267.109840172342956, 1810770.178466530749574 ], [ 3138265.549771182704717, 1810761.354606990236789 ], [ 3138265.27263796236366, 1810745.234226552536711 ], [ 3138265.193786157295108, 1810738.174162029288709 ], [ 3138265.32708737347275, 1810717.940046683419496 ], [ 3138263.750188417732716, 1810702.045452872058377 ], [ 3138262.417000218760222, 1810688.129511595238 ], [ 3138261.458421850111336, 1810656.969393144594505 ], [ 3138262.051871275994927, 1810638.676534064346924 ], [ 3138260.607405606657267, 1810633.874802184524015 ], [ 3138259.932208234444261, 1810615.802519784076139 ], [ 3138258.982908823061734, 1810610.914837959222496 ], [ 3138258.538830733858049, 1810600.886500349966809 ], [ 3138258.649933707900345, 1810591.772334300447255 ], [ 3138257.077129776589572, 1810573.855948857963085 ], [ 3138255.248743419535458, 1810560.026185272494331 ], [ 3138254.957411769777536, 1810550.982061031740159 ], [ 3138253.906695069745183, 1810534.99595275754109 ], [ 3138249.042954446747899, 1810507.546088775619864 ], [ 3138245.470891756005585, 1810483.914060330251232 ], [ 3138243.605476652272046, 1810473.122292406391352 ], [ 3138242.29700821544975, 1810462.233737653819844 ], [ 3138239.36258618440479, 1810444.554002752760425 ], [ 3138237.637159488163888, 1810425.653821045067161 ], [ 3138233.55982969282195, 1810407.16206057718955 ], [ 3138231.329142495989799, 1810393.402334640733898 ], [ 3138226.919500729069114, 1810370.926236796658486 ], [ 3138205.225433889776468, 1810297.895738112507388 ], [ 3138190.155098492279649, 1810254.030216876184568 ], [ 3138176.822286913171411, 1810222.999673478072509 ], [ 3138162.173147344961762, 1810185.124269298976287 ], [ 3138153.356804539449513, 1810169.477305949898437 ], [ 3138149.539868594612926, 1810160.035359740257263 ], [ 3138148.553538570180535, 1810158.185673867817968 ], [ 3138148.129107530228794, 1810157.246966109378263 ], [ 3138139.345300111919641, 1810137.554289913736284 ], [ 3138131.269921379629523, 1810122.789215343538672 ], [ 3138120.627885316498578, 1810107.459639337612316 ], [ 3138111.747807784937322, 1810092.834514657966793 ], [ 3138090.127541867084801, 1810060.212611151160672 ], [ 3138080.599609386175871, 1810044.689435456646606 ], [ 3138072.951344185043126, 1810032.881789535516873 ], [ 3138064.287929083686322, 1810018.218824538867921 ], [ 3138058.799792827107012, 1810009.06742308405228 ], [ 3138054.264769892673939, 1810002.781820931471884 ], [ 3138038.943522344343364, 1809976.139203771715984 ], [ 3138032.743629525415599, 1809967.111297353636473 ], [ 3138024.043178834021091, 1809955.48651727871038 ], [ 3138008.680576095357537, 1809933.903625934617594 ], [ 3137994.807514506857842, 1809910.040791825857013 ], [ 3137984.784575480036438, 1809894.60377257084474 ], [ 3137964.839530448429286, 1809859.669840446906164 ], [ 3137960.735885905101895, 1809854.319828655803576 ], [ 3137953.669506462290883, 1809845.442621502559632 ], [ 3137944.424273069947958, 1809827.849272004794329 ], [ 3137937.052523924037814, 1809817.004149941029027 ], [ 3137929.624956679530442, 1809803.137097761500627 ], [ 3137919.787691268138587, 1809787.667630725074559 ], [ 3137902.337005380075425, 1809758.363522036699578 ], [ 3137892.499764510430396, 1809742.894160855328664 ], [ 3137883.772435989230871, 1809729.25300207384862 ], [ 3137876.039500602521002, 1809713.417946797097102 ], [ 3137868.946424555964768, 1809702.524310589535162 ], [ 3137857.289251299574971, 1809684.33961134380661 ], [ 3137849.242867514491081, 1809670.580123675754294 ], [ 3137840.746403897181153, 1809649.825156972045079 ], [ 3137830.826313160359859, 1809614.159564309986308 ], [ 3137827.522760555148125, 1809595.533574236324057 ], [ 3137826.657996484078467, 1809579.515384956263006 ], [ 3137826.764721816405654, 1809557.265115114161745 ], [ 3137829.347354266326874, 1809534.584774575661868 ], [ 3137831.156225646845996, 1809512.038606755202636 ], [ 3137835.859229555353522, 1809465.747349851764739 ], [ 3137845.230770493857563, 1809405.507982924813405 ], [ 3137858.045768898911774, 1809340.627994923619553 ], [ 3137864.886249601840973, 1809292.954752827063203 ], [ 3137870.458242224995047, 1809260.659952639136463 ], [ 3137873.532065087463707, 1809239.915321245556697 ], [ 3137878.400707418099046, 1809218.858586810994893 ], [ 3137883.032244089525193, 1809207.948437044396996 ], [ 3137885.495458458550274, 1809198.425540343625471 ], [ 3137892.192179092206061, 1809176.040699677309021 ], [ 3137899.65630067139864, 1809156.553916471777484 ], [ 3137905.806228311732411, 1809144.369378053583205 ], [ 3137908.426349471323192, 1809133.808689123485237 ], [ 3137916.270031604915857, 1809110.214122829260305 ], [ 3137928.367856930941343, 1809078.806233673822135 ], [ 3137937.827025197446346, 1809051.899148938711733 ], [ 3137943.51906796824187, 1809036.762706834124401 ], [ 3137950.878026945050806, 1809023.357463303487748 ], [ 3137959.202549073845148, 1809006.752929318929091 ], [ 3137964.325276567600667, 1808997.778439972549677 ], [ 3137973.359526687301695, 1808982.06101571302861 ], [ 3137979.439554726239294, 1808973.930608987109736 ], [ 3137985.395727382041514, 1808965.821930016856641 ], [ 3137995.53996469732374, 1808951.93259794334881 ], [ 3138000.532690061256289, 1808946.012315089348704 ], [ 3138012.311096948105842, 1808934.870816315989941 ], [ 3138015.411965564824641, 1808931.300362326204777 ], [ 3138021.857047885656357, 1808926.138133607339114 ], [ 3138024.70832773251459, 1808923.621586423832923 ], [ 3138024.733124133199453, 1808919.069879431510344 ], [ 3138026.522123167291284, 1808917.50896712904796 ], [ 3138026.152850004378706, 1808913.264831968117505 ], [ 3138025.750345927663147, 1808907.308768163667992 ], [ 3138020.706463233567774, 1808832.67000745376572 ], [ 3138002.677244032733142, 1808720.798798397416249 ], [ 3138041.36725674662739, 1808627.675518875243142 ], [ 3138062.54520224686712, 1808603.784817454405129 ], [ 3138187.078314848709852, 1808535.659340728539973 ], [ 3138215.71073678554967, 1808512.494406855897978 ], [ 3138231.182205190882087, 1808495.658427359769121 ], [ 3138243.19634797051549, 1808476.49097898742184 ], [ 3138263.297444285359234, 1808403.173043730901554 ], [ 3138292.30185538996011, 1808334.470422121929005 ], [ 3138331.060165643692017, 1808276.199341975152493 ], [ 3138354.298872333951294, 1808247.736751177348197 ], [ 3138353.452107378281653, 1808241.487580699846148 ], [ 3138329.712147143669426, 1808187.003347534686327 ], [ 3138308.804611500352621, 1808154.258054561447352 ], [ 3138269.027720245998353, 1808105.592219091951847 ], [ 3138183.934694208670408, 1808001.644176685716957 ], [ 3138182.013786365278065, 1808002.988377061439678 ], [ 3138180.441724949982017, 1808000.230181168066338 ], [ 3138186.823130096308887, 1807996.089572005905211 ], [ 3138196.148719658143818, 1807989.416539639467373 ], [ 3138203.029273306019604, 1807983.168262202525511 ], [ 3138209.189865112304688, 1807981.087270794901997 ], [ 3138212.474578361958265, 1807978.495374293299392 ], [ 3138214.797645528335124, 1807977.081195951672271 ], [ 3138238.639529163017869, 1807966.875199133064598 ], [ 3138248.825357142835855, 1807963.084170368034393 ], [ 3138259.044316736981273, 1807958.276868477230892 ], [ 3138274.49522982398048, 1807951.549851133488119 ], [ 3138294.524375938810408, 1807945.037754645338282 ], [ 3138306.162662807386369, 1807942.004787363577634 ], [ 3138324.613543875981122, 1807935.767047700705007 ], [ 3138354.234289503190666, 1807928.598798965802416 ], [ 3138381.657813766971231, 1807921.812457994557917 ], [ 3138397.197680074721575, 1807917.091085182037205 ], [ 3138432.104171029292047, 1807912.035936748608947 ], [ 3138446.932113360613585, 1807907.438388872193173 ], [ 3138510.186641055159271, 1807897.457357034552842 ], [ 3138526.96628978382796, 1807891.510116093792021 ], [ 3138539.873641528189182, 1807888.256833529332653 ], [ 3138595.059059360064566, 1807875.636114984052256 ], [ 3138606.359069116413593, 1807871.651617319555953 ], [ 3138627.591071263886988, 1807866.951872890116647 ], [ 3138639.724676945712417, 1807863.832966582616791 ], [ 3138648.327995631843805, 1807862.338059799047187 ], [ 3138668.111918834038079, 1807854.858395469142124 ], [ 3138741.612080582883209, 1807842.087046758504584 ], [ 3138763.001048418227583, 1807836.349604348652065 ], [ 3138772.627739007119089, 1807833.666309846565127 ], [ 3138783.711176626384258, 1807829.719403878087178 ], [ 3138794.575806058011949, 1807826.821133692050353 ], [ 3138814.452468877658248, 1807819.325450955890119 ], [ 3138847.211756259202957, 1807805.5492784967646 ], [ 3138855.819280805066228, 1807802.032669198699296 ], [ 3138869.225845625158399, 1807796.671760739758611 ], [ 3138878.8569645145908, 1807791.966906347544864 ], [ 3138896.191633284091949, 1807786.933952764840797 ], [ 3138903.685134156607091, 1807783.610907932976261 ], [ 3138913.064375876449049, 1807780.970750762615353 ], [ 3138929.039678578265011, 1807775.163478354224935 ], [ 3138939.508171654772013, 1807769.30244570504874 ], [ 3138950.156240701675415, 1807766.441856158431619 ], [ 3138961.924672482535243, 1807760.355084421578795 ], [ 3138975.479807045310736, 1807757.999848204664886 ], [ 3138979.102728507015854, 1807756.359900098992512 ], [ 3138983.526197576895356, 1807756.601790621876717 ], [ 3138989.992241291794926, 1807756.488811229821295 ], [ 3139045.726677871309221, 1807747.815438389778137 ], [ 3139056.653344449121505, 1807744.906481914687902 ], [ 3139072.502646296285093, 1807740.131686014821753 ], [ 3139080.708124601282179, 1807736.684990822570398 ], [ 3139093.46263378392905, 1807732.447977986419573 ], [ 3139112.561549522913992, 1807727.108635774115101 ], [ 3139132.159717665053904, 1807719.661446942482144 ], [ 3139142.007468871772289, 1807714.919043685076758 ], [ 3139150.800724877975881, 1807711.370252487715334 ], [ 3139156.251694610808045, 1807708.402225744910538 ], [ 3139172.134165145922452, 1807702.611209861002862 ], [ 3139177.677932307124138, 1807699.627065592445433 ], [ 3139191.084638090338558, 1807694.266076194355264 ], [ 3139199.104346031323075, 1807690.851688815979287 ], [ 3139217.309841980691999, 1807683.646608402719721 ], [ 3139228.36657256167382, 1807677.683589879656211 ], [ 3139241.032597351819277, 1807671.440894035622478 ], [ 3139249.330896531231701, 1807667.978121709544212 ], [ 3139261.784466110635549, 1807659.751529621658847 ], [ 3139269.651344336103648, 1807655.353204871993512 ], [ 3139275.876083392649889, 1807652.250777198933065 ], [ 3139280.988705423660576, 1807648.330845735035837 ], [ 3139298.977742232382298, 1807641.163423965452239 ], [ 3139306.502394891344011, 1807637.835072232875973 ], [ 3139309.603465498425066, 1807634.264809141401201 ], [ 3139317.775621778331697, 1807631.834378995699808 ], [ 3139325.300292612053454, 1807628.506130310706794 ], [ 3139336.759213723242283, 1807622.473185180453584 ], [ 3139345.769190396182239, 1807618.88680520420894 ], [ 3139350.077395679429173, 1807615.106837808154523 ], [ 3139361.003918796777725, 1807612.19801769615151 ], [ 3139372.124731014482677, 1807605.213419284205884 ], [ 3139379.496555649675429, 1807600.901130337268114 ], [ 3139392.598047866020352, 1807593.572347743436694 ], [ 3139400.002925086766481, 1807588.243815824156627 ], [ 3139410.248679394833744, 1807585.453178928466514 ], [ 3139416.842666516080499, 1807583.297143606003374 ], [ 3139427.926227290183306, 1807579.3504596024286 ], [ 3139438.547781121451408, 1807574.473635301459581 ], [ 3139455.383314652368426, 1807571.548626993549988 ], [ 3139455.420582537539303, 1807568.510735012358055 ], [ 3139459.881227572448552, 1807565.714710265630856 ], [ 3139470.007531277835369, 1807560.92403470329009 ], [ 3139489.453192210290581, 1807552.493080806918442 ], [ 3139502.207992258947343, 1807548.256197282811627 ], [ 3139510.537217634730041, 1807544.788029053015634 ], [ 3139519.516309836413711, 1807541.206968519138172 ], [ 3139528.742906442377716, 1807537.583015485666692 ], [ 3139538.836058200336993, 1807533.808528129011393 ], [ 3139554.223467349074781, 1807528.103726178407669 ], [ 3139571.096401729620993, 1807522.140869532246143 ], [ 3139579.390531503595412, 1807520.699827429372817 ], [ 3139591.617124301381409, 1807517.565245706820861 ], [ 3139613.870648843236268, 1807512.688516846159473 ], [ 3139646.209128869697452, 1807508.080791801679879 ], [ 3139672.791333019733429, 1807504.473150181118399 ], [ 3139683.435312727931887, 1807503.634534309618175 ], [ 3139705.31562317116186, 1807499.833203102694824 ], [ 3139713.820005458779633, 1807501.387282010633498 ], [ 3139726.972801586613059, 1807499.102258482016623 ], [ 3139738.264582993462682, 1807499.161529526347294 ], [ 3139753.581700703129172, 1807497.510947124101222 ], [ 3139766.668493277393281, 1807497.258410645881668 ], [ 3139774.308478309772909, 1807497.952156346058473 ], [ 3139784.609929605387151, 1807498.183575058355927 ], [ 3139803.389066663570702, 1807497.952625890262425 ], [ 3139819.323204753454775, 1807497.205390878254548 ], [ 3139827.305632703006268, 1807496.82915853173472 ], [ 3139840.359279504045844, 1807497.592908601975068 ], [ 3139854.405502327717841, 1807497.173538258066401 ], [ 3139858.643234685994685, 1807497.447904764441773 ], [ 3139877.11298237554729, 1807497.270636099390686 ], [ 3139893.230482186190784, 1807497.502184939105064 ], [ 3139907.429361923597753, 1807498.066920116310939 ], [ 3139910.367359367199242, 1807498.567067339783534 ], [ 3139918.845052618999034, 1807498.104722128249705 ], [ 3139928.804059156216681, 1807499.406066962052137 ], [ 3139948.818901430349797, 1807499.971041712677106 ], [ 3139969.240455499850214, 1807498.444476366741583 ], [ 3139981.642174212262034, 1807500.33192002447322 ], [ 3139989.251173011027277, 1807501.031091311248019 ], [ 3139999.366935200057924, 1807501.294723444385454 ], [ 3140009.173411293420941, 1807501.612083017127588 ], [ 3140016.813196226023138, 1807502.305810988182202 ], [ 3140028.41047101514414, 1807504.333106679841876 ], [ 3140040.168515466153622, 1807503.300975794903934 ], [ 3140048.146741978358477, 1807504.946523227263242 ], [ 3140063.303032625466585, 1807506.355511186411604 ], [ 3140075.708891075104475, 1807506.221364612458274 ], [ 3140088.236585198901594, 1807507.076559763168916 ], [ 3140097.704544113948941, 1807506.442243008175865 ], [ 3140103.456752090249211, 1807507.464068342465907 ], [ 3140111.59183260705322, 1807508.071881835348904 ], [ 3140117.593672883696854, 1807508.039745726622641 ], [ 3140125.479190828278661, 1807509.701311353128403 ], [ 3140132.935463938396424, 1807509.416539258090779 ], [ 3140144.689385060220957, 1807510.406057873740792 ], [ 3140162.135778330266476, 1807511.41728978860192 ], [ 3140171.451108999550343, 1807509.799003381980583 ], [ 3140185.777946150861681, 1807508.32071734406054 ], [ 3140202.762126962654293, 1807508.401754942722619 ], [ 3140225.636934023350477, 1807502.407101929653436 ], [ 3140238.202018849086016, 1807500.224353482015431 ], [ 3140255.194563402794302, 1807496.262066470459104 ], [ 3140261.728965818416327, 1807493.105950840516016 ], [ 3140275.969202742911875, 1807488.611247354885563 ], [ 3140302.630279746837914, 1807476.906589679652825 ], [ 3140313.899659300222993, 1807472.927933832863346 ], [ 3140322.261949410662055, 1807468.443835640558973 ], [ 3140337.713651294820011, 1807461.71763680013828 ], [ 3140347.844090987928212, 1807454.905429638922215 ], [ 3140355.49461898766458, 1807450.544972026487812 ], [ 3140366.801210328005254, 1807443.528480737935752 ], [ 3140373.83080594940111, 1807440.286379418801516 ], [ 3140383.868573465384543, 1807433.490384937031195 ], [ 3140389.602272198535502, 1807428.452483619330451 ], [ 3140397.312741660512984, 1807425.092124889139086 ], [ 3140407.938360990025103, 1807418.193832110380754 ], [ 3140420.388137785717845, 1807411.989197591785342 ], [ 3140425.500806341413409, 1807408.069671130739152 ], [ 3140434.636884742882103, 1807403.45120787457563 ], [ 3140434.963149902410805, 1807403.263678655959666 ], [ 3140597.227529815398157, 1807280.019354814430699 ], [ 3140643.452988703269511, 1807244.909903757739812 ], [ 3140655.725474414415658, 1807231.351798015180975 ], [ 3140669.500068147666752, 1807216.133679725462571 ], [ 3140670.582409239374101, 1807189.370135765057057 ], [ 3140671.393037261907011, 1807169.323750212788582 ], [ 3140683.674445439130068, 1807152.375945366453379 ], [ 3140684.003593097440898, 1807151.921755562303588 ], [ 3140688.147545757237822, 1807146.202813160605729 ], [ 3140752.303130331914872, 1807117.310047446284443 ], [ 3140757.54304665653035, 1807114.95022237370722 ], [ 3140772.395111008547246, 1807103.04246070352383 ], [ 3140953.829553874209523, 1806957.578173799673095 ], [ 3141021.088860646821558, 1806912.550385982962325 ], [ 3141093.608777024783194, 1806881.766774173825979 ], [ 3141119.680528384167701, 1806875.293842669110745 ], [ 3141127.119759326800704, 1806873.446926152566448 ], [ 3141128.710595706943423, 1806872.638223851332441 ], [ 3141138.748580685816705, 1806865.842420145403594 ], [ 3141144.135799223557115, 1806863.896349488059059 ], [ 3141150.022350891493261, 1806859.842490425799042 ], [ 3141157.390295961871743, 1806857.552333849715069 ], [ 3141180.228388676419854, 1806854.596298612421378 ], [ 3141191.312194405123591, 1806850.650244005024433 ], [ 3141221.394237630534917, 1806845.425522554898635 ], [ 3141233.468436473049223, 1806841.30758727574721 ], [ 3141277.260872497688979, 1806833.701705086743459 ], [ 3141285.548773321323097, 1806835.293751227902249 ], [ 3141304.518109091557562, 1806833.009660805342719 ], [ 3141316.431161302141845, 1806831.951091813622043 ], [ 3141359.880963538773358, 1806825.415301584638655 ], [ 3141417.228964556008577, 1806815.455327189061791 ], [ 3141428.956434686668217, 1806814.429025076562539 ], [ 3141441.179009114857763, 1806813.316848774906248 ], [ 3141453.432568424381316, 1806812.199194892309606 ], [ 3141470.879221695940942, 1806813.211069506593049 ], [ 3141481.121136744040996, 1806812.442762751830742 ], [ 3141497.641304305288941, 1806812.605058850022033 ], [ 3141512.802008367143571, 1806811.993061148328707 ], [ 3141527.005310203880072, 1806810.536745715653524 ], [ 3141538.390131836757064, 1806810.580565379699692 ], [ 3141554.198639201000333, 1806810.866571852238849 ], [ 3141569.080742969177663, 1806810.302877039182931 ], [ 3141574.337723354808986, 1806811.410838461015373 ], [ 3141594.348841247148812, 1806813.998300479725003 ], [ 3141606.259839635808021, 1806813.950666779186577 ], [ 3141612.447384142316878, 1806813.886555813951418 ], [ 3141614.923306661657989, 1806813.456501499516889 ], [ 3141624.32748456299305, 1806813.844293486094102 ], [ 3141635.002801322378218, 1806813.000768383499235 ], [ 3141650.936990639194846, 1806812.254408597946167 ], [ 3141669.068825756665319, 1806811.126429792726412 ], [ 3141683.886874376330525, 1806811.584486571140587 ], [ 3141695.335779499262571, 1806810.606644467450678 ], [ 3141705.451830379664898, 1806810.870738204568624 ], [ 3141714.115335454232991, 1806810.376792181283236 ], [ 3141720.024391762446612, 1806810.361059124581516 ], [ 3141732.5564751541242, 1806809.19513423810713 ], [ 3141740.877570954151452, 1806809.770932310028002 ], [ 3141743.044131416361779, 1806809.796778940595686 ], [ 3141955.46144161419943, 1806779.579318040981889 ], [ 3142141.096110229380429, 1806658.422125482466072 ], [ 3142165.371845634654164, 1806643.508957379264757 ], [ 3142166.157555189915001, 1806642.954394893255085 ], [ 3142166.394210882484913, 1806642.880866567371413 ], [ 3142306.131030421238393, 1806557.037473330507055 ], [ 3142586.968069208785892, 1806384.516124780056998 ], [ 3142590.52697754278779, 1806382.329769761767238 ], [ 3142597.18166126916185, 1806376.185888425912708 ], [ 3142635.009871436282992, 1806341.260530274361372 ], [ 3142829.540474352892488, 1806100.604710000567138 ], [ 3136843.26731, 1806100.604710000567138 ], [ 3136843.26731, 1812487.848470045719296 ], [ 3136851.265971287153661, 1812481.596306677907705 ] ] ] } },
{ "type": "Feature", "properties": { "ENP_GRAL": 3.0, "ENP_GRAL_NAME": "Monumentos Naturales", "color": "#AAFF00" }, "geometry": { "type": "Polygon", "coordinates": [ [ [ 3140035.636444897390902, 1806108.610785149969161 ], [ 3140077.163552443031222, 1806184.762376309605315 ], [ 3140124.616911559831351, 1806252.809785171644762 ], [ 3140183.635010672733188, 1806309.755626656813547 ], [ 3140196.062242527958006, 1806321.237496056826785 ], [ 3140263.048123166896403, 1806266.656213575275615 ], [ 3140314.106409227941185, 1806239.094851720146835 ], [ 3140343.805912174284458, 1806238.987811134429649 ], [ 3140382.398872795980424, 1806217.127491465304047 ], [ 3140460.107277786359191, 1806176.346313764108345 ], [ 3140489.985121181700379, 1806150.947393979178742 ], [ 3140509.410328544676304, 1806130.902013178681955 ], [ 3140512.333061150740832, 1806123.320119039155543 ], [ 3140491.864797375630587, 1806103.635265113320202 ], [ 3140492.296420725528151, 1806100.604710000567138 ], [ 3140032.910975871607661, 1806100.604710000567138 ], [ 3140035.636444897390902, 1806108.610785149969161 ] ] ] } },
{ "type": "Feature", "properties": { "ENP_GRAL": 5.0, "ENP_GRAL_NAME": "Espacios Protegidos Red Natura 2000", "color": "#A87000" }, "geometry": { "type": "MultiPolygon", "coordinates": [ [ [ [ 3136858.979775041807443, 1812460.043962598778307 ], [ 3136901.160051994025707, 1812427.951647820184007 ], [ 3136965.041518710553646, 1812395.623966517392546 ], [ 3137074.878591844812036, 1812354.296579891582951 ], [ 3137146.632478442043066, 1812338.28536422457546 ], [ 3137175.87516681291163, 1812325.622523705475032 ], [ 3137314.274925656616688, 1812299.202050818828866 ], [ 3137353.600429751444608, 1812291.694930096855387 ], [ 3137392.672435639426112, 1812314.714375685667619 ], [ 3137499.412513838615268, 1812283.527084773173556 ], [ 3137627.874093594029546, 1812241.995742294937372 ], [ 3137712.859173824079335, 1812207.011689788196236 ], [ 3137799.289556876756251, 1812160.660375917563215 ], [ 3137814.6535200541839, 1812134.747076771222055 ], [ 3137922.853910124395043, 1811951.218555432744324 ], [ 3137973.698935458436608, 1811870.653780237771571 ], [ 3138017.409843466244638, 1811792.80041795480065 ], [ 3138062.609591573476791, 1811727.775900723645464 ], [ 3138062.623304290696979, 1811727.756135722389445 ], [ 3138067.914455021265894, 1811720.144364797044545 ], [ 3138068.268625867087394, 1811719.63492721086368 ], [ 3138068.273239801637828, 1811719.627960855606943 ], [ 3138068.82464270060882, 1811718.835038866614923 ], [ 3138080.046166244428605, 1811702.691752888960764 ], [ 3138247.649854370392859, 1811461.579560515703633 ], [ 3138284.274995599873364, 1811408.89151746314019 ], [ 3138352.567353221587837, 1811088.805337534286082 ], [ 3138410.27880173176527, 1810785.717746763024479 ], [ 3138409.838845605961978, 1810780.239198025781661 ], [ 3138401.555858259089291, 1810677.085230530006811 ], [ 3138399.251155445817858, 1810481.551357834134251 ], [ 3138398.964606890454888, 1810457.237335367826745 ], [ 3138397.805856872349977, 1810454.773380312370136 ], [ 3138365.57364961411804, 1810386.239439993165433 ], [ 3138338.445181322749704, 1810301.088855861919001 ], [ 3138314.018825539387763, 1810224.418876695912331 ], [ 3138269.584009392186999, 1809938.075922351097688 ], [ 3138233.551279176026583, 1809895.967870932305232 ], [ 3138017.402284246869385, 1809643.374889783328399 ], [ 3138014.127281640656292, 1809596.776912026340142 ], [ 3138004.772748368792236, 1809463.67530960496515 ], [ 3138005.995280544273555, 1809242.156822695629671 ], [ 3138039.353015110827982, 1808978.67659160704352 ], [ 3138027.452196278609335, 1808928.197132220491767 ], [ 3138026.522123167291284, 1808917.50896712904796 ], [ 3138026.152850004378706, 1808913.264831968117505 ], [ 3138025.750345927663147, 1808907.308768163667992 ], [ 3138020.706463233567774, 1808832.67000745376572 ], [ 3138013.599292419850826, 1808727.489840149646625 ], [ 3138041.163149060681462, 1808682.278777405619621 ], [ 3138059.278261388652027, 1808668.022226114058867 ], [ 3138095.543265705462545, 1808639.481398534262553 ], [ 3138159.298088055104017, 1808611.223881750367582 ], [ 3138181.39214657060802, 1808588.863384176744148 ], [ 3138201.489560321904719, 1808568.523498574271798 ], [ 3138235.370768340304494, 1808505.035258283140138 ], [ 3138243.19634797051549, 1808476.49097898742184 ], [ 3138263.297444285359234, 1808403.173043730901554 ], [ 3138292.30185538996011, 1808334.470422121929005 ], [ 3138331.060165643692017, 1808276.199341975152493 ], [ 3138354.298872333951294, 1808247.736751177348197 ], [ 3138367.932174397166818, 1808231.038836716441438 ], [ 3138368.725603852421045, 1808230.0669874351006 ], [ 3138392.593077543657273, 1808200.834114921744913 ], [ 3138340.524695255793631, 1808081.546749226050451 ], [ 3138323.970736844465137, 1808007.625112935667858 ], [ 3138323.877129368018359, 1807948.0215369311627 ], [ 3138349.967624825425446, 1807946.979876990430057 ], [ 3138693.813036470208317, 1807933.253489608410746 ], [ 3138968.797589238267392, 1807817.770218458026648 ], [ 3139145.287297694943845, 1807729.506281444337219 ], [ 3139319.268833381589502, 1807657.847978830104694 ], [ 3139917.951377625577152, 1807511.395982213085517 ], [ 3140258.496655833441764, 1807530.044676626333967 ], [ 3140395.067677134647965, 1807433.565655724145472 ], [ 3140434.963149902410805, 1807403.263678655959666 ], [ 3140597.227529815398157, 1807280.019354814430699 ], [ 3140643.452988703269511, 1807244.909903757739812 ], [ 3140655.725474414415658, 1807231.351798015180975 ], [ 3140669.500068147666752, 1807216.133679725462571 ], [ 3140670.582409239374101, 1807189.370135765057057 ], [ 3140671.393037261907011, 1807169.323750212788582 ], [ 3140683.674445439130068, 1807152.375945366453379 ], [ 3140684.003593097440898, 1807151.921755562303588 ], [ 3140688.147545757237822, 1807146.202813160605729 ], [ 3140752.303130331914872, 1807117.310047446284443 ], [ 3140757.54304665653035, 1807114.95022237370722 ], [ 3140772.395111008547246, 1807103.04246070352383 ], [ 3140953.829553874209523, 1806957.578173799673095 ], [ 3141021.088860646821558, 1806912.550385982962325 ], [ 3141093.608777024783194, 1806881.766774173825979 ], [ 3141119.680528384167701, 1806875.293842669110745 ], [ 3141127.119759326800704, 1806873.446926152566448 ], [ 3141174.892916187178344, 1806861.586205738596618 ], [ 3141267.453624434769154, 1806848.541464215610176 ], [ 3141532.041955315042287, 1806843.007906013634056 ], [ 3141665.892643490806222, 1806820.772409768775105 ], [ 3141743.044131416361779, 1806809.796778940595686 ], [ 3141955.46144161419943, 1806779.579318040981889 ], [ 3142141.096110229380429, 1806658.422125482466072 ], [ 3142165.371845634654164, 1806643.508957379264757 ], [ 3142166.394210882484913, 1806642.880866567371413 ], [ 3142306.131030421238393, 1806557.037473330507055 ], [ 3142586.968069208785892, 1806384.516124780056998 ], [ 3142590.52697754278779, 1806382.329769761767238 ], [ 3142597.18166126916185, 1806376.185888425912708 ], [ 3142635.009871436282992, 1806341.260530274361372 ], [ 3142829.540474352892488, 1806100.604710000567138 ], [ 3136843.26731, 1806100.604710000567138 ], [ 3136843.26731, 1812470.877107099862769 ], [ 3136858.979775041807443, 1812460.043962598778307 ] ] ], [ [ [ 3145680.868432096205652, 1806129.802505232626572 ], [ 3145706.024572698399425, 1806149.355092961341143 ], [ 3145785.293567067943513, 1806139.017716507427394 ], [ 3145877.707033724524081, 1806126.96575263584964 ], [ 3145970.302439515478909, 1806100.604710000567138 ], [ 3145662.044742958620191, 1806100.604710000567138 ], [ 3145680.868432096205652, 1806129.802505232626572 ] ] ], [ [ [ 3146076.781639070250094, 1806105.553643458057195 ], [ 3146217.13004265120253, 1806157.990335977403447 ], [ 3146225.853867513127625, 1806162.556411650264636 ], [ 3146320.070320575498044, 1806211.867355578113347 ], [ 3146538.844863819889724, 1806409.333599586272612 ], [ 3146654.185659183189273, 1806366.079128998331726 ], [ 3146807.387338320724666, 1806298.068288510665298 ], [ 3146976.959079588763416, 1806171.644383823964745 ], [ 3147043.619958022143692, 1806148.963274765759706 ], [ 3147136.776754988357425, 1806140.992925042519346 ], [ 3147147.005926948040724, 1806140.118043181486428 ], [ 3147152.689161013811827, 1806140.428437208058313 ], [ 3147176.383493237197399, 1806141.722189432708547 ], [ 3147244.452905911952257, 1806145.4394648198504 ], [ 3147282.398856127634645, 1806167.147964781150222 ], [ 3147322.563091784715652, 1806235.960809905780479 ], [ 3147433.460633327718824, 1806472.356247979681939 ], [ 3147472.639780986122787, 1806567.611723902402446 ], [ 3147524.991990930400789, 1806623.195969634223729 ], [ 3147581.446661437861621, 1806656.722632916644216 ], [ 3147610.04554944857955, 1806665.023155115777627 ], [ 3147669.878395531326532, 1806695.059178091585636 ], [ 3147685.662036521360278, 1806706.737786245299503 ], [ 3147702.909389758482575, 1806714.58846650342457 ], [ 3148009.07454408146441, 1806918.118969446048141 ], [ 3148099.603894668631256, 1807003.45619034441188 ], [ 3148137.192307009361684, 1807048.4925862706732 ], [ 3148137.197717634961009, 1807048.498619684251025 ], [ 3148151.651901842094958, 1807063.640195012325421 ], [ 3148158.428095233626664, 1807073.935582772828639 ], [ 3148158.430815931409597, 1807073.939354640897363 ], [ 3148185.792342383414507, 1807106.722404138417915 ], [ 3148259.03163038706407, 1807218.299330253852531 ], [ 3148343.090034605003893, 1807334.06095376983285 ], [ 3148526.510865857824683, 1807490.406819589203224 ], [ 3148535.599083730950952, 1807496.182072970783338 ], [ 3148651.399550379253924, 1807584.208886563312262 ], [ 3148680.817066574003547, 1807615.480906631564721 ], [ 3148701.467393253929913, 1807639.53817856987007 ], [ 3148713.429866439662874, 1807649.735020071733743 ], [ 3148725.940456285141408, 1807668.04891994735226 ], [ 3148749.514784730039537, 1807695.512442995095626 ], [ 3148775.996818906627595, 1807739.418983631301671 ], [ 3148803.267187927849591, 1807762.936481606215239 ], [ 3148834.591599488630891, 1807780.263498301850632 ], [ 3148866.598971819505095, 1807797.96829786291346 ], [ 3148977.988903654739261, 1807807.947336190845817 ], [ 3149073.449713353067636, 1807787.346330852946267 ], [ 3149137.818848594091833, 1807736.773806225508451 ], [ 3149225.6600410817191, 1807650.806946066441014 ], [ 3149233.18929098919034, 1807643.43862158851698 ], [ 3149301.908391289878637, 1807627.476254310458899 ], [ 3149524.159725024364889, 1807663.696416735649109 ], [ 3149527.596202692016959, 1807705.538041093153879 ], [ 3149552.597922625951469, 1807761.827324316604063 ], [ 3149601.213707131333649, 1807799.874090565368533 ], [ 3149698.133089193608612, 1807834.594988904660568 ], [ 3149792.468225372955203, 1807877.383360507432371 ], [ 3149817.380387973971665, 1807888.682949636364356 ], [ 3149868.64862522855401, 1807921.968365935841575 ], [ 3149931.603325392119586, 1807962.840815315255895 ], [ 3150011.082651531323791, 1808035.952260278863832 ], [ 3150104.429108309559524, 1808106.657911152811721 ], [ 3150343.639789999462664, 1808190.735861075576395 ], [ 3150343.639789999462664, 1806100.604710000567138 ], [ 3146058.957673427648842, 1806100.604710000567138 ], [ 3146076.781639070250094, 1806105.553643458057195 ] ] ] ] } }
]
}
