{
"type": "FeatureCollection",
"name": "Campillo_de_la_Jara,_El",
"crs": { "type": "name", "properties": { "name": "urn:ogc:def:crs:EPSG::3035" } },
"features": [
{ "type": "Feature", "properties": { "ENP_GRAL": 6.0, "ENP_GRAL_NAME": "Otros Espacios Naturales Protegidos", "color": "#7F8F0D" }, "geometry": { "type": "Polygon", "coordinates": [ [ [ 3021657.65974519494921, 1957872.493512154556811 ], [ 3021719.011396220885217, 1957824.085799952270463 ], [ 3021775.470501091331244, 1957751.22837154334411 ], [ 3021870.618929035961628, 1957608.679475660668686 ], [ 3021913.981575086712837, 1957524.517459463560954 ], [ 3021914.864013255573809, 1957522.804878819501027 ], [ 3021959.408464034087956, 1957400.412755146156996 ], [ 3021981.233065159060061, 1957326.695540559012443 ], [ 3021981.884866212494671, 1957324.493805315112695 ], [ 3022043.643875868059695, 1957246.641144003719091 ], [ 3022076.873783181421459, 1957182.069581358227879 ], [ 3022111.190654448699206, 1957115.386197129962966 ], [ 3022111.933643342461437, 1957113.942575311521068 ], [ 3022137.740198867861181, 1957052.624036791967228 ], [ 3022141.377550262026489, 1956993.676993244327605 ], [ 3022150.253280943259597, 1956849.844164947513491 ], [ 3022180.753734475001693, 1956748.42356403474696 ], [ 3022180.828420298174024, 1956748.174969515064731 ], [ 3022253.22792337089777, 1956590.238518348662183 ], [ 3022271.467543656937778, 1956550.449836101848632 ], [ 3022272.847690334543586, 1956547.439061733661219 ], [ 3022287.659186572767794, 1956465.368963435292244 ], [ 3022292.301167082041502, 1956439.647643723990768 ], [ 3022365.192986398003995, 1956241.541748457355425 ], [ 3022366.083058134652674, 1956239.122689123498276 ], [ 3022514.378607758320868, 1956028.366121063241735 ], [ 3022540.768442312255502, 1955982.378452831879258 ], [ 3022542.217431866098195, 1955979.853478321805596 ], [ 3022537.52166792191565, 1955911.81447579851374 ], [ 3022544.128358654677868, 1955873.782710201339796 ], [ 3022544.421236819121987, 1955872.096793496282771 ], [ 3022574.653275586664677, 1955832.274023367790505 ], [ 3022618.712322179228067, 1955809.233388433465734 ], [ 3022682.837058074306697, 1955742.111879963893443 ], [ 3022684.011854737997055, 1955740.882185220951214 ], [ 3022694.951839054003358, 1955649.801756232045591 ], [ 3022719.40522451326251, 1955587.780257459962741 ], [ 3022720.292753835208714, 1955585.529310647863895 ], [ 3022776.038972409442067, 1955488.631878750631586 ], [ 3022792.818391315639019, 1955459.466209997888654 ], [ 3022794.306493692100048, 1955456.879705824889243 ], [ 3022791.296662945766002, 1955436.217287643579766 ], [ 3022791.238495528232306, 1955435.818350224522874 ], [ 3022791.037525244057178, 1955434.438568824669346 ], [ 3022782.801532670389861, 1955377.899587342748418 ], [ 3022796.607750254683197, 1955317.706937462324277 ], [ 3022814.787042517215014, 1955276.549353943672031 ], [ 3022816.030643666163087, 1955273.733841395238414 ], [ 3022905.540255500003695, 1955178.788346914574504 ], [ 3023035.835070746950805, 1955059.361380725633353 ], [ 3023106.12928634416312, 1955003.288882289547473 ], [ 3023406.90614696778357, 1954639.487628285540268 ], [ 3023459.641717343591154, 1954575.702906749211252 ], [ 3023882.869325374253094, 1954024.296649347990751 ], [ 3023891.60724993608892, 1954013.711713455850258 ], [ 3024090.674608004279435, 1953772.570859956089407 ], [ 3024160.830667354166508, 1953677.907388016115874 ], [ 3024268.811706992797554, 1953532.206915225833654 ], [ 3024522.464671773836017, 1953145.468663945095614 ], [ 3024548.363522972911596, 1953105.982008986407891 ], [ 3024597.493938153609633, 1953031.07568551809527 ], [ 3024617.190942907705903, 1952996.510833277599886 ], [ 3024745.233149564824998, 1952771.821000179508701 ], [ 3024906.621982315555215, 1952505.844141256297007 ], [ 3024907.835777495987713, 1952503.843571433098987 ], [ 3024919.930144948884845, 1952432.818378581199795 ], [ 3024923.043715662322938, 1952426.868404447799549 ], [ 3024924.605428689159453, 1952423.883830204838887 ], [ 3024961.95261852722615, 1952371.730033793486655 ], [ 3024962.011970180552453, 1952371.647152802441269 ], [ 3024963.237432449590415, 1952369.279390804469585 ], [ 3024980.991940325591713, 1952334.973475512815639 ], [ 3024982.219727378804237, 1952332.601149022579193 ], [ 3024999.614075503312051, 1952256.580973362084478 ], [ 3025044.769782785326242, 1952132.001278314972296 ], [ 3025045.529158283490688, 1952129.906299547059461 ], [ 3025081.011812740936875, 1952071.935367951402441 ], [ 3025119.510543106589466, 1952026.593695512739941 ], [ 3025151.187347035389394, 1951999.511425424832851 ], [ 3025192.824442048557103, 1951963.913655658951029 ], [ 3025256.885923631489277, 1951887.689682915341109 ], [ 3025328.059932500123978, 1951766.647273914888501 ], [ 3025408.700748720671982, 1951596.493632876314223 ], [ 3025414.033773018978536, 1951585.240740420296788 ], [ 3025518.663543146103621, 1951305.577451105462387 ], [ 3025519.583345843479037, 1951303.119016913929954 ], [ 3025575.123854024801403, 1951224.361600179923698 ], [ 3025648.593079558573663, 1951143.425162875792012 ], [ 3025709.646959472447634, 1951090.77044077264145 ], [ 3025747.075552200898528, 1951058.491007025819272 ], [ 3025898.680012824013829, 1950927.744204413378611 ], [ 3026029.831462818663567, 1950826.413675197167322 ], [ 3026275.720354814082384, 1950661.111701980233192 ], [ 3026323.684802242554724, 1950643.459682359592989 ], [ 3026686.153903177939355, 1950566.793152319034562 ], [ 3026775.79816950019449, 1950555.903137715999037 ], [ 3026822.624635308980942, 1950575.927581050666049 ], [ 3026846.639641516841948, 1950612.166051144013181 ], [ 3026875.8555409880355, 1950674.823658193927258 ], [ 3027044.390944913029671, 1950681.290727814892307 ], [ 3027219.424582337960601, 1950696.729255295358598 ], [ 3027594.948807097040117, 1950670.414137999759987 ], [ 3027665.654000186361372, 1950661.881752141052857 ], [ 3027665.678113767877221, 1950661.878879352938384 ], [ 3027752.244925348088145, 1950465.266111987177283 ], [ 3027752.284275619778782, 1950465.176770862657577 ], [ 3027812.241284376010299, 1950350.189920619595796 ], [ 3027896.05614452296868, 1950251.21382413781248 ], [ 3028063.632251273840666, 1950040.106734661385417 ], [ 3028065.765298536513001, 1950037.648485301993787 ], [ 3028066.34998197760433, 1950038.527668197173625 ], [ 3028070.428475480526686, 1950044.661061474587768 ], [ 3028079.12083830870688, 1950057.80871137115173 ], [ 3028082.511035882867873, 1950060.774252181639895 ], [ 3028084.659178956411779, 1950062.653384754434228 ], [ 3028086.000040461774915, 1950064.651336991460994 ], [ 3028086.935965026263148, 1950066.045812517171726 ], [ 3028089.940119207371026, 1950070.489017752930522 ], [ 3028098.060265415348113, 1950082.498840773710981 ], [ 3028114.258456776384264, 1950106.511602709069848 ], [ 3028120.898076486773789, 1950116.357013780856505 ], [ 3028139.993237451650202, 1950144.672049712622538 ], [ 3028153.55719244107604, 1950164.745698048966005 ], [ 3028161.506051207892597, 1950176.509221279295161 ], [ 3028162.972467978019267, 1950178.695395166287199 ], [ 3028170.953094189520925, 1950190.593437621602789 ], [ 3028178.370715258643031, 1950195.60640648775734 ], [ 3028190.365500476211309, 1950203.712720184819773 ], [ 3028192.738391573075205, 1950205.326325827045366 ], [ 3028196.585283128079027, 1950207.942134252749383 ], [ 3028206.071687335148454, 1950214.392818345222622 ], [ 3028210.463384370319545, 1950216.757551572052762 ], [ 3028216.057681013830006, 1950219.769892026670277 ], [ 3028226.945016430225223, 1950225.562975656474009 ], [ 3028236.257373012602329, 1950230.518170630093664 ], [ 3028252.493627479299903, 1950239.21017961204052 ], [ 3028257.408039707690477, 1950241.838111957767978 ], [ 3028297.884828545153141, 1950263.482282202225178 ], [ 3028304.697097890079021, 1950267.102744350908324 ], [ 3028314.685305813327432, 1950272.411084546707571 ], [ 3028320.610438850708306, 1950275.579590651206672 ], [ 3028365.948378807865083, 1950299.824275329941884 ], [ 3028371.134660450741649, 1950302.597595877014101 ], [ 3028380.394392944872379, 1950307.549322679638863 ], [ 3028380.412785902153701, 1950307.554557650350034 ], [ 3028388.773000782355666, 1950309.934855860425159 ], [ 3028392.739138945005834, 1950311.064074644818902 ], [ 3028410.484544870443642, 1950316.106578013161197 ], [ 3028416.972107049077749, 1950317.676523727597669 ], [ 3028429.3157943286933, 1950320.66351252887398 ], [ 3028437.928199948742986, 1950322.711829131003469 ], [ 3028446.295745765324682, 1950324.701926985057071 ], [ 3028478.805090392939746, 1950332.531472171889618 ], [ 3028532.079207754693925, 1950345.327332590939477 ], [ 3028548.607847855426371, 1950349.277656874619424 ], [ 3028551.0252715786919, 1950350.189200180349872 ], [ 3028551.662858963012695, 1950350.429631704464555 ], [ 3028566.233853463083506, 1950355.699910406023264 ], [ 3028571.250772164203227, 1950357.96610690979287 ], [ 3028577.63509929459542, 1950360.849992083152756 ], [ 3028594.811945640482008, 1950368.641132346820086 ], [ 3028602.357704089954495, 1950372.068455864908174 ], [ 3028604.420568677596748, 1950373.005406300071627 ], [ 3028610.866134610027075, 1950375.932990302564576 ], [ 3028610.887359908316284, 1950375.937518914462999 ], [ 3028619.729008566588163, 1950377.796716096345335 ], [ 3028625.70327489823103, 1950379.063536488218233 ], [ 3028628.232427159324288, 1950379.599822242977098 ], [ 3028638.035968815907836, 1950381.67852302081883 ], [ 3028656.071688299998641, 1950385.47976845363155 ], [ 3028672.03123861644417, 1950388.837531760102138 ], [ 3028680.265190823934972, 1950390.569992304546759 ], [ 3028703.214253045618534, 1950395.395794759271666 ], [ 3028723.038442403078079, 1950399.595733136171475 ], [ 3028741.791333649307489, 1950403.568702595541254 ], [ 3028779.177371320780367, 1950411.438034429214895 ], [ 3028798.411416755989194, 1950412.388572341296822 ], [ 3028816.312505721114576, 1950413.268981026718393 ], [ 3028816.350592871196568, 1950413.251773533411324 ], [ 3028825.932181777432561, 1950408.930046695517376 ], [ 3028838.994254323653877, 1950403.106090057408437 ], [ 3028857.232732642441988, 1950394.948312304681167 ], [ 3028857.240678817033768, 1950394.947202492272481 ], [ 3028873.75514305755496, 1950392.772259891498834 ], [ 3028885.104608398396522, 1950392.455136583419517 ], [ 3028890.349904478527606, 1950392.308510528178886 ], [ 3028906.647049398161471, 1950391.848291230853647 ], [ 3028922.108802310191095, 1950391.447369113797322 ], [ 3028934.593192758969963, 1950391.764606864424422 ], [ 3028948.510434152558446, 1950392.14100603456609 ], [ 3028951.912180956918746, 1950392.233029899187386 ], [ 3028959.230673872400075, 1950392.421977714402601 ], [ 3028968.430299201048911, 1950392.659508492331952 ], [ 3028970.844480499625206, 1950392.72183058434166 ], [ 3028973.396157317794859, 1950393.275297752814367 ], [ 3028988.950020491145551, 1950396.649553327355534 ], [ 3029003.868318758904934, 1950399.835883560124785 ], [ 3029006.22254317253828, 1950400.338798342039809 ], [ 3029021.592174505349249, 1950403.622889585560188 ], [ 3029039.726753323804587, 1950407.545468514086679 ], [ 3029048.757047263439745, 1950409.192443663720042 ], [ 3029048.835883400402963, 1950409.206877927528694 ], [ 3029049.057236738502979, 1950409.246800113003701 ], [ 3029067.703483521472663, 1950412.612286155577749 ], [ 3029090.696876278147101, 1950416.776064845034853 ], [ 3029117.800058196298778, 1950421.661265710135922 ], [ 3029139.245606527663767, 1950425.569934380007908 ], [ 3029162.301249567884952, 1950429.772203848231584 ], [ 3029170.959622507914901, 1950431.309955678414553 ], [ 3029173.281846633646637, 1950431.72235878626816 ], [ 3029177.174682552926242, 1950432.413702603662387 ], [ 3029177.222527888603508, 1950432.422205830924213 ], [ 3029181.603850826621056, 1950423.094847916159779 ], [ 3029183.072132817003876, 1950419.969209992559627 ], [ 3029185.508922998327762, 1950414.878866568207741 ], [ 3029187.941266338340938, 1950409.797619530465454 ], [ 3029194.517570824362338, 1950395.970954633317888 ], [ 3029203.914510776754469, 1950376.153876938624308 ], [ 3029209.485489410348237, 1950364.405525302980095 ], [ 3029224.314996854402125, 1950333.231971610104665 ], [ 3029233.569704396650195, 1950313.777476122137159 ], [ 3029241.118538472801447, 1950297.933669603196904 ], [ 3029244.09678154066205, 1950291.733230297453701 ], [ 3029244.123275117017329, 1950291.678081060526893 ], [ 3029248.674168276134878, 1950288.431268579093739 ], [ 3029249.538981160148978, 1950287.814181718276814 ], [ 3029249.612513938453048, 1950287.761805134825408 ], [ 3029257.362562896683812, 1950285.207201057579368 ], [ 3029259.808075624052435, 1950284.401387563208118 ], [ 3029271.316547804512084, 1950290.518517967779189 ], [ 3029280.595996617339551, 1950295.450928285950795 ], [ 3029290.046840816736221, 1950300.515502710593864 ], [ 3029298.661728285253048, 1950305.132060744566843 ], [ 3029321.116647358518094, 1950317.098484283778816 ], [ 3029343.759961626492441, 1950329.165295023471117 ], [ 3029351.865487799048424, 1950333.484378281282261 ], [ 3029384.14449972147122, 1950351.239195905858651 ], [ 3029391.116414081305265, 1950355.262265451718122 ], [ 3029398.974719539750367, 1950359.776137724053115 ], [ 3029404.023288441356272, 1950362.684269862715155 ], [ 3029407.146931905765086, 1950364.483516496606171 ], [ 3029410.382542916573584, 1950366.337791066849604 ], [ 3029414.820041976869106, 1950368.880647523561493 ], [ 3029420.426531154662371, 1950372.108215752523392 ], [ 3029445.003329092636704, 1950386.256329769734293 ], [ 3029465.989023766480386, 1950398.292163841892034 ], [ 3029467.567019689828157, 1950399.191342891193926 ], [ 3029475.746741594281048, 1950403.852533021010458 ], [ 3029480.182361508719623, 1950406.123293879209086 ], [ 3029489.685448051430285, 1950410.918335963971913 ], [ 3029499.271741777658463, 1950415.765016854042187 ], [ 3029510.158689788542688, 1950421.245039854664356 ], [ 3029520.913752176333219, 1950426.682088090805337 ], [ 3029530.783381674438715, 1950431.686297570820898 ], [ 3029543.46138459071517, 1950438.107518445700407 ], [ 3029556.733392865862697, 1950444.805502713192254 ], [ 3029580.625137099064887, 1950456.887352055171505 ], [ 3029594.726023967377841, 1950464.018122979672626 ], [ 3029595.737683780025691, 1950464.524219350190833 ], [ 3029599.360885083675385, 1950466.336603306233883 ], [ 3029600.434100619517267, 1950466.897377897752449 ], [ 3029601.706013596616685, 1950467.562064146390185 ], [ 3029601.996232412289828, 1950467.713703047484159 ], [ 3029602.92722066026181, 1950467.888691900763661 ], [ 3029610.234900765120983, 1950469.262199615128338 ], [ 3029613.064334907568991, 1950469.796276230830699 ], [ 3029626.903493471909314, 1950472.408426629379392 ], [ 3029642.615955919958651, 1950476.938652454642579 ], [ 3029656.576096624135971, 1950480.982422722736374 ], [ 3029671.735274734441191, 1950485.386546577326953 ], [ 3029676.326508336700499, 1950486.714300215244293 ], [ 3029684.873109157197177, 1950489.185769598232582 ], [ 3029699.343500199727714, 1950493.346712709404528 ], [ 3029701.6622224166058, 1950494.020254698814824 ], [ 3029713.934703823179007, 1950497.585827657254413 ], [ 3029725.072705780155957, 1950500.809548235731199 ], [ 3029746.554547344334424, 1950507.032449422171339 ], [ 3029759.315648701973259, 1950510.715801754035056 ], [ 3029770.531759621109813, 1950513.958960657706484 ], [ 3029773.760124182328582, 1950514.456723528914154 ], [ 3029777.392467747442424, 1950515.016718587605283 ], [ 3029777.751997969578952, 1950515.008569494821131 ], [ 3029780.182905345223844, 1950514.952711164020002 ], [ 3029795.470713200047612, 1950514.644544990034774 ], [ 3029809.870661839377135, 1950514.361237292410806 ], [ 3029820.6220418876037, 1950514.144893843214959 ], [ 3029825.36819217633456, 1950514.122726904926822 ], [ 3029830.991662462707609, 1950514.096319632371888 ], [ 3029842.652415154967457, 1950514.00565056107007 ], [ 3029843.148464061319828, 1950514.001778714591637 ], [ 3029843.162662578746676, 1950514.001683776266873 ], [ 3029856.704005535226315, 1950503.036959358258173 ], [ 3029858.12467395234853, 1950495.434850998222828 ], [ 3029858.968625088222325, 1950490.918557686731219 ], [ 3029860.572306469082832, 1950482.495147747453302 ], [ 3029860.752049814444035, 1950481.550665504531935 ], [ 3029860.952759900595993, 1950480.483452745713294 ], [ 3029867.375849802978337, 1950446.331675364635885 ], [ 3029869.471609747037292, 1950435.447507297853008 ], [ 3029869.663873021956533, 1950434.448742032749578 ], [ 3029869.666963523253798, 1950434.433000696823001 ], [ 3029882.99883973505348, 1950323.541675797197968 ], [ 3029889.474774367175996, 1950263.18307930463925 ], [ 3029875.779115424491465, 1950189.322215926134959 ], [ 3029874.97600632859394, 1950174.952052242122591 ], [ 3029876.094126258045435, 1950166.827217974001542 ], [ 3029889.054041348863393, 1950152.253170454408973 ], [ 3029906.018508066423237, 1950113.267990668537095 ], [ 3029907.580139341764152, 1950008.628408208023757 ], [ 3029913.188996082171798, 1949969.136396587593481 ], [ 3029928.251855040900409, 1949942.340981830377132 ], [ 3029941.693635903764516, 1949931.180408673360944 ], [ 3029945.379946925677359, 1949903.522288049804047 ], [ 3029949.237660370767117, 1949871.062539211474359 ], [ 3029936.758678254205734, 1949825.736888810060918 ], [ 3029938.101440717000514, 1949803.063328271498904 ], [ 3029943.773969979956746, 1949772.45208263816312 ], [ 3029946.237105411477387, 1949746.762649876764044 ], [ 3029956.191793422214687, 1949706.132165995659307 ], [ 3029957.218868009280413, 1949672.292227648431435 ], [ 3029965.923129415139556, 1949618.715207387693226 ], [ 3029980.541445844806731, 1949591.689105800352991 ], [ 3030025.721115725114942, 1949542.547753205522895 ], [ 3030080.353089245967567, 1949522.405826182570308 ], [ 3030095.509285546839237, 1949483.890559990657493 ], [ 3030098.818347819149494, 1949474.540583021938801 ], [ 3030096.10041768848896, 1949405.190063133835793 ], [ 3030100.279566523618996, 1949341.341543039074168 ], [ 3030096.399998690932989, 1949260.976337139494717 ], [ 3030122.009459654800594, 1949168.807391676818952 ], [ 3030128.327162998728454, 1949106.241627955576405 ], [ 3030179.933618536219001, 1949028.94234649441205 ], [ 3030187.352203359361738, 1948991.77531106909737 ], [ 3030195.141542901284993, 1948941.269157140748575 ], [ 3030199.856564028188586, 1948861.286661746678874 ], [ 3030199.427053119055927, 1948822.887540414696559 ], [ 3030203.196071544662118, 1948777.12526613031514 ], [ 3030196.964360050857067, 1948741.802787131164223 ], [ 3030092.727693972643465, 1948675.159145501209423 ], [ 3030088.771476279012859, 1948672.176061990205199 ], [ 3030066.961525676306337, 1948655.730688850395381 ], [ 3030039.903547337278724, 1948636.723521267063916 ], [ 3030030.355301740113646, 1948622.455795911839232 ], [ 3030030.321213728282601, 1948622.39440934965387 ], [ 3030014.303457013331354, 1948593.553938121302053 ], [ 3030003.938355583697557, 1948578.35292460094206 ], [ 3029988.70912230014801, 1948568.434686082648113 ], [ 3029970.784314883872867, 1948555.746063933940604 ], [ 3029932.447902159765363, 1948526.027304257499054 ], [ 3029925.239893479738384, 1948520.439520731568336 ], [ 3029920.449492331128567, 1948516.725955343106762 ], [ 3029841.996789136901498, 1948480.038754859706387 ], [ 3029689.524332655593753, 1948420.827394059160724 ], [ 3029683.395081469789147, 1948421.316723368829116 ], [ 3029678.44066550815478, 1948421.712238205596805 ], [ 3029647.300989758223295, 1948410.140012579737231 ], [ 3029518.06935745710507, 1948362.114985844120383 ], [ 3029348.102328571490943, 1948294.487652203300968 ], [ 3029331.322101799305528, 1948288.21180500020273 ], [ 3028935.799414549954236, 1948288.21180500020273 ], [ 3028939.53244736418128, 1948435.996702931588516 ], [ 3028921.363643247634172, 1948517.651950487866998 ], [ 3028939.531989988870919, 1948435.996379191288725 ], [ 3028935.79884722083807, 1948288.21180500020273 ], [ 3021626.177004999481142, 1948288.21180500020273 ], [ 3021626.177004999481142, 1957907.555900983745232 ], [ 3021657.65974519494921, 1957872.493512154556811 ] ], [ [ 3028226.599237451329827, 1949718.15197656978853 ], [ 3028225.979063301347196, 1949719.317579651717097 ], [ 3028242.6286954395473, 1949674.072979642543942 ], [ 3028243.040842107497156, 1949672.952950483886525 ], [ 3028352.725216600112617, 1949448.854368421714753 ], [ 3028372.051244241651148, 1949425.207207803614438 ], [ 3028336.167068518698215, 1949514.597054296871647 ], [ 3028329.865759359672666, 1949524.059319958789274 ], [ 3028226.599237451329827, 1949718.15197656978853 ] ] ] } }
]
}
