{
"type": "FeatureCollection",
"name": "Guardia,_La",
"crs": { "type": "name", "properties": { "name": "urn:ogc:def:crs:EPSG::3035" } },
"features": [
{ "type": "Feature", "properties": { "ENP_GRAL": 2.0, "ENP_GRAL_NAME": "Reservas Naturales", "color": "#FFD37F" }, "geometry": { "type": "Polygon", "coordinates": [ [ [ 3179838.265145609620959, 1947289.289641747483984 ], [ 3179838.471866407431662, 1947289.274324853671715 ], [ 3179839.057804682757705, 1947289.360195810673758 ], [ 3179846.021663142368197, 1947289.218863273272291 ], [ 3179873.20797504670918, 1947289.644639204256237 ], [ 3179920.471207357011735, 1947290.751005476806313 ], [ 3179967.659232187084854, 1947291.379579272586852 ], [ 3180013.913293914869428, 1947291.557000056374818 ], [ 3180044.736796305514872, 1947291.595601642038673 ], [ 3180059.505751193501055, 1947291.882434218656272 ], [ 3180106.001101987902075, 1947268.34482975397259 ], [ 3180164.566157665103674, 1947240.400542974704877 ], [ 3180189.585472917184234, 1947234.808660336071625 ], [ 3180189.509163814131171, 1947234.62989304936491 ], [ 3180171.803765283431858, 1947193.181883715558797 ], [ 3180150.202991700265557, 1947147.59646789659746 ], [ 3180132.745423777960241, 1947099.299505432136357 ], [ 3180132.086300340481102, 1947097.537056328961626 ], [ 3180132.303196910768747, 1947097.466952983988449 ], [ 3180116.165490671526641, 1947051.134329759981483 ], [ 3180103.207355409860611, 1947008.738046915736049 ], [ 3180087.314292006194592, 1946961.3065885247197 ], [ 3180074.000072334893048, 1946910.298218766693026 ], [ 3180057.447362593375146, 1946864.1191009900067 ], [ 3180041.219264851417392, 1946815.466252813348547 ], [ 3180029.558147526811808, 1946777.679237403441221 ], [ 3180024.504546913318336, 1946757.370771791320294 ], [ 3180025.796995733864605, 1946752.879927582573146 ], [ 3180061.798043021000922, 1946742.067390738287941 ], [ 3180070.251015959773213, 1946757.660705687943846 ], [ 3180102.139519168995321, 1946813.259028593078256 ], [ 3180130.420313341543078, 1946837.774716560030356 ], [ 3180154.021356141194701, 1946860.686987177468836 ], [ 3180181.250171402469277, 1946883.963694300036877 ], [ 3180176.793063174933195, 1946866.537685890682042 ], [ 3180175.373302350286394, 1946841.188971019815654 ], [ 3180200.672802317887545, 1946836.788217219524086 ], [ 3180232.966493886429816, 1946831.455403200350702 ], [ 3180239.811820019502193, 1946819.599853744264692 ], [ 3180245.382168816868216, 1946804.95313427131623 ], [ 3180245.292673826683313, 1946804.544048852287233 ], [ 3180220.802854961715639, 1946683.965865000383928 ], [ 3178294.362756256945431, 1946683.965865000383928 ], [ 3178265.962467054836452, 1946738.089105401886627 ], [ 3178263.925501214340329, 1946744.514461339218542 ], [ 3178259.490655592642725, 1946777.664194981800392 ], [ 3178258.210124486126006, 1946782.44013251690194 ], [ 3178258.83038598485291, 1946786.379567581927404 ], [ 3178259.429157167673111, 1946809.547165224095806 ], [ 3178268.601251553744078, 1946916.215640520909801 ], [ 3178273.389027285389602, 1946940.172184856375679 ], [ 3178276.733346521854401, 1946951.732098786626011 ], [ 3178277.169037683866918, 1946957.727177218534052 ], [ 3178271.288148638326675, 1947004.282255230005831 ], [ 3178263.538670632522553, 1947022.831558491569012 ], [ 3178259.106529065407813, 1947030.179561890661716 ], [ 3178244.540243448223919, 1947047.385339835193008 ], [ 3178239.749825827777386, 1947049.230701873311773 ], [ 3178231.807759436313063, 1947053.648024956695735 ], [ 3178226.522795517463237, 1947055.579431351739913 ], [ 3178189.898452531080693, 1947063.966977265896276 ], [ 3178185.087931022979319, 1947063.111060555325821 ], [ 3178161.842465855181217, 1947053.575822310289368 ], [ 3178148.699709667824209, 1947050.36374392057769 ], [ 3178148.691680911928415, 1947050.361801805673167 ], [ 3178148.078813658095896, 1947050.103570502949879 ], [ 3178150.386406604200602, 1947053.90122040710412 ], [ 3178152.191838655620813, 1947063.960336480755359 ], [ 3178156.513893112074584, 1947077.333614925388247 ], [ 3178160.362479656003416, 1947087.699388172943145 ], [ 3178169.265523722395301, 1947106.234737912658602 ], [ 3178178.223402949050069, 1947126.526169285178185 ], [ 3178187.412158417515457, 1947143.356485274387524 ], [ 3178192.7243876690045, 1947154.571201781742275 ], [ 3178195.091973102185875, 1947169.608802795410156 ], [ 3178196.070504897274077, 1947177.935787499183789 ], [ 3178199.43273461330682, 1947186.620568590704352 ], [ 3178201.458490213379264, 1947192.447889353847131 ], [ 3178213.979148581624031, 1947204.39465366769582 ], [ 3178221.85118611343205, 1947210.749758300138637 ], [ 3178237.07271136995405, 1947223.661174344131723 ], [ 3178254.267609873786569, 1947238.546725493622944 ], [ 3178261.048048887401819, 1947246.416021853219718 ], [ 3178274.91562954057008, 1947261.990766118979082 ], [ 3178295.105318754911423, 1947279.003718642983586 ], [ 3178305.075445879250765, 1947287.421557931462303 ], [ 3178340.931019352283329, 1947315.944392925361171 ], [ 3178371.862842754460871, 1947341.351297843502834 ], [ 3178395.986273376271129, 1947363.638886972796172 ], [ 3178437.801403069868684, 1947403.263911417219788 ], [ 3178459.183483473490924, 1947424.374150932999328 ], [ 3178461.629167226143181, 1947426.410807020263746 ], [ 3178462.323150138370693, 1947427.264953805366531 ], [ 3178480.603923925664276, 1947446.036552497185767 ], [ 3178503.605215313844383, 1947467.467031658627093 ], [ 3178526.442440330982208, 1947487.855360285844654 ], [ 3178569.323127665091306, 1947527.110149918589741 ], [ 3178580.782757805660367, 1947537.564817319391295 ], [ 3178619.951522286981344, 1947571.174264643341303 ], [ 3178667.47063419688493, 1947612.566951215034351 ], [ 3178697.709069594740868, 1947639.832685701316223 ], [ 3178720.382135609164834, 1947659.178753250744194 ], [ 3178732.585898730438203, 1947669.236267041647807 ], [ 3178733.99574557505548, 1947668.348079647868872 ], [ 3178769.076062037609518, 1947646.556966621428728 ], [ 3178811.780425318516791, 1947620.654902011854574 ], [ 3178861.859034970868379, 1947588.651022205362096 ], [ 3178911.042220178991556, 1947556.936877977568656 ], [ 3178947.03741021733731, 1947533.6746180516202 ], [ 3178988.323125185910612, 1947508.153399693313986 ], [ 3179016.449127878062427, 1947490.409969622502103 ], [ 3179062.640722672455013, 1947461.893602323019877 ], [ 3179111.477539088577032, 1947432.247930884594098 ], [ 3179169.287188683636487, 1947395.553252360550687 ], [ 3179185.369565236382186, 1947384.991710965754464 ], [ 3179232.844313701614738, 1947354.378547663567588 ], [ 3179260.349519568961114, 1947337.814170186640695 ], [ 3179319.745061460882425, 1947299.237594139762223 ], [ 3179342.372881177347153, 1947284.994242601562291 ], [ 3179350.33162096934393, 1947280.849153158254921 ], [ 3179410.372459818609059, 1947281.379936154698953 ], [ 3179449.467502983286977, 1947282.07458016439341 ], [ 3179525.592271793633699, 1947283.153831005794927 ], [ 3179596.924443324096501, 1947284.531543856486678 ], [ 3179670.955670421477407, 1947285.975332164671272 ], [ 3179739.850612780544907, 1947287.241791761247441 ], [ 3179747.217889611143619, 1947287.48062440357171 ], [ 3179746.967251547146589, 1947287.328639731975272 ], [ 3179748.815310774371028, 1947287.484952521277592 ], [ 3179796.111304260790348, 1947287.968783867778257 ], [ 3179836.654364147223532, 1947289.408949573757127 ], [ 3179838.265145609620959, 1947289.289641747483984 ] ] ] } },
{ "type": "Feature", "properties": { "ENP_GRAL": 6.0, "ENP_GRAL_NAME": "Otros Espacios Naturales Protegidos", "color": "#7F8F0D" }, "geometry": { "type": "MultiPolygon", "coordinates": [ [ [ [ 3156098.975110215134919, 1966447.620106224203482 ], [ 3156092.753164435736835, 1966437.573254761518911 ], [ 3156078.832299182191491, 1966409.133921822998673 ], [ 3156064.713426303118467, 1966383.259660640498623 ], [ 3156051.862374817021191, 1966358.176076668314636 ], [ 3156048.14834144897759, 1966352.751879591727629 ], [ 3156043.555456426925957, 1966348.999518136959523 ], [ 3156025.860119218938053, 1966330.83546937466599 ], [ 3156009.821556146256626, 1966315.924604363040999 ], [ 3156000.25220785709098, 1966311.017476999433711 ], [ 3155988.042852642480284, 1966308.089801233028993 ], [ 3155978.98595034237951, 1966305.623608712339774 ], [ 3155954.511638128198683, 1966291.174499010900036 ], [ 3155937.594131917692721, 1966277.935509156202897 ], [ 3155928.376313201151788, 1966269.424219522625208 ], [ 3155925.974912995006889, 1966263.264690265757963 ], [ 3155932.424612121656537, 1966255.052463350119069 ], [ 3155945.70760287810117, 1966236.030427091754973 ], [ 3155950.839457660913467, 1966223.493729925947264 ], [ 3155950.93524809088558, 1966211.836853083921596 ], [ 3155948.564685976132751, 1966205.671836946858093 ], [ 3155945.252266958821565, 1966200.17747865174897 ], [ 3155985.774934091139585, 1966151.597638413775712 ], [ 3155940.929060557857156, 1966115.909463708754629 ], [ 3155856.309923993423581, 1966048.707950663985685 ], [ 3155697.527674867305905, 1965924.624511521309614 ], [ 3155683.408991929143667, 1965913.427041599294171 ], [ 3155625.046944346744567, 1965895.283672180958092 ], [ 3155564.271683001890779, 1965874.525480121606961 ], [ 3155551.984578451607376, 1965871.105393319157884 ], [ 3155545.914027007296681, 1965872.672197500942275 ], [ 3155533.71648274641484, 1965880.876699090702459 ], [ 3155527.739679254125804, 1965883.439311474794522 ], [ 3155521.608345389831811, 1965886.028926328057423 ], [ 3155513.620110780932009, 1965885.9064450210426 ], [ 3155477.857050285674632, 1965876.972817852161825 ], [ 3155463.790737356059253, 1965871.333277658792213 ], [ 3155454.175592582672834, 1965866.940245484700426 ], [ 3155404.826797511428595, 1965853.80134439188987 ], [ 3155388.313322850503027, 1965857.193010837538168 ], [ 3155362.998791324906051, 1965866.171284821350127 ], [ 3155357.87101779691875, 1965868.079474976053461 ], [ 3155351.828199971001595, 1965866.604903948027641 ], [ 3155324.683068131562322, 1965854.141165073262528 ], [ 3155318.005241290666163, 1965851.259277474600822 ], [ 3155288.597182536497712, 1965832.105667667463422 ], [ 3155286.233089054469019, 1965832.012668906478211 ], [ 3155280.487490781582892, 1965834.028824616922066 ], [ 3155266.880480498075485, 1965838.936944498680532 ], [ 3155256.790222046431154, 1965838.169726944062859 ], [ 3155245.704820209182799, 1965831.503178507089615 ], [ 3155232.995744674932212, 1965823.602171300211921 ], [ 3155218.020656059496105, 1965820.651968321530148 ], [ 3155188.447671268135309, 1965820.758688292698935 ], [ 3155167.130389788653702, 1965825.495951638091356 ], [ 3155149.722016318701208, 1965830.056276852497831 ], [ 3155138.292629497125745, 1965834.07783011184074 ], [ 3155138.796493785455823, 1965828.422752532875165 ], [ 3155119.770890537649393, 1965837.820532901911065 ], [ 3155102.813255447428674, 1965844.832487639505416 ], [ 3155090.952340388670564, 1965849.941651285393164 ], [ 3155078.037842365913093, 1965852.198461481835693 ], [ 3155060.610282870009542, 1965853.219524655723944 ], [ 3155051.881578364409506, 1965854.23871072428301 ], [ 3155030.066764864139259, 1965856.026430186117068 ], [ 3155013.951721144840121, 1965856.312065572245046 ], [ 3154998.546314384788275, 1965855.461412028409541 ], [ 3154986.492480939254165, 1965853.519100619014353 ], [ 3154976.645057428628206, 1965848.660659560700879 ], [ 3154964.382396628148854, 1965839.16342806443572 ], [ 3154957.036519318819046, 1965832.855769861023873 ], [ 3154950.019907451234758, 1965831.04532403848134 ], [ 3154944.379716594703496, 1965830.51263912091963 ], [ 3154939.728317704983056, 1965829.807268911506981 ], [ 3154933.127065742388368, 1965826.405959723284468 ], [ 3154929.797675846144557, 1965819.396339603001252 ], [ 3154926.926344980951399, 1965807.24583278154023 ], [ 3154923.579869648441672, 1965798.720916271675378 ], [ 3154918.072897450067103, 1965792.598017207346857 ], [ 3154907.685325395315886, 1965788.34007243369706 ], [ 3154899.524413486011326, 1965785.717507781693712 ], [ 3154896.739518693648279, 1965782.1554029812105 ], [ 3154895.961716550402343, 1965777.230377266649157 ], [ 3154899.75866783503443, 1965773.530307687120512 ], [ 3154927.257103769108653, 1965755.060423793271184 ], [ 3154932.012998946942389, 1965752.204976631095633 ], [ 3154953.753136096522212, 1965738.284116585040465 ], [ 3154962.674517256207764, 1965729.639738452387974 ], [ 3154965.154749994166195, 1965722.627213072730228 ], [ 3154986.190194953233004, 1965656.195895297219977 ], [ 3154986.974301745183766, 1965652.516224339371547 ], [ 3154987.819095499813557, 1965647.813762246863917 ], [ 3154990.729663835372776, 1965638.701574655715376 ], [ 3154993.919356572441757, 1965630.552800061414018 ], [ 3154997.234846673905849, 1965624.40641738474369 ], [ 3155003.437406236305833, 1965616.237263013841584 ], [ 3155009.610226267483085, 1965609.085493866354227 ], [ 3155015.512468044180423, 1965609.066310526337475 ], [ 3155025.009311530273408, 1965603.864062967710197 ], [ 3155029.222860531881452, 1965599.585130113875493 ], [ 3155031.625335350632668, 1965592.080017343861982 ], [ 3155030.011212218552828, 1965585.27687224955298 ], [ 3154942.057929872069508, 1965535.360548696247861 ], [ 3154947.323058401234448, 1965531.910039663314819 ], [ 3154954.921334025915712, 1965528.557923917658627 ], [ 3154971.636253856122494, 1965525.637015546206385 ], [ 3154986.310819894075394, 1965522.060464574722573 ], [ 3154994.339540861546993, 1965516.608770529506728 ], [ 3155000.621092210989445, 1965509.944104143418372 ], [ 3155008.242799747269601, 1965499.502611863659695 ], [ 3155018.724048312287778, 1965490.079721917863935 ], [ 3155033.316649890039116, 1965481.962685519829392 ], [ 3155049.550937067717314, 1965477.607627549674362 ], [ 3155064.212854281067848, 1965476.563783907564357 ], [ 3155074.376594517379999, 1965473.77559411758557 ], [ 3155084.152587872929871, 1965469.536784391617402 ], [ 3155080.516399568412453, 1965464.605256892042235 ], [ 3155177.603073090314865, 1965399.055471660103649 ], [ 3155182.41641300264746, 1965392.141312825493515 ], [ 3155205.498053465969861, 1965375.455853214254603 ], [ 3155248.235091070644557, 1965345.720019828295335 ], [ 3155284.707648891955614, 1965324.164234213065356 ], [ 3155293.711244773119688, 1965320.060561346122995 ], [ 3155304.740229357965291, 1965317.121262242784724 ], [ 3155318.289829328190535, 1965316.27188609004952 ], [ 3155331.702081830240786, 1965316.964885717257857 ], [ 3155351.402125424705446, 1965317.065207321662456 ], [ 3155357.706084923353046, 1965316.975791231263429 ], [ 3155358.469951789826155, 1965323.421493929810822 ], [ 3155382.141814725473523, 1965324.346101526170969 ], [ 3155425.077098737005144, 1965321.398648235946894 ], [ 3155496.981416900176555, 1965316.932082562940195 ], [ 3155550.903024268336594, 1965314.595606531715021 ], [ 3155571.973345769569278, 1965309.901805292349309 ], [ 3155598.267228138167411, 1965306.319689800962806 ], [ 3155610.310000046156347, 1965459.584666612092406 ], [ 3155708.638303552754223, 1965442.910020881798118 ], [ 3155769.286022720858455, 1965371.582714123418555 ], [ 3155775.582503673620522, 1965379.086104082874954 ], [ 3155787.354977349750698, 1965392.717874031513929 ], [ 3155810.250173276290298, 1965419.082870588637888 ], [ 3155835.648033908102661, 1965445.010512881213799 ], [ 3155845.638214679900557, 1965453.386717414250597 ], [ 3155856.894125123042613, 1965460.52969923382625 ], [ 3155862.614207110367715, 1965463.578904270660132 ], [ 3155872.693858470767736, 1965468.903047429397702 ], [ 3155896.610840515233576, 1965482.437327481340617 ], [ 3155912.225198197178543, 1965490.843076571356505 ], [ 3155922.212196709122509, 1965496.183316516224295 ], [ 3155938.02471957821399, 1965502.024004423525184 ], [ 3155950.11379779689014, 1965508.009259438840672 ], [ 3155972.384754117578268, 1965513.733737500617281 ], [ 3155987.53043888695538, 1965517.160503600491211 ], [ 3155996.9900733679533, 1965520.56864238367416 ], [ 3155999.500103038735688, 1965527.215246114647016 ], [ 3155995.519774368032813, 1965532.971565969986841 ], [ 3156002.518373084254563, 1965532.254886138485745 ], [ 3156009.499905247241259, 1965530.022921993862838 ], [ 3156023.363808764144778, 1965534.179735995829105 ], [ 3156035.929075396619737, 1965537.551368918968365 ], [ 3156052.753774239681661, 1965536.130005064653233 ], [ 3156111.291968156117946, 1965530.457151244860142 ], [ 3156184.354684164747596, 1965525.28321149921976 ], [ 3156176.337582222186029, 1965512.513414810178801 ], [ 3156167.373451075516641, 1965495.354382758960128 ], [ 3156159.475780532695353, 1965478.515118798706681 ], [ 3156159.953199375420809, 1965447.560326129663736 ], [ 3156159.400406403467059, 1965421.340426553506404 ], [ 3156164.767887287773192, 1965412.305260514607653 ], [ 3156152.883426090702415, 1965409.826816578861326 ], [ 3156142.125046741683036, 1965405.633473486639559 ], [ 3156119.513074858114123, 1965413.632858011173084 ], [ 3156058.535052672959864, 1965435.420656922506168 ], [ 3156014.284779802896082, 1965451.755429100943729 ], [ 3155986.343762668780982, 1965461.192059478955343 ], [ 3155966.599806905258447, 1965463.62957214913331 ], [ 3155943.211251571774483, 1965467.716046685585752 ], [ 3155917.439335029572248, 1965468.170238525373861 ], [ 3155901.274117418564856, 1965464.92162391776219 ], [ 3155883.219978208653629, 1965457.954331154702231 ], [ 3155860.203232157044113, 1965448.311482260236517 ], [ 3155857.513089942745864, 1965446.757144577801228 ], [ 3155847.771161561831832, 1965439.34964070818387 ], [ 3155839.634776179213077, 1965430.649541981285438 ], [ 3155829.655292614363134, 1965417.716667547821999 ], [ 3155816.790737508796155, 1965394.153914282796904 ], [ 3155800.883449178189039, 1965371.628881555516273 ], [ 3155792.342282925732434, 1965359.96298113418743 ], [ 3155785.582305924035609, 1965352.540572266327217 ], [ 3155747.951781246811152, 1965316.098037208197638 ], [ 3155741.516760095022619, 1965309.125048245768994 ], [ 3155762.861962934955955, 1965301.346791516756639 ], [ 3155791.032193107530475, 1965289.339551706565544 ], [ 3155820.734377053566277, 1965279.595118724741042 ], [ 3155833.138748786877841, 1965276.921758503420278 ], [ 3155845.404642610345036, 1965274.778584218816832 ], [ 3155865.458572837058455, 1965273.299061059486121 ], [ 3155853.778874645009637, 1965244.974618674488738 ], [ 3155836.854285889305174, 1965209.975136331282556 ], [ 3155822.627186718396842, 1965183.61394870840013 ], [ 3155817.195848151110113, 1965175.959506633458659 ], [ 3155814.62721528345719, 1965172.359589336207137 ], [ 3155816.340369458775967, 1965170.542007314274088 ], [ 3155820.553032056428492, 1965165.251190355978906 ], [ 3155829.089049036614597, 1965157.180658472003415 ], [ 3155845.632714598439634, 1965138.095292969373986 ], [ 3155864.114205879159272, 1965125.2506108940579 ], [ 3155880.222037359140813, 1965117.8814295490738 ], [ 3155881.596371187828481, 1965117.135224649682641 ], [ 3155899.738164413720369, 1965104.349917775951326 ], [ 3155919.501361543312669, 1965090.775152944494039 ], [ 3155930.466481781564653, 1965085.822868324816227 ], [ 3155943.156568403355777, 1965075.508242001524195 ], [ 3155955.935069774277508, 1965061.129582225112244 ], [ 3155964.486107647418976, 1965052.550390009302646 ], [ 3155981.965156360995024, 1965041.399092011619359 ], [ 3156016.202965308912098, 1965024.789423929061741 ], [ 3156034.130556591786444, 1965014.065879508620128 ], [ 3156044.428787342272699, 1965006.699720851378515 ], [ 3156060.51442650379613, 1964992.755501332459971 ], [ 3156070.085023851599544, 1964983.998119252966717 ], [ 3156081.608393871225417, 1964980.972705725114793 ], [ 3156090.290343997068703, 1964979.455889369128272 ], [ 3156103.299998779781163, 1964979.207229120191187 ], [ 3156114.019071866758168, 1964975.310172014636919 ], [ 3156129.430113701149821, 1964966.544607179006562 ], [ 3156140.798074486665428, 1964962.534193398430943 ], [ 3156151.333825001493096, 1964960.693417704198509 ], [ 3156166.474252710584551, 1964959.060447856783867 ], [ 3156186.179797617252916, 1964964.221108446130529 ], [ 3156195.092952131293714, 1964962.157736965687945 ], [ 3156201.751786061562598, 1964961.500483069568872 ], [ 3156215.777531967032701, 1964972.714305901899934 ], [ 3156233.796402869746089, 1964990.315707280067727 ], [ 3156248.665098695084453, 1964994.803161088610068 ], [ 3156263.885359970852733, 1964995.68670314271003 ], [ 3156277.928258806932718, 1965008.415802313480526 ], [ 3156313.29715268779546, 1965024.504261469002813 ], [ 3156382.218725293409079, 1965048.395204327767715 ], [ 3156416.269772744737566, 1965060.159201317932457 ], [ 3156481.622228261083364, 1965084.167730323970318 ], [ 3156519.677172185387462, 1965097.762744281906635 ], [ 3156576.883851474151015, 1965103.963236487936229 ], [ 3156651.877407604828477, 1965112.623434593668208 ], [ 3156677.931806385982782, 1965116.16909608268179 ], [ 3156715.907950376160443, 1965128.259780724532902 ], [ 3156752.965329128317535, 1965163.284798374166712 ], [ 3156805.231067039072514, 1965217.414585247635841 ], [ 3156817.852751328144222, 1965230.392104540718719 ], [ 3156823.186139037832618, 1965233.0029929545708 ], [ 3156807.089687235187739, 1965251.50365768163465 ], [ 3156783.099790142849088, 1965271.889257295522839 ], [ 3156766.042458484880626, 1965287.521304493304342 ], [ 3156762.970806742087007, 1965290.58833147212863 ], [ 3156749.322867111302912, 1965301.0699211016763 ], [ 3156728.922477488406003, 1965311.21298733423464 ], [ 3156710.094513542018831, 1965318.04475628444925 ], [ 3156698.97383113950491, 1965322.011943588266149 ], [ 3156674.258535950444639, 1965328.354074486531317 ], [ 3156662.4091258905828, 1965329.918050712905824 ], [ 3156644.949313717894256, 1965329.931828920962289 ], [ 3156642.307164716534317, 1965329.887321532005444 ], [ 3156603.91113662160933, 1965330.016140847699717 ], [ 3156564.741745726205409, 1965329.267829038901255 ], [ 3156549.27313604997471, 1965327.415525910910219 ], [ 3156536.635401271283627, 1965328.611173993675038 ], [ 3156533.761948660947382, 1965329.113168596290052 ], [ 3156514.499512427020818, 1965333.996698309900239 ], [ 3156499.889645, 1965340.597857824061066 ], [ 3156474.14827797934413, 1965355.722747896565124 ], [ 3156466.257951812818646, 1965360.643916826229542 ], [ 3156457.889132535085082, 1965366.154667748371139 ], [ 3156443.939734309446067, 1965383.774276801850647 ], [ 3156431.489261493086815, 1965401.638115781126544 ], [ 3156420.159607283771038, 1965427.403546430869028 ], [ 3156409.875203772448003, 1965447.925507869804278 ], [ 3156399.918924815952778, 1965471.93276608735323 ], [ 3156375.111847484484315, 1965523.332861685659736 ], [ 3156368.625558651052415, 1965541.166959675261751 ], [ 3156362.864927127026021, 1965558.368198051583022 ], [ 3156360.655183520168066, 1965572.924722531344742 ], [ 3156359.576977992430329, 1965590.82617899030447 ], [ 3156357.411932255141437, 1965647.886226352537051 ], [ 3156354.073923172894865, 1965676.81026574014686 ], [ 3156352.966904995031655, 1965696.74113287567161 ], [ 3156352.664319928269833, 1965702.867063096025959 ], [ 3156347.574890604242682, 1965726.530233354307711 ], [ 3156339.075151768513024, 1965754.331748320022598 ], [ 3156331.305281528271735, 1965770.871897393604741 ], [ 3156322.799097372684628, 1965792.601588480873033 ], [ 3156318.808205249719322, 1965802.91453893086873 ], [ 3156306.871496181003749, 1965838.90801626467146 ], [ 3156293.953765301033854, 1965896.834683564258739 ], [ 3156293.837589885108173, 1965903.940242500742897 ], [ 3156293.600031939800829, 1965913.09136973391287 ], [ 3156296.770696400664747, 1965930.756563205737621 ], [ 3156298.248476270586252, 1965940.114092637086287 ], [ 3156305.806520857848227, 1965971.689383544027805 ], [ 3156315.831044205930084, 1966027.126110543729737 ], [ 3156321.779305307660252, 1966055.946129923919216 ], [ 3156337.041426852345467, 1966110.973812781972811 ], [ 3156348.057872905395925, 1966154.597205484518781 ], [ 3156352.642320218496025, 1966164.930252616060898 ], [ 3156363.43379699671641, 1966185.818854178534821 ], [ 3156366.37655773665756, 1966192.38999633397907 ], [ 3156383.055472472216934, 1966228.444821922108531 ], [ 3156394.62053703609854, 1966250.210464187897742 ], [ 3156398.677593750413507, 1966258.611295598326251 ], [ 3156407.237112213857472, 1966272.80468392977491 ], [ 3156410.17976707033813, 1966279.375748798716813 ], [ 3156418.024387344717979, 1966289.645307432627305 ], [ 3156434.503064343705773, 1966311.564679398899898 ], [ 3156454.386712201870978, 1966338.962272290373221 ], [ 3156455.624688539188355, 1966340.770350911421701 ], [ 3156507.625040219165385, 1966406.080517465248704 ], [ 3156511.865357385016978, 1966412.424875573953614 ], [ 3156525.346829794812948, 1966405.514687923248857 ], [ 3156620.879554573446512, 1966419.189428024925292 ], [ 3156677.237873727455735, 1966427.056206780252978 ], [ 3156683.15723123261705, 1966428.552411147626117 ], [ 3156687.964331339579076, 1966430.243036286672577 ], [ 3156693.229325294494629, 1966412.116095109609887 ], [ 3156701.442197237163782, 1966390.943690541666001 ], [ 3156704.60095176845789, 1966382.800467768218368 ], [ 3156710.977249260060489, 1966363.467309742001817 ], [ 3156723.600850895512849, 1966334.439074665307999 ], [ 3156744.619685152545571, 1966295.846723586786538 ], [ 3156778.994226373266429, 1966233.665336742764339 ], [ 3156789.775986904278398, 1966216.092942385934293 ], [ 3156797.346521318890154, 1966201.105923744849861 ], [ 3156811.137041580863297, 1966194.141785920830444 ], [ 3156829.788858167827129, 1966181.773674498777837 ], [ 3156859.594297069124877, 1966167.456935359165072 ], [ 3156902.609642449300736, 1966152.350736852735281 ], [ 3156924.480140490457416, 1966144.481178520945832 ], [ 3157014.419905509799719, 1966114.092197796795517 ], [ 3157033.604481693357229, 1966108.716285473667085 ], [ 3157051.624686688650399, 1966112.653387377271429 ], [ 3157090.773862158879638, 1966123.527251022169366 ], [ 3157100.439061839599162, 1966102.101353767327964 ], [ 3157111.553372288122773, 1966077.385788022074848 ], [ 3157120.806311842054129, 1966060.58672362845391 ], [ 3157125.555921799503267, 1966051.659594506025314 ], [ 3157126.203605990856886, 1966050.534273104742169 ], [ 3157140.722981495782733, 1966031.296953697456047 ], [ 3157146.242750470526516, 1966034.887385599082336 ], [ 3157151.066933329682797, 1966038.093344441615045 ], [ 3157157.923842074349523, 1966005.518062519840896 ], [ 3157160.128185963258147, 1965985.901756712934002 ], [ 3157163.6313143405132, 1965952.394110145280138 ], [ 3157167.309153365436941, 1965923.410741666099057 ], [ 3157169.333574844524264, 1965894.2102332462091 ], [ 3157171.344116897787899, 1965866.530318748438731 ], [ 3157173.366372231394053, 1965835.305760388029739 ], [ 3157172.185377134941518, 1965740.368023923365399 ], [ 3157174.328587239608169, 1965662.056497132405639 ], [ 3157174.739225183613598, 1965611.376205008942634 ], [ 3157177.538287896662951, 1965584.064821763895452 ], [ 3157176.719298371113837, 1965554.348860657773912 ], [ 3157175.574143199250102, 1965537.8480957262218 ], [ 3157175.182176432572305, 1965532.349631598684937 ], [ 3157171.715743876062334, 1965497.529325652867556 ], [ 3157168.063936927355826, 1965462.741312362952158 ], [ 3157167.56978295231238, 1965448.1512809721753 ], [ 3157165.567324330098927, 1965409.532575893914327 ], [ 3157162.808296991046518, 1965386.228675446240231 ], [ 3157173.853638671338558, 1965369.116590168094262 ], [ 3157174.192372597754002, 1965368.045250155264512 ], [ 3157178.637303716503084, 1965363.220114912837744 ], [ 3157217.701099198311567, 1965321.476398387923837 ], [ 3157239.123668447136879, 1965298.503060015384108 ], [ 3157256.443176573608071, 1965282.319375410908833 ], [ 3157276.630883440375328, 1965260.573952642735094 ], [ 3157301.404182964470237, 1965235.497020492795855 ], [ 3157343.911634599789977, 1965191.633764744037762 ], [ 3157394.630444745533168, 1965139.251008343650028 ], [ 3157411.407841837499291, 1965121.644002727232873 ], [ 3157427.810265340376645, 1965100.053754672640935 ], [ 3157441.846523604355752, 1965076.346527456305921 ], [ 3157453.294665196910501, 1965060.176535627571866 ], [ 3157500.550515473820269, 1964990.686227224534377 ], [ 3157505.009417494293302, 1964984.340384966460988 ], [ 3157507.138254420366138, 1964980.932049073511735 ], [ 3157514.358745206613094, 1964970.56136976974085 ], [ 3157537.530263261403888, 1964935.136945740552619 ], [ 3157589.847327010706067, 1964858.68980595562607 ], [ 3157622.352409153245389, 1964808.983129910659045 ], [ 3157653.406417662743479, 1964760.542141971178353 ], [ 3157656.152159477584064, 1964756.01391735416837 ], [ 3157682.718461025506258, 1964715.948037569411099 ], [ 3157683.890527091454715, 1964713.71900196140632 ], [ 3157680.749737687408924, 1964709.712983983801678 ], [ 3157601.471819329075515, 1964621.838800473837182 ], [ 3157585.059756, 1964603.956235464662313 ], [ 3157564.301867618225515, 1964582.27814776962623 ], [ 3157554.915856782346964, 1964575.31435195938684 ], [ 3157519.584396207239479, 1964611.344401389593259 ], [ 3157491.506646120920777, 1964639.022395287174731 ], [ 3157483.23129665479064, 1964645.52864653011784 ], [ 3157455.164409106597304, 1964668.650077214930207 ], [ 3157425.399231561925262, 1964693.080446852603927 ], [ 3157344.747656117659062, 1964757.776368309510872 ], [ 3157314.102563368156552, 1964782.866557582747191 ], [ 3157295.77911282191053, 1964799.731510847108439 ], [ 3157282.593353141099215, 1964809.119890161324292 ], [ 3157262.443922909907997, 1964823.267342178849503 ], [ 3157217.26129805110395, 1964850.391061546048149 ], [ 3157149.579007278196514, 1964890.048506540246308 ], [ 3157134.662100807297975, 1964898.72729700175114 ], [ 3157096.737246631644666, 1964921.546822643838823 ], [ 3157080.107059020549059, 1964932.043169774580747 ], [ 3157071.770020299591124, 1964938.560335448710248 ], [ 3157054.637507794424891, 1964971.411968998378143 ], [ 3156978.767670440953225, 1965027.176595508819446 ], [ 3156972.861094204243273, 1965023.147567587671801 ], [ 3156969.468978434801102, 1965015.136715785134584 ], [ 3156968.226538089569658, 1965023.957164719467983 ], [ 3156971.482239562086761, 1965034.522262076614425 ], [ 3156939.174273683689535, 1965064.964244164992124 ], [ 3156936.384934830479324, 1965072.030592674855143 ], [ 3156935.882691053673625, 1965094.386000165482983 ], [ 3156933.515960230492055, 1965121.621769795427099 ], [ 3156928.971489761024714, 1965149.744161090115085 ], [ 3156921.734823293052614, 1965174.288189988816157 ], [ 3156915.307035046629608, 1965189.075327998027205 ], [ 3156913.986774052493274, 1965197.403310152236372 ], [ 3156891.306453950703144, 1965199.341108005028218 ], [ 3156872.458344117738307, 1965201.621634130133316 ], [ 3156860.038853168487549, 1965204.803380185738206 ], [ 3156842.896429406944662, 1965212.858965658582747 ], [ 3156835.888090874999762, 1965219.144112186040729 ], [ 3156827.767679322510958, 1965210.947079758392647 ], [ 3156798.364032754674554, 1965181.164052840787917 ], [ 3156761.334443777799606, 1965143.097642524400726 ], [ 3156741.135699199512601, 1965124.358623849228024 ], [ 3156727.169549622572958, 1965111.109912122134119 ], [ 3156684.386398526839912, 1965097.328553670551628 ], [ 3156680.27499289251864, 1965096.022458283230662 ], [ 3156633.900202726945281, 1965090.459854810032994 ], [ 3156553.019205397926271, 1965081.310050566215068 ], [ 3156524.400433039292693, 1965078.212452829815447 ], [ 3156467.472010872326791, 1965057.286946016829461 ], [ 3156399.508258161135018, 1965033.228544508107007 ], [ 3156338.160590353421867, 1965012.063068741234019 ], [ 3156320.941758651752025, 1965005.961822493001819 ], [ 3156296.455722614191473, 1964995.057168586878106 ], [ 3156290.673845253884792, 1964992.018705256283283 ], [ 3156289.637251195497811, 1964990.68154680961743 ], [ 3156283.838410082273185, 1964986.127691013505682 ], [ 3156270.209815825335681, 1964985.472255806438625 ], [ 3156259.666660781949759, 1964980.229000349063426 ], [ 3156248.968004717025906, 1964974.000844580121338 ], [ 3156246.386568660382181, 1964972.933578561060131 ], [ 3156238.904317972715944, 1964969.179913237458095 ], [ 3156223.888691653497517, 1964957.126851417124271 ], [ 3156195.854053919669241, 1964936.214517361251637 ], [ 3156184.087946465238929, 1964928.65450837649405 ], [ 3156161.467590211890638, 1964913.881478464696556 ], [ 3156135.061843138653785, 1964899.263607028871775 ], [ 3156124.095828864723444, 1964888.527419536840171 ], [ 3156115.068742023315281, 1964885.043666710145772 ], [ 3156103.388771204277873, 1964886.072178757283837 ], [ 3156099.102751375176013, 1964880.241871485020965 ], [ 3156093.152782453224063, 1964864.074580776970834 ], [ 3156088.460928951855749, 1964854.266495639691129 ], [ 3156079.379923296626657, 1964828.524523775791749 ], [ 3156078.868528998456895, 1964827.095613208599389 ], [ 3156073.612107445951551, 1964809.288906821981072 ], [ 3156054.784236532170326, 1964816.120886554010212 ], [ 3156034.273074688389897, 1964823.753149795345962 ], [ 3156008.27815060550347, 1964832.849578209687024 ], [ 3155991.918914726004004, 1964836.21388808102347 ], [ 3155979.807363210245967, 1964838.329902769532055 ], [ 3155961.918274206109345, 1964841.455422126688063 ], [ 3155952.185746784321964, 1964843.155905205989257 ], [ 3155941.082109563983977, 1964848.638438166351989 ], [ 3155925.711584795732051, 1964851.830038749147207 ], [ 3155911.576819971669465, 1964854.805641890969127 ], [ 3155888.712232073768973, 1964857.788307597627863 ], [ 3155885.297621324192733, 1964857.878799073165283 ], [ 3155858.200231624767184, 1964861.601009576115757 ], [ 3155833.81417001504451, 1964872.44082328886725 ], [ 3155809.428119663149118, 1964883.280654357047752 ], [ 3155761.116590627934784, 1964887.166874889750034 ], [ 3155745.282599553000182, 1964890.439527265960351 ], [ 3155723.536837344057858, 1964884.623343335464597 ], [ 3155685.148553723469377, 1964877.16024238569662 ], [ 3155681.485789791680872, 1964876.281934748869389 ], [ 3155666.973020739853382, 1964872.238560245372355 ], [ 3155639.801189520396292, 1964863.827945846598595 ], [ 3155607.313142748549581, 1964854.321748183108866 ], [ 3155569.966803921852261, 1964853.25582461594604 ], [ 3155559.710189654491842, 1964856.060047739883885 ], [ 3155538.138206141535193, 1964839.079773400211707 ], [ 3155550.696761063300073, 1964865.732383371563628 ], [ 3155540.125591719988734, 1964892.883660172112286 ], [ 3155537.547340385615826, 1964894.852501449873671 ], [ 3155509.972479708027095, 1964914.853081746026874 ], [ 3155494.811877836473286, 1964926.611673094332218 ], [ 3155473.223582249134779, 1964938.481071362504736 ], [ 3155468.951459162402898, 1964931.130211883923039 ], [ 3155468.038451505359262, 1964929.771473263623193 ], [ 3155407.327723261900246, 1964956.068103700177744 ], [ 3155405.953393357805908, 1964956.814323320519179 ], [ 3155404.702551037073135, 1964957.538966476917267 ], [ 3155389.865831785835326, 1964968.734935664338991 ], [ 3155360.132707709446549, 1964978.485016923164949 ], [ 3155354.3925039623864, 1964970.884486073628068 ], [ 3155292.682384002953768, 1965016.587331410963088 ], [ 3155260.281501942314208, 1965046.03502829442732 ], [ 3155237.711899425834417, 1965094.514401249587536 ], [ 3155225.209428349509835, 1965121.497372601879761 ], [ 3155197.188506873324513, 1965143.09460903541185 ], [ 3155185.081365846097469, 1965149.258850034791976 ], [ 3155176.386735812295228, 1965153.30864592641592 ], [ 3155127.97111033834517, 1965175.433062728028744 ], [ 3155073.547662443947047, 1965200.125716753536835 ], [ 3155076.642587066628039, 1965204.645825886633247 ], [ 3155070.76058152038604, 1965209.216263934038579 ], [ 3155050.01106905285269, 1965224.988257835619152 ], [ 3154992.665288424119353, 1965247.661250113975257 ], [ 3154931.921064621768892, 1965270.928192889085039 ], [ 3154890.278283670544624, 1965253.912723797606304 ], [ 3154851.904043146409094, 1965244.929693634388968 ], [ 3154842.816337966360152, 1965242.469074092339724 ], [ 3154817.061585611663759, 1965244.439189812866971 ], [ 3154794.677769176661968, 1965234.180158202536404 ], [ 3154768.071917016990483, 1965234.780853800242767 ], [ 3154740.445328415837139, 1965234.547650744440034 ], [ 3154734.733760113827884, 1965239.594458827283233 ], [ 3154721.922531600110233, 1965237.278441761154681 ], [ 3154703.95047281589359, 1965234.852080943994224 ], [ 3154694.456858561839908, 1965228.413584058173001 ], [ 3154689.126749520655721, 1965243.515584541950375 ], [ 3154676.539251750800759, 1965248.245776568073779 ], [ 3154664.540822618640959, 1965254.897303326055408 ], [ 3154664.512043132912368, 1965242.250024160603061 ], [ 3154658.269878327846527, 1965227.652068412862718 ], [ 3154642.260315732099116, 1965225.388883171603084 ], [ 3154596.078011365607381, 1965211.19141458417289 ], [ 3154572.27831141743809, 1965220.917414887342602 ], [ 3154510.840825909748673, 1965231.147862045327201 ], [ 3154515.943919587414712, 1965220.640327750938013 ], [ 3154485.342931077815592, 1965242.182972765062004 ], [ 3154479.971293597947806, 1965247.170422047842294 ], [ 3154396.007430880330503, 1965287.654465542640537 ], [ 3154372.348591317422688, 1965298.874381079804152 ], [ 3154337.617177608422935, 1965315.571974859107286 ], [ 3154297.632338522002101, 1965332.175496962387115 ], [ 3154270.596168065443635, 1965334.876010529464111 ], [ 3154152.885681407526135, 1965373.160918476991355 ], [ 3154081.853579459711909, 1965383.550604012794793 ], [ 3154067.659582582768053, 1965388.561677243793383 ], [ 3154056.75977229885757, 1965396.539716803235933 ], [ 3154040.41063323430717, 1965409.012880952563137 ], [ 3154028.47947193402797, 1965420.713845238788053 ], [ 3154021.159438889473677, 1965438.694287803024054 ], [ 3154020.43723890511319, 1965442.363172985380515 ], [ 3154016.734105771407485, 1965461.735793821047992 ], [ 3154017.283092334866524, 1965483.907964268233627 ], [ 3154015.398731337860227, 1965513.590751458425075 ], [ 3154012.531918564811349, 1965520.164927186910063 ], [ 3154110.437685155775398, 1965659.43717339891009 ], [ 3154118.110704108141363, 1965668.218024955131114 ], [ 3154128.349964519031346, 1965663.898077379679307 ], [ 3154131.697546505369246, 1965673.434865768067539 ], [ 3154120.412094347644597, 1965681.986525279236957 ], [ 3154117.65290389675647, 1965688.035798808792606 ], [ 3154119.079471994657069, 1965692.847349174786359 ], [ 3154123.890859638340771, 1965698.585741661954671 ], [ 3154142.154798440635204, 1965714.119316615629941 ], [ 3154177.337296753190458, 1965743.903219652129337 ], [ 3154187.240336111746728, 1965699.660512666916475 ], [ 3154193.106004767585546, 1965679.909841315122321 ], [ 3154202.888146742247045, 1965667.066164633026347 ], [ 3154213.001708052121103, 1965660.743823657045141 ], [ 3154227.398137803189456, 1965657.215674633858725 ], [ 3154243.357558198273182, 1965655.944758988684043 ], [ 3154269.069407280068845, 1965657.524365061661229 ], [ 3154324.774959624744952, 1965662.465704469708726 ], [ 3154346.287183611653745, 1965666.803665785118937 ], [ 3154364.863223899621516, 1965670.642570242285728 ], [ 3154375.835602743551135, 1965672.773713919566944 ], [ 3154388.634049857966602, 1965677.622414272511378 ], [ 3154405.576899340376258, 1965685.79551361920312 ], [ 3154422.317284164018929, 1965692.485714206472039 ], [ 3154435.270248715765774, 1965697.30732237175107 ], [ 3154440.247798641212285, 1965699.474032170604914 ], [ 3154464.82838533166796, 1965712.385447169886902 ], [ 3154478.185174667276442, 1965719.160877547692508 ], [ 3154489.194876176770777, 1965727.35867088357918 ], [ 3154498.039745601825416, 1965733.910503356484696 ], [ 3154501.566243993118405, 1965737.342990494798869 ], [ 3154505.463479811791331, 1965740.71058806986548 ], [ 3154509.113463927060366, 1965744.121495888568461 ], [ 3154517.002714925445616, 1965752.864612785633653 ], [ 3154555.903503623325378, 1965792.120882326737046 ], [ 3154588.477961716242135, 1965824.891404578462243 ], [ 3154615.005291969049722, 1965852.139464941807091 ], [ 3154640.925223796628416, 1965874.938823106233031 ], [ 3154662.175666518043727, 1965894.505538327852264 ], [ 3154687.520260388031602, 1965913.862792312400416 ], [ 3154714.148741798009723, 1965934.513984129298478 ], [ 3154720.365286442451179, 1965939.500778577290475 ], [ 3154730.446002335287631, 1965945.83658378617838 ], [ 3154744.639188146218657, 1965954.490304358536378 ], [ 3154759.157316295895725, 1965963.593340583145618 ], [ 3154798.273099808488041, 1965987.123361357953399 ], [ 3154859.559750356711447, 1966023.986114890081808 ], [ 3154875.994560986757278, 1966033.766436848789454 ], [ 3154894.163715980947018, 1966047.29245608812198 ], [ 3154928.462074446957558, 1966073.688800254603848 ], [ 3154975.285065271891654, 1966109.030528362374753 ], [ 3154986.542081045452505, 1966117.185212631477043 ], [ 3154989.880989979952574, 1966118.626131586031988 ], [ 3154997.053145369980484, 1966121.421586222248152 ], [ 3155008.922704791650176, 1966124.408276660367846 ], [ 3155021.872364440001547, 1966126.19403492542915 ], [ 3155042.763485997915268, 1966127.604250668315217 ], [ 3155090.679148766212165, 1966129.859025845536962 ], [ 3155130.406307351775467, 1966132.532653266796842 ], [ 3155147.760322543792427, 1966135.067102411529049 ], [ 3155159.740642823744565, 1966140.564954627072439 ], [ 3155174.38129145745188, 1966148.63461050321348 ], [ 3155187.554892418440431, 1966157.466620153514668 ], [ 3155208.105360330082476, 1966172.601015492342412 ], [ 3155234.263947118073702, 1966187.261442124377936 ], [ 3155261.07678438257426, 1966206.868511923355982 ], [ 3155286.49490491207689, 1966222.670647195540369 ], [ 3155316.381385408807546, 1966241.234561073128134 ], [ 3155347.195788385346532, 1966260.64864005567506 ], [ 3155368.579295748844743, 1966274.625243477988988 ], [ 3155387.240712576080114, 1966286.041038508759812 ], [ 3155406.460494231898338, 1966299.383654379751533 ], [ 3155430.117608888074756, 1966315.49357618833892 ], [ 3155425.782666956074536, 1966321.818103655008599 ], [ 3155460.67239156877622, 1966352.160233323462307 ], [ 3155672.680181725416332, 1966559.557870162185282 ], [ 3155706.812513929791749, 1966589.52642077836208 ], [ 3155776.469633779488504, 1966651.244670290732756 ], [ 3155788.74299419298768, 1966656.185469716321677 ], [ 3155814.276137603912503, 1966663.870234192349017 ], [ 3155929.700603878125548, 1966698.36000421224162 ], [ 3155940.331025309860706, 1966698.526952896500006 ], [ 3156028.374210139736533, 1966687.697998327668756 ], [ 3156040.841310711111873, 1966686.025772702647373 ], [ 3156052.010756878647953, 1966684.580182674340904 ], [ 3156066.795026638079435, 1966682.503098033601418 ], [ 3156106.25156498933211, 1966677.633366330293939 ], [ 3156122.042725982610136, 1966677.910748795606196 ], [ 3156148.149053300265223, 1966687.013835386373103 ], [ 3156181.706918803043664, 1966699.875936715630814 ], [ 3156219.886385580524802, 1966714.460942274425179 ], [ 3156306.056522648781538, 1966743.435221328400075 ], [ 3156326.120034465566278, 1966751.063726290827617 ], [ 3156342.65711484849453, 1966755.259716239059344 ], [ 3156355.052963373251259, 1966759.166969463229179 ], [ 3156382.747809852473438, 1966765.462166890501976 ], [ 3156405.605839965865016, 1966771.084170717746019 ], [ 3156415.390438535716385, 1966774.941675958456472 ], [ 3156442.128578335512429, 1966782.416249827481806 ], [ 3156466.130847255233675, 1966788.850554798031226 ], [ 3156561.397341742645949, 1966813.705548497382551 ], [ 3156638.689564630854875, 1966834.109634545398876 ], [ 3156647.279761605896056, 1966833.621017018798739 ], [ 3156670.672307962551713, 1966818.906011637067422 ], [ 3156764.540744761936367, 1966764.549228239338845 ], [ 3156770.189340732060373, 1966758.501343272160739 ], [ 3156774.326210909057409, 1966754.742042891681194 ], [ 3156755.34372939914465, 1966732.247782544000074 ], [ 3156733.468730446882546, 1966706.716326887486503 ], [ 3156725.438673806376755, 1966696.479105366161093 ], [ 3156701.255987019278109, 1966665.783714665332809 ], [ 3156669.542991882190108, 1966629.824844998773187 ], [ 3156663.277330406010151, 1966622.315935932099819 ], [ 3156644.622058138716966, 1966602.295020210556686 ], [ 3156610.694056066684425, 1966561.156155086588115 ], [ 3156597.481025656685233, 1966558.909871192881837 ], [ 3156541.411505764350295, 1966546.437946025980636 ], [ 3156518.306256160140038, 1966540.858941245125607 ], [ 3156505.370237493887544, 1966537.552101011155173 ], [ 3156491.723636847920716, 1966534.369310736190528 ], [ 3156485.754123768769205, 1966529.339247274212539 ], [ 3156457.468807813711464, 1966505.433868546271697 ], [ 3156415.693173851817846, 1966465.666212515439838 ], [ 3156398.85026019345969, 1966449.883576533058658 ], [ 3156385.735142861492932, 1966438.004480701871216 ], [ 3156371.544046571478248, 1966431.374203484272584 ], [ 3156354.234605851583183, 1966427.313224308425561 ], [ 3156349.102571695111692, 1966425.173312119208276 ], [ 3156316.75635812850669, 1966432.849175971699879 ], [ 3156279.164159164763987, 1966432.838151529198512 ], [ 3156241.938263108953834, 1966428.714314915705472 ], [ 3156210.150230636354536, 1966423.640412614447996 ], [ 3156191.838271257467568, 1966421.272934880806133 ], [ 3156170.306818459182978, 1966428.071459931554273 ], [ 3156144.979544717818499, 1966439.582055946113542 ], [ 3156140.871399003546685, 1966441.312020852230489 ], [ 3156129.660443095490336, 1966447.319557532202452 ], [ 3156115.387480064760894, 1966450.825635554967448 ], [ 3156106.472350682597607, 1966450.865019327728078 ], [ 3156098.975110215134919, 1966447.620106224203482 ] ] ], [ [ [ 3148915.984088491648436, 1969761.288620921317488 ], [ 3148873.35607181629166, 1969785.448515569791198 ], [ 3148807.045139713212848, 1969823.874315933091566 ], [ 3148806.227120012044907, 1969824.523554709041491 ], [ 3148805.207602674141526, 1969824.701905394438654 ], [ 3148766.469813527073711, 1969846.156768110347912 ], [ 3148753.593420676421374, 1969853.470813628984615 ], [ 3148535.930522123351693, 1969976.581506645306945 ], [ 3148514.150776205584407, 1969993.045343861915171 ], [ 3148500.650219553150237, 1970008.060790608404204 ], [ 3148490.544327971059829, 1970019.44542492646724 ], [ 3148433.697354955133051, 1970206.53920346009545 ], [ 3148415.366492845118046, 1970225.942784921033308 ], [ 3148405.846443491987884, 1970236.212712880922481 ], [ 3148425.141716162674129, 1970248.021033377153799 ], [ 3148536.137659689411521, 1970317.175800420809537 ], [ 3148566.703723053447902, 1970335.616573457606137 ], [ 3148523.070308575406671, 1970371.08809892879799 ], [ 3148462.938785943202674, 1970421.087409189669415 ], [ 3148436.533768229652196, 1970445.446620323928073 ], [ 3148421.796551672276109, 1970459.666285459185019 ], [ 3148404.892949328757823, 1970483.881576911080629 ], [ 3148382.228330738842487, 1970522.26450065872632 ], [ 3148357.884438954293728, 1970564.484260330442339 ], [ 3148338.841841447167099, 1970595.653715541120619 ], [ 3148327.553540971130133, 1970612.812957854010165 ], [ 3148324.792937928810716, 1970616.838943284237757 ], [ 3148312.931191069073975, 1970632.580195327289402 ], [ 3148297.902447110973299, 1970648.369297493714839 ], [ 3148305.962836476042867, 1970657.587994952686131 ], [ 3148325.888635415583849, 1970641.448168563423678 ], [ 3148375.648429085034877, 1970600.349082495784387 ], [ 3148474.444041015114635, 1970519.796212831744924 ], [ 3148537.432448178064078, 1970468.790880027227104 ], [ 3148590.83543789293617, 1970425.030309283407405 ], [ 3148596.422155406326056, 1970420.003799388650805 ], [ 3148635.163373845629394, 1970388.931190806208178 ], [ 3148648.143386899493635, 1970378.055899705737829 ], [ 3148678.811736423522234, 1970352.951042869826779 ], [ 3148739.824593938887119, 1970303.304141456028447 ], [ 3148815.006506254896522, 1970242.068149099126458 ], [ 3148832.216574100311846, 1970228.428396986797452 ], [ 3148954.877054057084024, 1970129.530638436554 ], [ 3149015.257741294801235, 1970080.501275143120438 ], [ 3149020.027753470931202, 1970077.136050200322643 ], [ 3149026.10998766310513, 1970073.035238492768258 ], [ 3149055.821000570431352, 1970048.09834037348628 ], [ 3149060.513091712258756, 1970044.240616425173357 ], [ 3149067.087238194420934, 1970038.029213033616543 ], [ 3149269.391555507667363, 1969873.574649853166193 ], [ 3149291.41760179400444, 1969856.055978014133871 ], [ 3149235.176023423671722, 1969761.124934589723125 ], [ 3149209.228109917603433, 1969767.688626291928813 ], [ 3149190.293965545482934, 1969747.718658807920292 ], [ 3149165.495300330221653, 1969720.17045549233444 ], [ 3149159.244102267548442, 1969712.153616032795981 ], [ 3149142.92290104040876, 1969706.910662091104314 ], [ 3149116.240025482140481, 1969706.010932059492916 ], [ 3149096.325260326266289, 1969705.951829408761114 ], [ 3149077.191609413363039, 1969700.188603456132114 ], [ 3149069.764008026570082, 1969690.353016831213608 ], [ 3149038.676761745940894, 1969701.35877356887795 ], [ 3148993.185588415246457, 1969721.464117100229487 ], [ 3148915.984088491648436, 1969761.288620921317488 ] ] ], [ [ [ 3145375.074580635875463, 1974007.546372013166547 ], [ 3145377.357876195572317, 1974005.121973269386217 ], [ 3145380.258981956169009, 1974002.589421367738396 ], [ 3145382.233373046852648, 1974000.219099773326889 ], [ 3145385.102288586553186, 1973996.67984071187675 ], [ 3145385.920187316834927, 1973996.030488590942696 ], [ 3145390.994508622214198, 1973989.574195597553626 ], [ 3145395.626833976246417, 1973987.75092321424745 ], [ 3145402.496657402720302, 1973984.017342830775306 ], [ 3145409.028100444935262, 1973981.355444295564666 ], [ 3145416.917362349573523, 1973977.443405990488827 ], [ 3145421.913412431254983, 1973982.13658989733085 ], [ 3145427.094722648151219, 1973986.797444299794734 ], [ 3145432.384833737276495, 1973991.945322871441022 ], [ 3145437.597183381207287, 1973996.600744700059295 ], [ 3145442.778478961437941, 1974001.26150210481137 ], [ 3145448.130387688055634, 1974006.398665497312322 ], [ 3145453.37356378743425, 1974011.048591373488307 ], [ 3145458.647596859373152, 1974015.693217310588807 ], [ 3145463.612709486857057, 1974020.391821367666125 ], [ 3145468.670558971818537, 1974025.074292918201536 ], [ 3145474.022453813813627, 1974030.211360389133915 ], [ 3145479.714209705591202, 1974035.2890346175991 ], [ 3145481.059897729195654, 1974036.571976597188041 ], [ 3145494.090427460148931, 1973994.303265250986442 ], [ 3145495.074977090582252, 1973991.093886992894113 ], [ 3145510.250551627017558, 1973946.931193904485554 ], [ 3145508.58807110786438, 1973939.629658450605348 ], [ 3145507.362002978101373, 1973935.288751549785957 ], [ 3145506.306531682610512, 1973931.424151642480865 ], [ 3145505.142245268449187, 1973927.072429822990671 ], [ 3145504.195490987040102, 1973923.694969377946109 ], [ 3145502.969424008857459, 1973919.354062887374312 ], [ 3145501.805138471536338, 1973915.002341366605833 ], [ 3145500.579087695106864, 1973910.661533596226946 ], [ 3145499.942587022669613, 1973908.242103314260021 ], [ 3145498.219677059911191, 1973901.963490029564127 ], [ 3145496.853955383878201, 1973897.140861072111875 ], [ 3145495.379419018980116, 1973891.831110365688801 ], [ 3145494.01369815506041, 1973887.008481696480885 ], [ 3145492.64797767624259, 1973882.185853160917759 ], [ 3145491.344153157435358, 1973877.352490840945393 ], [ 3145490.738494982477278, 1973874.927662110887468 ], [ 3145490.147683148272336, 1973871.994064026745036 ], [ 3145489.27621311834082, 1973867.084914927836508 ], [ 3145488.48261833935976, 1973862.668303987244144 ], [ 3145487.68902390729636, 1973858.251693157013506 ], [ 3145486.708740325644612, 1973852.855422667460516 ], [ 3145485.806430803611875, 1973847.951673017349094 ], [ 3145484.934962866827846, 1973843.04252460366115 ], [ 3145483.876806132961065, 1973837.153716631000862 ], [ 3145482.896638992242515, 1973831.757528004236519 ], [ 3145482.554200792685151, 1973829.792792483000085 ], [ 3145482.706110933795571, 1973827.741518751950935 ], [ 3145483.071514964103699, 1973823.628190882969648 ], [ 3145483.423516815528274, 1973821.035719993757084 ], [ 3145484.139677308499813, 1973813.317799432203174 ], [ 3145484.627398743759841, 1973808.170719696907327 ], [ 3145484.992903367150575, 1973804.057375186588615 ], [ 3145486.902922754641622, 1973799.673554813489318 ], [ 3145489.042645302601159, 1973793.731115260859951 ], [ 3145491.322024124674499, 1973788.270398900844157 ], [ 3145493.585310933180153, 1973782.306330148363486 ], [ 3145495.910379926674068, 1973776.331446831580251 ], [ 3145498.266374359838665, 1973770.351049350574613 ], [ 3145500.391353065147996, 1973764.917363943066448 ], [ 3145502.531081189401448, 1973758.974927331786603 ], [ 3145503.748024379834533, 1973756.231047381879762 ], [ 3145504.516307727433741, 1973753.059537501307204 ], [ 3145506.130946547724307, 1973747.209021118236706 ], [ 3145507.668957305606455, 1973741.878089044010267 ], [ 3145509.221816507633775, 1973736.038388481130823 ], [ 3145510.867283447179943, 1973730.182375900214538 ], [ 3145512.358264228329062, 1973724.353508455213159 ], [ 3145514.034688511863351, 1973718.492179025197402 ], [ 3145515.587551105767488, 1973712.652480044402182 ], [ 3145517.171255758963525, 1973706.807382594561204 ], [ 3145518.847583769820631, 1973700.946071685058996 ], [ 3145519.692599742673337, 1973697.254962822655216 ], [ 3145521.558201593812555, 1973694.397536299424246 ], [ 3145524.82742260210216, 1973689.77579291863367 ], [ 3145525.505674516782165, 1973688.644724179524928 ], [ 3145531.611681120935827, 1973679.477141243172809 ], [ 3145532.444436120800674, 1973678.319026660639793 ], [ 3145539.205596620682627, 1973674.098351431079209 ], [ 3145542.369950478430837, 1973672.025915999663994 ], [ 3145543.651266671717167, 1973671.295449396362528 ], [ 3145552.202745997346938, 1973665.749039598740637 ], [ 3145555.181756955571473, 1973663.709050339180976 ], [ 3145562.05173428542912, 1973659.975501303561032 ], [ 3145569.601307514123619, 1973656.122989597264677 ], [ 3145575.637204922735691, 1973652.53555199271068 ], [ 3145582.861683591268957, 1973648.233783000847325 ], [ 3145589.917024975176901, 1973644.467893675435334 ], [ 3145593.544678234495223, 1973642.314261939609423 ], [ 3145597.619666102342308, 1973639.576256826519966 ], [ 3145602.281626977957785, 1973636.73550240136683 ], [ 3145607.961575684137642, 1973632.704110792372376 ], [ 3145614.737614005804062, 1973627.974782287608832 ], [ 3145622.053481074981391, 1973622.644688654690981 ], [ 3145623.551084125414491, 1973621.876364733092487 ], [ 3145632.58074199501425, 1973615.740106597542763 ], [ 3145641.810595998074859, 1973609.062638837611303 ], [ 3145648.833766677416861, 1973604.290058920392767 ], [ 3145656.07310878392309, 1973599.479539095191285 ], [ 3145663.574329080060124, 1973594.117011438356712 ], [ 3145671.199228380806744, 1973588.732937413034961 ], [ 3145678.469416348263621, 1973583.917024262947962 ], [ 3145685.939800239633769, 1973578.559900996973738 ], [ 3145693.055602504871786, 1973573.771118027158082 ], [ 3145697.208457679487765, 1973571.525564846582711 ], [ 3145700.836235599126667, 1973569.372026933822781 ], [ 3145707.242826948408037, 1973565.719628265826032 ], [ 3145713.865719521418214, 1973562.029469389934093 ], [ 3145719.901623798068613, 1973558.441961271455511 ], [ 3145725.675568032078445, 1973555.406578908674419 ], [ 3145733.178140822798014, 1973551.056170214433223 ], [ 3145736.1114745689556, 1973549.53036477509886 ], [ 3145762.513313082046807, 1973525.167982151033357 ], [ 3145791.191366323269904, 1973480.666764717083424 ], [ 3145792.815013988874853, 1973481.901056364644319 ], [ 3145794.640194085426629, 1973483.606238306732848 ], [ 3145834.107428374700248, 1973516.178386877523735 ], [ 3145841.422889117151499, 1973522.490272381342947 ], [ 3145844.919293258339167, 1973514.285739270504564 ], [ 3145862.480532264336944, 1973474.767628014553338 ], [ 3145939.488461726345122, 1973362.078706209780648 ], [ 3146008.444078740198165, 1973270.540183250326663 ], [ 3146068.419636346399784, 1973211.956094606779516 ], [ 3146074.731021325103939, 1973206.295795911224559 ], [ 3146082.708062529563904, 1973198.319292098749429 ], [ 3146194.016653589904308, 1973087.726153915049508 ], [ 3146209.198396801482886, 1973071.908423734595999 ], [ 3146210.337442229501903, 1973068.672073983354494 ], [ 3146211.907836246769875, 1973064.347898037871346 ], [ 3146239.726645863614976, 1973048.342977614607662 ], [ 3146345.250090350396931, 1972955.972643287386745 ], [ 3146501.143928677774966, 1972819.35517984488979 ], [ 3146592.400492823682725, 1972732.52018135972321 ], [ 3146685.184578263200819, 1972643.899753164732829 ], [ 3146699.840236042626202, 1972627.162229740759358 ], [ 3146747.494055445306003, 1972572.761471122503281 ], [ 3146816.892172935418785, 1972487.22279192879796 ], [ 3146901.275997773744166, 1972376.790741041302681 ], [ 3146904.79260841710493, 1972372.126049671554938 ], [ 3146908.910877979826182, 1972366.849907274125144 ], [ 3146912.33476631809026, 1972362.201444518985227 ], [ 3146915.234754643402994, 1972358.656983234919608 ], [ 3146918.427585434634238, 1972354.555115740513429 ], [ 3146921.74398297816515, 1972350.431623920565471 ], [ 3146925.229756025131792, 1972345.772333623608574 ], [ 3146928.808056193869561, 1972341.096851295325905 ], [ 3146932.186238890513778, 1972336.962548738112673 ], [ 3146935.733682896010578, 1972332.29236664576456 ], [ 3146939.188518061768264, 1972327.638493596110493 ], [ 3146942.752052132040262, 1972323.471755607286468 ], [ 3146946.175947832409292, 1972318.823298570001498 ], [ 3146949.785193625837564, 1972314.142405063379556 ], [ 3146953.301814987324178, 1972309.477722060866654 ], [ 3146956.957977192476392, 1972305.294776560738683 ], [ 3146960.598166332580149, 1972300.608470108825713 ], [ 3146964.238257433287799, 1972295.922181605128571 ], [ 3146967.816649494692683, 1972291.246590243885294 ], [ 3146971.36411693552509, 1972286.576512830331922 ], [ 3146974.973368316888809, 1972281.895623730495572 ], [ 3146978.551778357010335, 1972277.22013275953941 ], [ 3146982.130090346559882, 1972272.544659719802439 ], [ 3146985.817199501208961, 1972268.356304306536913 ], [ 3146989.426454053726047, 1972263.675417720340192 ], [ 3146993.035709413699806, 1972258.994531768606976 ], [ 3146996.675906595773995, 1972254.308231667848304 ], [ 3147000.285163573920727, 1972249.627346988767385 ], [ 3147003.863563623279333, 1972244.951761910924688 ], [ 3147007.411039022263139, 1972240.2816907314118 ], [ 3147010.989357390906662, 1972235.606222708476707 ], [ 3147014.645630336366594, 1972231.423269658582285 ], [ 3147018.254891286138445, 1972226.742388115962967 ], [ 3147021.89499522279948, 1972222.056109747849405 ], [ 3147025.535198825411499, 1972217.369814723264426 ], [ 3147029.144462204072624, 1972212.688935096142814 ], [ 3147032.7537263892591, 1972208.00805609440431 ], [ 3147036.393932427745312, 1972203.321762993000448 ], [ 3147039.972241613548249, 1972198.64620148926042 ], [ 3147043.55066602723673, 1972193.970721828285605 ], [ 3147046.234386010561138, 1972190.46412979112938 ], [ 3147124.998343741521239, 1972082.029114745790139 ], [ 3147118.457805342972279, 1972077.606092978268862 ], [ 3147112.752590632066131, 1972074.049201988149434 ], [ 3147107.449017471633852, 1972070.422024813247845 ], [ 3147101.651162010617554, 1972066.88124587899074 ], [ 3147095.898937128484249, 1972062.826428244123235 ], [ 3147090.889394506812096, 1972059.653851775918156 ], [ 3147085.756399757228792, 1972056.50298108230345 ], [ 3147079.540849759243429, 1972052.52924689068459 ], [ 3147074.268104586750269, 1972048.896577089559287 ], [ 3147066.908315279521048, 1972044.110775267938152 ], [ 3147053.640597382560372, 1972034.285099265864119 ], [ 3147047.501604894641787, 1972029.791816189186648 ], [ 3147041.424479360692203, 1972025.287605901248753 ], [ 3147035.470837572589517, 1972020.761887890985236 ], [ 3147030.352617628872395, 1972017.102281960193068 ], [ 3147024.275409689173102, 1972012.598189407261088 ], [ 3147020.873533717356622, 1972010.156587960198522 ], [ 3147018.04377752263099, 1972008.121020688209683 ], [ 3147012.291655288077891, 1972004.066194641869515 ], [ 3147004.234886541962624, 1971997.883908116724342 ], [ 3147003.414336930960417, 1971996.50903927674517 ], [ 3146979.711622220464051, 1971943.968166996957734 ], [ 3146973.985261928290129, 1971935.859596836380661 ], [ 3146969.707435489632189, 1971937.11437653331086 ], [ 3146956.586012313142419, 1971945.484606766374782 ], [ 3146942.590751922689378, 1971946.921593779930845 ], [ 3146927.274780719541013, 1971954.663576585473493 ], [ 3146911.461954831145704, 1971960.467896824004129 ], [ 3146893.70051359757781, 1971964.588617168366909 ], [ 3146867.201697138138115, 1971974.287767851259559 ], [ 3146847.347123773768544, 1971984.848687033168972 ], [ 3146829.69251652713865, 1972012.74006988783367 ], [ 3146819.547533586155623, 1972053.995571488980204 ], [ 3146804.814149031415582, 1972082.894134546862915 ], [ 3146803.713439202867448, 1972092.197480475762859 ], [ 3146801.08336130855605, 1972113.91623438289389 ], [ 3146773.849023909308016, 1972153.101207409752533 ], [ 3146741.026418868452311, 1972170.993414120050147 ], [ 3146730.006072849966586, 1972191.649891739478335 ], [ 3146716.125155843794346, 1972210.276322740362957 ], [ 3146710.619219327811152, 1972217.819963678950444 ], [ 3146636.853542131371796, 1972221.113394957734272 ], [ 3146635.757521510124207, 1972221.811369584873319 ], [ 3146571.02070830296725, 1972254.906457763165236 ], [ 3146360.034391877241433, 1972330.808606875129044 ], [ 3146261.075938521884382, 1972423.546884548617527 ], [ 3146213.780183339025825, 1972467.762468984583393 ], [ 3146205.53838253300637, 1972498.562204085290432 ], [ 3146188.971863597631454, 1972531.325258820317686 ], [ 3146183.465338684152812, 1972550.5108402823098 ], [ 3146182.407960217446089, 1972557.27600313955918 ], [ 3146181.069168223999441, 1972573.707381775602698 ], [ 3146184.766917269211262, 1972590.26955630374141 ], [ 3146187.364917637780309, 1972604.493412209907547 ], [ 3146192.76742057595402, 1972637.460439030313864 ], [ 3146200.571078912355006, 1972675.574986289953813 ], [ 3146204.784364525228739, 1972696.60239831591025 ], [ 3146206.853110945783556, 1972732.177598573733121 ], [ 3146202.29833111166954, 1972758.789173936704174 ], [ 3146182.559609884396195, 1972811.848009884357452 ], [ 3146154.82243473501876, 1972831.381841484922916 ], [ 3146113.873475719243288, 1972848.672805468551815 ], [ 3146087.050751485861838, 1972870.577362922253087 ], [ 3146054.044760223478079, 1972889.515018960926682 ], [ 3146030.736736456863582, 1972893.088730540592223 ], [ 3146027.32518201880157, 1972895.204356450587511 ], [ 3145994.485519719310105, 1972874.632210662821308 ], [ 3145947.92532363999635, 1972913.658350243931636 ], [ 3145919.98102751141414, 1972916.018988923169672 ], [ 3145847.557528542354703, 1972929.202671773731709 ], [ 3145795.042712314985693, 1972938.395315182395279 ], [ 3145785.528288453817368, 1972940.06071767793037 ], [ 3145878.818218653090298, 1973081.147620691219345 ], [ 3145876.055360309313983, 1973083.149824054911733 ], [ 3145875.113874312955886, 1973083.82078561023809 ], [ 3145873.754671953618526, 1973084.058698866283521 ], [ 3145866.203764597419649, 1973086.898998280521482 ], [ 3145859.810515569522977, 1973089.030397480586544 ], [ 3145854.405892142560333, 1973090.988850651774555 ], [ 3145849.577259853482246, 1973096.389537808485329 ], [ 3145847.69551813043654, 1973098.74357762769796 ], [ 3145844.764729056507349, 1973102.293674163287506 ], [ 3145842.481356137432158, 1973104.718015967169777 ], [ 3145839.57760727358982, 1973105.22628788347356 ], [ 3145832.704977836459875, 1973106.935539621626958 ], [ 3145826.203024739865214, 1973108.579808153910562 ], [ 3145823.36105834459886, 1973109.077266938053071 ], [ 3145819.147707603406161, 1973112.345701333833858 ], [ 3145814.147163729183376, 1973116.257991353515536 ], [ 3145809.439559355843812, 1973119.612941903993487 ], [ 3145803.095901325810701, 1973124.266499356133863 ], [ 3145796.904205300845206, 1973126.868898257147521 ], [ 3145790.666797779500484, 1973129.985364016378298 ], [ 3145783.980848525650799, 1973132.674280251376331 ], [ 3145778.715866624377668, 1973135.114368031965569 ], [ 3145772.555014932528138, 1973137.711372706806287 ], [ 3145765.7455042488873, 1973140.421921219443902 ], [ 3145761.561656548175961, 1973142.672767924610525 ], [ 3145757.937834109645337, 1973147.862581131281331 ], [ 3145754.113729175645858, 1973153.59372010990046 ], [ 3145751.260801952332258, 1973157.636264033615589 ], [ 3145744.789798882324249, 1973159.275131782516837 ], [ 3145742.781955572776496, 1973159.626691605895758 ], [ 3145733.376268920488656, 1973161.779256954789162 ], [ 3145726.102119823917747, 1973163.558814524440095 ], [ 3145724.125004018191248, 1973163.904895487939939 ], [ 3145719.943836360238492, 1973168.180044024018571 ], [ 3145715.33018154092133, 1973172.530796324601397 ], [ 3145711.518360014073551, 1973175.728861658833921 ], [ 3145708.493631442077458, 1973178.283087015151978 ], [ 3145701.37643757648766, 1973182.059739273739979 ], [ 3145694.506486244034022, 1973185.793216095305979 ], [ 3145687.527628909796476, 1973189.03959180531092 ], [ 3145680.37959687365219, 1973192.821647208416834 ], [ 3145673.416926720645279, 1973196.571358930785209 ], [ 3145666.623500871472061, 1973199.785179426893592 ], [ 3145661.914583387318999, 1973202.128052955958992 ], [ 3145658.31772159319371, 1973204.276165761286393 ], [ 3145653.283809944055974, 1973206.169763049343601 ], [ 3145649.963684337213635, 1973207.257102713920176 ], [ 3145642.721718786284328, 1973210.043378244619817 ], [ 3145635.432711688335985, 1973212.331622152356431 ], [ 3145628.808564763050526, 1973215.009754072874784 ], [ 3145625.041115107480437, 1973216.681565114995465 ], [ 3145616.965788371860981, 1973232.26788777532056 ], [ 3145616.627272138372064, 1973233.339477157453075 ], [ 3145607.081971425563097, 1973235.010452936636284 ], [ 3145598.51042381580919, 1973237.017145117744803 ], [ 3145594.15733445994556, 1973239.803808317054063 ], [ 3145587.288633750285953, 1973244.549425238510594 ], [ 3145584.387463599443436, 1973247.081935230176896 ], [ 3145577.549689553212374, 1973251.822039908962324 ], [ 3145570.372084075585008, 1973256.6217344510369 ], [ 3145566.867853424046189, 1973258.753644193988293 ], [ 3145563.085670813918114, 1973260.934310615528375 ], [ 3145556.632109790109098, 1973264.088663921225816 ], [ 3145555.845036310143769, 1973264.732606946025044 ], [ 3145549.852236173115671, 1973265.781739354832098 ], [ 3145543.164970575831831, 1973267.458503915229812 ], [ 3145539.952343122567981, 1973268.020972022321075 ], [ 3145533.661472212057561, 1973265.579013172537088 ], [ 3145528.134653423912823, 1973268.571247753221542 ], [ 3145523.20944911846891, 1973270.951902755536139 ], [ 3145521.502124377526343, 1973276.818607764085755 ], [ 3145519.763875869102776, 1973282.690827768994495 ], [ 3145518.087493079714477, 1973288.552117533516139 ], [ 3145517.672345334663987, 1973290.143290795618668 ], [ 3145512.271647679619491, 1973295.13802002556622 ], [ 3145506.022014131769538, 1973300.787625453900546 ], [ 3145500.975920199416578, 1973305.214116675313562 ], [ 3145495.35895683709532, 1973310.246808626223356 ], [ 3145492.766703197266906, 1973312.725253682816401 ], [ 3145491.408844374120235, 1973313.975282555213198 ], [ 3145488.526342993136495, 1973319.035373711260036 ], [ 3145487.817141097970307, 1973320.171855038031936 ], [ 3145487.06224596593529, 1973321.822502572089434 ], [ 3145483.994416839443147, 1973326.91513776127249 ], [ 3145481.188550855964422, 1973331.455647921655327 ], [ 3145479.524357445072383, 1973334.783972384408116 ], [ 3145475.963499581906945, 1973340.975148734869435 ], [ 3145473.990399619564414, 1973344.357548444997519 ], [ 3145471.060988761018962, 1973348.919788689585403 ], [ 3145467.469292374327779, 1973355.116365716094151 ], [ 3145464.124723150860518, 1973361.269683746388182 ], [ 3145460.918584992177784, 1973366.892703474266455 ], [ 3145457.788966180756688, 1973371.996060031466186 ], [ 3145455.168451211415231, 1973376.504129710840061 ], [ 3145454.582814366556704, 1973377.618982519255951 ], [ 3145453.549954927526414, 1973379.318290554918349 ], [ 3145451.54591894429177, 1973382.706109149381518 ], [ 3145449.048984004650265, 1973387.192648383555934 ], [ 3145447.399548519402742, 1973390.012225998332724 ], [ 3145444.624533079564571, 1973394.547343518119305 ], [ 3145439.44004194997251, 1973399.504246537107974 ], [ 3145432.790239589288831, 1973406.236263409722596 ], [ 3145429.441767193842679, 1973409.353264141827822 ], [ 3145418.863922507502139, 1973437.019634089199826 ], [ 3145418.494473268277943, 1973438.096644240897149 ], [ 3145414.655668920837343, 1973444.336493180599064 ], [ 3145413.853864553384483, 1973445.48929007560946 ], [ 3145411.124548872932792, 1973449.510246170684695 ], [ 3145408.84255373198539, 1973452.9467290667817 ], [ 3145406.745804297272116, 1973456.350784328766167 ], [ 3145404.278465802781284, 1973459.819713020464405 ], [ 3145401.365162260830402, 1973464.885317136766389 ], [ 3145397.263147875666618, 1973470.66507824533619 ], [ 3145393.824639527127147, 1973475.822522077476606 ], [ 3145390.602416262030602, 1973480.942105021094903 ], [ 3145387.811339654959738, 1973484.973978208610788 ], [ 3145386.331166885793209, 1973487.257764423266053 ], [ 3145382.676476154010743, 1973492.453054607380182 ], [ 3145379.669200309552252, 1973496.52267476124689 ], [ 3145375.659830450080335, 1973502.286325014661998 ], [ 3145371.141543701291084, 1973508.645132594741881 ], [ 3145366.932066130451858, 1973514.949882757151499 ], [ 3145362.737454866524786, 1973520.745963897788897 ], [ 3145360.239184075966477, 1973524.220314553473145 ], [ 3145356.924247825052589, 1973529.356134893139824 ], [ 3145352.853202094789594, 1973535.130587845575064 ], [ 3145349.307233518920839, 1973540.813022665912285 ], [ 3145345.790865261573344, 1973545.477938241558149 ], [ 3145345.328797001391649, 1973546.57116462290287 ], [ 3145344.03789677284658, 1973551.858837267151102 ], [ 3145342.884083243086934, 1973555.604105807840824 ], [ 3145342.761762877460569, 1973556.637857341906056 ], [ 3145342.239254754036665, 1973558.754002931993455 ], [ 3145341.20898884255439, 1973562.477542840177193 ], [ 3145340.517129583284259, 1973565.129503987496719 ], [ 3145340.040311920456588, 1973566.731482080416754 ], [ 3145333.480574203189462, 1973571.422993551706895 ], [ 3145331.443134042434394, 1973572.792000129120424 ], [ 3145327.460793250240386, 1973575.513915305258706 ], [ 3145321.997028984129429, 1973579.50740251573734 ], [ 3145320.69262704346329, 1973586.315950972726569 ], [ 3145319.619259560480714, 1973592.577886257553473 ], [ 3145318.62243933789432, 1973598.320353543385863 ], [ 3145313.116916908416897, 1973605.864341553999111 ], [ 3145307.627488345839083, 1973613.911683811340481 ], [ 3145303.788735645823181, 1973620.151656039990485 ], [ 3145299.395280628465116, 1973627.500972878187895 ], [ 3145296.851333193480968, 1973631.489500473020598 ], [ 3145288.853320598136634, 1973634.914399936562404 ], [ 3145283.094180858694017, 1973637.441197450272739 ], [ 3145274.045775873586535, 1973641.049879681551829 ], [ 3145266.047667816281319, 1973644.474801644915715 ], [ 3145252.675943529698998, 1973649.85276793455705 ], [ 3145242.793562947772443, 1973653.607555597787723 ], [ 3145238.300892180763185, 1973655.912653557257727 ], [ 3145229.036309934221208, 1973659.559192530345172 ], [ 3145219.895307034254074, 1973663.184201549272984 ], [ 3145210.507082280237228, 1973666.852492007659748 ], [ 3145201.489644601475447, 1973670.455874851671979 ], [ 3145192.842895005829632, 1973673.994367127073929 ], [ 3145183.903318629600108, 1973678.090193683514372 ], [ 3145174.329855506308377, 1973681.790922867832705 ], [ 3145165.0034194518812, 1973685.448409819044173 ], [ 3145155.569614781532437, 1973689.630866315215826 ], [ 3145146.088877487927675, 1973693.315371126635 ], [ 3145137.843648466281593, 1973696.783485927153379 ], [ 3145128.702660490758717, 1973700.40851841494441 ], [ 3145120.333887580782175, 1973703.898366968380287 ], [ 3145115.948680737055838, 1973705.678397762821987 ], [ 3145111.965115957893431, 1973707.388217511354014 ], [ 3145100.014392255339772, 1973712.517482459777966 ], [ 3145090.595346522517502, 1973716.191203744383529 ], [ 3145081.763255755417049, 1973719.762071609031409 ], [ 3145078.103444684296846, 1973720.909046807326376 ], [ 3145076.698476521298289, 1973721.661177995847538 ], [ 3145001.190715477801859, 1973750.065840130206198 ], [ 3144994.195873241871595, 1973752.808919470990077 ], [ 3144986.659963430836797, 1973755.140653146663681 ], [ 3144978.923866325989366, 1973758.013606359949335 ], [ 3144971.280376602429897, 1973760.870247620856389 ], [ 3144963.606062421575189, 1973763.732388274976984 ], [ 3144955.962590265087783, 1973766.589131278451532 ], [ 3144948.288262509740889, 1973769.451176680158824 ], [ 3144940.984636637382209, 1973772.248426917241886 ], [ 3144933.341167434118688, 1973775.105174716096371 ], [ 3144927.473234073724598, 1973777.144810155266896 ], [ 3144928.324670028407127, 1973778.514265933306888 ], [ 3145001.12189418124035, 1973912.052802752004936 ], [ 3145047.406262485310435, 1973995.566612645052373 ], [ 3145049.373715093359351, 1973999.77772921230644 ], [ 3145053.304286384023726, 1974016.805556532461196 ], [ 3145052.922360815107822, 1974032.057602809043601 ], [ 3145043.990999911911786, 1974078.164521397324279 ], [ 3145042.174991219304502, 1974083.54417848889716 ], [ 3145036.317971291020513, 1974082.038794411346316 ], [ 3145028.451757631264627, 1974079.872710730647668 ], [ 3145023.877390017732978, 1974078.64894888876006 ], [ 3145020.422888584434986, 1974083.303110636770725 ], [ 3145016.306252124719322, 1974089.591712338617072 ], [ 3145012.080814342480153, 1974095.393290932988748 ], [ 3145007.933240707032382, 1974101.687311117071658 ], [ 3145003.769669361412525, 1974107.477959803072736 ], [ 3145001.626069595105946, 1974110.384207576746121 ], [ 3144998.75718428986147, 1974113.923503505066037 ], [ 3144995.688214528374374, 1974118.004002172499895 ], [ 3144993.173916228115559, 1974120.97504799044691 ], [ 3144989.99614454805851, 1974124.568523347843438 ], [ 3144987.759810608811677, 1974127.490906642051414 ], [ 3144983.872951559722424, 1974132.220769102219492 ], [ 3144979.215058109723032, 1974138.098066380945966 ], [ 3144981.659297342877835, 1974140.707092594821006 ], [ 3144987.568593296222389, 1974146.758980190847069 ], [ 3144990.761105310637504, 1974142.656749045010656 ], [ 3144991.639520389027894, 1974140.984443756053224 ], [ 3144992.9664984671399, 1974139.739782085176557 ], [ 3144997.577370459213853, 1974133.364646483678371 ], [ 3145001.695353756658733, 1974128.088149225106463 ], [ 3145004.686527331825346, 1974123.514995582401752 ], [ 3145006.860982735641301, 1974120.603446785826236 ], [ 3145008.65001136995852, 1974118.26554825110361 ], [ 3145010.747943666297942, 1974115.873570255469531 ], [ 3145012.828423365950584, 1974111.966127745108679 ], [ 3145015.079486996866763, 1974108.534893700154498 ], [ 3145018.192885927855968, 1974102.928099458571523 ], [ 3145021.398907480761409, 1974097.305090643465519 ], [ 3145022.52444785926491, 1974095.589523403439671 ], [ 3145027.504305150359869, 1974099.779335690196604 ], [ 3145029.009715213440359, 1974105.083691068692133 ], [ 3145030.515125744044781, 1974110.388046613661572 ], [ 3145032.020536739379168, 1974115.692402316257358 ], [ 3145033.464167499914765, 1974121.007574076065794 ], [ 3145034.441881749778986, 1974124.379620129941031 ], [ 3145036.637642773799598, 1974126.019802563125268 ], [ 3145042.406022255308926, 1974130.577845332911238 ], [ 3145048.236068322323263, 1974135.124991640681401 ], [ 3145054.127910977229476, 1974139.661421221448109 ], [ 3145056.46344625717029, 1974141.783409050898626 ], [ 3145062.274783485103399, 1974143.802965365350246 ], [ 3145068.905368145555258, 1974146.185271394671872 ], [ 3145071.023365417029709, 1974147.332997160963714 ], [ 3145077.566898157820106, 1974142.138045438332483 ], [ 3145083.292425472754985, 1974137.592374073108658 ], [ 3145086.147825797088444, 1974135.573965237941593 ], [ 3145090.021303072571754, 1974132.364977775607258 ], [ 3145092.715611808001995, 1974125.312938406364992 ], [ 3145094.733058149926364, 1974120.4041904353071 ], [ 3145097.012371457181871, 1974114.943425450706854 ], [ 3145098.644391343928874, 1974110.608327178983018 ], [ 3145100.045287410728633, 1974106.819864545948803 ], [ 3145101.677209398709238, 1974102.484784081112593 ], [ 3145102.708775681443512, 1974099.773325553862378 ], [ 3145103.199058838188648, 1974096.65045506041497 ], [ 3145103.383146092295647, 1974095.605881445342675 ], [ 3145103.779454026371241, 1974091.487117143347859 ], [ 3145104.576017496176064, 1974086.285834400448948 ], [ 3145105.050204320810735, 1974082.659609464928508 ], [ 3145105.692381886765361, 1974077.485456415684894 ], [ 3145106.412437996827066, 1974072.803842609282583 ], [ 3145106.961896097287536, 1974067.645922306925058 ], [ 3145107.773221837822348, 1974061.935985225718468 ], [ 3145108.75514672184363, 1974056.702355116372928 ], [ 3145109.612256584689021, 1974050.47823086194694 ], [ 3145110.439780271612108, 1974045.271632050164044 ], [ 3145111.31288970541209, 1974039.550880392780527 ], [ 3145112.171255665365607, 1974034.338882885174826 ], [ 3145112.55417740624398, 1974031.740983055206016 ], [ 3145113.631333685480058, 1974028.515373655362055 ], [ 3145115.138449012301862, 1974023.189802866894752 ], [ 3145116.845651930663735, 1974017.323031467152759 ], [ 3145118.323180979117751, 1974013.014986195135862 ], [ 3145120.061309684999287, 1974007.142700509401038 ], [ 3145120.276240100618452, 1974006.092728606192395 ], [ 3145119.533533751964569, 1974005.210507500916719 ], [ 3145119.007094186265022, 1974004.290324231376871 ], [ 3145118.140810613520443, 1974003.429636073997244 ], [ 3145117.645310912281275, 1974002.504036308964714 ], [ 3145116.762930940836668, 1974001.139993667602539 ], [ 3145116.081989911850542, 1974000.246858386788517 ], [ 3145113.002483194693923, 1973996.230423380155116 ], [ 3145109.72155341040343, 1973991.743179776938632 ], [ 3145106.239169495180249, 1973986.784930594963953 ], [ 3145102.63322423864156, 1973981.848313144175336 ], [ 3145099.553734108805656, 1973977.831977508263662 ], [ 3145099.545922041870654, 1973971.759276849683374 ], [ 3145099.662924828473479, 1973966.677070362959057 ], [ 3145099.628030112944543, 1973963.646145412465557 ], [ 3145109.453872623853385, 1973963.950562920188531 ], [ 3145114.212334237992764, 1973964.129762504016981 ], [ 3145121.211018707603216, 1973964.423050232697278 ], [ 3145125.197170520201325, 1973964.73745587375015 ], [ 3145126.772632034961134, 1973964.461647067219019 ], [ 3145137.353241309523582, 1973963.115421062335372 ], [ 3145144.581603903789073, 1973961.849987698253244 ], [ 3145145.601022271439433, 1973961.67142209247686 ], [ 3145152.59970867075026, 1973961.964714833535254 ], [ 3145156.307798125781119, 1973962.327802367508411 ], [ 3145161.81160125695169, 1973965.413658245233819 ], [ 3145163.357474223710597, 1973966.155374966794625 ], [ 3145166.387340462766588, 1973967.649641490541399 ], [ 3145170.886439369991422, 1973970.405113003682345 ], [ 3145172.216128732077777, 1973971.184676035307348 ], [ 3145177.812538763042539, 1973974.254220269154757 ], [ 3145178.740504118148237, 1973975.10411096457392 ], [ 3145182.400420749094337, 1973973.957218838157132 ], [ 3145183.496380958240479, 1973973.259183547459543 ], [ 3145189.658359300345182, 1973971.674170060781762 ], [ 3145193.99786648247391, 1973970.408307448029518 ], [ 3145195.002456774469465, 1973970.738612140761688 ], [ 3145201.09706777241081, 1973976.757974214851856 ], [ 3145205.907690225169063, 1973981.483701756922528 ], [ 3145210.718396259937435, 1973986.209313930943608 ], [ 3145215.652679981198162, 1973990.913393895607442 ], [ 3145220.633885443676263, 1973996.115330921951681 ], [ 3145225.304851329419762, 1974000.359337111702189 ], [ 3145230.255232009105384, 1974005.566772672114894 ], [ 3145235.004158699885011, 1974010.303202599287033 ], [ 3145239.876564224250615, 1974015.018117663450539 ], [ 3145244.903456157073379, 1974019.705887159332633 ], [ 3145249.621558314189315, 1974024.447816014057025 ], [ 3145254.524889055173844, 1974029.157217484433204 ], [ 3145259.41339202830568, 1974034.375488613499328 ], [ 3145263.929941751528531, 1974038.646429831394926 ], [ 3145268.555324360728264, 1974043.40459230565466 ], [ 3145287.473097758367658, 1974061.858003731584176 ], [ 3145292.314665593206882, 1974066.578322692075744 ], [ 3145294.090215239208192, 1974065.7613191511482 ], [ 3145297.797053733840585, 1974065.112291470402852 ], [ 3145295.842722846195102, 1974071.022314498666674 ], [ 3145293.90313736256212, 1974076.423584540141746 ], [ 3145291.979664820246398, 1974082.328307862393558 ], [ 3145289.963555710855871, 1974088.249147735303268 ], [ 3145288.054912554100156, 1974093.645002636360005 ], [ 3145286.038805210962892, 1974099.565843406599015 ], [ 3145284.08447965560481, 1974105.475869128014892 ], [ 3145282.114058095030487, 1974110.882540813181549 ], [ 3145280.498126639984548, 1974115.720982519444078 ], [ 3145284.832416051533073, 1974110.406657801941037 ], [ 3145288.410493081901222, 1974105.730890981853008 ], [ 3145292.944756949786097, 1974099.875286632217467 ], [ 3145297.710163357667625, 1974093.473148102173582 ], [ 3145301.581051114946604, 1974088.239951730938628 ], [ 3145306.068381178192794, 1974081.886395050911233 ], [ 3145310.895572625100613, 1974075.473444195231423 ], [ 3145315.491738301701844, 1974069.607110606972128 ], [ 3145318.946244891732931, 1974064.952881575794891 ], [ 3145320.844005429185927, 1974063.102140805218369 ], [ 3145325.981358483433723, 1974057.647241007070988 ], [ 3145331.905852036550641, 1974051.548271752428263 ], [ 3145337.90814090706408, 1974045.941958479117602 ], [ 3145343.23082523047924, 1974040.454517577541992 ], [ 3145346.917731371708214, 1974036.265882962150499 ], [ 3145347.643006879836321, 1974035.632744087139145 ], [ 3145352.889167436864227, 1974030.664873820263892 ], [ 3145355.928577432408929, 1974027.601935285376385 ], [ 3145360.047853749711066, 1974023.337612321600318 ], [ 3145362.207585752941668, 1974020.934842882910743 ], [ 3145365.092578439973295, 1974017.898836764506996 ], [ 3145368.455739298835397, 1974014.273052664939314 ], [ 3145370.693348779343069, 1974012.362822590162978 ], [ 3145375.074580635875463, 1974007.546372013166547 ] ] ] ] } }
]
}
