{
"type": "FeatureCollection",
"name": "Miguelturra",
"crs": { "type": "name", "properties": { "name": "urn:ogc:def:crs:EPSG::3035" } },
"features": [
{ "type": "Feature", "properties": { "ENP_GRAL": 2.0, "ENP_GRAL_NAME": "Reservas Naturales", "color": "#FFD37F" }, "geometry": { "type": "MultiPolygon", "coordinates": [ [ [ [ 3121414.747663668356836, 1868103.847482541343197 ], [ 3121412.077514965087175, 1868097.74055083328858 ], [ 3121412.128985334653407, 1868090.146516673732549 ], [ 3121412.148230436258018, 1868084.580893089994788 ], [ 3121412.141991214826703, 1868070.929017724469304 ], [ 3121412.142627454828471, 1868069.917568313656375 ], [ 3121410.569129155017436, 1868065.135981902014464 ], [ 3121407.824034570716321, 1868055.502467396436259 ], [ 3121400.401779380626976, 1868036.067544154124334 ], [ 3121394.515193805098534, 1868008.779200085671619 ], [ 3121386.808348808437586, 1867952.986186068505049 ], [ 3121382.669120778795332, 1867924.886908186133951 ], [ 3121377.699138846248388, 1867890.864811407634988 ], [ 3121371.917036980390549, 1867869.120492400834337 ], [ 3121364.940068829804659, 1867854.158690416719764 ], [ 3121357.666894644498825, 1867842.788335067918524 ], [ 3121344.816530224867165, 1867826.830469544511288 ], [ 3121337.54548086412251, 1867812.425739847123623 ], [ 3121332.419611734338105, 1867803.208441765978932 ], [ 3121325.362938491627574, 1867791.800255818525329 ], [ 3121304.359159727580845, 1867763.108796293381602 ], [ 3121277.550712557975203, 1867837.070295476354659 ], [ 3121264.184233927633613, 1867829.798910597106442 ], [ 3121247.369877135381103, 1867823.635798225412145 ], [ 3121239.887875930871814, 1867823.932225067634135 ], [ 3121235.295890187844634, 1867825.240455714520067 ], [ 3121218.866318847052753, 1867821.538445477141067 ], [ 3121209.43564085662365, 1867823.186795181594789 ], [ 3121205.323268379084766, 1867823.905536680482328 ], [ 3121202.323393221944571, 1867825.44117819191888 ], [ 3121200.143106596544385, 1867826.32790748286061 ], [ 3121194.328141564503312, 1867830.378232909133658 ], [ 3121185.436164353042841, 1867835.472117418423295 ], [ 3121181.075052621774375, 1867838.257010047789663 ], [ 3121171.699420773424208, 1867850.009021917590871 ], [ 3121168.047401536721736, 1867855.703895530896261 ], [ 3121164.611891355831176, 1867861.361030493862927 ], [ 3121161.868882613722235, 1867871.448051281971857 ], [ 3121159.668080169707537, 1867879.923402947140858 ], [ 3121155.619665499776602, 1867877.596960325725377 ], [ 3121137.673581136390567, 1867876.18271442502737 ], [ 3121127.549024966545403, 1867875.424019348574802 ], [ 3121118.259172475896776, 1867874.519438781775534 ], [ 3121116.360724681057036, 1867870.300326449330896 ], [ 3121114.827070915140212, 1867875.119396863970906 ], [ 3121114.006648962851614, 1867876.779795948183164 ], [ 3121112.286182892508805, 1867883.654092858079821 ], [ 3121109.035467077046633, 1867890.290277526248246 ], [ 3121105.52161985822022, 1867897.478021084796637 ], [ 3121101.682732632383704, 1867905.228346415329725 ], [ 3121099.144513748120517, 1867909.717327868798748 ], [ 3121096.914210435934365, 1867916.175068713724613 ], [ 3121094.870082684792578, 1867921.589033138938248 ], [ 3121096.353525987360626, 1867922.341096641262993 ], [ 3121122.702318847645074, 1867933.411226309137419 ], [ 3121146.717669735196978, 1867943.372299312846735 ], [ 3121161.460397529415786, 1867949.897440844913945 ], [ 3121160.020834025926888, 1867952.67739100754261 ], [ 3121154.231356655247509, 1867964.813888399396092 ], [ 3121130.36401200434193, 1868010.450091125676408 ], [ 3121064.346759983804077, 1867980.524570006644353 ], [ 3121055.430066071916372, 1867976.520770152565092 ], [ 3121041.243912561330944, 1867969.898386809509248 ], [ 3121041.179968329146504, 1867972.943581936182454 ], [ 3121053.851073710713536, 1867979.830766723258421 ], [ 3121053.491040067747235, 1867986.467401639325544 ], [ 3121047.333182442001998, 1867994.622956354403868 ], [ 3121043.619368919171393, 1868000.328761118697003 ], [ 3121045.668473555706441, 1868010.589584435336292 ], [ 3121044.952503430191427, 1868017.794002211652696 ], [ 3121039.720278142485768, 1868028.82190125901252 ], [ 3121033.949227722361684, 1868036.40418745810166 ], [ 3121027.670465178787708, 1868040.535725256195292 ], [ 3121017.002368116751313, 1868043.411660984391347 ], [ 3121005.714516090694815, 1868048.418705338845029 ], [ 3120996.204910644330084, 1868052.609174889046699 ], [ 3120987.20316850207746, 1868060.250676020048559 ], [ 3120961.983913482166827, 1868116.742278339341283 ], [ 3120941.93238061433658, 1868166.262753959046677 ], [ 3120915.32766448892653, 1868237.661129015265033 ], [ 3120913.204528773203492, 1868245.617201277520508 ], [ 3120908.306666227057576, 1868288.443652287591249 ], [ 3120907.887551055289805, 1868291.0452688310761 ], [ 3120882.557204290293157, 1868282.8312096176669 ], [ 3120818.135668543167412, 1868270.831280592130497 ], [ 3120770.00295313121751, 1868265.086105678463355 ], [ 3120769.209770510904491, 1868295.564793650526553 ], [ 3120767.954845840111375, 1868323.090265722945333 ], [ 3120761.521543681621552, 1868373.770194734679535 ], [ 3120758.261473885271698, 1868394.566753169288859 ], [ 3120752.922318174503744, 1868450.617890102555975 ], [ 3120751.024526722263545, 1868491.908772319322452 ], [ 3120751.60245334263891, 1868529.732991181081161 ], [ 3120753.218684333376586, 1868540.069435433484614 ], [ 3120767.661765703931451, 1868579.009642716264352 ], [ 3120779.54857718385756, 1868603.226657514926046 ], [ 3120785.92918473854661, 1868608.684930305462331 ], [ 3120786.654801774770021, 1868610.075119906803593 ], [ 3120796.649609891697764, 1868619.958397874375805 ], [ 3120801.608630604110658, 1868624.653909737244248 ], [ 3120812.160001385957003, 1868634.439907836494967 ], [ 3120828.410519573837519, 1868651.826100850943476 ], [ 3120847.348965223878622, 1868671.776415906613693 ], [ 3120873.639068976510316, 1868701.566465193405747 ], [ 3120883.356276436708868, 1868710.486937319627032 ], [ 3120900.003464064560831, 1868735.89451691810973 ], [ 3120908.985795124433935, 1868757.585211834404618 ], [ 3120926.667616656050086, 1868808.09540211269632 ], [ 3120933.867110656574368, 1868837.682762669865042 ], [ 3120940.654205244965851, 1868859.75718830130063 ], [ 3120943.136978463735431, 1868868.930948211345822 ], [ 3120953.508196271490306, 1868870.657771820900962 ], [ 3120985.810694319196045, 1868878.158733930671588 ], [ 3121002.317143693100661, 1868882.352813787292689 ], [ 3121011.481203194241971, 1868886.313351697754115 ], [ 3121016.798715752549469, 1868886.395152965327725 ], [ 3121020.153106037061661, 1868886.314514704514295 ], [ 3121065.59378726221621, 1868895.564317987766117 ], [ 3121083.969957505352795, 1868900.948648589896038 ], [ 3121129.360047310590744, 1868916.781136677134782 ], [ 3121168.875970897264779, 1868932.62914553983137 ], [ 3121197.41738012060523, 1868947.361324935918674 ], [ 3121208.280055224429816, 1868954.059059170773253 ], [ 3121210.783183311112225, 1868955.644147543935105 ], [ 3121221.436042585410178, 1868952.265162823488936 ], [ 3121240.408285373821855, 1868944.397933852858841 ], [ 3121255.563004340976477, 1868935.680934452218935 ], [ 3121270.749849777668715, 1868924.935731864068657 ], [ 3121283.823111930862069, 1868907.986190638272092 ], [ 3121297.04826525459066, 1868895.055505616124719 ], [ 3121307.072959677316248, 1868883.189885649830103 ], [ 3121317.283081591129303, 1868871.291862210491672 ], [ 3121327.631396362558007, 1868860.886712858686224 ], [ 3121339.37448254507035, 1868845.181153191253543 ], [ 3121348.320259692147374, 1868828.447495979256928 ], [ 3121348.955126925371587, 1868826.819512816146016 ], [ 3121362.336315157823265, 1868811.83890936570242 ], [ 3121375.313539708033204, 1868799.962960522854701 ], [ 3121381.49881446827203, 1868796.859209501184523 ], [ 3121378.801026183180511, 1868785.700341575313359 ], [ 3121381.223449097014964, 1868769.095510620623827 ], [ 3121387.063482256606221, 1868750.376440139720216 ], [ 3121388.008177100680768, 1868747.682962514925748 ], [ 3121393.819400113075972, 1868725.934796125628054 ], [ 3121397.568676843307912, 1868713.143457509344444 ], [ 3121398.693217556457967, 1868695.754241260699928 ], [ 3121400.929531125351787, 1868680.193305007182062 ], [ 3121409.640085082966834, 1868645.296816581394523 ], [ 3121409.724427549168468, 1868634.663057249272242 ], [ 3121418.732147936709225, 1868617.918650597566739 ], [ 3121423.472981473896652, 1868601.920001630205661 ], [ 3121424.807291911914945, 1868594.607488124165684 ], [ 3121423.1779357008636, 1868580.733545772032812 ], [ 3121422.9358926480636, 1868572.685199129162356 ], [ 3121426.156279026996344, 1868565.042946466710418 ], [ 3121432.439091358799487, 1868554.842871413333341 ], [ 3121442.818808128125966, 1868520.665968109155074 ], [ 3121444.277441510930657, 1868512.320392101304606 ], [ 3121445.549927245825529, 1868505.018693931633607 ], [ 3121444.77051741303876, 1868491.501887841382995 ], [ 3121442.256963266991079, 1868482.333538812818006 ], [ 3121438.474273500964046, 1868475.409688662970439 ], [ 3121438.128497923724353, 1868460.805856787133962 ], [ 3121440.29536209627986, 1868433.626775342272595 ], [ 3121438.680459024384618, 1868421.267445204313844 ], [ 3121433.899379571899772, 1868404.910444259643555 ], [ 3121435.241045689675957, 1868386.471905261510983 ], [ 3121440.364550808444619, 1868353.21382791060023 ], [ 3121439.213521749712527, 1868340.773435147712007 ], [ 3121437.383593634702265, 1868326.428914476651698 ], [ 3121437.94489087536931, 1868319.251529432134703 ], [ 3121438.271207181271166, 1868316.666145907249302 ], [ 3121432.342309895902872, 1868260.056555128889158 ], [ 3121430.62572358828038, 1868238.107389077777043 ], [ 3121427.594722526147962, 1868216.893520682584494 ], [ 3121427.44080338254571, 1868215.909081801306456 ], [ 3121425.918029495514929, 1868204.545016951393336 ], [ 3121424.641972003504634, 1868194.149072486208752 ], [ 3121423.119286234024912, 1868182.784893549745902 ], [ 3121421.674196243751794, 1868170.901484640780836 ], [ 3121421.490056653507054, 1868168.911089769564569 ], [ 3121420.260728637687862, 1868158.001312387408689 ], [ 3121419.968645230866969, 1868155.524012691807002 ], [ 3121419.957646964117885, 1868148.952331969281659 ], [ 3121420.044102423358709, 1868135.284246982773766 ], [ 3121419.984364456497133, 1868132.260670898715034 ], [ 3121422.017392408568412, 1868120.275059271836653 ], [ 3121416.491569988429546, 1868108.093618776183575 ], [ 3121414.747663668356836, 1868103.847482541343197 ] ] ], [ [ [ 3120880.910908866673708, 1897019.767896302277222 ], [ 3120937.259630025364459, 1897002.822746307356283 ], [ 3121015.337833226658404, 1896982.074002523440868 ], [ 3121033.003299503587186, 1896971.394365091109648 ], [ 3121024.659922801889479, 1896946.551711543463171 ], [ 3121017.180938594043255, 1896934.709322491893545 ], [ 3121015.094840741716325, 1896931.533728260081261 ], [ 3120997.771605886984617, 1896915.850349006475881 ], [ 3120977.913802136667073, 1896899.598945117555559 ], [ 3120907.200080619193614, 1896823.962763454765081 ], [ 3120892.830901033245027, 1896781.96510234894231 ], [ 3120878.11918218433857, 1896770.377159210154787 ], [ 3120867.734695913735777, 1896759.043366185389459 ], [ 3120856.749103145673871, 1896729.099193033762276 ], [ 3120847.789251179434359, 1896686.154647167306393 ], [ 3120833.465604262426496, 1896654.77144337631762 ], [ 3120824.132858629338443, 1896634.14869887731038 ], [ 3120788.249057553708553, 1896614.12699182680808 ], [ 3120688.876160239800811, 1896613.312028162647039 ], [ 3120677.439839790575206, 1896612.278937070164829 ], [ 3120630.35005802847445, 1896608.887880177237093 ], [ 3120596.72088681301102, 1896609.716436552582309 ], [ 3120499.139526144601405, 1896623.763247816590592 ], [ 3120397.462873551528901, 1896638.021358410129324 ], [ 3120414.887939267791808, 1896728.043530866736546 ], [ 3120415.768480582162738, 1896732.441899457480758 ], [ 3120437.24050404317677, 1896851.093934790696949 ], [ 3120451.759905421175063, 1896947.694938044063747 ], [ 3120450.303853240795434, 1896989.427889400161803 ], [ 3120445.775740954093635, 1896989.714794643688947 ], [ 3120408.870473370887339, 1896989.093737805495039 ], [ 3120288.201396006159484, 1896994.031480055535212 ], [ 3120263.829749655909836, 1896993.745493807131425 ], [ 3120269.144431734923273, 1897015.071717387996614 ], [ 3120262.045222473796457, 1897027.815949999261647 ], [ 3120882.891370931640267, 1897027.815949999261647 ], [ 3120880.910908866673708, 1897019.767896302277222 ] ] ] ] } },
{ "type": "Feature", "properties": { "ENP_GRAL": 3.0, "ENP_GRAL_NAME": "Monumentos Naturales", "color": "#AAFF00" }, "geometry": { "type": "MultiPolygon", "coordinates": [ [ [ [ 3113930.916472106706351, 1872505.628153394907713 ], [ 3113927.431992894504219, 1872487.6478385576047 ], [ 3113925.824750096537173, 1872475.42784495651722 ], [ 3113924.743919651955366, 1872467.222164563601837 ], [ 3113921.526325319893658, 1872446.140602896688506 ], [ 3113917.393067030236125, 1872428.041314474307001 ], [ 3113912.767254737205803, 1872410.301220487104729 ], [ 3113910.364776438102126, 1872402.873029481153935 ], [ 3113902.431481605861336, 1872400.630510322516784 ], [ 3113891.394843340851367, 1872401.550648395437747 ], [ 3113881.6882613170892, 1872401.226672269636765 ], [ 3113869.893486744258553, 1872403.796761117177084 ], [ 3113856.120046935044229, 1872406.713051122613251 ], [ 3113838.042925299145281, 1872412.395426596049219 ], [ 3113824.500581049360335, 1872416.788543664384633 ], [ 3113808.022778439335525, 1872418.661105761537328 ], [ 3113774.870825137011707, 1872424.463495873613283 ], [ 3113762.658430358860642, 1872427.612433121073991 ], [ 3113744.972226180136204, 1872434.753614817047492 ], [ 3113724.164119610562921, 1872441.429863375611603 ], [ 3113714.688630550168455, 1872442.582645785063505 ], [ 3113707.114650608971715, 1872442.896806479198858 ], [ 3113699.155560118146241, 1872440.749871968757361 ], [ 3113690.316780616063625, 1872436.228302660863847 ], [ 3113660.168109596706927, 1872416.795781799592078 ], [ 3113655.610583922825754, 1872414.367054493166506 ], [ 3113633.002868997864425, 1872402.333234237739816 ], [ 3113595.251188049092889, 1872385.172193162376061 ], [ 3113549.07674053683877, 1872362.900995912961662 ], [ 3113515.09579327236861, 1872347.102832823991776 ], [ 3113489.873760148882866, 1872333.301588205620646 ], [ 3113483.771786639932543, 1872326.78388864104636 ], [ 3113473.885543059557676, 1872312.321178804384544 ], [ 3113462.561385449953377, 1872301.660399888642132 ], [ 3113454.744355937466025, 1872293.925723972031847 ], [ 3113445.256780040450394, 1872288.506319065345451 ], [ 3113434.954447125084698, 1872274.63228019583039 ], [ 3113430.816818437539041, 1872269.105877142865211 ], [ 3113403.81896101590246, 1872232.979574749013409 ], [ 3113387.635869166813791, 1872214.066405368037522 ], [ 3113367.472849871963263, 1872198.884057273855433 ], [ 3113335.436530843377113, 1872185.769867902621627 ], [ 3113308.623951997607946, 1872176.80870792386122 ], [ 3113268.970709077082574, 1872160.486386372707784 ], [ 3113258.821360027417541, 1872154.929990983800963 ], [ 3113247.291317913681269, 1872148.603922620182857 ], [ 3113242.471049732528627, 1872143.196918989997357 ], [ 3113237.823193047195673, 1872137.982356534572318 ], [ 3113233.988499430008233, 1872133.677363388007507 ], [ 3113228.355589943006635, 1872113.918770239921287 ], [ 3113223.879582214169204, 1872101.553597191814333 ], [ 3113218.832006163429469, 1872088.782849170267582 ], [ 3113210.475734797306359, 1872077.602564612170681 ], [ 3113190.396425531245768, 1872057.368779333774 ], [ 3113180.864366415888071, 1872048.417179068317637 ], [ 3113165.230359804816544, 1872032.947923474246636 ], [ 3113149.673379474319518, 1872017.97091116453521 ], [ 3113133.897309955209494, 1872008.089446968631819 ], [ 3113115.330048251897097, 1871996.673660535831004 ], [ 3113097.156157854013145, 1871987.707511742133647 ], [ 3113078.566255062818527, 1871979.329919254872948 ], [ 3113065.198452857322991, 1871975.095585483126342 ], [ 3113050.092676648870111, 1871971.640736232511699 ], [ 3113018.068394397385418, 1871965.099018554203212 ], [ 3112989.003815776668489, 1871958.049284075386822 ], [ 3112964.214416775852442, 1871952.274135533720255 ], [ 3112931.157869785092771, 1871942.383244194090366 ], [ 3112918.548415097873658, 1871936.498956407653168 ], [ 3112894.857809509150684, 1871928.003019805299118 ], [ 3112864.242141057737172, 1871920.719150442862883 ], [ 3112849.567049027886242, 1871914.690830808365718 ], [ 3112841.068816445302218, 1871909.09827824216336 ], [ 3112833.974643879570067, 1871906.112322401022539 ], [ 3112826.477352792397141, 1871902.954183955676854 ], [ 3112822.816181540954858, 1871899.043555935379118 ], [ 3112809.744512636214495, 1871890.205986727029085 ], [ 3112782.973017394542694, 1871862.020695894025266 ], [ 3112735.478459138423204, 1871817.476975420489907 ], [ 3112702.573096198961139, 1871791.144227080745623 ], [ 3112673.448297399096191, 1871767.40647568134591 ], [ 3112641.389626390300691, 1871741.158196845091879 ], [ 3112602.120280222035944, 1871711.115034487331286 ], [ 3112573.288836451247334, 1871689.965855481335893 ], [ 3112558.469618679955602, 1871682.951418581418693 ], [ 3112539.44157447014004, 1871684.765136580215767 ], [ 3112517.940332346130162, 1871687.011789077427238 ], [ 3112487.227141703478992, 1871688.848202192224562 ], [ 3112462.979043062776327, 1871693.092978230444714 ], [ 3112439.653225413989276, 1871696.670505926944315 ], [ 3112407.57811571424827, 1871704.743229831336066 ], [ 3112382.663035324774683, 1871713.039220310281962 ], [ 3112381.967670976184309, 1871713.272202603518963 ], [ 3112374.965532737784088, 1871713.99231142248027 ], [ 3112366.094188555609435, 1871712.510924616828561 ], [ 3112354.936230942606926, 1871709.407033491879702 ], [ 3112342.095666212029755, 1871702.04630549903959 ], [ 3112325.06674568168819, 1871693.901497911196202 ], [ 3112313.572986401617527, 1871688.651560078607872 ], [ 3112304.26723646139726, 1871684.393966349074617 ], [ 3112283.512230661697686, 1871678.418697240296751 ], [ 3112251.137040497735143, 1871666.386164964176714 ], [ 3112214.979735443368554, 1871652.982837150571868 ], [ 3112173.842783955857158, 1871636.921323498478159 ], [ 3112139.289435787126422, 1871625.128570673754439 ], [ 3112141.093386529013515, 1871621.717767508467659 ], [ 3112142.521153464913368, 1871619.020140301203355 ], [ 3112146.073459680192173, 1871611.712661494500935 ], [ 3112141.884362127631903, 1871618.393262488069013 ], [ 3112140.470870127435774, 1871620.987246664939448 ], [ 3112139.78577622352168, 1871622.260219661751762 ], [ 3112097.258572811260819, 1871707.605863720411435 ], [ 3112091.747282885946333, 1871722.204907082719728 ], [ 3112085.402537181042135, 1871739.013100822689012 ], [ 3112074.946597767993808, 1871785.862644348060712 ], [ 3112070.202269859611988, 1871814.001962536945939 ], [ 3112050.011065404862165, 1871886.324670538539067 ], [ 3112037.568311252631247, 1871949.705164756625891 ], [ 3112039.872958942316473, 1871996.323524501407519 ], [ 3112042.130877144634724, 1872023.742818970000371 ], [ 3112040.35998425912112, 1872074.129159302683547 ], [ 3112041.685321088414639, 1872111.826210763305426 ], [ 3112045.05006399564445, 1872133.326980336103588 ], [ 3112048.387001596856862, 1872154.650662632659078 ], [ 3112059.577266189269722, 1872210.050375829450786 ], [ 3112075.280317387543619, 1872229.532782240072265 ], [ 3112088.231507637538016, 1872252.733479090267792 ], [ 3112099.560811915434897, 1872259.984563259407878 ], [ 3112135.106288307346404, 1872298.770849844207987 ], [ 3112161.944443607702851, 1872320.885719324927777 ], [ 3112197.214310023002326, 1872354.663062768289819 ], [ 3112213.589269753545523, 1872371.489162156125531 ], [ 3112232.956262868829072, 1872391.392140107229352 ], [ 3112262.202851324342191, 1872419.154046126641333 ], [ 3112322.877845712937415, 1872468.227376489667222 ], [ 3112365.227002824656665, 1872501.777018943801522 ], [ 3112459.96975710708648, 1872578.698987547773868 ], [ 3112498.351192962378263, 1872606.37912166537717 ], [ 3112591.790748962201178, 1872669.258045476628467 ], [ 3112599.107830096967518, 1872674.187372137792408 ], [ 3112650.856971214525402, 1872706.101910172961652 ], [ 3112716.429556117393076, 1872746.267306179041043 ], [ 3112757.613997962325811, 1872776.076550798024982 ], [ 3112807.672255643643439, 1872809.592028267215937 ], [ 3112812.112018832471222, 1872812.567235087044537 ], [ 3112845.538393632508814, 1872833.589952934067696 ], [ 3112882.016986981034279, 1872856.515909121371806 ], [ 3112882.580970952752978, 1872856.872338277287781 ], [ 3112950.414362608455122, 1872900.63755803136155 ], [ 3112981.08670899271965, 1872918.025853303959593 ], [ 3113001.536729255691171, 1872928.677099830936641 ], [ 3113017.552513733506203, 1872924.892430199775845 ], [ 3113020.102746446151286, 1872924.496601287741214 ], [ 3113042.411563341040164, 1872921.046548140235245 ], [ 3113067.406300270929933, 1872917.288293298101053 ], [ 3113115.917219418101013, 1872906.298295085085556 ], [ 3113127.066123007796705, 1872902.394689338514581 ], [ 3113147.572883286513388, 1872892.625132857589051 ], [ 3113167.796661447733641, 1872881.307035194011405 ], [ 3113189.9751799358055, 1872867.4114975258708 ], [ 3113201.004533741623163, 1872859.756143973441795 ], [ 3113226.005638570059091, 1872843.697688923217356 ], [ 3113240.696434075012803, 1872835.927417687140405 ], [ 3113256.09584687743336, 1872828.983780093723908 ], [ 3113270.577007136307657, 1872823.12139572086744 ], [ 3113289.270523495972157, 1872817.02733035152778 ], [ 3113296.139912354759872, 1872815.329236731398851 ], [ 3113329.117989756166935, 1872812.378672292688861 ], [ 3113345.877666366286576, 1872811.528642559889704 ], [ 3113380.22307417076081, 1872810.756152456160635 ], [ 3113420.192165334243327, 1872810.910903661744669 ], [ 3113439.773656401783228, 1872811.205552155850455 ], [ 3113455.980447626672685, 1872811.888596653239802 ], [ 3113491.137549161445349, 1872815.717714621918276 ], [ 3113512.232723490335047, 1872817.891623680479825 ], [ 3113514.187507260590792, 1872818.237262855283916 ], [ 3113516.955554625019431, 1872818.713647789787501 ], [ 3113529.638992961961776, 1872820.913597578415647 ], [ 3113546.170470100827515, 1872822.632210668874905 ], [ 3113574.657089804764837, 1872823.714731652988121 ], [ 3113598.917558739427477, 1872823.382584463106468 ], [ 3113629.145553961396217, 1872823.05788354203105 ], [ 3113663.452519570477307, 1872824.052288667066023 ], [ 3113681.326170890592039, 1872824.150264342548326 ], [ 3113714.181692426092923, 1872825.287493719253689 ], [ 3113728.530696273315698, 1872827.024047544458881 ], [ 3113755.129045512061566, 1872832.928003818495199 ], [ 3113791.68013949599117, 1872845.859148866729811 ], [ 3113812.356186093762517, 1872854.771987753920257 ], [ 3113827.61176551040262, 1872862.691557866055518 ], [ 3113840.29053262853995, 1872870.576736092800274 ], [ 3113862.688179899938405, 1872887.178589142393321 ], [ 3113881.63636726513505, 1872904.080844511510804 ], [ 3113897.211262269876897, 1872920.015875587938353 ], [ 3113903.686067876406014, 1872931.384008548222482 ], [ 3113913.012417944148183, 1872949.737655106233433 ], [ 3113912.108279697597027, 1872938.244159195804968 ], [ 3113909.900921517983079, 1872911.473416708409786 ], [ 3113909.258264041505754, 1872896.909944203915074 ], [ 3113910.424779715016484, 1872867.212186796590686 ], [ 3113911.337917231954634, 1872850.444571885978803 ], [ 3113913.418879597447813, 1872814.63960299664177 ], [ 3113915.087288632523268, 1872773.85975603130646 ], [ 3113915.95654528029263, 1872751.810098399175331 ], [ 3113917.578019389882684, 1872728.981371558504179 ], [ 3113920.391026725061238, 1872697.073871587170288 ], [ 3113921.754358409438282, 1872683.767442860873416 ], [ 3113925.228320041205734, 1872649.913575197802857 ], [ 3113933.780449576675892, 1872608.434769250452518 ], [ 3113934.798208619002253, 1872598.051212647696957 ], [ 3113934.712039823178202, 1872593.798116867896169 ], [ 3113934.69471259880811, 1872592.648107561981305 ], [ 3113934.258420635014772, 1872562.644441107753664 ], [ 3113933.893454597797245, 1872550.439550992101431 ], [ 3113933.08732606144622, 1872527.166011208435521 ], [ 3113930.916472106706351, 1872505.628153394907713 ] ] ], [ [ [ 3104045.631827375851572, 1874699.102140682982281 ], [ 3104069.295063101686537, 1874715.329028168227524 ], [ 3104091.507980999536812, 1874746.412007205886766 ], [ 3104111.850761751644313, 1874774.563995170639828 ], [ 3104138.449617103673518, 1874802.580548653844744 ], [ 3104138.44703818904236, 1874788.2572314706631 ], [ 3104135.321809471584857, 1874773.097752809291705 ], [ 3104129.068665145896375, 1874758.089479593094438 ], [ 3104121.139330462552607, 1874725.719511850737035 ], [ 3104116.196561428718269, 1874702.152401684550568 ], [ 3104110.807360153645277, 1874666.136178816203028 ], [ 3104107.735244398936629, 1874650.725044816499576 ], [ 3104103.396367713809013, 1874641.047998784808442 ], [ 3104087.03023670008406, 1874613.808163641253486 ], [ 3104069.741124358028173, 1874593.554817240918055 ], [ 3104040.322666605003178, 1874565.391506183892488 ], [ 3104022.768605537712574, 1874533.141073462553322 ], [ 3103993.967376176267862, 1874465.125977130141109 ], [ 3103986.192347007337958, 1874428.351161462254822 ], [ 3103987.875756257679313, 1874330.905132089508697 ], [ 3103999.691347690299153, 1874276.425596992019564 ], [ 3104019.637629411648959, 1874218.331853621406481 ], [ 3104027.225235549733043, 1874143.135022154077888 ], [ 3104015.417613378260285, 1874098.636798381339759 ], [ 3103971.855939129833132, 1874067.734141300665215 ], [ 3103952.930686853360385, 1874029.301050649955869 ], [ 3103942.795628775842488, 1873974.874927538679913 ], [ 3103923.504475178197026, 1873872.274312261492014 ], [ 3103882.860264016781002, 1873787.869086971040815 ], [ 3103851.735948914196342, 1873727.384416296845302 ], [ 3103791.431946108583361, 1873754.793180118547752 ], [ 3103725.568506320472807, 1873766.339288929710165 ], [ 3103621.213879874907434, 1873767.795916203875095 ], [ 3103535.105303886346519, 1873765.346148308133706 ], [ 3103452.513306349515915, 1873731.552039953647181 ], [ 3103320.631326852366328, 1873661.335192619822919 ], [ 3103211.108308091759682, 1873561.562798290513456 ], [ 3102743.096364861354232, 1873428.093678771751001 ], [ 3102710.197210501879454, 1873432.638424636563286 ], [ 3102691.439616799354553, 1873435.846271314658225 ], [ 3102672.072006967850029, 1873439.637004882562906 ], [ 3102651.825786542613059, 1873444.239288286073133 ], [ 3102631.37562594236806, 1873449.554556848714128 ], [ 3102611.257804139517248, 1873455.499405137263238 ], [ 3102591.363255227915943, 1873461.961457580095157 ], [ 3102571.46070958673954, 1873468.830040479078889 ], [ 3102551.384769500233233, 1873475.95106790214777 ], [ 3102533.465008243452758, 1873482.299559709383175 ], [ 3102531.385383785702288, 1873483.038455142639577 ], [ 3102511.78748694434762, 1873489.772232730174437 ], [ 3102495.064255563542247, 1873495.132583152037114 ], [ 3102492.886356424540281, 1873495.82802069070749 ], [ 3102492.477061199955642, 1873495.940246006241068 ], [ 3102479.239841957576573, 1873499.677348954370245 ], [ 3102474.762003793381155, 1873500.937895479146391 ], [ 3102464.257798434235156, 1873503.305663807317615 ], [ 3102457.455103890970349, 1873504.842347772791982 ], [ 3102440.970667874440551, 1873507.378652958665043 ], [ 3102436.701216492801905, 1873507.763099516509101 ], [ 3102436.14953056583181, 1873507.809760376811028 ], [ 3102425.27239340916276, 1873508.76610091002658 ], [ 3102410.278326562140137, 1873509.331621664576232 ], [ 3102395.00447100866586, 1873509.278598611243069 ], [ 3102374.721991024445742, 1873508.394310736097395 ], [ 3102343.780131961219013, 1873506.355091181816533 ], [ 3102341.717224216088653, 1873506.291960847564042 ], [ 3102337.361067165620625, 1873506.317356723127887 ], [ 3102334.515320226084441, 1873503.721058544702828 ], [ 3102328.088824033737183, 1873502.207798895193264 ], [ 3102322.986037299968302, 1873501.099701934028417 ], [ 3102320.476717788726091, 1873500.457354249432683 ], [ 3102317.882174249738455, 1873499.789994649356231 ], [ 3102312.197571995668113, 1873498.146652990486473 ], [ 3102306.352902707178146, 1873496.389764642342925 ], [ 3102305.563867213670164, 1873496.153850082308054 ], [ 3102297.723870395682752, 1873493.856682367157191 ], [ 3102288.888006835244596, 1873491.430674901464954 ], [ 3102279.406086871400476, 1873489.097719541285187 ], [ 3102271.032051010522991, 1873487.349383538356051 ], [ 3102269.560862019658089, 1873487.040889750467613 ], [ 3102259.50695391651243, 1873485.274040954187512 ], [ 3102249.351477992255241, 1873483.767264633439481 ], [ 3102239.140244867652655, 1873482.553495187079534 ], [ 3102228.585358509328216, 1873481.936095256358385 ], [ 3102217.368109713308513, 1873482.284522417699918 ], [ 3102205.218370146583766, 1873483.879300016677007 ], [ 3102199.97065119817853, 1873484.961300763534382 ], [ 3102192.151937451213598, 1873486.564918591408059 ], [ 3102178.25676293997094, 1873490.124157868558541 ], [ 3102171.106454429216683, 1873492.166919671464711 ], [ 3102163.801453961525112, 1873494.257038099458441 ], [ 3102149.674781450070441, 1873498.544720748439431 ], [ 3102143.879665303975344, 1873500.349861568072811 ], [ 3102136.941970274783671, 1873502.517194600077346 ], [ 3102126.220507336780429, 1873505.834038157714531 ], [ 3102119.79603857640177, 1873507.709076872095466 ], [ 3102116.374211823567748, 1873508.703578592743725 ], [ 3102105.834331870544702, 1873511.492434177780524 ], [ 3102099.62299420684576, 1873512.976069935131818 ], [ 3102093.480900294147432, 1873514.447565141133964 ], [ 3102081.689255715813488, 1873517.031079842709005 ], [ 3102080.147020529955626, 1873517.372314199572429 ], [ 3102077.81035182857886, 1873517.832620166474953 ], [ 3102067.126089378260076, 1873519.958965449593961 ], [ 3102055.366905494593084, 1873521.970846816897392 ], [ 3102044.381380658596754, 1873523.532992217689753 ], [ 3102033.315716489218175, 1873524.846195753430948 ], [ 3102021.615819572471082, 1873526.068309131544083 ], [ 3102015.089242696296424, 1873526.706976065877825 ], [ 3102009.77345643658191, 1873527.224370052339509 ], [ 3101998.574965154286474, 1873528.338338980218396 ], [ 3101988.596591163426638, 1873529.39059865497984 ], [ 3101988.207725199870765, 1873529.438555825967342 ], [ 3101987.627830701414496, 1873529.499779316829517 ], [ 3101981.29318343102932, 1873530.195835104910657 ], [ 3101979.525365968234837, 1873530.394554547965527 ], [ 3101976.297920606099069, 1873530.748067758511752 ], [ 3101974.090236502233893, 1873530.993572467938066 ], [ 3101972.910663957707584, 1873531.119488971075043 ], [ 3101970.852899472229183, 1873531.348820671672001 ], [ 3101968.683241490274668, 1873531.577542515704408 ], [ 3101964.46262810472399, 1873532.014171962626278 ], [ 3101962.131617401260883, 1873532.250956957228482 ], [ 3101960.719907571561635, 1873532.387233484303579 ], [ 3101953.218409130349755, 1873533.095712165348232 ], [ 3101945.434415969997644, 1873533.75257526547648 ], [ 3101944.040948639158159, 1873533.875538291875273 ], [ 3101913.124229626730084, 1873535.696304645156488 ], [ 3101887.696658064145595, 1873536.159554708516225 ], [ 3101865.273009748198092, 1873535.620653284247965 ], [ 3101861.37570178322494, 1873535.525688168825582 ], [ 3101848.268120032269508, 1873534.637833650456741 ], [ 3101820.355687828734517, 1873531.369352594483644 ], [ 3101805.430849666707218, 1873529.131151239620522 ], [ 3101760.152580766007304, 1873522.444730532122776 ], [ 3101732.383735676296055, 1873519.768671268597245 ], [ 3101712.722898818552494, 1873518.310419516405091 ], [ 3101705.040805803146213, 1873517.735625279834494 ], [ 3101689.910894417669624, 1873516.0700452553574 ], [ 3101680.218967677559704, 1873514.927203370956704 ], [ 3101658.382845050655305, 1873512.363482339773327 ], [ 3101643.264164675027132, 1873511.029250165680423 ], [ 3101634.176754740066826, 1873510.48807921516709 ], [ 3101624.196960938628763, 1873509.894112966023386 ], [ 3101614.415588846430182, 1873509.311378651764244 ], [ 3101586.362009954638779, 1873508.192029459169134 ], [ 3101583.416303412988782, 1873508.202825975138694 ], [ 3101572.986087707802653, 1873508.251586221856996 ], [ 3101554.55202823644504, 1873509.886500150430948 ], [ 3101548.978179866448045, 1873510.37840637168847 ], [ 3101531.505868056323379, 1873514.848423497984186 ], [ 3101527.615163142792881, 1873516.613047995138913 ], [ 3101524.331329328939319, 1873518.099289782810956 ], [ 3101515.394106172025204, 1873522.779843654949218 ], [ 3101507.808742233552039, 1873526.752364030340686 ], [ 3101505.9868452437222, 1873527.709123856853694 ], [ 3101494.499230858404189, 1873533.405613796785474 ], [ 3101482.986757988110185, 1873538.550630261655897 ], [ 3101461.553709933534265, 1873549.592266268096864 ], [ 3101448.945606777910143, 1873557.34649068233557 ], [ 3101448.929349999409169, 1873557.359366588061675 ], [ 3101448.929349999409169, 1873845.854250853415579 ], [ 3101473.759035805240273, 1873837.172156008658931 ], [ 3101482.100689467042685, 1873830.032665470615029 ], [ 3101489.962401225697249, 1873827.82331047556363 ], [ 3101498.151946830563247, 1873828.400805081008002 ], [ 3101503.329320576041937, 1873830.537087168777362 ], [ 3101510.065768824890256, 1873830.943652626359835 ], [ 3101523.268885426688939, 1873826.998188067926094 ], [ 3101534.91146355913952, 1873824.37130962498486 ], [ 3101547.119969370774925, 1873825.217126805800945 ], [ 3101572.108058577403426, 1873826.133729342836887 ], [ 3101572.602906355634332, 1873826.15184702235274 ], [ 3101594.929001621901989, 1873830.041867880150676 ], [ 3101604.070456522516906, 1873845.696600261842832 ], [ 3101612.601931869052351, 1873862.399740219814703 ], [ 3101619.066769293509424, 1873872.774389935657382 ], [ 3101627.452016713097692, 1873886.826856079045683 ], [ 3101697.375705128535628, 1873928.092020745621994 ], [ 3101712.300618692301214, 1873949.562070867745206 ], [ 3101713.412163289263844, 1873972.116196091519669 ], [ 3101700.91208358714357, 1874023.018079293658957 ], [ 3101702.314191645011306, 1874044.852137858280912 ], [ 3101692.759135445579886, 1874114.77507995441556 ], [ 3101687.813750978093594, 1874134.71143527305685 ], [ 3101686.267736204899848, 1874219.288149274652824 ], [ 3101670.949568346142769, 1874298.491544313263148 ], [ 3101667.134200667031109, 1874328.539003744954243 ], [ 3101662.662986210547388, 1874351.893513438059017 ], [ 3101678.288927051704377, 1874345.360686356434599 ], [ 3101707.053372210822999, 1874343.439838754246011 ], [ 3101736.433174106292427, 1874344.309570256620646 ], [ 3101769.812363671138883, 1874347.936333908000961 ], [ 3101803.037651997990906, 1874367.12089776666835 ], [ 3101823.309006546624005, 1874380.54275025986135 ], [ 3101834.201690969057381, 1874383.799436168977991 ], [ 3101840.772878604009748, 1874392.611684587551281 ], [ 3101876.220790271647274, 1874412.967650819569826 ], [ 3101915.483872401062399, 1874424.535287170670927 ], [ 3101926.882685053162277, 1874431.024735025828704 ], [ 3101934.873882629908621, 1874413.384847242385149 ], [ 3101990.991260161623359, 1874433.208406059304252 ], [ 3102010.228097204118967, 1874443.036586074857041 ], [ 3102037.494762828573585, 1874452.30618056235835 ], [ 3102060.164617645554245, 1874467.602629877394065 ], [ 3102077.293389804661274, 1874480.591744187287986 ], [ 3102096.877965982072055, 1874499.935029040556401 ], [ 3102118.167368364520371, 1874514.617714293533936 ], [ 3102125.239257331937551, 1874533.219587357249111 ], [ 3102136.422042908146977, 1874546.246318030636758 ], [ 3102149.684819901362062, 1874551.949728935258463 ], [ 3102161.003374905791134, 1874552.106098693329841 ], [ 3102191.45715868473053, 1874580.247989954426885 ], [ 3102208.482924468349665, 1874592.739535499829799 ], [ 3102259.692423335276544, 1874601.735900176223367 ], [ 3102290.649670843966305, 1874614.805127424420789 ], [ 3102318.44853066559881, 1874634.080281604314223 ], [ 3102348.289710743352771, 1874664.323243041755632 ], [ 3102399.641926345415413, 1874714.027240324998274 ], [ 3102457.431929187849164, 1874779.575594490859658 ], [ 3102538.149669182021171, 1874860.024103302974254 ], [ 3102582.824513350613415, 1874953.099588504061103 ], [ 3102612.510292989201844, 1874999.944218151271343 ], [ 3102645.300796780735254, 1875048.572240902809426 ], [ 3102679.833695141598582, 1875142.637868392048404 ], [ 3102704.163967919535935, 1875206.95848480751738 ], [ 3102751.06561390357092, 1875245.213577979942784 ], [ 3102817.941762982867658, 1875295.616546822246164 ], [ 3102854.740795386023819, 1875307.753987127682194 ], [ 3102892.198312202468514, 1875317.819168084999546 ], [ 3102965.712875212077051, 1875327.955228841863573 ], [ 3102980.197561959736049, 1875327.338956769322976 ], [ 3102991.969796024262905, 1875331.575537664582953 ], [ 3103078.020139491185546, 1875373.26657457370311 ], [ 3103103.747018300928175, 1875380.641774912830442 ], [ 3103133.208581664599478, 1875389.087459353962913 ], [ 3103146.474767065607011, 1875396.117506694048643 ], [ 3103169.183655987493694, 1875403.418214310891926 ], [ 3103193.042582076042891, 1875416.296037310967222 ], [ 3103224.977986872661859, 1875440.140810612589121 ], [ 3103280.222675176337361, 1875487.320477021625265 ], [ 3103258.179500888567418, 1875442.973474856233224 ], [ 3103250.593070134520531, 1875418.632479768944904 ], [ 3103245.805346798151731, 1875380.025907982606441 ], [ 3103245.732051496393979, 1875271.092683902475983 ], [ 3103246.154481329955161, 1875198.697203769581392 ], [ 3103250.732012839987874, 1875154.382728033000603 ], [ 3103271.438896107953042, 1875055.337981776334345 ], [ 3103286.257333029061556, 1875016.028852288378403 ], [ 3103299.860064340755343, 1874992.049214022234082 ], [ 3103326.681823118589818, 1874969.351103697903454 ], [ 3103364.683944007847458, 1874930.296341034583747 ], [ 3103385.44435608247295, 1874827.321101468754932 ], [ 3103403.206565887667239, 1874742.14735400583595 ], [ 3103416.9191251154989, 1874663.442258899798617 ], [ 3103440.012898942455649, 1874542.619735870044678 ], [ 3103491.043256661854684, 1874518.689065819373354 ], [ 3103520.66033246088773, 1874512.522280592238531 ], [ 3103546.650708192028105, 1874509.843146968167275 ], [ 3103574.858496749773622, 1874521.325847786618397 ], [ 3103605.957454409450293, 1874548.260215342277661 ], [ 3103634.236766815185547, 1874560.199663464445621 ], [ 3103681.609577423892915, 1874564.567540836287662 ], [ 3103864.477868937887251, 1874609.016012953827158 ], [ 3103917.293181030079722, 1874633.082244309596717 ], [ 3103951.646832638885826, 1874662.731824430869892 ], [ 3103994.179282589349896, 1874684.376546983374283 ], [ 3104045.631827375851572, 1874699.102140682982281 ] ] ] ] } }
]
}
