{
"type": "FeatureCollection",
"name": "Vega_del_Codorno",
"crs": { "type": "name", "properties": { "name": "urn:ogc:def:crs:EPSG::3035" } },
"features": [
{ "type": "Feature", "properties": { "ENP_GRAL": 1.0, "ENP_GRAL_NAME": "Otros Parques", "color": "#38A800" }, "geometry": { "type": "MultiPolygon", "coordinates": [ [ [ [ 3304578.067734287586063, 2010722.74920272314921 ], [ 3304461.972073886077851, 2010596.004275408340618 ], [ 3304213.692844926379621, 2010399.893019532551989 ], [ 3304114.026017831638455, 2010301.179557404480875 ], [ 3304079.06334861041978, 2010172.654515438480303 ], [ 3304008.215859356801957, 2009955.209350065793842 ], [ 3303963.078432962298393, 2009736.894280731445178 ], [ 3303986.162010111380368, 2009599.929408699972555 ], [ 3304063.663324267137796, 2009373.220582580426708 ], [ 3304083.218072482384741, 2009177.692728850757703 ], [ 3304052.687130754813552, 2009075.211835267953575 ], [ 3303961.526528536807746, 2008995.774004865903407 ], [ 3303900.322340615093708, 2008910.186271520331502 ], [ 3303892.872608751989901, 2008806.274879217613488 ], [ 3303943.025110621005297, 2008646.462475545937195 ], [ 3304034.617322272155434, 2008546.802692401222885 ], [ 3304125.534590407740325, 2008488.727680079406127 ], [ 3304188.509950214996934, 2008388.414310696534812 ], [ 3304203.041913146153092, 2008262.021926200250164 ], [ 3304278.129201442934573, 2008096.417619934538379 ], [ 3304372.715652330778539, 2008006.866200800985098 ], [ 3304443.884697190951556, 2007886.437882121652365 ], [ 3304496.135733423288912, 2007753.577661550836638 ], [ 3304545.713283656165004, 2007658.093049604678527 ], [ 3304652.976636208593845, 2007401.003548162989318 ], [ 3304687.064894214272499, 2007177.198790896683931 ], [ 3304704.674992339685559, 2006917.787350528640673 ], [ 3304785.913321838248521, 2006667.187370274448767 ], [ 3305036.513535839505494, 2006273.258155060233548 ], [ 3305182.51589629240334, 2006189.561098007485271 ], [ 3305399.131107725668699, 2006034.590576216578484 ], [ 3305581.947666930966079, 2005856.592754173791036 ], [ 3305831.073900979943573, 2005559.515694859204814 ], [ 3306001.799654750619084, 2005415.959019259549677 ], [ 3306146.395856104325503, 2005309.247397267259657 ], [ 3306316.22098524030298, 2005198.211457986850291 ], [ 3306528.069107750896364, 2005008.165470316773281 ], [ 3306642.917938314378262, 2004697.204528307542205 ], [ 3306679.417070624418557, 2004632.288804355077446 ], [ 3306682.535886747762561, 2004626.697377063799649 ], [ 3306855.204232858493924, 2004570.297531804768369 ], [ 3307196.890151161700487, 2004473.802137388614938 ], [ 3307555.803849335294217, 2004259.063464381033555 ], [ 3307676.547646882012486, 2004231.794637384358793 ], [ 3307836.536109826527536, 2004252.412626504898071 ], [ 3307983.972108795307577, 2004275.182559642707929 ], [ 3308103.939446415752172, 2004242.991297385888174 ], [ 3308186.277813690248877, 2004255.68035627156496 ], [ 3308269.775340642314404, 2004267.665226094657555 ], [ 3308346.564355964306742, 2004240.346339017385617 ], [ 3308429.938956897705793, 2004274.096430416451767 ], [ 3308632.804007729981095, 2004319.731745016993955 ], [ 3308686.771353689022362, 2004331.721332816407084 ], [ 3308891.958976500667632, 2004299.086795868119225 ], [ 3309018.104419438168406, 2004257.748825692338869 ], [ 3309341.499354816973209, 2004152.776974463136867 ], [ 3309608.532700192183256, 2004058.476806688820943 ], [ 3309776.808160549029708, 2004014.473832867573947 ], [ 3309891.275036416947842, 2004048.46096926019527 ], [ 3310028.062415103893727, 2004096.322171034989879 ], [ 3310035.73298960737884, 2004099.053280084393919 ], [ 3310185.17011705506593, 2004171.547485533636063 ], [ 3310364.660178094636649, 2004260.636333010392264 ], [ 3310498.155093820299953, 2004330.300247501349077 ], [ 3310583.520360809750855, 2004421.357676695566624 ], [ 3310594.010692519601434, 2004410.964122297707945 ], [ 3310608.224003297276795, 2004396.393225102452561 ], [ 3310615.346475005149841, 2004389.610631428891793 ], [ 3310622.515070723835379, 2004382.314577920362353 ], [ 3310629.82305562403053, 2004375.500207612523809 ], [ 3310637.254730901215225, 2004368.664750674972311 ], [ 3310644.810164466965944, 2004361.807993307709694 ], [ 3310652.56685442943126, 2004355.422522397246212 ], [ 3310660.524868441745639, 2004349.508124019019306 ], [ 3310668.606671582441777, 2004343.572622272884473 ], [ 3310676.750198413152248, 2004337.626447821035981 ], [ 3310684.955578958615661, 2004331.669780711876228 ], [ 3310693.222881108988076, 2004325.702407092787325 ], [ 3310701.5677659092471, 2004320.227507163770497 ], [ 3310709.896808933932334, 2004314.249561978271231 ], [ 3310718.241780240088701, 2004308.774551619775593 ], [ 3310726.447168935555965, 2004302.817897072294727 ], [ 3310734.792044390924275, 2004297.342908621067181 ], [ 3310768.526982671115547, 2004274.876632866682485 ], [ 3310816.987795239780098, 2004255.992102613905445 ], [ 3310864.276341162156314, 2004243.877391013083979 ], [ 3310907.482807517051697, 2004221.223661472788081 ], [ 3310909.97733814548701, 2004218.285219519631937 ], [ 3310930.608488162048161, 2004193.982676374260336 ], [ 3310952.606145361904055, 2004134.022849774453789 ], [ 3310974.960086258128285, 2004091.662178879603744 ], [ 3311064.349441176280379, 2003952.728467472363263 ], [ 3311166.628930370789021, 2003818.811815886292607 ], [ 3311203.197022246196866, 2003779.635840494418517 ], [ 3311234.503851484507322, 2003752.47466606926173 ], [ 3311236.047830087132752, 2003751.135164542822167 ], [ 3311246.618178903590888, 2003741.964588184375316 ], [ 3311268.907701583113521, 2003722.626716340426356 ], [ 3311279.687214276287705, 2003713.274698845576495 ], [ 3311281.438920377288014, 2003711.75500058196485 ], [ 3311295.427775681018829, 2003699.618656653445214 ], [ 3311318.142275268677622, 2003681.765151652507484 ], [ 3311321.160994532518089, 2003679.39251379086636 ], [ 3311337.280824992340058, 2003666.72238569217734 ], [ 3311397.409419607371092, 2003619.461934593506157 ], [ 3311402.719003134407103, 2003615.288656613323838 ], [ 3311409.042210795450956, 2003610.318688729312271 ], [ 3311440.381253231316805, 2003585.686525052413344 ], [ 3311491.836211146786809, 2003549.061318311141804 ], [ 3311581.097451298497617, 2003485.526310267159715 ], [ 3311594.836948827840388, 2003475.746727587189525 ], [ 3311631.953229604754597, 2003447.019854188431054 ], [ 3311640.12175526143983, 2003440.697593096178025 ], [ 3311644.297067188192159, 2003432.859116247389466 ], [ 3311659.412964774295688, 2003404.481699340976775 ], [ 3311679.425839682109654, 2003347.271394425071776 ], [ 3311692.17402679938823, 2003325.822575253900141 ], [ 3311717.610971614252776, 2003303.003102279035375 ], [ 3311761.402934485115111, 2003273.828948941081762 ], [ 3311859.329524281434715, 2003158.321840326301754 ], [ 3311936.284993438515812, 2003063.264056818792596 ], [ 3311961.81355603504926, 2003030.796623173868284 ], [ 3311964.755738135427237, 2003030.239820610266179 ], [ 3312006.454788688570261, 2003022.348112056963146 ], [ 3312053.438003955408931, 2003028.750277148326859 ], [ 3312090.567614641040564, 2003054.499720799271017 ], [ 3312182.488155724480748, 2003090.130528399953619 ], [ 3312227.763518184889108, 2003111.274193328106776 ], [ 3312272.284499999601394, 2003157.399776611011475 ], [ 3312272.284499999601394, 2002906.894300000276417 ], [ 3302856.773300000932068, 2002906.894300000276417 ], [ 3302856.773300000932068, 2005445.973760283784941 ], [ 3302951.503227021545172, 2005450.535688796779141 ], [ 3303022.407051295973361, 2005453.545301813399419 ], [ 3303258.0647759353742, 2005447.008229193743318 ], [ 3303515.358315370511264, 2005448.39272150513716 ], [ 3303655.203897465020418, 2005474.978301395662129 ], [ 3303670.87327291816473, 2005484.933492261683568 ], [ 3303718.360460385680199, 2005514.210926074534655 ], [ 3303734.170812437776476, 2005583.814444947754964 ], [ 3303656.468128777109087, 2005700.303579209605232 ], [ 3303632.471413898281753, 2005735.772612219210714 ], [ 3303368.514662217814475, 2006206.846298171905801 ], [ 3303362.972278848756105, 2006216.393880791496485 ], [ 3303241.495038239751011, 2006564.92738680052571 ], [ 3303220.892772710882127, 2006646.845845545176417 ], [ 3303205.868704343214631, 2006706.567835815250874 ], [ 3303183.632479291409254, 2006793.823955464642495 ], [ 3303133.692098498344421, 2006881.786526707233861 ], [ 3303101.458246297203004, 2006937.886740998132154 ], [ 3302904.813488587271422, 2007004.489564314251766 ], [ 3302856.773300000932068, 2007029.852531639160588 ], [ 3302856.773300000932068, 2010522.955945356981829 ], [ 3302936.941059727221727, 2010525.881592200603336 ], [ 3303176.154375828336924, 2010545.526240890845656 ], [ 3303348.543808474671096, 2010575.119715349748731 ], [ 3303576.302152196876705, 2010662.982206776970997 ], [ 3303938.895318050403148, 2010845.042427375447005 ], [ 3304127.328956672921777, 2010955.330938099185005 ], [ 3304219.915752344764769, 2011003.169079603860155 ], [ 3304334.159416491165757, 2011250.089346380438656 ], [ 3304504.376133057288826, 2011721.560892567504197 ], [ 3304595.737830750644207, 2011714.990670613246039 ], [ 3304595.596374517306685, 2011712.486281495075673 ], [ 3304598.334687781054527, 2011714.545197664294392 ], [ 3304610.324964947998524, 2011724.119959910167381 ], [ 3304581.14492382761091, 2011532.902531122788787 ], [ 3304529.865101913921535, 2011366.211525660706684 ], [ 3304521.280747282318771, 2011244.286299794213846 ], [ 3304537.589828295167536, 2011125.171135704265907 ], [ 3304584.579510434065014, 2011048.331301308237016 ], [ 3304665.189220456406474, 2011016.296944844769314 ], [ 3304740.728931849822402, 2010985.132556015858427 ], [ 3304780.286603255663067, 2010946.486148030264303 ], [ 3304812.750403213314712, 2010876.184471773914993 ], [ 3304808.240903943777084, 2010745.46958683617413 ], [ 3304674.972276316490024, 2010775.410491270711645 ], [ 3304578.067734287586063, 2010722.74920272314921 ] ] ], [ [ [ 3312268.54723442113027, 2010660.122508862055838 ], [ 3312257.074959653895348, 2010658.122277331305668 ], [ 3312247.370723629835993, 2010653.439422005321831 ], [ 3312220.336365548893809, 2010631.102904667379335 ], [ 3312173.849442312028259, 2010590.286544115981087 ], [ 3312158.9883569823578, 2010574.391058894107118 ], [ 3312134.733624561224133, 2010548.207154187839478 ], [ 3312114.754558824002743, 2010523.868510271655396 ], [ 3312101.021252087317407, 2010515.11692884657532 ], [ 3312091.397322282195091, 2010512.205111402319744 ], [ 3312086.752886888105422, 2010511.811166196363047 ], [ 3312058.803713203407824, 2010511.444558927323669 ], [ 3312025.611637117341161, 2010509.853684172732756 ], [ 3312013.216441777534783, 2010509.142768753226846 ], [ 3311980.758737377822399, 2010504.19463111856021 ], [ 3311975.042713077738881, 2010504.042574926512316 ], [ 3311968.871972298249602, 2010505.506744870450348 ], [ 3311954.78920104727149, 2010512.936355198035017 ], [ 3311900.21649, 2010533.947572567034513 ], [ 3311878.172393788583577, 2010547.893425756832585 ], [ 3311868.375412106979638, 2010555.158381154527888 ], [ 3311854.394785718526691, 2010565.525891518918797 ], [ 3311832.477725233417004, 2010577.687482036650181 ], [ 3311817.27151270955801, 2010584.902895506005734 ], [ 3311798.149051046930254, 2010593.196186734363437 ], [ 3311771.940768508706242, 2010604.059485296718776 ], [ 3311713.584712534211576, 2010626.12613020488061 ], [ 3311673.771329708397388, 2010640.541160915512592 ], [ 3311622.362809635698795, 2010658.299009164096788 ], [ 3311577.811003394890577, 2010672.034771614940837 ], [ 3311546.648504941724241, 2010681.713549577863887 ], [ 3311531.131813417188823, 2010686.714074175804853 ], [ 3311507.115516243968159, 2010694.453813001513481 ], [ 3311477.78887283988297, 2010703.682518671965227 ], [ 3311439.275269323028624, 2010715.976914500584826 ], [ 3311408.755028047133237, 2010725.410226686857641 ], [ 3311399.329337085131556, 2010730.414984843460843 ], [ 3311380.390676663722843, 2010745.049268270842731 ], [ 3311350.288913929369301, 2010773.527660941472277 ], [ 3311337.90002453327179, 2010783.921213454334065 ], [ 3311325.742239372804761, 2010793.1905550241936 ], [ 3311315.763291940558702, 2010800.730637924280018 ], [ 3311289.210386561695486, 2010815.449645887361839 ], [ 3311260.535498987883329, 2010830.532336658565328 ], [ 3311254.90923446090892, 2010833.484836016548797 ], [ 3311229.842831574380398, 2010846.638792124344036 ], [ 3311214.98284780792892, 2010852.997892654966563 ], [ 3311201.169208514038473, 2010856.833075487520546 ], [ 3311191.597038828767836, 2010858.473536917939782 ], [ 3311176.878607321064919, 2010859.691165591124445 ], [ 3311165.544760085642338, 2010859.513369745342061 ], [ 3311135.118836578913033, 2010859.834839322138578 ], [ 3311095.047878712881356, 2010858.221188643248752 ], [ 3311078.827619433868676, 2010858.228402278386056 ], [ 3311054.874338274821639, 2010859.071708363946527 ], [ 3311036.354444662109017, 2010858.00511861173436 ], [ 3310989.097521412186325, 2010856.923727232264355 ], [ 3310988.500444191973656, 2010856.910049518570304 ], [ 3310962.5165547830984, 2010856.307307893177494 ], [ 3310955.816789296921343, 2010856.436662523075938 ], [ 3310937.849948711227626, 2010856.783515335526317 ], [ 3310920.303243950940669, 2010856.691942933248356 ], [ 3310877.545271740294993, 2010855.702129793353379 ], [ 3310843.358985729515553, 2010855.037293366389349 ], [ 3310812.304062845185399, 2010854.488256427692249 ], [ 3310782.09706443734467, 2010854.120090805226937 ], [ 3310753.989052406977862, 2010853.555340481223539 ], [ 3310719.507001356221735, 2010853.039290236774832 ], [ 3310686.170257591176778, 2010852.62027578195557 ], [ 3310636.30160213354975, 2010851.218410992529243 ], [ 3310582.638246764894575, 2010849.651595320086926 ], [ 3310552.246620913036168, 2010849.152085215784609 ], [ 3310524.348343606106937, 2010848.87770195142366 ], [ 3310488.835647132247686, 2010848.114290005993098 ], [ 3310433.652142087928951, 2010847.297404386103153 ], [ 3310398.777566244360059, 2010846.424689950887114 ], [ 3310367.378661221358925, 2010845.771769909886643 ], [ 3310337.784760031849146, 2010845.135773514630273 ], [ 3310313.656050301156938, 2010844.867771942168474 ], [ 3310301.180422348435968, 2010844.722749027889222 ], [ 3310274.373834741767496, 2010844.098263446940109 ], [ 3310226.225869441404939, 2010843.217402447480708 ], [ 3310177.893359068315476, 2010842.205084102693945 ], [ 3310138.367220795247704, 2010841.96681482414715 ], [ 3310045.816025264095515, 2010840.052874521818012 ], [ 3310031.225327481050044, 2010838.965650009689853 ], [ 3310019.061912646517158, 2010836.646887109614909 ], [ 3310014.585013358853757, 2010834.509206205839291 ], [ 3309994.429614559281617, 2010824.885433400981128 ], [ 3309982.838265109807253, 2010821.000776131404564 ], [ 3309974.157169207930565, 2010821.020925426622853 ], [ 3309943.742870602291077, 2010828.680626494111493 ], [ 3309928.828496237751096, 2010833.846580473007634 ], [ 3309910.077982774935663, 2010846.646536035463214 ], [ 3309886.288639517500997, 2010851.230138717917725 ], [ 3309861.760841504205018, 2010859.985945072956383 ], [ 3309838.469791283831, 2010868.52977819275111 ], [ 3309815.411842327564955, 2010878.550776668591425 ], [ 3309792.603093431796879, 2010890.551883864914998 ], [ 3309770.75883424654603, 2010909.467512467410415 ], [ 3309760.709440240636468, 2010920.851138843456283 ], [ 3309731.3378483382985, 2011010.814111930783838 ], [ 3309687.110842801630497, 2011027.885104561923072 ], [ 3309580.497032231651247, 2011069.036641212180257 ], [ 3309405.44647753611207, 2011110.676278243307024 ], [ 3309262.42472559120506, 2011129.126124385511503 ], [ 3309133.614008829463273, 2011168.402769460808486 ], [ 3309046.471896495204419, 2011263.243910136399791 ], [ 3308989.017060117796063, 2011310.010708833346143 ], [ 3308933.123711173888296, 2011425.791951030958444 ], [ 3308982.997571353334934, 2011528.497378424508497 ], [ 3309100.558014425914735, 2011581.670312059344724 ], [ 3309236.90620288439095, 2011621.508344861678779 ], [ 3309348.583689610939473, 2011665.576111532980576 ], [ 3309460.817219238262624, 2011760.625381129793823 ], [ 3309462.068575182929635, 2011762.517743994481862 ], [ 3309538.904605080839247, 2011878.722624274669215 ], [ 3309553.799469944089651, 2012023.330403812928125 ], [ 3309509.083679183851928, 2012154.389573680702597 ], [ 3309472.065301341935992, 2012210.903853059746325 ], [ 3309368.776736692525446, 2012368.591453939676285 ], [ 3309281.264557913411409, 2012461.474761809688061 ], [ 3309236.561460170894861, 2012604.670308293076232 ], [ 3309161.88905136147514, 2012722.155973176239058 ], [ 3309151.516203755978495, 2012764.146900000516325 ], [ 3312272.284499999601394, 2012764.146900000516325 ], [ 3312272.284499999601394, 2010660.19234161102213 ], [ 3312268.54723442113027, 2010660.122508862055838 ] ] ] ] } },
{ "type": "Feature", "properties": { "ENP_GRAL": 3.0, "ENP_GRAL_NAME": "Monumentos Naturales", "color": "#AAFF00" }, "geometry": { "type": "Polygon", "coordinates": [ [ [ 3312158.9883569823578, 2010574.391058894107118 ], [ 3312173.849442312028259, 2010590.286544115981087 ], [ 3312220.336365548893809, 2010631.102904667379335 ], [ 3312247.370723629835993, 2010653.439422005321831 ], [ 3312257.074959653895348, 2010658.122277331305668 ], [ 3312268.54723442113027, 2010660.122508862055838 ], [ 3312272.284499999601394, 2010660.19234161102213 ], [ 3312272.284499999601394, 2003157.399776611011475 ], [ 3312227.763518184889108, 2003111.274193328106776 ], [ 3312182.488155724480748, 2003090.130528399953619 ], [ 3312090.567614641040564, 2003054.499720799271017 ], [ 3312053.438003955408931, 2003028.750277148326859 ], [ 3312006.454788688570261, 2003022.348112056963146 ], [ 3311964.755738135427237, 2003030.239820610266179 ], [ 3311961.81355603504926, 2003030.796623173868284 ], [ 3311936.284993438515812, 2003063.264056818792596 ], [ 3311859.329524281434715, 2003158.321840326301754 ], [ 3311761.402934485115111, 2003273.828948941081762 ], [ 3311717.610971614252776, 2003303.003102279035375 ], [ 3311692.17402679938823, 2003325.822575253900141 ], [ 3311679.425839682109654, 2003347.271394425071776 ], [ 3311659.412964774295688, 2003404.481699340976775 ], [ 3311644.297067188192159, 2003432.859116247389466 ], [ 3311640.12175526143983, 2003440.697593096178025 ], [ 3311631.953229604754597, 2003447.019854188431054 ], [ 3311594.836948827840388, 2003475.746727587189525 ], [ 3311581.097451298497617, 2003485.526310267159715 ], [ 3311491.836211146786809, 2003549.061318311141804 ], [ 3311440.381253231316805, 2003585.686525052413344 ], [ 3311409.042210795450956, 2003610.318688729312271 ], [ 3311402.719003134407103, 2003615.288656613323838 ], [ 3311397.409419607371092, 2003619.461934593506157 ], [ 3311337.280824992340058, 2003666.72238569217734 ], [ 3311321.160994532518089, 2003679.39251379086636 ], [ 3311318.142275268677622, 2003681.765151652507484 ], [ 3311295.427775681018829, 2003699.618656653445214 ], [ 3311281.438920377288014, 2003711.75500058196485 ], [ 3311279.687214276287705, 2003713.274698845576495 ], [ 3311268.907701583113521, 2003722.626716340426356 ], [ 3311246.618178903590888, 2003741.964588184375316 ], [ 3311236.047830087132752, 2003751.135164542822167 ], [ 3311234.503851484507322, 2003752.47466606926173 ], [ 3311203.197022246196866, 2003779.635840494418517 ], [ 3311166.628930370789021, 2003818.811815886292607 ], [ 3311064.349441176280379, 2003952.728467472363263 ], [ 3310974.960086258128285, 2004091.662178879603744 ], [ 3310952.606145361904055, 2004134.022849774453789 ], [ 3310930.608488162048161, 2004193.982676374260336 ], [ 3310909.97733814548701, 2004218.285219519631937 ], [ 3310907.482807517051697, 2004221.223661472788081 ], [ 3310864.276341162156314, 2004243.877391013083979 ], [ 3310816.987795239780098, 2004255.992102613905445 ], [ 3310768.526982671115547, 2004274.876632866682485 ], [ 3310734.792044390924275, 2004297.342908621067181 ], [ 3310711.129541096277535, 2004326.305100625380874 ], [ 3310680.474934136494994, 2004362.060737159801647 ], [ 3310629.388655024114996, 2004416.56892124703154 ], [ 3310574.193622458726168, 2004491.046899065375328 ], [ 3310427.67008964670822, 2004657.310174628160894 ], [ 3310419.604243489913642, 2004676.309102246072143 ], [ 3310431.534353338181973, 2004678.043481376487762 ], [ 3310465.894994532689452, 2004681.2188200710807 ], [ 3310483.316953909117728, 2004681.632260701153427 ], [ 3310504.122983972541988, 2004680.050074212020263 ], [ 3310522.277715644799173, 2004676.090109131298959 ], [ 3310557.478898087050766, 2004668.360180740477517 ], [ 3310574.612336903810501, 2004665.141656388295814 ], [ 3310594.939995041582733, 2004660.526283079525456 ], [ 3310618.592174275778234, 2004655.341358218342066 ], [ 3310643.542602418456227, 2004649.367688385769725 ], [ 3310669.193618786521256, 2004642.424395747017115 ], [ 3310715.861590628977865, 2004626.216583779780194 ], [ 3310749.30227030813694, 2004614.540579596534371 ], [ 3310798.974285503849387, 2004597.53506565047428 ], [ 3310844.229647788219154, 2004579.587141709402204 ], [ 3310885.986522200517356, 2004561.10584002151154 ], [ 3310915.770721544511616, 2004546.091726205311716 ], [ 3310959.384587243199348, 2004521.34532101964578 ], [ 3311004.150303995702416, 2004496.684931311523542 ], [ 3311016.487044969107956, 2004493.721906237304211 ], [ 3311032.349753162357956, 2004493.270022187149152 ], [ 3311047.566658360417932, 2004497.743065789574757 ], [ 3311056.715993787627667, 2004505.237835039617494 ], [ 3311066.403229051269591, 2004514.339577564736828 ], [ 3311072.706287063658237, 2004525.437012644484639 ], [ 3311077.493730892892927, 2004535.944578413153067 ], [ 3311079.668533706106246, 2004549.731615419732407 ], [ 3311075.714743559714407, 2004571.338324326323345 ], [ 3311072.443310347851366, 2004591.623358610784635 ], [ 3311066.022195348981768, 2004622.372577211353928 ], [ 3311061.254543591290712, 2004651.935342414537445 ], [ 3311055.92481507267803, 2004685.407601952785626 ], [ 3311050.50500304531306, 2004718.308641881216317 ], [ 3311042.521227478049695, 2004764.84873029938899 ], [ 3311033.896979345940053, 2004818.538399905897677 ], [ 3311034.304565062280744, 2004836.068145075580105 ], [ 3311035.893226857297122, 2004849.875643629580736 ], [ 3311041.134131500031799, 2004866.284195547457784 ], [ 3311049.486481964588165, 2004881.866228449391201 ], [ 3311059.909339321777225, 2004895.627034224802628 ], [ 3311078.931336429901421, 2004919.061006855452433 ], [ 3311112.78259805822745, 2004959.900893605081365 ], [ 3311127.741132699884474, 2004977.892466077115387 ], [ 3311142.104096093215048, 2005000.05008118506521 ], [ 3311150.231217226944864, 2005014.204192317323759 ], [ 3311155.730699197389185, 2005028.51506868423894 ], [ 3311155.348183951806277, 2005069.059814630774781 ], [ 3311154.491568082943559, 2005099.125935581279919 ], [ 3311152.226958847139031, 2005178.99587354506366 ], [ 3311150.927945312578231, 2005203.574510513339192 ], [ 3311149.874611492734402, 2005234.26105065154843 ], [ 3311148.702705840114504, 2005262.327944397926331 ], [ 3311146.256952897645533, 2005314.07943900139071 ], [ 3311143.237751838285476, 2005330.436311620287597 ], [ 3311138.795590460300446, 2005350.850384479621425 ], [ 3311132.406427375040948, 2005370.131288780365139 ], [ 3311123.700090709608048, 2005397.14242697856389 ], [ 3311109.014929415658116, 2005440.430949878878891 ], [ 3311089.650620293337852, 2005498.894280629698187 ], [ 3311079.976738497614861, 2005527.244594313204288 ], [ 3311070.44289477262646, 2005550.877644144231454 ], [ 3311062.258481865283102, 2005568.119595847092569 ], [ 3311048.505673992913216, 2005598.635395728284493 ], [ 3311022.577754107303917, 2005657.822423084871843 ], [ 3311011.958348223939538, 2005680.955538574140519 ], [ 3310994.348139602690935, 2005719.29344778880477 ], [ 3310978.477403947152197, 2005753.319690604228526 ], [ 3310954.381505595520139, 2005805.07780719990842 ], [ 3310939.071069065481424, 2005844.359816543990746 ], [ 3310931.832407447975129, 2005868.344558080425486 ], [ 3310921.394165149424225, 2005912.94626574893482 ], [ 3310908.238774421624839, 2005977.814727216260508 ], [ 3310896.991547791287303, 2006034.328823694959283 ], [ 3310885.20539737213403, 2006098.534310155315325 ], [ 3310876.1370136491023, 2006130.486066103214398 ], [ 3310868.554516850039363, 2006153.994635976618156 ], [ 3310859.057425249833614, 2006177.296149723464623 ], [ 3310846.475364761427045, 2006199.788331397576258 ], [ 3310833.508204115089029, 2006221.543705273186788 ], [ 3310822.182972910813987, 2006240.074363674269989 ], [ 3310807.270946506410837, 2006264.838899400318041 ], [ 3310786.165289985015988, 2006299.762486008927226 ], [ 3310743.677263826131821, 2006371.262691208859906 ], [ 3310712.652779854368418, 2006423.405874274438247 ], [ 3310670.785848844330758, 2006493.729617751436308 ], [ 3310647.556089143268764, 2006532.228421474108472 ], [ 3310625.388446691446006, 2006568.939769361168146 ], [ 3310609.979164608754218, 2006595.662769940448925 ], [ 3310592.142686333972961, 2006625.74520810553804 ], [ 3310569.836799473967403, 2006663.283156151184812 ], [ 3310523.213187391869724, 2006739.239007998490706 ], [ 3310495.843196605797857, 2006787.277932242490351 ], [ 3310461.648020480759442, 2006843.176108721178025 ], [ 3310434.554966207593679, 2006889.562102280789986 ], [ 3310417.519124282058328, 2006917.902091556228697 ], [ 3310402.839261348359287, 2006945.838401771849021 ], [ 3310390.720831663347781, 2006974.673743676627055 ], [ 3310382.738660955335945, 2006999.054080416914076 ], [ 3310376.764224682468921, 2007027.639369034674019 ], [ 3310371.806735850404948, 2007059.261566751636565 ], [ 3310363.358287048060447, 2007114.762075099162757 ], [ 3310356.769916315563023, 2007153.085787781514227 ], [ 3310349.403047965373844, 2007200.105882599018514 ], [ 3310341.912883589509875, 2007246.344321357086301 ], [ 3310333.356444603763521, 2007299.455238373018801 ], [ 3310325.779969840310514, 2007350.257526877336204 ], [ 3310317.238757165148854, 2007401.760381319792941 ], [ 3310312.850284731946886, 2007428.468540313420817 ], [ 3310304.930044297128916, 2007478.794619447086006 ], [ 3310298.004761573858559, 2007525.204053869470954 ], [ 3310287.121669406071305, 2007594.234151155455038 ], [ 3310276.638699026312679, 2007662.392931322799996 ], [ 3310271.210256210993975, 2007697.842317305738106 ], [ 3310263.941288850270212, 2007743.77557960851118 ], [ 3310257.682314295787364, 2007784.183955949731171 ], [ 3310249.208775818813592, 2007837.816297570476308 ], [ 3310240.103564313612878, 2007889.148563178954646 ], [ 3310235.445471600629389, 2007926.071597091155127 ], [ 3310232.50054900534451, 2007956.814102548873052 ], [ 3310229.880461995955557, 2007994.725857930257916 ], [ 3310226.979541092179716, 2008039.375550718745217 ], [ 3310224.496820291504264, 2008095.192533707013354 ], [ 3310221.996112467721105, 2008138.97097306791693 ], [ 3310218.286936334334314, 2008195.533317300491035 ], [ 3310215.674043068662286, 2008242.006918961647898 ], [ 3310211.811511706095189, 2008301.003993237391114 ], [ 3310207.639137350022793, 2008351.22362113231793 ], [ 3310205.702344804536551, 2008413.904688056791201 ], [ 3310203.419625447131693, 2008443.731070792302489 ], [ 3310201.862119489815086, 2008479.855399588122964 ], [ 3310198.968636608216912, 2008533.0671808172483 ], [ 3310200.365762241184711, 2008560.657415186287835 ], [ 3310203.685501814354211, 2008578.284829174634069 ], [ 3310208.781421532854438, 2008596.945798128377646 ], [ 3310224.353855457156897, 2008641.105915524531156 ], [ 3310232.340277515817434, 2008662.750254438957199 ], [ 3310239.23846868891269, 2008684.313483711564913 ], [ 3310244.801719572860748, 2008704.232426846865565 ], [ 3310249.332998863421381, 2008722.722569208825007 ], [ 3310255.202301848679781, 2008756.503875019727275 ], [ 3310257.631508786696941, 2008785.522845793515444 ], [ 3310259.880674529820681, 2008804.878336366498843 ], [ 3310259.374298670329154, 2008822.971354998648167 ], [ 3310257.255569103173912, 2008847.077327250503004 ], [ 3310253.764464699663222, 2008884.803771734470502 ], [ 3310250.064292980823666, 2008917.148216672474518 ], [ 3310244.406551511958241, 2008956.361359528265893 ], [ 3310241.571138227824122, 2008973.897505193948746 ], [ 3310238.526640589348972, 2008986.051736949710175 ], [ 3310234.075173093937337, 2009007.080628828844056 ], [ 3310225.08627956174314, 2009045.291012173285708 ], [ 3310209.781839981675148, 2009100.9442694329191 ], [ 3310202.220179397147149, 2009133.832881276961416 ], [ 3310198.604869528673589, 2009152.22324358089827 ], [ 3310196.07735037850216, 2009172.119728272780776 ], [ 3310195.745654925704002, 2009187.972927750553936 ], [ 3310197.423840392380953, 2009214.764638512860984 ], [ 3310203.953673378098756, 2009257.931700833141804 ], [ 3310212.587806504685432, 2009321.611748717026785 ], [ 3310219.551322226412594, 2009367.52527117356658 ], [ 3310230.345524495933205, 2009435.912625228753313 ], [ 3310240.042517231311649, 2009507.10016675805673 ], [ 3310245.278233267366886, 2009540.270913111511618 ], [ 3310252.199582806788385, 2009581.569619802059606 ], [ 3310257.16061014123261, 2009623.204313429072499 ], [ 3310261.986862652935088, 2009679.290954120457172 ], [ 3310267.077000659890473, 2009714.089848898816854 ], [ 3310272.610048389062285, 2009736.388064720435068 ], [ 3310280.18742801155895, 2009756.331849406007677 ], [ 3310290.979523828718811, 2009781.335949192289263 ], [ 3310309.175813888665289, 2009809.880718166241422 ], [ 3310321.345578139647841, 2009841.061512671178207 ], [ 3310326.380040698684752, 2009867.853937572333962 ], [ 3310327.275732136331499, 2009883.732534663984552 ], [ 3310326.972838771529496, 2009902.221333474619314 ], [ 3310325.616945679299533, 2009921.692233801819384 ], [ 3310321.706598456948996, 2009963.244246425805613 ], [ 3310311.499655882362276, 2010064.392713753972203 ], [ 3310307.063274529762566, 2010092.407593104522675 ], [ 3310300.750553842633963, 2010118.740203826921061 ], [ 3310294.505317460279912, 2010137.846707374323159 ], [ 3310283.740074886009097, 2010158.930352332768962 ], [ 3310269.586307464633137, 2010186.606789522338659 ], [ 3310259.090054786764085, 2010206.842729552648962 ], [ 3310245.748589172493666, 2010224.359915223205462 ], [ 3310229.270686337724328, 2010242.414679024368525 ], [ 3310210.378881065640599, 2010260.48237296519801 ], [ 3310188.849116696044803, 2010274.593353798380122 ], [ 3310162.945223505608737, 2010289.053347021806985 ], [ 3310136.133981777355075, 2010302.867149061523378 ], [ 3310088.145862983074039, 2010327.926046014064923 ], [ 3310052.27250814717263, 2010348.102846212452278 ], [ 3310027.191867071203887, 2010365.227471062215045 ], [ 3310007.497243976220489, 2010382.309170748107135 ], [ 3309978.17302031069994, 2010416.916298240190372 ], [ 3309952.997047246433794, 2010451.291958013083786 ], [ 3309938.849266008939594, 2010471.352366796461865 ], [ 3309927.798768842592835, 2010488.076285037677735 ], [ 3309917.963561746291816, 2010507.397626396268606 ], [ 3309913.094623227138072, 2010518.057514446554706 ], [ 3309905.650197314564139, 2010552.428208339260891 ], [ 3309909.603161809500307, 2010594.453334764810279 ], [ 3309930.368387397844344, 2010678.434844475472346 ], [ 3309935.823485046625137, 2010706.899491392308846 ], [ 3309941.714628196787089, 2010778.468026220332831 ], [ 3309942.10196283692494, 2010799.604344992665574 ], [ 3309939.816041356418282, 2010814.185623903060332 ], [ 3309935.308015538845211, 2010825.070325548062101 ], [ 3309928.828496237751096, 2010833.846580473007634 ], [ 3309943.742870602291077, 2010828.680626494111493 ], [ 3309974.157169207930565, 2010821.020925426622853 ], [ 3309982.838265109807253, 2010821.000776131404564 ], [ 3309994.429614559281617, 2010824.885433400981128 ], [ 3310014.585013358853757, 2010834.509206205839291 ], [ 3310019.061912646517158, 2010836.646887109614909 ], [ 3310031.225327481050044, 2010838.965650009689853 ], [ 3310045.816025264095515, 2010840.052874521818012 ], [ 3310138.367220795247704, 2010841.96681482414715 ], [ 3310177.893359068315476, 2010842.205084102693945 ], [ 3310226.225869441404939, 2010843.217402447480708 ], [ 3310274.373834741767496, 2010844.098263446940109 ], [ 3310301.180422348435968, 2010844.722749027889222 ], [ 3310313.656050301156938, 2010844.867771942168474 ], [ 3310337.784760031849146, 2010845.135773514630273 ], [ 3310367.378661221358925, 2010845.771769909886643 ], [ 3310398.777566244360059, 2010846.424689950887114 ], [ 3310433.652142087928951, 2010847.297404386103153 ], [ 3310488.835647132247686, 2010848.114290005993098 ], [ 3310524.348343606106937, 2010848.87770195142366 ], [ 3310552.246620913036168, 2010849.152085215784609 ], [ 3310582.638246764894575, 2010849.651595320086926 ], [ 3310636.30160213354975, 2010851.218410992529243 ], [ 3310686.170257591176778, 2010852.62027578195557 ], [ 3310719.507001356221735, 2010853.039290236774832 ], [ 3310753.989052406977862, 2010853.555340481223539 ], [ 3310782.09706443734467, 2010854.120090805226937 ], [ 3310812.304062845185399, 2010854.488256427692249 ], [ 3310843.358985729515553, 2010855.037293366389349 ], [ 3310877.545271740294993, 2010855.702129793353379 ], [ 3310920.303243950940669, 2010856.691942933248356 ], [ 3310937.849948711227626, 2010856.783515335526317 ], [ 3310955.816789296921343, 2010856.436662523075938 ], [ 3310962.5165547830984, 2010856.307307893177494 ], [ 3310988.500444191973656, 2010856.910049518570304 ], [ 3310989.097521412186325, 2010856.923727232264355 ], [ 3311036.354444662109017, 2010858.00511861173436 ], [ 3311054.874338274821639, 2010859.071708363946527 ], [ 3311078.827619433868676, 2010858.228402278386056 ], [ 3311095.047878712881356, 2010858.221188643248752 ], [ 3311135.118836578913033, 2010859.834839322138578 ], [ 3311165.544760085642338, 2010859.513369745342061 ], [ 3311176.878607321064919, 2010859.691165591124445 ], [ 3311191.597038828767836, 2010858.473536917939782 ], [ 3311201.169208514038473, 2010856.833075487520546 ], [ 3311214.98284780792892, 2010852.997892654966563 ], [ 3311229.842831574380398, 2010846.638792124344036 ], [ 3311254.90923446090892, 2010833.484836016548797 ], [ 3311260.535498987883329, 2010830.532336658565328 ], [ 3311289.210386561695486, 2010815.449645887361839 ], [ 3311315.763291940558702, 2010800.730637924280018 ], [ 3311325.742239372804761, 2010793.1905550241936 ], [ 3311337.90002453327179, 2010783.921213454334065 ], [ 3311350.288913929369301, 2010773.527660941472277 ], [ 3311380.390676663722843, 2010745.049268270842731 ], [ 3311399.329337085131556, 2010730.414984843460843 ], [ 3311408.755028047133237, 2010725.410226686857641 ], [ 3311439.275269323028624, 2010715.976914500584826 ], [ 3311477.78887283988297, 2010703.682518671965227 ], [ 3311507.115516243968159, 2010694.453813001513481 ], [ 3311531.131813417188823, 2010686.714074175804853 ], [ 3311546.648504941724241, 2010681.713549577863887 ], [ 3311577.811003394890577, 2010672.034771614940837 ], [ 3311622.362809635698795, 2010658.299009164096788 ], [ 3311673.771329708397388, 2010640.541160915512592 ], [ 3311713.584712534211576, 2010626.12613020488061 ], [ 3311771.940768508706242, 2010604.059485296718776 ], [ 3311798.149051046930254, 2010593.196186734363437 ], [ 3311817.27151270955801, 2010584.902895506005734 ], [ 3311832.477725233417004, 2010577.687482036650181 ], [ 3311854.394785718526691, 2010565.525891518918797 ], [ 3311868.375412106979638, 2010555.158381154527888 ], [ 3311878.172393788583577, 2010547.893425756832585 ], [ 3311900.21649, 2010533.947572567034513 ], [ 3311954.78920104727149, 2010512.936355198035017 ], [ 3311968.871972298249602, 2010505.506744870450348 ], [ 3311975.042713077738881, 2010504.042574926512316 ], [ 3311980.758737377822399, 2010504.19463111856021 ], [ 3312013.216441777534783, 2010509.142768753226846 ], [ 3312025.611637117341161, 2010509.853684172732756 ], [ 3312058.803713203407824, 2010511.444558927323669 ], [ 3312086.752886888105422, 2010511.811166196363047 ], [ 3312091.397322282195091, 2010512.205111402319744 ], [ 3312101.021252087317407, 2010515.11692884657532 ], [ 3312114.754558824002743, 2010523.868510271655396 ], [ 3312134.733624561224133, 2010548.207154187839478 ], [ 3312158.9883569823578, 2010574.391058894107118 ] ] ] } }
]
}
