{
"type": "FeatureCollection",
"name": "Santillana_del_Mar",
"crs": { "type": "name", "properties": { "name": "urn:ogc:def:crs:EPSG::3035" } },
"features": [
{ "type": "Feature", "properties": { "SITE_NAME": "Cueva La Rogería", "ODESIGNATE": "Zona de la Red Ecológica Europea Natura 2000", "NUT2": 13, "SITE_CODE_": "ES1300017", "DESIG_ABBR": "ES48", "SITE_CDDA": "389278_CDDA", "Sup_ha": 112.278518146 }, "geometry": { "type": "Polygon", "coordinates": [ [ [ 3181212.625151013955474, 2362268.712945802137256 ], [ 3181341.878980812616646, 2362289.488722457084805 ], [ 3181411.535337053239346, 2362311.179280295502394 ], [ 3181431.748838409315795, 2362302.93331826897338 ], [ 3181549.485962872859091, 2362101.463804552797228 ], [ 3181612.025837661698461, 2362028.868906520307064 ], [ 3181644.258930635172874, 2361991.453656823374331 ], [ 3181689.542406236287206, 2361903.534357924479991 ], [ 3181770.459507266059518, 2361709.434935574419796 ], [ 3181801.887334553524852, 2361537.426368780899793 ], [ 3181748.364043090958148, 2361373.823949418962002 ], [ 3181707.746742390096188, 2361207.933326286263764 ], [ 3181585.317875746637583, 2361109.808935622684658 ], [ 3181411.26709496229887, 2361020.838428527116776 ], [ 3181300.562498136889189, 2360993.867115443572402 ], [ 3181172.573486896231771, 2361023.22030933201313 ], [ 3181043.461187086533755, 2361086.060200266540051 ], [ 3180918.55495814466849, 2361214.728981383610517 ], [ 3180845.328366277739406, 2361294.289013751782477 ], [ 3180735.4598558107391, 2361433.607065450400114 ], [ 3180706.164688243996352, 2361618.553792621009052 ], [ 3180685.111489349976182, 2361699.729485382791609 ], [ 3180704.323837207164615, 2361779.137382973916829 ], [ 3180687.948258827440441, 2361822.290399672463536 ], [ 3180639.353041261434555, 2361881.997363454662263 ], [ 3180648.45096429483965, 2361944.836209952831268 ], [ 3180729.704787097871304, 2362056.487693283241242 ], [ 3180753.249998004175723, 2362067.841986641753465 ], [ 3180825.617713058367372, 2362058.069841305725276 ], [ 3180877.47727367002517, 2362071.328872989397496 ], [ 3180932.827071732841432, 2362137.467096263542771 ], [ 3180957.106967133004218, 2362201.679340332280844 ], [ 3180954.127189252525568, 2362275.558857578318566 ], [ 3180920.324312888085842, 2362317.185327290091664 ], [ 3180853.427170055918396, 2362350.591868445742875 ], [ 3180966.955453151836991, 2362486.024696837179363 ], [ 3181002.655109628103673, 2362505.297847625799477 ], [ 3181048.045445112511516, 2362511.033586031757295 ], [ 3181062.817846983671188, 2362330.759386287536472 ], [ 3181108.237958314828575, 2362279.034770264755934 ], [ 3181212.625151013955474, 2362268.712945802137256 ] ] ] } },
{ "type": "Feature", "properties": { "SITE_NAME": "La Viesca", "ODESIGNATE": "Área Natural de Especial Interés", "NUT2": 13, "SITE_CODE_": "ES130009", "DESIG_ABBR": "ES35", "SITE_CDDA": "555691752_CDDA", "Sup_ha": 78.884848192999996 }, "geometry": { "type": "Polygon", "coordinates": [ [ [ 3185312.852294134907424, 2356190.372424522414804 ], [ 3185310.20945253316313, 2356186.71951004024595 ], [ 3185300.752813102211803, 2356173.648559370078146 ], [ 3185295.276146688498557, 2356167.857640303205699 ], [ 3185288.145789734087884, 2356163.796946320217103 ], [ 3185286.459182732738554, 2356163.005989051889628 ], [ 3185280.909273588564247, 2356160.403069164603949 ], [ 3185265.701487737242132, 2356154.824169893749058 ], [ 3185263.807620056439191, 2356153.563927644863725 ], [ 3185262.798969593830407, 2356152.892739933915436 ], [ 3185262.052292342297733, 2356144.861006502062082 ], [ 3185262.984254071488976, 2356136.783705266658217 ], [ 3185263.15891657024622, 2356127.377002670429647 ], [ 3185263.286361126694828, 2356120.509744886308908 ], [ 3185265.983089103363454, 2356104.603688236325979 ], [ 3185266.270686154253781, 2356101.78702679881826 ], [ 3185267.632483258377761, 2356088.451558454427868 ], [ 3185269.047381126321852, 2356080.468460268806666 ], [ 3185271.791530874092132, 2356072.787113295402378 ], [ 3185279.353788539767265, 2356051.61489997105673 ], [ 3185284.487869360484183, 2356037.24189059715718 ], [ 3185286.916879517957568, 2356030.441529692150652 ], [ 3185289.982511925976723, 2356013.130437330808491 ], [ 3185293.049135792069137, 2355995.819172447547317 ], [ 3185296.114618266932666, 2355978.507097284309566 ], [ 3185299.181254707742482, 2355961.195836486294866 ], [ 3185304.707736706361175, 2355937.505956430453807 ], [ 3185310.23406842444092, 2355913.815093827899545 ], [ 3185312.758281517308205, 2355900.46781500056386 ], [ 3185026.036335347220302, 2355900.46781500056386 ], [ 3185026.247714157216251, 2355903.435793129261583 ], [ 3185026.734658911824226, 2355907.532077412120998 ], [ 3185028.181387270800769, 2355919.716784090735018 ], [ 3185028.489688178990036, 2355923.954114082735032 ], [ 3185042.27296190848574, 2355935.462342104874551 ], [ 3185045.177628460340202, 2355950.62059460580349 ], [ 3185045.302666062489152, 2355951.100386935751885 ], [ 3185063.762095719575882, 2355947.530288276262581 ], [ 3185073.670463558286428, 2355945.614012448582798 ], [ 3185075.014190764166415, 2355951.557027383707464 ], [ 3185081.370230190455914, 2355970.206527610309422 ], [ 3185087.26484344387427, 2355980.019609963521361 ], [ 3185100.997603084892035, 2356002.886729955673218 ], [ 3185135.683796630240977, 2356063.34960684645921 ], [ 3185145.584355919621885, 2356080.618907567579299 ], [ 3185146.752147593535483, 2356082.169099992141128 ], [ 3185156.866049563512206, 2356095.56183007825166 ], [ 3185158.200915647670627, 2356097.326180169824511 ], [ 3185154.50780156860128, 2356090.291902931872755 ], [ 3185150.798241389449686, 2356081.248983426485211 ], [ 3185148.188653660006821, 2356065.216746253892779 ], [ 3185148.406357384286821, 2356057.67228451743722 ], [ 3185149.797765245661139, 2356055.038872323464602 ], [ 3185154.602819692343473, 2356049.799660841468722 ], [ 3185158.630540928337723, 2356047.043911041691899 ], [ 3185165.804995814338326, 2356044.309998514130712 ], [ 3185174.19181608222425, 2356040.995608069002628 ], [ 3185182.537516778334975, 2356038.96775569813326 ], [ 3185183.976077171042562, 2356040.561378776561469 ], [ 3185183.635222795885056, 2356045.507711567915976 ], [ 3185182.051990025676787, 2356050.673688967246562 ], [ 3185180.366977511905134, 2356056.142092992551625 ], [ 3185178.738046842627227, 2356064.413996009156108 ], [ 3185178.061036871280521, 2356069.846483614761382 ], [ 3185177.536185602191836, 2356074.540523978881538 ], [ 3185178.019672160036862, 2356080.924737864173949 ], [ 3185186.745133116841316, 2356113.963019209448248 ], [ 3185189.358443696051836, 2356123.798943334724754 ], [ 3185191.068093684967607, 2356127.22353982925415 ], [ 3185193.571969391778111, 2356132.823659165296704 ], [ 3185195.512173939030617, 2356136.786339446436614 ], [ 3185197.131238772999495, 2356141.384865117259324 ], [ 3185199.119484109804034, 2356147.360239006113261 ], [ 3185200.292386116459966, 2356152.758960152044892 ], [ 3185201.533231706358492, 2356157.76983947865665 ], [ 3185204.148950764909387, 2356163.187124002724886 ], [ 3185207.329045749269426, 2356166.798054557293653 ], [ 3185214.628488954156637, 2356172.827639509458095 ], [ 3185224.900015454739332, 2356181.204944057855755 ], [ 3185236.194972794502974, 2356189.695443444419652 ], [ 3185247.318840827792883, 2356199.800725390668958 ], [ 3185247.271176297683269, 2356199.848072254098952 ], [ 3185249.365285844076425, 2356202.653739390894771 ], [ 3185264.477963606826961, 2356191.141344763338566 ], [ 3185274.673414838500321, 2356200.953075104393065 ], [ 3185282.683853518217802, 2356215.554974326863885 ], [ 3185288.684668834321201, 2356213.704467432573438 ], [ 3185291.842820228077471, 2356212.730440393090248 ], [ 3185295.279012369923294, 2356211.671595521271229 ], [ 3185308.027066584676504, 2356232.305071394890547 ], [ 3185308.403175525832921, 2356233.166757447645068 ], [ 3185332.932712707668543, 2356223.080483009107411 ], [ 3185326.29948388133198, 2356211.435965518467128 ], [ 3185319.666094666346908, 2356199.790461710654199 ], [ 3185312.852294134907424, 2356190.372424522414804 ] ] ] } }
]
}
