{
"type": "FeatureCollection",
"name": "Santa_María_de_Cayón",
"crs": { "type": "name", "properties": { "name": "urn:ogc:def:crs:EPSG::3035" } },
"features": [
{ "type": "Feature", "properties": { "SITE_NAME": "Río Miera", "ODESIGNATE": "Zona de la Red Ecológica Europea Natura 2000", "NUT2": 13, "SITE_CODE_": "ES1300015", "DESIG_ABBR": "ES48", "SITE_CDDA": "389290_CDDA", "Sup_ha": 395.54585542500001 }, "geometry": { "type": "MultiPolygon", "coordinates": [ [ [ [ 3209760.224851150996983, 2352164.079514170531183 ], [ 3209729.848807974718511, 2352159.494702923577279 ], [ 3209708.964779316913337, 2352152.415247752331197 ], [ 3209701.86020031478256, 2352149.542698045726866 ], [ 3209722.102809227537364, 2352143.76939027197659 ], [ 3209723.310442849062383, 2352105.158576918765903 ], [ 3209712.867843030020595, 2352081.059538551140577 ], [ 3209694.472379321232438, 2352061.280156323686242 ], [ 3209691.727697727270424, 2352051.971931035630405 ], [ 3209696.580075827427208, 2352043.102301032748073 ], [ 3209711.252967930864543, 2352025.416875393129885 ], [ 3209736.677457289770246, 2352004.435282374732196 ], [ 3209739.916949984617531, 2351988.677821235731244 ], [ 3209741.590131585486233, 2351968.151355399750173 ], [ 3209721.278908007778227, 2351951.052883791737258 ], [ 3209696.668527189642191, 2351933.629223700147122 ], [ 3209670.535831056535244, 2351912.830787971615791 ], [ 3209641.873880028259009, 2351913.105756428558379 ], [ 3209598.493935713544488, 2351923.688516926951706 ], [ 3209582.116502719931304, 2351951.385508625768125 ], [ 3209572.225506984628737, 2351966.287791622802615 ], [ 3209572.181627301499248, 2351966.064215403050184 ], [ 3209559.83626745454967, 2351924.049075760412961 ], [ 3209503.64336379384622, 2351918.012881795875728 ], [ 3209477.055377962999046, 2351944.711423923261464 ], [ 3209480.651307812426239, 2351980.953523576725274 ], [ 3209476.99967235326767, 2352000.460380479693413 ], [ 3209461.083109867293388, 2352019.966513826046139 ], [ 3209450.22996131516993, 2352040.614797366317362 ], [ 3209432.597098092548549, 2352053.722063459455967 ], [ 3209413.058401620946825, 2352069.510850491002202 ], [ 3209405.833656804636121, 2352072.327692918479443 ], [ 3209376.664005637168884, 2352074.725480644032359 ], [ 3209345.254360693041235, 2352078.817177285905927 ], [ 3209327.217183415777981, 2352098.136387459933758 ], [ 3209317.37900133151561, 2352117.788076686672866 ], [ 3209301.791723508853465, 2352126.816232101991773 ], [ 3209277.090328436344862, 2352131.842273164540529 ], [ 3209252.552654673811048, 2352133.39886533562094 ], [ 3209197.230866483412683, 2352142.129148797597736 ], [ 3209170.64321996551007, 2352147.650885466951877 ], [ 3209142.749768053647131, 2352152.772080176509917 ], [ 3209090.690425284206867, 2352155.677453122101724 ], [ 3209058.734412826132029, 2352161.560059709008783 ], [ 3209030.319246056489646, 2352173.41908893128857 ], [ 3208905.438170781824738, 2352244.797915662638843 ], [ 3208820.068125543184578, 2352294.118935202248394 ], [ 3208796.138621954247355, 2352311.786122345365584 ], [ 3208778.457195944618434, 2352322.991398608312011 ], [ 3208757.965563882142305, 2352327.447314557619393 ], [ 3208744.354744809679687, 2352330.271037546917796 ], [ 3208803.820632707327604, 2352365.873793500941247 ], [ 3208823.983840171247721, 2352353.095760143361986 ], [ 3208847.076082444749773, 2352336.046633921563625 ], [ 3208929.882592386566103, 2352288.206702507566661 ], [ 3209051.938837643247098, 2352218.442465356085449 ], [ 3209072.48968112654984, 2352209.865549515467137 ], [ 3209096.048669324722141, 2352205.528647390659899 ], [ 3209148.096339881420135, 2352202.623903348110616 ], [ 3209179.659722764976323, 2352196.828908055555075 ], [ 3209205.632844284176826, 2352191.43486523302272 ], [ 3209257.45975288702175, 2352183.256023795809597 ], [ 3209283.104397036135197, 2352181.629201223142445 ], [ 3209319.241773507557809, 2352174.276268072426319 ], [ 3209355.133668514899909, 2352153.487769835628569 ], [ 3209368.498486699536443, 2352126.791689185425639 ], [ 3209369.084331566467881, 2352126.16425392543897 ], [ 3209381.359766219742596, 2352124.565203895326704 ], [ 3209416.628145684022456, 2352121.665973890572786 ], [ 3209437.992954699322581, 2352113.336137353442609 ], [ 3209462.851588733494282, 2352093.248385728336871 ], [ 3209488.953103021718562, 2352073.846117401961237 ], [ 3209502.815040862187743, 2352047.473332752939314 ], [ 3209523.694436640478671, 2352021.885185915976763 ], [ 3209527.813680720515549, 2351999.880731943994761 ], [ 3209529.002425841987133, 2352005.935372925829142 ], [ 3209541.639866416342556, 2352032.871026195585728 ], [ 3209578.518093927763402, 2352041.354704163968563 ], [ 3209605.76773938909173, 2352005.669469578191638 ], [ 3209624.315719869919121, 2351977.724244805984199 ], [ 3209630.469694701954722, 2351967.316725139506161 ], [ 3209647.539213330484927, 2351963.152588937431574 ], [ 3209652.898199551738799, 2351963.101190537214279 ], [ 3209666.441506069153547, 2351973.879994355607778 ], [ 3209682.098958767484874, 2351984.96505491156131 ], [ 3209676.090343226678669, 2351989.923704718239605 ], [ 3209655.219157841987908, 2352015.080043943598866 ], [ 3209637.929820561781526, 2352046.683362577110529 ], [ 3209649.87083102716133, 2352087.180833119899035 ], [ 3209668.436169709078968, 2352107.142730907071382 ], [ 3209663.377874861471355, 2352108.585440875496715 ], [ 3209606.490222916007042, 2352123.208161794114858 ], [ 3209634.463115559890866, 2352172.934405047446489 ], [ 3209665.288879278115928, 2352188.989189568441361 ], [ 3209691.158031102735549, 2352199.448363910894841 ], [ 3209717.531371074728668, 2352208.388618342578411 ], [ 3209749.136673849076033, 2352213.158922357019037 ], [ 3209774.36399499932304, 2352220.325344076845795 ], [ 3209774.36399499932304, 2352168.096088066697121 ], [ 3209760.224851150996983, 2352164.079514170531183 ] ] ], [ [ [ 3209753.283972086384892, 2352263.544798205140978 ], [ 3209740.662583815865219, 2352289.445145062170923 ], [ 3209750.492270849179476, 2352320.415264240466058 ], [ 3209774.36399499932304, 2352336.676422633230686 ], [ 3209774.36399499932304, 2352260.590069144498557 ], [ 3209753.283972086384892, 2352263.544798205140978 ] ] ] ] } },
{ "type": "Feature", "properties": { "SITE_NAME": "Río Pas", "ODESIGNATE": "Zona de la Red Ecológica Europea Natura 2000", "NUT2": 13, "SITE_CODE_": "ES1300010", "DESIG_ABBR": "ES48", "SITE_CDDA": "389292_CDDA", "Sup_ha": 957.32755959799999 }, "geometry": { "type": "Polygon", "coordinates": [ [ [ 3193738.242794936522841, 2351058.00260278955102 ], [ 3193751.517966271843761, 2351047.337025317829102 ], [ 3193792.769446726888418, 2350977.539260268211365 ], [ 3193805.190095071680844, 2350943.108062225859612 ], [ 3193805.101701783016324, 2350903.818309728056192 ], [ 3193799.766255899332464, 2350876.080585733987391 ], [ 3193794.314343894831836, 2350846.262027864810079 ], [ 3193784.005395297892392, 2350818.78687567776069 ], [ 3193778.187922199256718, 2350797.452355990186334 ], [ 3193774.35194129217416, 2350776.755877523683012 ], [ 3193782.436922147404402, 2350710.169600245077163 ], [ 3193790.820707868319005, 2350608.729697755537927 ], [ 3193805.632763132452965, 2350520.755255972966552 ], [ 3193811.307990508619696, 2350503.40955046005547 ], [ 3193823.068624079693109, 2350482.996164073701948 ], [ 3193851.25054285209626, 2350457.308333794120699 ], [ 3193871.985716383904219, 2350435.413701310753822 ], [ 3193883.772810176946223, 2350415.587345996871591 ], [ 3193888.762776981107891, 2350407.154974743723869 ], [ 3193901.3214614065364, 2350380.464834943879396 ], [ 3193911.983929509762675, 2350363.959971656557173 ], [ 3193924.329631816595793, 2350352.557745895348489 ], [ 3193949.703001109883189, 2350330.371641982346773 ], [ 3193959.568689137231559, 2350300.393240336328745 ], [ 3193965.189865339547396, 2350267.449097141623497 ], [ 3193960.447953346185386, 2350233.542006684932858 ], [ 3193953.040528536774218, 2350203.851877229753882 ], [ 3193941.534874767065048, 2350178.241702912375331 ], [ 3193924.239547706209123, 2350123.134735894389451 ], [ 3193913.901688176207244, 2350072.503682864829898 ], [ 3193895.043705939780921, 2350001.735736677888781 ], [ 3193872.130241544917226, 2349926.460985891055316 ], [ 3193868.781270477920771, 2349908.927784785628319 ], [ 3193867.454737969208509, 2349900.865903344005346 ], [ 3193866.227202073670924, 2349885.992273521143943 ], [ 3193870.804461317136884, 2349872.253577904310077 ], [ 3193878.016822800040245, 2349856.555169455241412 ], [ 3193878.707992958370596, 2349854.769924503751099 ], [ 3193889.384010347537696, 2349853.192988988012075 ], [ 3193897.078374073375016, 2349854.172521725296974 ], [ 3193907.416166394948959, 2349859.103974793106318 ], [ 3193932.65755954105407, 2349871.328981367405504 ], [ 3193958.156953686382622, 2349881.647993850056082 ], [ 3193983.343768879771233, 2349891.083438091445714 ], [ 3194012.523417946882546, 2349901.924071896355599 ], [ 3194047.271827060729265, 2349904.657125497236848 ], [ 3194077.112846152856946, 2349903.350693909451365 ], [ 3194105.313512538559735, 2349898.358724293299019 ], [ 3194131.05461797118187, 2349892.783065994735807 ], [ 3194159.129546251147985, 2349887.604883149731904 ], [ 3194190.121966438833624, 2349878.984666265547276 ], [ 3194219.05362587235868, 2349866.087816807441413 ], [ 3194246.246402661316097, 2349845.471838221419603 ], [ 3194264.761598820798099, 2349823.972832433879375 ], [ 3194291.182658339850605, 2349795.249338301364332 ], [ 3194294.320504097267985, 2349748.406051877420396 ], [ 3194297.427693485282362, 2349721.37132203578949 ], [ 3194295.911037773825228, 2349697.513033688534051 ], [ 3194300.216266226954758, 2349677.551606041844934 ], [ 3194315.741709713824093, 2349642.0408237259835 ], [ 3194330.35780373075977, 2349623.860916669480503 ], [ 3194347.749492178205401, 2349597.508274813182652 ], [ 3194359.417051179334521, 2349566.733495958615094 ], [ 3194364.923552750144154, 2349544.139281858690083 ], [ 3194380.124033845029771, 2349515.143211299553514 ], [ 3194387.549602970480919, 2349507.51994247129187 ], [ 3194400.073268909938633, 2349504.582575671840459 ], [ 3194419.716973693110049, 2349505.267435444984585 ], [ 3194451.152985337655991, 2349508.914058947004378 ], [ 3194492.274911678396165, 2349503.794206201098859 ], [ 3194516.032231396064162, 2349478.094346592202783 ], [ 3194530.292637015227228, 2349439.424458853900433 ], [ 3194532.921983541920781, 2349396.420776120387018 ], [ 3194531.931580372154713, 2349358.849002573639154 ], [ 3194531.591032262891531, 2349319.501870561391115 ], [ 3194535.784208747558296, 2349299.449388031847775 ], [ 3194536.369183104485273, 2349261.884104765485972 ], [ 3194543.989346322603524, 2349240.984939046669751 ], [ 3194554.786048494279385, 2349214.106238858774304 ], [ 3194567.113071547821164, 2349193.789058623835444 ], [ 3194581.411893526092172, 2349176.431947670411319 ], [ 3194602.538639942184091, 2349157.319456588011235 ], [ 3194621.905402028001845, 2349139.11988114984706 ], [ 3194640.115348929539323, 2349126.705802838783711 ], [ 3194661.361947669647634, 2349103.90106635261327 ], [ 3194667.950630967505276, 2349088.125660243444145 ], [ 3194676.528820948675275, 2349077.286222184076905 ], [ 3194687.135152635164559, 2349071.582480379380286 ], [ 3194688.124780806247145, 2349072.009976538829505 ], [ 3194697.379592866636813, 2349082.285203359555453 ], [ 3194708.935603352729231, 2349103.338230637833476 ], [ 3194717.489783674944192, 2349127.407306829001755 ], [ 3194724.989703427068889, 2349152.632021888159215 ], [ 3194731.864364780019969, 2349184.006576762534678 ], [ 3194749.002863573841751, 2349210.469014479313046 ], [ 3194757.402102469466627, 2349225.986510668881238 ], [ 3194763.346946433186531, 2349255.647543975152075 ], [ 3194783.24126096861437, 2349284.176738236565143 ], [ 3194815.049797706771642, 2349296.286507042590529 ], [ 3194849.246362115256488, 2349300.260015048552305 ], [ 3194874.197952792979777, 2349294.110103138722479 ], [ 3194888.574357095174491, 2349295.662127982825041 ], [ 3194916.016804051119834, 2349290.237288958393037 ], [ 3194932.501058088149875, 2349288.141893644817173 ], [ 3194956.864062184933573, 2349291.008202761411667 ], [ 3194983.402954653836787, 2349290.821245186962187 ], [ 3195019.990525892004371, 2349268.030321625526994 ], [ 3195033.149830600246787, 2349238.308286092244089 ], [ 3195048.77481228671968, 2349223.481211708392948 ], [ 3195056.922266824170947, 2349214.08288409980014 ], [ 3195060.281235897913575, 2349191.060871089808643 ], [ 3195089.244799690321088, 2349108.242121403571218 ], [ 3195105.585143497679383, 2349087.374148594215512 ], [ 3195110.995655784383416, 2349084.279089519754052 ], [ 3195117.588301913812757, 2349080.507872596383095 ], [ 3195122.491631676442921, 2349073.286959742195904 ], [ 3195137.95967362774536, 2349054.007560912519693 ], [ 3195157.114630796480924, 2349046.280051075387746 ], [ 3195182.331767806317657, 2349039.971526676788926 ], [ 3195207.629799734335393, 2349035.494081779848784 ], [ 3195235.386914220638573, 2349027.424997899215668 ], [ 3195253.434857118874788, 2349029.44897762266919 ], [ 3195274.641040476504713, 2349037.988072903361171 ], [ 3195295.405924886930734, 2349050.824531430378556 ], [ 3195321.569361617323011, 2349066.29941306496039 ], [ 3195357.283792492933571, 2349073.816963802557439 ], [ 3195389.353743002749979, 2349069.404362482018769 ], [ 3195407.514249534346163, 2349063.831447499338537 ], [ 3195410.983883062377572, 2349064.869362506084144 ], [ 3195434.594703726936132, 2349074.313258534297347 ], [ 3195459.434967334382236, 2349088.013558535370976 ], [ 3195484.379648031201214, 2349103.625060512684286 ], [ 3195504.275996987242252, 2349119.05303359311074 ], [ 3195517.915681881830096, 2349136.347949863877147 ], [ 3195529.221229041926563, 2349156.245275469496846 ], [ 3195539.772584332153201, 2349180.153489168733358 ], [ 3195546.628178203944117, 2349202.379007138777524 ], [ 3195570.66182025661692, 2349195.28969216812402 ], [ 3195580.067673391662538, 2349222.457977471873164 ], [ 3195595.489090686663985, 2349273.04718941822648 ], [ 3195608.714273603633046, 2349294.877866533584893 ], [ 3195628.82570491777733, 2349312.340881842188537 ], [ 3195649.704248397611082, 2349314.739361045416445 ], [ 3195674.800884418189526, 2349308.266491987276822 ], [ 3195682.555120039731264, 2349332.061795827932656 ], [ 3195688.551843827590346, 2349330.515068708918989 ], [ 3195705.387386398389935, 2349310.568815694190562 ], [ 3195714.386401760391891, 2349278.646239422727376 ], [ 3195721.682036164682359, 2349257.083242561668158 ], [ 3195732.112703511957079, 2349245.633052985649556 ], [ 3195732.839973338879645, 2349245.531471233814955 ], [ 3195758.228102647699416, 2349249.892789026256651 ], [ 3195786.016763519961387, 2349257.982872124761343 ], [ 3195813.975244699046016, 2349266.527034053113312 ], [ 3195838.589923824183643, 2349276.221376658417284 ], [ 3195868.091083998791873, 2349287.097590560093522 ], [ 3195900.039027011953294, 2349292.206194345839322 ], [ 3195919.337969787418842, 2349293.807692667935044 ], [ 3195949.355340729467571, 2349299.193053854163736 ], [ 3195977.326911794953048, 2349290.214288934599608 ], [ 3196000.217004318721592, 2349277.665754183661193 ], [ 3196024.765828546136618, 2349270.658418266102672 ], [ 3196051.216842005029321, 2349265.021857115440071 ], [ 3196079.365678884088993, 2349260.992504519410431 ], [ 3196107.926772092934698, 2349259.307556596118957 ], [ 3196129.768293038476259, 2349258.95150922704488 ], [ 3196153.897520349361002, 2349264.275895059108734 ], [ 3196177.684073525946587, 2349271.916993928607553 ], [ 3196201.920401545241475, 2349281.079035928472877 ], [ 3196228.657801494933665, 2349288.536787518300116 ], [ 3196242.640708091668785, 2349295.367676870897412 ], [ 3196260.396930959075689, 2349311.28432039078325 ], [ 3196281.305134090594947, 2349332.265773225575686 ], [ 3196302.751680471934378, 2349350.359485848341137 ], [ 3196323.251329460646957, 2349369.856592929456383 ], [ 3196345.521424320526421, 2349388.37655458599329 ], [ 3196369.753965066745877, 2349406.468228151090443 ], [ 3196400.467869775369763, 2349424.141197871416807 ], [ 3196433.748916231095791, 2349431.982753348536789 ], [ 3196467.252426822669804, 2349428.920600976794958 ], [ 3196495.422142979688942, 2349426.791806659195572 ], [ 3196527.070296373683959, 2349428.688841043040156 ], [ 3196562.543149452190846, 2349421.280630731489509 ], [ 3196586.838940517045557, 2349415.493709033820778 ], [ 3196612.221294207964092, 2349411.456286932341754 ], [ 3196638.524524154141545, 2349411.643757180310786 ], [ 3196664.725511648226529, 2349413.682617002166808 ], [ 3196689.162039710208774, 2349414.85564918955788 ], [ 3196711.658258659299463, 2349421.585384300909936 ], [ 3196737.353711762465537, 2349427.290725026279688 ], [ 3196759.632325582206249, 2349432.468412061687559 ], [ 3196780.193992628715932, 2349442.893846400082111 ], [ 3196810.767898158635944, 2349458.036515044048429 ], [ 3196843.06521640624851, 2349467.698259320575744 ], [ 3196872.537694337312132, 2349469.903762675821781 ], [ 3196902.879921628162265, 2349475.768197129480541 ], [ 3196935.812904033344239, 2349474.097631331998855 ], [ 3196968.223512432537973, 2349467.803874176926911 ], [ 3196995.010491842404008, 2349459.841669207438827 ], [ 3197025.530347020365298, 2349449.96965674450621 ], [ 3197061.017672028392553, 2349429.606698883231729 ], [ 3197078.843724759295583, 2349396.23190623242408 ], [ 3197088.653474952094257, 2349363.389125699177384 ], [ 3197087.241844228468835, 2349333.583017496857792 ], [ 3197089.740226028487086, 2349313.808244197163731 ], [ 3197099.563156434800476, 2349290.788555446546525 ], [ 3197111.34684893488884, 2349265.053269211668521 ], [ 3197125.016997655853629, 2349246.790885334834456 ], [ 3197138.768059076741338, 2349232.366090166382492 ], [ 3197157.896242917515337, 2349221.744227647315711 ], [ 3197180.974373454228044, 2349213.11715536378324 ], [ 3197209.168330037035048, 2349197.879053165670484 ], [ 3197235.30094442749396, 2349183.388957736548036 ], [ 3197261.509184850379825, 2349167.405128047801554 ], [ 3197284.036081203725189, 2349153.790466072969139 ], [ 3197310.761399834416807, 2349135.145024783909321 ], [ 3197328.423496149480343, 2349112.987308517564088 ], [ 3197338.648432114161551, 2349100.78323168028146 ], [ 3197351.201996416784823, 2349094.813640804030001 ], [ 3197370.659358354285359, 2349090.99542706925422 ], [ 3197392.072887836955488, 2349093.397474083118141 ], [ 3197414.739819603040814, 2349098.067696411628276 ], [ 3197441.972810287959874, 2349107.095364805310965 ], [ 3197468.055364729836583, 2349113.241138396784663 ], [ 3197493.329510375857353, 2349119.399046283680946 ], [ 3197521.067862610798329, 2349126.129119591787457 ], [ 3197548.502698741853237, 2349136.079798393882811 ], [ 3197573.020329286810011, 2349145.173284566029906 ], [ 3197599.039796993602067, 2349152.196636412292719 ], [ 3197622.50323496107012, 2349160.147803963162005 ], [ 3197647.873249555472285, 2349167.376563752070069 ], [ 3197669.567452072165906, 2349176.863388207741082 ], [ 3197693.503703622147441, 2349192.61129558365792 ], [ 3197715.462857198901474, 2349208.552406148053706 ], [ 3197732.959680294618011, 2349226.75748793175444 ], [ 3197755.576121931429952, 2349246.916589480824769 ], [ 3197770.159529848024249, 2349258.506235810928047 ], [ 3197808.618428684771061, 2349282.914964367635548 ], [ 3197834.639279887545854, 2349295.791279786732048 ], [ 3197862.245283904951066, 2349305.55367000028491 ], [ 3197887.812474268488586, 2349313.669543218798935 ], [ 3197921.983053487725556, 2349326.140202914364636 ], [ 3197957.41090762289241, 2349340.347134429961443 ], [ 3197996.567402647808194, 2349354.42128405533731 ], [ 3198022.612337213940918, 2349362.467003351077437 ], [ 3198060.386273149400949, 2349369.139103665947914 ], [ 3198095.497913994826376, 2349375.542606546077877 ], [ 3198130.001554744783789, 2349382.478091770317405 ], [ 3198164.861055347137153, 2349387.168831509537995 ], [ 3198194.6395377907902, 2349390.831800536252558 ], [ 3198214.942416682839394, 2349393.883127466309816 ], [ 3198237.44560094922781, 2349397.368804815225303 ], [ 3198275.490318879019469, 2349397.596996053121984 ], [ 3198278.878954276442528, 2349397.511671629734337 ], [ 3198280.285715454723686, 2349390.843411006033421 ], [ 3198288.179980942048132, 2349383.353210657835007 ], [ 3198307.366266192868352, 2349379.273607200942934 ], [ 3198330.942909155040979, 2349377.005730106960982 ], [ 3198387.688836495392025, 2349364.426593767479062 ], [ 3198410.0389698529616, 2349352.347609434276819 ], [ 3198432.690363283269107, 2349337.168598435819149 ], [ 3198453.486964751966298, 2349321.809960186947137 ], [ 3198475.031071458477527, 2349301.749032088555396 ], [ 3198491.491474422626197, 2349278.525389322079718 ], [ 3198505.958750473335385, 2349267.841119916178286 ], [ 3198522.058374334126711, 2349217.768646954093128 ], [ 3198539.526304787024856, 2349178.127424722071737 ], [ 3198553.803551574237645, 2349141.366937696468085 ], [ 3198563.679838048294187, 2349127.432810353580862 ], [ 3198618.209445964545012, 2349114.941445786505938 ], [ 3198644.484331905841827, 2349111.308315365575254 ], [ 3198672.428752307780087, 2349110.42648192262277 ], [ 3198701.413282074034214, 2349115.25102021265775 ], [ 3198755.457728391513228, 2349134.328290743753314 ], [ 3198768.121635067742318, 2349141.608119146898389 ], [ 3198801.233169042505324, 2349162.591009424999356 ], [ 3198813.237485432997346, 2349155.611188764683902 ], [ 3198840.582225048914552, 2349165.988415263127536 ], [ 3198868.63230968080461, 2349176.256413403898478 ], [ 3198896.526201936881989, 2349185.539759579114616 ], [ 3198955.454992181621492, 2349203.545052261091769 ], [ 3198979.714411636348814, 2349210.427482857368886 ], [ 3199021.543183307629079, 2349226.724679387174547 ], [ 3199058.372439913917333, 2349244.750120833516121 ], [ 3199083.961400340776891, 2349258.505278227850795 ], [ 3199117.348538759164512, 2349275.480357460677624 ], [ 3199132.953145396895707, 2349283.858514859806746 ], [ 3199169.829422923736274, 2349300.375228810589761 ], [ 3199194.923510448075831, 2349309.235713722649962 ], [ 3199240.255299936980009, 2349319.713787276763469 ], [ 3199264.236304807011038, 2349323.489463212899864 ], [ 3199288.130873709451407, 2349322.76188549445942 ], [ 3199323.789657103829086, 2349321.997885931748897 ], [ 3199381.740828829817474, 2349321.088050144724548 ], [ 3199412.20128355268389, 2349318.238058527000248 ], [ 3199439.613087465055287, 2349321.513146328739822 ], [ 3199470.99244990106672, 2349336.577673849649727 ], [ 3199480.382476306520402, 2349345.765276096761227 ], [ 3199490.330675750505179, 2349355.499316731933504 ], [ 3199509.346088063903153, 2349394.215922291856259 ], [ 3199526.579222599510103, 2349432.830622299108654 ], [ 3199552.497155707795173, 2349474.492105067707598 ], [ 3199564.971021973527968, 2349493.043972185812891 ], [ 3199583.744668350555003, 2349517.694556904025376 ], [ 3199605.838611226528883, 2349545.997603354044259 ], [ 3199615.545019610319287, 2349550.952741142828017 ], [ 3199626.462786080315709, 2349558.676147487014532 ], [ 3199651.975491291843355, 2349557.380945414304733 ], [ 3199676.871715753804892, 2349561.514819975942373 ], [ 3199710.163566363044083, 2349561.098401814699173 ], [ 3199734.683856349438429, 2349563.875923099927604 ], [ 3199764.643600340932608, 2349565.126943889539689 ], [ 3199792.057725134305656, 2349568.402356112841517 ], [ 3199828.078536839690059, 2349569.842990121804178 ], [ 3199863.50926002021879, 2349571.2631128965877 ], [ 3199880.242933966219425, 2349571.0956936981529 ], [ 3199908.68442371301353, 2349567.828595323953778 ], [ 3199923.732556726783514, 2349564.403930498287082 ], [ 3199928.157193743623793, 2349569.714316312223673 ], [ 3199984.248743807896972, 2349575.607800365425646 ], [ 3200026.980850784108043, 2349535.0876295552589 ], [ 3200043.094790705479681, 2349514.260889327619225 ], [ 3200052.749092668294907, 2349500.798453331459314 ], [ 3200062.302894838154316, 2349469.370743409730494 ], [ 3200066.499015137553215, 2349445.796177710406482 ], [ 3200075.86678999196738, 2349424.903377505019307 ], [ 3200076.739952613599598, 2349417.416645616758615 ], [ 3200086.747243727557361, 2349398.374685056507587 ], [ 3200101.868872699793428, 2349371.322897537611425 ], [ 3200117.83269954379648, 2349344.342122341506183 ], [ 3200131.683182655833662, 2349320.801684412173927 ], [ 3200144.872762949205935, 2349295.196988565381616 ], [ 3200158.247919327579439, 2349268.936956949066371 ], [ 3200170.019040542654693, 2349248.480501152575016 ], [ 3200188.450547451153398, 2349225.038326838519424 ], [ 3200206.678600843064487, 2349204.965344645082951 ], [ 3200225.316628720611334, 2349182.530032307375222 ], [ 3200244.378651381470263, 2349162.316474107094109 ], [ 3200276.144505090080202, 2349117.501483307220042 ], [ 3200289.926170632243156, 2349093.551080776378512 ], [ 3200303.403780722059309, 2349068.612125936895609 ], [ 3200320.186676481738687, 2349047.479832709766924 ], [ 3200335.078398835845292, 2349025.872873711399734 ], [ 3200352.363533671014011, 2349005.607693911064416 ], [ 3200369.190293686464429, 2348984.45640743849799 ], [ 3200388.132213570643216, 2348965.221452801954001 ], [ 3200407.910904147662222, 2348942.699298158288002 ], [ 3200428.94693106552586, 2348918.267365965526551 ], [ 3200448.020069247111678, 2348898.640710647217929 ], [ 3200463.357343255076557, 2348878.183422292582691 ], [ 3200481.91085759177804, 2348861.262167746201158 ], [ 3200503.013209082186222, 2348843.582815326750278 ], [ 3200526.862841397058219, 2348826.61254486721009 ], [ 3200552.364259521011263, 2348808.563412489369512 ], [ 3200573.788783308118582, 2348792.525599296204746 ], [ 3200599.304578140377998, 2348776.024165914393961 ], [ 3200621.570767413824797, 2348760.695846165996045 ], [ 3200643.856912302784622, 2348749.036672130227089 ], [ 3200668.896840371657163, 2348733.66829137224704 ], [ 3200693.736620144918561, 2348718.762356848921627 ], [ 3200716.728303006850183, 2348702.071002470795065 ], [ 3200739.237528039142489, 2348686.065271814353764 ], [ 3200762.185859317425638, 2348668.486327156424522 ], [ 3200784.987227253615856, 2348649.054564130492508 ], [ 3200807.040079907048494, 2348632.363380352966487 ], [ 3200829.756441860459745, 2348608.588653733022511 ], [ 3200848.812422384042293, 2348588.931581626646221 ], [ 3200868.440815883222967, 2348573.089256791397929 ], [ 3200889.524756033439189, 2348553.483007303904742 ], [ 3200909.125034216791391, 2348534.445658530574292 ], [ 3200926.545004045590758, 2348513.98284256644547 ], [ 3200907.998854785226285, 2348497.41770089417696 ], [ 3200949.215359019115567, 2348450.215238153003156 ], [ 3200977.031744577921927, 2348415.051860246807337 ], [ 3200996.110173752531409, 2348387.951716477517039 ], [ 3201016.285418948158622, 2348361.677096773870289 ], [ 3201048.744144154712558, 2348315.277782730292529 ], [ 3201068.315443014726043, 2348286.851908537559211 ], [ 3201083.720911378972232, 2348263.980130978859961 ], [ 3201097.593918182887137, 2348243.281358615495265 ], [ 3201112.184582487680018, 2348220.311300639994442 ], [ 3201122.409392606467009, 2348196.160114008933306 ], [ 3201131.080160318873823, 2348168.730667282827199 ], [ 3201137.37606664467603, 2348137.394399851560593 ], [ 3201160.059896359220147, 2348142.759635077789426 ], [ 3201166.575014412868768, 2348117.047158754430711 ], [ 3201163.780719181522727, 2348086.676517602056265 ], [ 3201156.657813338562846, 2348055.787074226886034 ], [ 3201145.206128153484315, 2348025.454293615650386 ], [ 3201130.263799394946545, 2347998.230826955288649 ], [ 3201116.251503695733845, 2347968.336686636321247 ], [ 3201098.595631708391011, 2347947.372649020049721 ], [ 3201084.172464529983699, 2347928.191084525547922 ], [ 3201066.753615711815655, 2347902.191827930510044 ], [ 3201049.185055686160922, 2347884.462734990753233 ], [ 3201038.694951537065208, 2347865.88567949552089 ], [ 3201030.222352291457355, 2347845.216304390691221 ], [ 3201022.574673457071185, 2347823.237258277833462 ], [ 3201019.750492053106427, 2347803.658791995607316 ], [ 3201021.898856007494032, 2347783.357315487228334 ], [ 3201025.883315934799612, 2347777.736430038232356 ], [ 3201045.455556037835777, 2347761.997639244422317 ], [ 3201068.269906185101718, 2347738.174923116341233 ], [ 3201086.005613571498543, 2347710.127604830544442 ], [ 3201091.416151782497764, 2347689.236851879395545 ], [ 3201094.085571413859725, 2347675.455495624337345 ], [ 3201103.922657400835305, 2347646.630039134062827 ], [ 3201107.807299077510834, 2347619.161830075085163 ], [ 3201099.355735277757049, 2347556.676694402471185 ], [ 3201077.29363043513149, 2347480.1083326023072 ], [ 3201050.466890286654234, 2347418.087716110982001 ], [ 3201038.470512768253684, 2347399.789777054451406 ], [ 3201025.432971272617579, 2347374.77757269050926 ], [ 3201016.526626273058355, 2347361.322917590849102 ], [ 3200999.021782209631056, 2347334.453510792460293 ], [ 3200976.77904995251447, 2347300.311791088432074 ], [ 3200964.625023766420782, 2347278.028839098289609 ], [ 3200948.547787371091545, 2347265.973664638586342 ], [ 3200938.148518575355411, 2347248.860414016060531 ], [ 3200932.228627569973469, 2347228.126478174701333 ], [ 3200927.068460443988442, 2347199.649851805064827 ], [ 3200923.535923508927226, 2347172.444403815548867 ], [ 3200923.209521184675395, 2347144.864603361580521 ], [ 3200924.669746960047632, 2347118.439412309788167 ], [ 3200926.779435218777508, 2347094.744231161661446 ], [ 3200931.817558776587248, 2347074.008996494114399 ], [ 3200945.978558782022446, 2347054.288251914083958 ], [ 3200964.239830051548779, 2347043.64727583527565 ], [ 3200980.04525385890156, 2347037.274381479248405 ], [ 3201000.999924638308585, 2347032.817140740342438 ], [ 3201034.792675602249801, 2347027.803327173925936 ], [ 3201069.858252764679492, 2347025.156537556089461 ], [ 3201082.26277976622805, 2347026.320041832514107 ], [ 3201090.496080624870956, 2347027.951487506739795 ], [ 3201102.883305398747325, 2347024.152100269217044 ], [ 3201112.135515333618969, 2347021.314244247041643 ], [ 3201119.672773708589375, 2347019.002472355030477 ], [ 3201128.969931009225547, 2347015.9366096383892 ], [ 3201169.228341778740287, 2347016.552526822313666 ], [ 3201202.886393200140446, 2347023.414267924148589 ], [ 3201231.914488259702921, 2347029.33207267569378 ], [ 3201248.448214922100306, 2347032.702761194203049 ], [ 3201291.444020899012685, 2347043.174809072632343 ], [ 3201342.158675633370876, 2347035.22079314570874 ], [ 3201387.318925251252949, 2347023.305457809008658 ], [ 3201368.524961771443486, 2347006.747817063238472 ], [ 3201446.445983177050948, 2346932.486356457695365 ], [ 3201455.749549583531916, 2346918.14666650723666 ], [ 3201468.131593205966055, 2346882.075121432542801 ], [ 3201470.908783512189984, 2346844.499472594819963 ], [ 3201466.73430946841836, 2346796.878768980503082 ], [ 3201475.032945440616459, 2346767.179039855487645 ], [ 3201508.012745251413435, 2346717.982756704092026 ], [ 3201532.803669136948884, 2346691.765676100738347 ], [ 3201555.312761275097728, 2346666.458048854488879 ], [ 3201586.99227043427527, 2346624.810172829777002 ], [ 3201610.296487543266267, 2346595.854134107939899 ], [ 3201627.327645665965974, 2346577.137595985550433 ], [ 3201648.161690087988973, 2346554.574032016098499 ], [ 3201656.784529715776443, 2346551.528225418645889 ], [ 3201657.55485974624753, 2346552.777866721153259 ], [ 3201665.082859766669571, 2346564.988949049729854 ], [ 3201666.423182863742113, 2346571.444927888922393 ], [ 3201666.551707098260522, 2346571.30582400970161 ], [ 3201679.904396899975836, 2346556.265272450167686 ], [ 3201709.972561227157712, 2346526.197330879978836 ], [ 3201723.772049071267247, 2346508.963211617898196 ], [ 3201744.575358505360782, 2346476.0257906941697 ], [ 3201755.532990330830216, 2346456.656343216076493 ], [ 3201762.833422600291669, 2346441.335330672562122 ], [ 3201766.112692774273455, 2346426.289318240713328 ], [ 3201771.691006837412715, 2346403.218370365444571 ], [ 3201776.221720882691443, 2346332.707134685479105 ], [ 3201780.813978274352849, 2346310.202757776714861 ], [ 3201781.553198179695755, 2346302.045212102588266 ], [ 3201785.447125284001231, 2346288.871372385881841 ], [ 3201798.68795969709754, 2346271.126612447202206 ], [ 3201835.625317411962897, 2346229.98990932572633 ], [ 3201873.748300165869296, 2346210.53161094058305 ], [ 3201885.887667980510741, 2346172.238141257315874 ], [ 3201894.232593005523086, 2346145.4677764615044 ], [ 3201915.917288890108466, 2346053.485129826702178 ], [ 3201918.859187735244632, 2346017.726111010182649 ], [ 3201932.503326289355755, 2345966.26333268173039 ], [ 3201936.955777226947248, 2345950.875416203867644 ], [ 3201914.048910650424659, 2345950.313952567521483 ], [ 3201896.026161230634898, 2345895.533798487391323 ], [ 3201891.486474054865539, 2345879.979178362526 ], [ 3201909.560062031261623, 2345863.276963114738464 ], [ 3201901.09312265412882, 2345827.540680092293769 ], [ 3201893.976669737137854, 2345790.972662397660315 ], [ 3201888.396767971105874, 2345771.431541320867836 ], [ 3201856.690864645410329, 2345621.190174078568816 ], [ 3201846.915015966631472, 2345590.72691591642797 ], [ 3201841.75103460252285, 2345561.174434009939432 ], [ 3201843.545854409225285, 2345538.440218143165112 ], [ 3201830.478584141004831, 2345513.779725139494985 ], [ 3201813.379947206936777, 2345496.322293563280255 ], [ 3201811.025978295132518, 2345485.904408720787615 ], [ 3201818.235550082754344, 2345475.437658412382007 ], [ 3201834.158671746961772, 2345459.119817807339132 ], [ 3201860.388809361029416, 2345435.245931017678231 ], [ 3201893.524899746757001, 2345404.694216390140355 ], [ 3201916.355189227499068, 2345388.756343835964799 ], [ 3201940.611191130243242, 2345368.639586236327887 ], [ 3201956.427930333185941, 2345337.995671276003122 ], [ 3201967.567739807069302, 2345307.314950412139297 ], [ 3201981.241511166561395, 2345223.25642188731581 ], [ 3201981.168328880798072, 2345191.904074043035507 ], [ 3201970.236287917010486, 2345135.739539404399693 ], [ 3201943.931569656357169, 2345084.461308024823666 ], [ 3201911.739023620728403, 2345039.268800409510732 ], [ 3201890.43406251585111, 2345015.693848011083901 ], [ 3201860.590234483592212, 2344994.207837571389973 ], [ 3201836.91754880733788, 2344992.962893946096301 ], [ 3201824.465352652594447, 2344984.902190589345992 ], [ 3201813.081113509833813, 2344969.975907125044614 ], [ 3201805.445539835374802, 2344951.718802956864238 ], [ 3201803.584099469706416, 2344930.118315413594246 ], [ 3201806.228346974123269, 2344913.090966045856476 ], [ 3201817.909956250805408, 2344895.042676389217377 ], [ 3201851.61856041662395, 2344853.425499376375228 ], [ 3201870.15395762398839, 2344823.647157213650644 ], [ 3201879.617171325720847, 2344794.463826744817197 ], [ 3201887.103797871619463, 2344762.716050049290061 ], [ 3201887.087217426393181, 2344730.9971540030092 ], [ 3201881.549794037360698, 2344699.438273129053414 ], [ 3201872.265376805327833, 2344671.726789084728807 ], [ 3201856.69430837361142, 2344643.698077915236354 ], [ 3201839.564140701666474, 2344618.053396221715957 ], [ 3201818.267137836199254, 2344595.155729512684047 ], [ 3201779.175131348893046, 2344555.478262717835605 ], [ 3201739.863747617229819, 2344519.955172843299806 ], [ 3201721.359378646593541, 2344499.668102467432618 ], [ 3201699.570417003706098, 2344481.447153323795646 ], [ 3201681.640447845682502, 2344461.943527888506651 ], [ 3201658.384814452379942, 2344442.602278191130608 ], [ 3201594.374342351220548, 2344398.41102743986994 ], [ 3201559.854984509758651, 2344367.3508086418733 ], [ 3201512.384155212435871, 2344300.329776125494391 ], [ 3201476.001842463389039, 2344262.995081932749599 ], [ 3201455.791824949439615, 2344239.21712591778487 ], [ 3201430.582173026632518, 2344222.020079080015421 ], [ 3201410.643196394201368, 2344204.75913004623726 ], [ 3201327.412166618742049, 2344140.93386606965214 ], [ 3201299.535277476068586, 2344124.521045838017017 ], [ 3201244.322902729269117, 2344098.573358812369406 ], [ 3201208.699049105867743, 2344094.378433423116803 ], [ 3201177.65605315938592, 2344102.717751837801188 ], [ 3201130.268414729274809, 2344119.551863001659513 ], [ 3201078.544491637032479, 2344128.879089402966201 ], [ 3201058.586936418898404, 2344124.887851936742663 ], [ 3201035.194950229488313, 2344115.217731513082981 ], [ 3201016.749208871275187, 2344103.655991186387837 ], [ 3200999.828372411429882, 2344089.885742752812803 ], [ 3200990.387229712214321, 2344070.803660543169826 ], [ 3200970.563213286921382, 2344023.777826706878841 ], [ 3200955.919302188791335, 2343948.636808976531029 ], [ 3200947.532767169177532, 2343919.743168042507023 ], [ 3200913.126033062580973, 2343848.875110531225801 ], [ 3200904.627547619864345, 2343802.565679031424224 ], [ 3200911.664658274501562, 2343731.373939040116966 ], [ 3200914.878936765249819, 2343699.131863528396934 ], [ 3200912.446227779146284, 2343665.217180442996323 ], [ 3200900.52421950828284, 2343607.50870839972049 ], [ 3200884.647809059359133, 2343576.718795321881771 ], [ 3200855.391238110605627, 2343555.640316051896662 ], [ 3200832.14170779241249, 2343549.129804817028344 ], [ 3200823.429941092152148, 2343541.46183074824512 ], [ 3200817.879613288678229, 2343518.792613911442459 ], [ 3200806.232054004445672, 2343494.387320462614298 ], [ 3200803.669979583472013, 2343478.804937764536589 ], [ 3200808.612192982807755, 2343461.691308876499534 ], [ 3200819.014684506691992, 2343439.984668956138194 ], [ 3200844.76468280563131, 2343386.533099066466093 ], [ 3200835.736129422672093, 2343346.76565220579505 ], [ 3200806.424561166204512, 2343296.071714450605214 ], [ 3200799.938316243700683, 2343275.79640035238117 ], [ 3200800.885940434411168, 2343262.335051031783223 ], [ 3200810.985415781382471, 2343252.716521499678493 ], [ 3200829.380665367469192, 2343243.299463249742985 ], [ 3200882.301207030192018, 2343222.247729576192796 ], [ 3200905.741505388636142, 2343195.042141512501985 ], [ 3200918.454851485323161, 2343167.419427921064198 ], [ 3200936.950651393271983, 2343113.713940582238138 ], [ 3200948.845877542160451, 2343052.332992454990745 ], [ 3200943.50625186925754, 2343019.855852793902159 ], [ 3200927.099448216613382, 2342956.058115519117564 ], [ 3200906.328411816619337, 2342905.576999790966511 ], [ 3200880.887944675981998, 2342872.078518583439291 ], [ 3200851.682656087912619, 2342841.519595016725361 ], [ 3200846.514545747544616, 2342834.446360904723406 ], [ 3200841.556719440035522, 2342816.017111798748374 ], [ 3200829.806812439579517, 2342738.829991046339273 ], [ 3200834.398662628140301, 2342718.574811807833612 ], [ 3200851.268095390871167, 2342671.988812292926013 ], [ 3200862.687662221491337, 2342650.203884207177907 ], [ 3200874.166236537974328, 2342623.099210967309773 ], [ 3200881.171198659110814, 2342593.258293805643916 ], [ 3200882.944514899514616, 2342576.154445182532072 ], [ 3200907.046745025552809, 2342550.016504688188434 ], [ 3200909.012609493918717, 2342485.410398515872657 ], [ 3200905.131008069962263, 2342456.584660422056913 ], [ 3200897.776503182016313, 2342378.479540900792927 ], [ 3200897.105868205428123, 2342355.568569216877222 ], [ 3200901.116539520211518, 2342332.541733450721949 ], [ 3200926.911358111537993, 2342258.134643679950386 ], [ 3200934.561913369223475, 2342228.826859501190484 ], [ 3200950.349904957227409, 2342116.990525879897177 ], [ 3200950.083763428032398, 2342088.407760289032012 ], [ 3200947.268479001242667, 2342034.685720780864358 ], [ 3200948.357634325511754, 2342007.025551345199347 ], [ 3200951.237738018855453, 2341983.640084270853549 ], [ 3200963.066691415384412, 2341932.563812552951276 ], [ 3200971.618100997060537, 2341914.607213499955833 ], [ 3200986.876440340653062, 2341894.99908547475934 ], [ 3201074.869024747982621, 2341766.827337544877082 ], [ 3201087.99882766790688, 2341741.970231295563281 ], [ 3201100.278853417374194, 2341711.545584534294903 ], [ 3201110.418247856199741, 2341625.748116732574999 ], [ 3201112.335492318496108, 2341600.394016768783331 ], [ 3201111.587354467250407, 2341571.176447245758027 ], [ 3201104.408046870026737, 2341538.192246864084154 ], [ 3201077.318551260512322, 2341471.945808968041092 ], [ 3201065.864128772169352, 2341448.668715488165617 ], [ 3201059.833888723514974, 2341425.622738517355174 ], [ 3201059.096894863061607, 2341404.887651611119509 ], [ 3201065.429379540495574, 2341383.128401914611459 ], [ 3201075.163453904911876, 2341363.5425083655864 ], [ 3201089.227232061326504, 2341350.09374633943662 ], [ 3201102.353114717174321, 2341342.608004999812692 ], [ 3201004.932905906345695, 2341342.608004999812692 ], [ 3200989.423014090862125, 2341374.547837813384831 ], [ 3200979.948283822741359, 2341408.802927392534912 ], [ 3200984.826431553345174, 2341442.302009648177773 ], [ 3200992.406504250597209, 2341472.584671657532454 ], [ 3201008.522033073939383, 2341502.005589715205133 ], [ 3201024.280664587859064, 2341526.806178485043347 ], [ 3201033.006339279003441, 2341547.314918745774776 ], [ 3201039.787822882644832, 2341573.527650016359985 ], [ 3201041.861231024377048, 2341599.271981924306601 ], [ 3201038.962789749726653, 2341626.631377976387739 ], [ 3201035.071734208613634, 2341656.287492227740586 ], [ 3201032.563497584313154, 2341682.183776478283107 ], [ 3201027.328815691173077, 2341708.262657069601119 ], [ 3201019.479070238769054, 2341730.109290717635304 ], [ 3200895.504038043320179, 2341897.994856184814125 ], [ 3200886.582425336353481, 2341912.733604108449072 ], [ 3200877.714457483030856, 2341944.03079625684768 ], [ 3200872.254809068515897, 2341975.536430584732443 ], [ 3200879.51715411990881, 2342063.250276320148259 ], [ 3200884.210195946507156, 2342088.724583994597197 ], [ 3200886.020290273241699, 2342112.858645920176059 ], [ 3200870.651410039979964, 2342211.513297853991389 ], [ 3200859.18843369372189, 2342234.225403850432485 ], [ 3200837.874880365096033, 2342287.366083763539791 ], [ 3200833.852086561266333, 2342345.601989708840847 ], [ 3200839.747841087635607, 2342403.541896158829331 ], [ 3200841.350847058929503, 2342452.047094628214836 ], [ 3200824.322274327278137, 2342530.025242988951504 ], [ 3200816.835845022462308, 2342560.908377587795258 ], [ 3200821.609834104310721, 2342584.105678238905966 ], [ 3200806.5511380052194, 2342627.125814035069197 ], [ 3200784.041738834232092, 2342676.972970191854984 ], [ 3200773.425982425455004, 2342706.991874903440475 ], [ 3200767.263089306652546, 2342736.490413488354534 ], [ 3200768.647390772588551, 2342795.885231647174805 ], [ 3200775.590596996247768, 2342825.590869492851198 ], [ 3200808.9873057436198, 2342900.263398076407611 ], [ 3200821.272149693220854, 2342923.253984950948507 ], [ 3200832.673141912091523, 2342957.974690080154687 ], [ 3200854.273007254116237, 2342972.795480637811124 ], [ 3200867.076004821807146, 2342991.502049606759101 ], [ 3200870.435519474558532, 2343007.384903578087687 ], [ 3200870.253982379101217, 2343025.906057866290212 ], [ 3200861.38657720386982, 2343133.943814440164715 ], [ 3200844.275157553143799, 2343171.269684236031026 ], [ 3200830.518389887176454, 2343179.081880904734135 ], [ 3200772.91401745332405, 2343196.356942273676395 ], [ 3200751.138580625411123, 2343227.070189775433391 ], [ 3200739.272778546437621, 2343262.070085853338242 ], [ 3200741.25788748729974, 2343294.933808047324419 ], [ 3200748.48856662446633, 2343332.75503233121708 ], [ 3200763.689116502180696, 2343346.794982404448092 ], [ 3200773.463900817092508, 2343365.288107858970761 ], [ 3200777.071998383384198, 2343378.131271495483816 ], [ 3200772.882505130022764, 2343389.383549386635423 ], [ 3200759.726644434966147, 2343414.200657768175006 ], [ 3200741.13624205486849, 2343454.351095478516072 ], [ 3200754.70198024623096, 2343497.723093221895397 ], [ 3200772.137062646914274, 2343553.466089576482773 ], [ 3200777.342852064408362, 2343595.594348697457463 ], [ 3200811.73180803284049, 2343615.041124883573502 ], [ 3200838.279916726052761, 2343618.110373008064926 ], [ 3200845.38475404586643, 2343622.531039836350828 ], [ 3200848.605486132670194, 2343635.783515980932862 ], [ 3200848.975051728077233, 2343661.389952894765884 ], [ 3200851.860193542204797, 2343684.496744599658996 ], [ 3200842.770747611764818, 2343732.868036216124892 ], [ 3200840.368124981410801, 2343762.302691970020533 ], [ 3200854.101875357329845, 2343805.981695406604558 ], [ 3200844.25988572370261, 2343824.407881078775972 ], [ 3200849.42895377241075, 2343853.799962273333222 ], [ 3200857.657730100676417, 2343877.938847652636468 ], [ 3200885.391007294878364, 2343906.129647267051041 ], [ 3200894.88530133292079, 2343920.698824772145599 ], [ 3200900.135933819692582, 2343989.637478183489293 ], [ 3200904.824220675975084, 2344014.605834319256246 ], [ 3200908.293232222087681, 2344033.080561956390738 ], [ 3200939.483954680152237, 2344105.705887510441244 ], [ 3200955.699562140740454, 2344133.910386727191508 ], [ 3200975.200691188685596, 2344158.13914748840034 ], [ 3201011.548356920480728, 2344174.890510567463934 ], [ 3201064.29182985285297, 2344189.30012034252286 ], [ 3201086.81773361377418, 2344189.378454702906311 ], [ 3201130.602933408692479, 2344179.426621205639094 ], [ 3201197.825458268634975, 2344162.638343013823032 ], [ 3201215.443922745995224, 2344161.858243098948151 ], [ 3201232.62858412694186, 2344164.607613612897694 ], [ 3201239.822206078097224, 2344167.125534900929779 ], [ 3201258.852508737705648, 2344173.78629634808749 ], [ 3201276.960922391153872, 2344180.124465088360012 ], [ 3201293.168198350351304, 2344187.413369949907064 ], [ 3201406.489642972126603, 2344270.955410833004862 ], [ 3201438.085954199079424, 2344300.910675853025168 ], [ 3201469.930395886301994, 2344339.303635771386325 ], [ 3201498.663286070805043, 2344388.702756928279996 ], [ 3201513.345438242424279, 2344407.143443933222443 ], [ 3201548.797446076292545, 2344433.513519740197808 ], [ 3201588.034691896289587, 2344465.242357692681253 ], [ 3201600.48428124235943, 2344476.309839910827577 ], [ 3201626.137281270697713, 2344497.994893637951463 ], [ 3201646.595298545435071, 2344514.068921879865229 ], [ 3201662.905515023507178, 2344532.167543552815914 ], [ 3201721.6844722032547, 2344591.957355060614645 ], [ 3201762.720991807989776, 2344630.741196672432125 ], [ 3201778.615786378737539, 2344647.451501094270498 ], [ 3201807.798480601981282, 2344690.858235224615782 ], [ 3201817.099765414372087, 2344711.824099319986999 ], [ 3201821.423451688140631, 2344733.194318726658821 ], [ 3201820.965372838079929, 2344754.15853633498773 ], [ 3201815.293231666088104, 2344772.823242974467576 ], [ 3201805.342740833293647, 2344791.112971367314458 ], [ 3201769.210781228728592, 2344837.756880396045744 ], [ 3201756.185926077421755, 2344863.952130203135312 ], [ 3201749.632721533067524, 2344882.38748196978122 ], [ 3201748.996651028748602, 2344912.24681524047628 ], [ 3201748.326647614594549, 2344943.706171974074095 ], [ 3201754.31502072699368, 2344973.115305707789958 ], [ 3201758.865356869995594, 2344995.461896667256951 ], [ 3201773.782585886307061, 2345024.508112825918943 ], [ 3201792.531739672180265, 2345016.419527039863169 ], [ 3201800.070286658592522, 2345024.827584612183273 ], [ 3201829.415253921411932, 2345046.455802293028682 ], [ 3201838.866340110078454, 2345049.165628213901073 ], [ 3201856.869653165340424, 2345054.673538291361183 ], [ 3201880.997948674485087, 2345070.745941233821213 ], [ 3201914.412895569577813, 2345105.760235621593893 ], [ 3201927.263881844468415, 2345125.321862020995468 ], [ 3201936.83542677341029, 2345150.844739462248981 ], [ 3201938.538043120410293, 2345158.449901729356498 ], [ 3201942.565277551300824, 2345176.438509325031191 ], [ 3201945.192573530599475, 2345201.666411925572902 ], [ 3201942.354179649148136, 2345231.1722572138533 ], [ 3201921.657254614401609, 2345308.570877108257264 ], [ 3201910.494837636128068, 2345331.695876002777368 ], [ 3201905.262792409397662, 2345336.37039413722232 ], [ 3201892.758234636858106, 2345347.542127385735512 ], [ 3201869.821246418170631, 2345368.034569108858705 ], [ 3201854.238404061645269, 2345348.605625167489052 ], [ 3201831.961355003993958, 2345364.995990455616266 ], [ 3201793.318407895509154, 2345405.629727472085506 ], [ 3201774.317220646422356, 2345428.15403029602021 ], [ 3201756.725848727859557, 2345452.967294116038829 ], [ 3201744.771021913271397, 2345488.341063341591507 ], [ 3201754.539799582678825, 2345524.932547107338905 ], [ 3201772.541284673847258, 2345549.327016386669129 ], [ 3201781.983571081422269, 2345568.800145626068115 ], [ 3201789.354484847281128, 2345591.778437591623515 ], [ 3201799.858171512372792, 2345643.359009661711752 ], [ 3201807.5538678932935, 2345668.587396221701056 ], [ 3201818.164029362145811, 2345721.061793173663318 ], [ 3201834.016751752700657, 2345801.995468164794147 ], [ 3201851.272322278469801, 2345879.120896038599312 ], [ 3201857.275380580686033, 2345907.911004164721817 ], [ 3201879.819170235656202, 2345976.859277519397438 ], [ 3201874.167101684957743, 2345996.899595558643341 ], [ 3201868.092512310482562, 2346050.650399408768862 ], [ 3201853.322507939301431, 2346098.098823271226138 ], [ 3201844.488929948303849, 2346116.224730572663248 ], [ 3201817.476325552910566, 2346149.073298488277942 ], [ 3201797.193846173584461, 2346167.932165292557329 ], [ 3201767.28798833116889, 2346204.712191202677786 ], [ 3201752.791271580383182, 2346225.160804003942758 ], [ 3201732.643032352440059, 2346247.855602057650685 ], [ 3201722.448909769766033, 2346285.35157083440572 ], [ 3201715.055529341567308, 2346306.931091445032507 ], [ 3201712.673817167524248, 2346324.582172740716487 ], [ 3201709.165835872292519, 2346366.065295398235321 ], [ 3201706.689858167432249, 2346399.651777639053762 ], [ 3201695.531725890003145, 2346429.59882593061775 ], [ 3201687.766753950621933, 2346441.721817167941481 ], [ 3201639.74127562623471, 2346506.862430506385863 ], [ 3201631.191936561837792, 2346516.175221112091094 ], [ 3201581.473872403148562, 2346570.516099338885397 ], [ 3201572.553980610333383, 2346582.039995684754103 ], [ 3201547.638175583910197, 2346614.936143578030169 ], [ 3201537.02286898996681, 2346626.449419884011149 ], [ 3201525.452721604146063, 2346636.73553235642612 ], [ 3201502.875553213525563, 2346658.545410073827952 ], [ 3201483.514740295708179, 2346678.611093454994261 ], [ 3201479.255110111087561, 2346682.603405370377004 ], [ 3201457.736619307659566, 2346709.840747717767954 ], [ 3201448.364426458720118, 2346725.554230755660683 ], [ 3201433.094351772684604, 2346766.945576317142695 ], [ 3201428.137192334979773, 2346785.895178467966616 ], [ 3201424.812786930240691, 2346811.72523764334619 ], [ 3201422.654965263791382, 2346828.62091583525762 ], [ 3201420.158527530729771, 2346859.223491393961012 ], [ 3201420.478992177173495, 2346885.043712209910154 ], [ 3201416.613973155617714, 2346897.313744251616299 ], [ 3201414.605083597823977, 2346900.637730925343931 ], [ 3201409.700912392698228, 2346907.737661216408014 ], [ 3201361.632346032187343, 2346957.209376979619265 ], [ 3201335.827702696435153, 2346980.9700619247742 ], [ 3201329.474338350817561, 2346985.698346952907741 ], [ 3201323.215224009007215, 2346988.622667770832777 ], [ 3201311.243298725225031, 2346990.060815335251391 ], [ 3201289.572233471553773, 2346989.260074244812131 ], [ 3201284.753252574242651, 2346987.492350708693266 ], [ 3201271.153334563598037, 2346980.810075675137341 ], [ 3201265.568200362846255, 2346977.982178501784801 ], [ 3201243.561738772783428, 2346969.160142765380442 ], [ 3201227.098265835084021, 2346966.515709678642452 ], [ 3201207.498114931862801, 2346963.702324186917394 ], [ 3201171.591092927381396, 2346961.541716841980815 ], [ 3201145.754838938824832, 2346959.472786488477141 ], [ 3201138.501748830080032, 2346955.874492914881557 ], [ 3201115.577689967118204, 2346950.287908910773695 ], [ 3201095.396503560245037, 2346951.060819291044027 ], [ 3201076.428711895830929, 2346952.69559715827927 ], [ 3201049.188935690559447, 2346958.571273169945925 ], [ 3201031.404651559889317, 2346961.716742486227304 ], [ 3200972.419759368523955, 2346973.200350378639996 ], [ 3200919.843290813732892, 2346986.545359554234892 ], [ 3200889.183522631414235, 2346999.377467679791152 ], [ 3200879.744806536473334, 2347008.193768515717238 ], [ 3200881.614747628103942, 2347016.238213570788503 ], [ 3200884.159793794155121, 2347034.373137947637588 ], [ 3200880.380702271126211, 2347079.217628854326904 ], [ 3200875.726556221954525, 2347107.983186311088502 ], [ 3200868.156139687635005, 2347162.115250171627849 ], [ 3200867.292654081713408, 2347184.609889890998602 ], [ 3200871.593857768923044, 2347210.760975608602166 ], [ 3200881.758608866482973, 2347245.457294727209955 ], [ 3200888.505021318327636, 2347271.2649139855057 ], [ 3200892.172534829005599, 2347292.019316761288792 ], [ 3200895.37220183480531, 2347312.171495844610035 ], [ 3200901.796868126839399, 2347338.300263967365026 ], [ 3200917.769703144673258, 2347357.552472379989922 ], [ 3200937.996030147187412, 2347392.408862273208797 ], [ 3200964.002736013382673, 2347405.4644241547212 ], [ 3200978.061069745570421, 2347419.220476377289742 ], [ 3200986.724862494040281, 2347434.737584004178643 ], [ 3201000.899414417799562, 2347457.082633575890213 ], [ 3201009.202051687985659, 2347478.107290548272431 ], [ 3201016.490919669158757, 2347502.543928385246545 ], [ 3201021.56174442358315, 2347527.459555100649595 ], [ 3201026.510025326162577, 2347551.494367795065045 ], [ 3201030.907514684833586, 2347578.229970946907997 ], [ 3201033.199032221455127, 2347603.495668616145849 ], [ 3201032.871094360016286, 2347625.671935922000557 ], [ 3201029.235709308646619, 2347646.875732861459255 ], [ 3201020.602819134481251, 2347669.044080498628318 ], [ 3201010.392040617763996, 2347677.145873316563666 ], [ 3200983.752270269673318, 2347692.825660537928343 ], [ 3200970.523285242728889, 2347704.982651805970818 ], [ 3200952.871250247582793, 2347743.96647896245122 ], [ 3200951.66279920656234, 2347779.484004160389304 ], [ 3200954.103741887025535, 2347811.090730908326805 ], [ 3200959.210853893309832, 2347840.833666979335248 ], [ 3200965.049862248357385, 2347868.069330919068307 ], [ 3200971.612646692432463, 2347895.231226081028581 ], [ 3200979.350053013302386, 2347921.86864919308573 ], [ 3200992.205352503806353, 2347948.801203258801252 ], [ 3200995.208213687408715, 2347964.951379108242691 ], [ 3200997.892623121384531, 2347985.63043155008927 ], [ 3200994.210259573534131, 2348017.051136080175638 ], [ 3200997.864598981104791, 2348046.16245936928317 ], [ 3201001.452110868413001, 2348073.665749189443886 ], [ 3201000.128564598970115, 2348096.604647533968091 ], [ 3200996.444413646124303, 2348120.822196554392576 ], [ 3200988.493042811751366, 2348142.690081178676337 ], [ 3200979.397832291200757, 2348163.614656322170049 ], [ 3200958.736055869609118, 2348192.015763686038554 ], [ 3200950.055327278096229, 2348216.042188065126538 ], [ 3200944.088236511684954, 2348242.962771783582866 ], [ 3200938.13027937989682, 2348268.421527675352991 ], [ 3200932.324399600736797, 2348290.387413643766195 ], [ 3200927.527064300142229, 2348314.871558838523924 ], [ 3200920.970044233836234, 2348342.229192757513374 ], [ 3200918.899149502627552, 2348346.242091396823525 ], [ 3200918.412402092013508, 2348352.211208742111921 ], [ 3200914.1269511282444, 2348376.90350604429841 ], [ 3200904.998752251733094, 2348399.380226683802903 ], [ 3200889.380240442231297, 2348416.19542532088235 ], [ 3200865.043480416759849, 2348431.343070869799703 ], [ 3200845.810151716694236, 2348447.28122487757355 ], [ 3200823.45376531034708, 2348461.917284613940865 ], [ 3200798.962354250252247, 2348475.151658084243536 ], [ 3200768.540811738930643, 2348483.585936279967427 ], [ 3200737.290219746064395, 2348500.687838573940098 ], [ 3200711.363059991039336, 2348524.220973405987024 ], [ 3200693.503588152118027, 2348546.34736065287143 ], [ 3200676.691626999527216, 2348562.265504585579038 ], [ 3200659.233534374274313, 2348572.447177644819021 ], [ 3200629.036427964456379, 2348584.080282379407436 ], [ 3200615.333575530909002, 2348617.187099632807076 ], [ 3200625.906247700564563, 2348646.697693084832281 ], [ 3200645.29472796805203, 2348660.400711669586599 ], [ 3200649.626029375940561, 2348667.449755477719009 ], [ 3200645.860357423312962, 2348674.221229214221239 ], [ 3200633.01145694963634, 2348682.289678975939751 ], [ 3200609.423760097008198, 2348694.333504788577557 ], [ 3200586.059816590044647, 2348704.663772328291088 ], [ 3200561.431768119335175, 2348718.31133977510035 ], [ 3200537.323838392272592, 2348732.290610040072352 ], [ 3200515.022863493300974, 2348748.758750986307859 ], [ 3200491.761344108730555, 2348767.290557809639722 ], [ 3200469.664073794614524, 2348781.957709372974932 ], [ 3200446.273631328716874, 2348802.906972970813513 ], [ 3200428.632274704985321, 2348823.49036845844239 ], [ 3200406.467362867668271, 2348844.32699808338657 ], [ 3200388.127833176404238, 2348866.722026742529124 ], [ 3200370.54128760099411, 2348888.077323326840997 ], [ 3200353.98058809991926, 2348909.67629150301218 ], [ 3200336.542697322554886, 2348928.003915905486792 ], [ 3200315.425824038684368, 2348949.130015440285206 ], [ 3200295.935563181526959, 2348968.65067105833441 ], [ 3200276.727302145212889, 2348991.483486719429493 ], [ 3200258.394751443527639, 2349015.830761240795255 ], [ 3200240.759132836479694, 2349041.093266607262194 ], [ 3200226.385166201740503, 2349065.400086460635066 ], [ 3200212.477020716294646, 2349088.929900642950088 ], [ 3200197.17467871401459, 2349111.720547764096409 ], [ 3200184.862808640114963, 2349131.434792081825435 ], [ 3200166.251951751764864, 2349147.901063548866659 ], [ 3200144.400685003492981, 2349169.716567344963551 ], [ 3200129.768325512297451, 2349193.633805532474071 ], [ 3200114.741529027931392, 2349214.252493762411177 ], [ 3200096.696044508833438, 2349238.423107557930052 ], [ 3200082.648619376588613, 2349264.300592961721122 ], [ 3200072.23846123740077, 2349287.789327517151833 ], [ 3200058.784135360270739, 2349313.233809294644743 ], [ 3200044.803138294257224, 2349339.084551933221519 ], [ 3200032.262239528819919, 2349361.26654597511515 ], [ 3200019.264107669238001, 2349385.054256674833596 ], [ 3200008.230713751167059, 2349409.234169335104525 ], [ 3199998.438950651325285, 2349433.279875873588026 ], [ 3199985.192044816911221, 2349453.965279949363321 ], [ 3199972.26196810696274, 2349474.045550011098385 ], [ 3199957.942051624879241, 2349487.898622039705515 ], [ 3199938.76707364898175, 2349499.847811577375978 ], [ 3199919.317939504049718, 2349510.480518486350775 ], [ 3199891.209774654358625, 2349517.85560320224613 ], [ 3199867.38963717687875, 2349522.069445590488613 ], [ 3199838.946820220910013, 2349525.229854372795671 ], [ 3199826.83770694071427, 2349518.97875655349344 ], [ 3199806.368443183600903, 2349516.682449030224234 ], [ 3199730.949946701526642, 2349520.392360244411975 ], [ 3199686.260696825105697, 2349506.14395904680714 ], [ 3199642.836845462210476, 2349482.039443858899176 ], [ 3199587.65401354432106, 2349415.706638571806252 ], [ 3199537.488753911107779, 2349333.074573426507413 ], [ 3199488.96106682298705, 2349289.645218744874001 ], [ 3199430.288447794504464, 2349276.958332033827901 ], [ 3199403.289988503791392, 2349276.092411438934505 ], [ 3199375.375683765858412, 2349276.255477115977556 ], [ 3199344.294557761866599, 2349274.727088057436049 ], [ 3199315.082161279395223, 2349274.163166553713381 ], [ 3199288.863584640435874, 2349274.608214897103608 ], [ 3199264.788182682357728, 2349272.034664001781493 ], [ 3199237.958622102160007, 2349266.40458688698709 ], [ 3199209.107593288645148, 2349258.227456752210855 ], [ 3199186.464405798818916, 2349251.587222009431571 ], [ 3199160.864442029967904, 2349241.641952157951891 ], [ 3199138.228240631520748, 2349229.846417509485036 ], [ 3199118.889644515700638, 2349217.64628795767203 ], [ 3199103.071598392911255, 2349205.975824412889779 ], [ 3199090.217946102842689, 2349199.8764573847875 ], [ 3199073.257963443174958, 2349193.477490940131247 ], [ 3199051.175128038506955, 2349184.02190225943923 ], [ 3199025.829129890538752, 2349171.294257002882659 ], [ 3198997.420338280498981, 2349158.891403701622039 ], [ 3198968.773038882762194, 2349147.838467319495976 ], [ 3198941.693766465876251, 2349140.214889119379222 ], [ 3198918.32536297198385, 2349132.330015678890049 ], [ 3198893.612756714224815, 2349122.699382055550814 ], [ 3198866.602084123529494, 2349114.479963610880077 ], [ 3198841.639388154260814, 2349103.703778927680105 ], [ 3198818.176428898237646, 2349093.6573256845586 ], [ 3198792.491126201115549, 2349081.090931949205697 ], [ 3198766.836367510724813, 2349069.465325209312141 ], [ 3198735.974257196765393, 2349056.596394393593073 ], [ 3198708.054085497744381, 2349048.931553477421403 ], [ 3198680.933060806244612, 2349045.422623672522604 ], [ 3198647.665858034044504, 2349042.605742122977972 ], [ 3198616.243045473936945, 2349044.170860800892115 ], [ 3198586.853842227719724, 2349049.91887014452368 ], [ 3198556.202509010210633, 2349056.989908289164305 ], [ 3198521.627096948213875, 2349070.893520090728998 ], [ 3198501.79154116101563, 2349097.471486646682024 ], [ 3198491.035547143779695, 2349123.032443847041577 ], [ 3198479.756972544826567, 2349147.784868525806814 ], [ 3198468.398109583184123, 2349174.129563977010548 ], [ 3198455.956558709032834, 2349201.176831055432558 ], [ 3198447.789980947971344, 2349226.259631611406803 ], [ 3198437.323914023116231, 2349245.630168834235519 ], [ 3198422.117458793334663, 2349266.049148597754538 ], [ 3198404.824355461169034, 2349281.454890413675457 ], [ 3198386.180055537261069, 2349294.497852147556841 ], [ 3198365.152373759075999, 2349301.831510406918824 ], [ 3198337.868581308983266, 2349308.620476588141173 ], [ 3198312.588469295762479, 2349315.245193867944181 ], [ 3198269.589291332289577, 2349322.36708193924278 ], [ 3198259.062025946099311, 2349323.435745840426534 ], [ 3198234.449550009332597, 2349321.654396959580481 ], [ 3198210.28894400363788, 2349320.474142528139055 ], [ 3198184.70324151776731, 2349317.417631872929633 ], [ 3198157.460543071851134, 2349311.976379239931703 ], [ 3198131.06013179384172, 2349306.436698211356997 ], [ 3198104.795929941814393, 2349301.511710383463651 ], [ 3198090.881226181983948, 2349297.864923166576773 ], [ 3198053.636762710288167, 2349285.991312628146261 ], [ 3197983.323825672268867, 2349265.38656873209402 ], [ 3197949.798807923682034, 2349257.070724935270846 ], [ 3197923.397288279607892, 2349250.902188555337489 ], [ 3197901.305623245425522, 2349244.164931232575327 ], [ 3197873.831175692379475, 2349232.185555081814528 ], [ 3197851.491218474693596, 2349219.863860372453928 ], [ 3197823.668347143102437, 2349207.839411776978523 ], [ 3197803.227023185230792, 2349197.291527148801833 ], [ 3197782.495923051610589, 2349182.615724162198603 ], [ 3197762.859384395647794, 2349166.146276019513607 ], [ 3197741.221379190217704, 2349149.544995435513556 ], [ 3197720.807720306329429, 2349130.899116899818182 ], [ 3197692.803558836691082, 2349115.239029401447624 ], [ 3197664.634761294815689, 2349105.98370350105688 ], [ 3197638.345245816744864, 2349094.218864968046546 ], [ 3197613.499662024900317, 2349080.299389503896236 ], [ 3197587.180467513855547, 2349068.662295306101441 ], [ 3197559.33573457878083, 2349058.230031353421509 ], [ 3197539.099904543720186, 2349052.450226783752441 ], [ 3197518.296071553602815, 2349046.32184578711167 ], [ 3197499.327675978653133, 2349045.30446982011199 ], [ 3197486.623851952143013, 2349039.944612581282854 ], [ 3197466.303667103871703, 2349029.657608409877867 ], [ 3197411.157450936734676, 2349019.003998239990324 ], [ 3197370.577830656431615, 2349013.186925193760544 ], [ 3197355.28280268330127, 2349013.801513749174774 ], [ 3197322.611412527505308, 2349022.043297858908772 ], [ 3197292.909419021569192, 2349038.512467102147639 ], [ 3197266.076291385106742, 2349057.700480432715267 ], [ 3197244.724222227465361, 2349080.562565390020609 ], [ 3197225.013785358518362, 2349101.489220223855227 ], [ 3197205.668446476571262, 2349117.273426291532815 ], [ 3197189.045176824554801, 2349128.672643255442381 ], [ 3197160.040020157583058, 2349136.764418806880713 ], [ 3197133.818404592573643, 2349152.206426674500108 ], [ 3197108.534816645085812, 2349171.06048440001905 ], [ 3197085.512037445791066, 2349191.89338166359812 ], [ 3197064.151086442172527, 2349213.406991395633668 ], [ 3197047.365875848568976, 2349236.132774945348501 ], [ 3197032.570152399595827, 2349261.005232746247202 ], [ 3197021.093859251122922, 2349285.520907589234412 ], [ 3197009.473678792826831, 2349313.137560917530209 ], [ 3197000.904323697090149, 2349338.288827086333185 ], [ 3196988.210824043024331, 2349355.314064636360854 ], [ 3196968.932309601921588, 2349369.157052740920335 ], [ 3196947.144130607601255, 2349387.858529562596232 ], [ 3196929.98958867508918, 2349396.943600937724113 ], [ 3196906.13270759396255, 2349401.420121088158339 ], [ 3196882.053284180816263, 2349404.102541892789304 ], [ 3196856.967437223531306, 2349401.066723603289574 ], [ 3196834.651686985045671, 2349396.467125932686031 ], [ 3196810.661461692303419, 2349386.298364166170359 ], [ 3196787.189311579335481, 2349375.186599520966411 ], [ 3196759.861215197481215, 2349363.744201780762523 ], [ 3196728.257296663708985, 2349356.901155842002481 ], [ 3196698.768149063456804, 2349353.023086685687304 ], [ 3196665.835360694210976, 2349350.02805264480412 ], [ 3196636.360490377061069, 2349348.035307950340211 ], [ 3196609.997266346588731, 2349349.162218403536826 ], [ 3196580.774078344460577, 2349350.129904072731733 ], [ 3196551.179250590503216, 2349353.747352738399059 ], [ 3196523.509673163294792, 2349358.643969728145748 ], [ 3196495.117066814564168, 2349364.165960035286844 ], [ 3196467.160258455667645, 2349367.730138608720154 ], [ 3196443.454124453477561, 2349366.868196081835777 ], [ 3196426.067605392076075, 2349362.179524020757526 ], [ 3196406.309425389394164, 2349349.302429159637541 ], [ 3196383.688465970568359, 2349333.719992095604539 ], [ 3196364.086765747517347, 2349320.237061054911464 ], [ 3196359.680974192917347, 2349315.587781337089837 ], [ 3196336.303588324226439, 2349294.502443911973387 ], [ 3196320.041409972589463, 2349275.609870763495564 ], [ 3196295.327102881856263, 2349260.360705542378128 ], [ 3196271.453135174699128, 2349246.779585299547762 ], [ 3196247.704190784133971, 2349232.263361481018364 ], [ 3196218.111314799636602, 2349219.648315410595387 ], [ 3196187.864369243383408, 2349209.820957570336759 ], [ 3196161.84257357660681, 2349205.790946646593511 ], [ 3196153.8551987092942, 2349203.201696664560586 ], [ 3196144.523352918680757, 2349202.148544318042696 ], [ 3196118.279615065548569, 2349196.54318483825773 ], [ 3196088.317085898481309, 2349195.686460844241083 ], [ 3196079.097475982736796, 2349196.549522298853844 ], [ 3196064.055703758262098, 2349197.013839024119079 ], [ 3196036.602907422464341, 2349200.09538446366787 ], [ 3195972.478167992085218, 2349217.663040985353291 ], [ 3195939.171303424052894, 2349231.020936117973179 ], [ 3195932.093406032770872, 2349231.620200713165104 ], [ 3195909.049149598926306, 2349228.166206147056073 ], [ 3195886.432390895672143, 2349222.639875276945531 ], [ 3195856.835588302463293, 2349212.402705369051546 ], [ 3195826.312475992832333, 2349203.516555696260184 ], [ 3195801.153860251884907, 2349197.657766251359135 ], [ 3195775.449417578056455, 2349191.046463277656585 ], [ 3195746.089041408151388, 2349184.143536690622568 ], [ 3195714.817448751069605, 2349182.104380177799612 ], [ 3195683.314308505039662, 2349196.146114591043442 ], [ 3195662.196842885576189, 2349229.158805512823164 ], [ 3195651.401434336788952, 2349253.47138084564358 ], [ 3195647.364777107723057, 2349266.597117685712874 ], [ 3195646.858779191505164, 2349266.125560764688998 ], [ 3195635.987701947335154, 2349242.827087390236557 ], [ 3195624.579379091970623, 2349217.098693846724927 ], [ 3195613.002132544294, 2349189.469408553559333 ], [ 3195603.219315741211176, 2349165.967499832157046 ], [ 3195591.885757371783257, 2349139.81011658674106 ], [ 3195578.35486522782594, 2349113.284884759224951 ], [ 3195556.270973417907953, 2349086.2756984741427 ], [ 3195538.342653324827552, 2349064.909078786149621 ], [ 3195516.526076296344399, 2349040.007929449900985 ], [ 3195488.256118039600551, 2349027.357319754548371 ], [ 3195460.63835708424449, 2349016.722159976605326 ], [ 3195435.187036449555308, 2349008.922355378046632 ], [ 3195403.989306439645588, 2348996.365888930857182 ], [ 3195373.461958717554808, 2348996.481107769068331 ], [ 3195357.475705871824175, 2348997.897862899117172 ], [ 3195337.290503673255444, 2348990.095825859345496 ], [ 3195309.331457910127938, 2348980.168339846655726 ], [ 3195280.033142230473459, 2348969.653638461139053 ], [ 3195274.234091634862125, 2348968.11872258875519 ], [ 3195257.778565882705152, 2348963.917174707632512 ], [ 3195210.665417741052806, 2348964.912912807893008 ], [ 3195169.534452460706234, 2348972.880609216168523 ], [ 3195160.641501096077263, 2348974.738530815578997 ], [ 3195128.871731147635728, 2348982.099926489870995 ], [ 3195101.747838025912642, 2348996.111284487880766 ], [ 3195076.933949672617018, 2349014.749640866182745 ], [ 3195056.389911976642907, 2349033.61077482951805 ], [ 3195035.926606278400868, 2349057.484279825352132 ], [ 3195024.431787280365825, 2349089.557747636456043 ], [ 3195017.280805143993348, 2349117.263022728729993 ], [ 3195011.748397745657712, 2349140.146446640137583 ], [ 3194999.179699732922018, 2349162.094277123454958 ], [ 3194988.756497012451291, 2349184.940412858966738 ], [ 3194977.696905598044395, 2349204.163518836256117 ], [ 3194964.434880652464926, 2349218.848262229003012 ], [ 3194960.879366989247501, 2349220.77010776521638 ], [ 3194938.997824476100504, 2349221.564887017011642 ], [ 3194907.031071281991899, 2349225.357695734594017 ], [ 3194880.485102254431695, 2349227.690302138682455 ], [ 3194860.508147886022925, 2349226.927335164509714 ], [ 3194847.717058232054114, 2349230.152177860029042 ], [ 3194827.203335897065699, 2349225.329527603928 ], [ 3194813.375322980806231, 2349210.64361032936722 ], [ 3194803.517214409541339, 2349190.359672569204122 ], [ 3194796.986088167410344, 2349155.617228465154767 ], [ 3194783.857625594362617, 2349120.410547587089241 ], [ 3194774.555573875550181, 2349094.185753729660064 ], [ 3194762.120115955360234, 2349068.809508279897273 ], [ 3194743.1933284252882, 2349043.210350338835269 ], [ 3194727.260112040676177, 2349016.996099449694157 ], [ 3194704.784206985495985, 2349004.167487884406 ], [ 3194694.798371776007116, 2349008.708363341167569 ], [ 3194649.693053316324949, 2349030.147959489375353 ], [ 3194636.77482049819082, 2349033.291543377563357 ], [ 3194635.420641234144568, 2349036.242261717095971 ], [ 3194624.728774411603808, 2349050.822588949464262 ], [ 3194605.917149734217674, 2349065.198889564257115 ], [ 3194586.169204362668097, 2349080.59591767238453 ], [ 3194561.313158710021526, 2349097.79302507545799 ], [ 3194540.526873469352722, 2349118.164590137545019 ], [ 3194522.402954109478742, 2349139.837151646614075 ], [ 3194501.458169934339821, 2349167.309530950151384 ], [ 3194489.836810560431331, 2349197.984652380459011 ], [ 3194477.025055512785912, 2349244.13774064835161 ], [ 3194466.617271299939603, 2349312.369127777405083 ], [ 3194466.32087071146816, 2349360.708346363622695 ], [ 3194468.258581080473959, 2349396.549510892480612 ], [ 3194465.977758218534291, 2349426.586045652162284 ], [ 3194460.53954836493358, 2349442.017886781133711 ], [ 3194451.449485826306045, 2349443.20420751022175 ], [ 3194425.53295091772452, 2349440.245130970142782 ], [ 3194394.070007630623877, 2349439.306324606761336 ], [ 3194355.270525195170194, 2349448.915939843747765 ], [ 3194327.349873611237854, 2349476.469967319164425 ], [ 3194321.802403621375561, 2349487.266501822508872 ], [ 3194305.952855243347585, 2349514.455492277629673 ], [ 3194292.488014743197709, 2349561.032628430984914 ], [ 3194289.800464099273086, 2349568.150961409322917 ], [ 3194278.019385357387364, 2349586.110723271965981 ], [ 3194260.443615281954408, 2349608.301040566060692 ], [ 3194237.728505379520357, 2349657.907799970824271 ], [ 3194231.015126222744584, 2349693.615514548495412 ], [ 3194232.539580188691616, 2349720.018478111363947 ], [ 3194229.66892857151106, 2349742.759748759213835 ], [ 3194227.736183254979551, 2349768.284561787731946 ], [ 3194216.129115987569094, 2349780.733434993308038 ], [ 3194202.086325987242162, 2349797.467529324349016 ], [ 3194186.195792366750538, 2349809.333789007738233 ], [ 3194168.735968658700585, 2349817.159372018650174 ], [ 3194144.83583346940577, 2349823.848536408506334 ], [ 3194119.337629259098321, 2349828.853894814383239 ], [ 3194093.88057176489383, 2349834.165390719193965 ], [ 3194070.267368315719068, 2349838.34529625531286 ], [ 3194049.45416584610939, 2349839.573959711007774 ], [ 3194026.885061620734632, 2349837.562956070527434 ], [ 3194006.55447495309636, 2349830.434228827245533 ], [ 3193982.70199108030647, 2349821.051836933940649 ], [ 3193959.084225446917117, 2349811.494258624035865 ], [ 3193936.122259619645774, 2349800.48431578790769 ], [ 3193916.161788609810174, 2349790.88541858131066 ], [ 3193889.430547110270709, 2349787.134658435359597 ], [ 3193862.975417173001915, 2349791.429098681081086 ], [ 3193830.789010908920318, 2349802.151827265508473 ], [ 3193818.162854314781725, 2349831.353718825615942 ], [ 3193810.066340965684503, 2349848.976550898514688 ], [ 3193801.089659889228642, 2349879.114985736086965 ], [ 3193802.969935555011034, 2349909.664235293865204 ], [ 3193808.893406195566058, 2349942.292012444231659 ], [ 3193832.242928537540138, 2350020.4960150658153 ], [ 3193850.622732593212277, 2350087.917472229804844 ], [ 3193861.353062816429883, 2350140.682882666122168 ], [ 3193880.973569589667022, 2350202.306091391015798 ], [ 3193890.808893381617963, 2350225.902989497408271 ], [ 3193896.487919197417796, 2350247.0031628026627 ], [ 3193898.610370609909296, 2350262.685772758442909 ], [ 3193899.254349513910711, 2350267.697229002602398 ], [ 3193896.735975335352123, 2350285.654061502311379 ], [ 3193893.963610922917724, 2350293.255779827479273 ], [ 3193881.504055543802679, 2350304.093688611872494 ], [ 3193862.216093191411346, 2350321.294832968153059 ], [ 3193844.129289752803743, 2350349.144233268685639 ], [ 3193831.477794148959219, 2350377.639256093651056 ], [ 3193820.000015616416931, 2350395.879064600914717 ], [ 3193805.817776220384985, 2350411.420019748620689 ], [ 3193771.87537644803524, 2350441.805836586281657 ], [ 3193751.435331573709846, 2350477.636032950598747 ], [ 3193739.265766589902341, 2350515.49493357911706 ], [ 3193726.255719253327698, 2350602.151931689120829 ], [ 3193722.98071897123009, 2350642.358179974369705 ], [ 3193712.98945944942534, 2350685.189003213308752 ], [ 3193712.220245416741818, 2350726.199694629292935 ], [ 3193710.318015536293387, 2350765.459602593444288 ], [ 3193708.761142194271088, 2350779.008200439624488 ], [ 3193709.93796067731455, 2350786.15945207234472 ], [ 3193714.763484266586602, 2350812.274941271170974 ], [ 3193721.741690128110349, 2350839.876551399938762 ], [ 3193731.487390286289155, 2350864.612023890949786 ], [ 3193735.603756943717599, 2350888.499832476954907 ], [ 3193740.128647034987807, 2350911.471784898545593 ], [ 3193740.21470096334815, 2350933.067161929793656 ], [ 3193734.204106549732387, 2350949.882972643710673 ], [ 3193702.354035884141922, 2351003.501223551109433 ], [ 3193699.07650666218251, 2351005.922337101772428 ], [ 3193667.206305000465363, 2351030.326969638932496 ], [ 3193667.206305000465363, 2351112.068325850646943 ], [ 3193738.242794936522841, 2351058.00260278955102 ] ] ] } }
]
}
