{
"type": "FeatureCollection",
"name": "Cerecinos_de_Campos",
"crs": { "type": "name", "properties": { "name": "urn:ogc:def:crs:EPSG::3035" } },
"features": [
{ "type": "Feature", "properties": { "SITE_NAME": "Lagunas de Villafafila", "ODESIGNATE": "Reserva Natural", "NUT2": 41, "SITE_CODE_": "ES419002", "DESIG_ABBR": "ES04", "SITE_CDDA": "389001_CDDA", "Sup_ha": 32568.40226 }, "geometry": { "type": "Polygon", "coordinates": [ [ [ 3036271.837484239600599, 2222764.840407826472074 ], [ 3036285.946189508773386, 2222757.841993728652596 ], [ 3036299.602350266650319, 2222749.605363733135164 ], [ 3036312.800527384970337, 2222746.157726360950619 ], [ 3036330.526499663479626, 2222740.653151763603091 ], [ 3036359.113038135692477, 2222732.332114373333752 ], [ 3036374.161980578675866, 2222729.53140951320529 ], [ 3036396.109681518282741, 2222728.64084058534354 ], [ 3036433.213186748325825, 2222732.443470178171992 ], [ 3036460.701301094144583, 2222737.564738541841507 ], [ 3036488.079021327663213, 2222746.360810218378901 ], [ 3036511.527153773233294, 2222752.892109832726419 ], [ 3036513.079944326076657, 2222752.500004527159035 ], [ 3036521.907968793064356, 2222745.02276535378769 ], [ 3036532.340081222355366, 2222736.934665638953447 ], [ 3036565.884680287912488, 2222725.68682295596227 ], [ 3036584.334519680123776, 2222718.455861691385508 ], [ 3036602.419177464675158, 2222704.010585373267531 ], [ 3036615.536473681218922, 2222697.714393709786236 ], [ 3036636.707907451316714, 2222695.044748162385076 ], [ 3036660.261300940997899, 2222685.907886131200939 ], [ 3036680.119852872565389, 2222676.36610300373286 ], [ 3036703.076082189567387, 2222662.954933898989111 ], [ 3036714.960011843591928, 2222656.661481948569417 ], [ 3036726.304677533917129, 2222654.620579075999558 ], [ 3036741.460063340142369, 2222655.219328313134611 ], [ 3036757.607572917360812, 2222653.921042870730162 ], [ 3036761.960165538825095, 2222655.806510515976697 ], [ 3036771.166893186047673, 2222658.215833711437881 ], [ 3036787.160737769678235, 2222657.573893054854125 ], [ 3036805.587758114095777, 2222657.655362905468792 ], [ 3036812.616136450320482, 2222656.49833168508485 ], [ 3036821.252730759326369, 2222652.568438459653407 ], [ 3036821.789239520207047, 2222652.227125898934901 ], [ 3036839.86839191801846, 2222645.604524992406368 ], [ 3036849.615738950669765, 2222638.101081451866776 ], [ 3036851.970764310099185, 2222626.289389193523675 ], [ 3036853.552018200047314, 2222618.171948603820056 ], [ 3036863.001371212303638, 2222616.81538050621748 ], [ 3036883.442296613939106, 2222614.536174026317894 ], [ 3036904.352293351665139, 2222613.37334414338693 ], [ 3036929.391113209538162, 2222612.711873351130635 ], [ 3036944.485874875448644, 2222608.695042217150331 ], [ 3036967.362589589785784, 2222603.228185976855457 ], [ 3036989.26063076313585, 2222602.330464327707887 ], [ 3037007.493438522797078, 2222602.461161877494305 ], [ 3037033.891095076221973, 2222601.456556650344282 ], [ 3037057.243611521087587, 2222598.442361459136009 ], [ 3037080.732320118695498, 2222594.26164383161813 ], [ 3037102.221990687772632, 2222589.453786158468574 ], [ 3037116.848953082226217, 2222586.069677129387856 ], [ 3037139.605748083908111, 2222580.530196610838175 ], [ 3037153.763655506074429, 2222576.02972885267809 ], [ 3037173.709872841835022, 2222576.448182705789804 ], [ 3037201.715630086138844, 2222572.670850133989006 ], [ 3037224.744679844472557, 2222564.798675296828151 ], [ 3037255.000386985950172, 2222553.558515602722764 ], [ 3037274.830713636707515, 2222544.332969299051911 ], [ 3037296.528013547882438, 2222534.738917875103652 ], [ 3037322.530859745107591, 2222525.087022077757865 ], [ 3037339.944115283899009, 2222521.308302863966674 ], [ 3037368.654981777071953, 2222513.545484848320484 ], [ 3037382.869582613930106, 2222508.413261954672635 ], [ 3037401.754980641417205, 2222503.02804134786129 ], [ 3037414.562228758819401, 2222501.955878581851721 ], [ 3037431.79620499163866, 2222502.647515393793583 ], [ 3037443.965860782191157, 2222504.103162244427949 ], [ 3037460.488041938282549, 2222507.444350947160274 ], [ 3037477.314905987586826, 2222513.384183029644191 ], [ 3037483.762313101906329, 2222514.123341501224786 ], [ 3037498.360964277759194, 2222518.464655744843185 ], [ 3037511.328559194225818, 2222525.481775036547333 ], [ 3037528.16612161975354, 2222530.595588536001742 ], [ 3037544.39050205424428, 2222532.67417996795848 ], [ 3037558.969029491767287, 2222533.00717398384586 ], [ 3037566.244107172824442, 2222533.331607782747597 ], [ 3037572.508092178031802, 2222540.703202001750469 ], [ 3037586.858665025793016, 2222549.223419291432947 ], [ 3037605.029373868834227, 2222557.808390795253217 ], [ 3037619.073895999230444, 2222569.390200375579298 ], [ 3037632.011759096290916, 2222582.383440745528787 ], [ 3037652.433578943833709, 2222600.073413243051618 ], [ 3037655.714616063516587, 2222596.98111758986488 ], [ 3037706.550639181397855, 2222533.928495441563427 ], [ 3037700.379724486730993, 2222521.28512538317591 ], [ 3037699.452372343745083, 2222518.22623046208173 ], [ 3037685.376722360961139, 2222518.280813616234809 ], [ 3037685.252824938856065, 2222505.551518402062356 ], [ 3037685.415996683761477, 2222502.320216545835137 ], [ 3037686.335354248993099, 2222502.293942426331341 ], [ 3037699.52668822510168, 2222503.285814989823848 ], [ 3037718.542708843480796, 2222504.556835514958948 ], [ 3037732.173636766616255, 2222505.232004010118544 ], [ 3037747.134926498867571, 2222505.879998096264899 ], [ 3037759.320673044770956, 2222506.096715564839542 ], [ 3037774.264513290952891, 2222506.234716576058418 ], [ 3037775.109635720495135, 2222506.329986655153334 ], [ 3037807.345399856567383, 2222508.277062271721661 ], [ 3037808.698797638528049, 2222508.347081447020173 ], [ 3037850.676411487627774, 2222510.613299293443561 ], [ 3037851.49872657423839, 2222510.611537046264857 ], [ 3037881.754221414215863, 2222514.19049736391753 ], [ 3037908.124935617670417, 2222515.251256837043911 ], [ 3037933.127357747871429, 2222519.23025660822168 ], [ 3037937.039182910695672, 2222519.683390758931637 ], [ 3037951.841377224773169, 2222521.400755988899618 ], [ 3037978.423688878770918, 2222522.922729592770338 ], [ 3037984.756521650590003, 2222523.17637487128377 ], [ 3037990.895249664783478, 2222523.47893980005756 ], [ 3038017.357606709934771, 2222524.928326762281358 ], [ 3038048.181987580377609, 2222525.688145022839308 ], [ 3038073.001151587814093, 2222528.89017580403015 ], [ 3038106.036140617448837, 2222538.147822535596788 ], [ 3038134.792709974572062, 2222545.398274409584701 ], [ 3038147.637553218752146, 2222548.844636077992618 ], [ 3038172.631852192804217, 2222557.147728836163878 ], [ 3038196.505871159955859, 2222571.599412397481501 ], [ 3038225.189483833033592, 2222588.129897457081825 ], [ 3038228.525731530040503, 2222590.066250992938876 ], [ 3038256.659305471461266, 2222611.675099060870707 ], [ 3038267.072459462098777, 2222616.146999701857567 ], [ 3038278.399509788490832, 2222621.005523804109544 ], [ 3038298.329366248100996, 2222630.072614658623934 ], [ 3038313.166656432673335, 2222632.810255473479629 ], [ 3038318.66648408677429, 2222633.891627318691462 ], [ 3038334.154815348796546, 2222636.773568442091346 ], [ 3038366.16538165230304, 2222642.996890412177891 ], [ 3038420.335455720312893, 2222654.225610396824777 ], [ 3038476.365793477743864, 2222663.749878311995417 ], [ 3038484.207074614241719, 2222665.166402827948332 ], [ 3038531.188296102918684, 2222676.872117136605084 ], [ 3038541.747076366096735, 2222677.602593048010021 ], [ 3038553.442237861920148, 2222678.354910588823259 ], [ 3038581.833547461777925, 2222678.39134490955621 ], [ 3038614.445441723801196, 2222679.317632874939591 ], [ 3038616.112910399213433, 2222679.411263566464186 ], [ 3038651.355886326637119, 2222686.259323217906058 ], [ 3038652.561035583727062, 2222686.572509018704295 ], [ 3038661.845913771539927, 2222686.698478297330439 ], [ 3038666.271373053546995, 2222686.713256478775293 ], [ 3038682.68851919285953, 2222686.99398997798562 ], [ 3038712.644846070557833, 2222687.561617547180504 ], [ 3038730.986976690590382, 2222688.591295087244362 ], [ 3038752.415823168121278, 2222693.987032544333488 ], [ 3038780.502431577071548, 2222698.834156967699528 ], [ 3038831.281040247995406, 2222710.50764536485076 ], [ 3038864.009973542299122, 2222722.827044155448675 ], [ 3038921.954445120412856, 2222741.335806121584028 ], [ 3038937.888923138380051, 2222745.237198654562235 ], [ 3038961.369441251270473, 2222752.790707227773964 ], [ 3038985.790837141685188, 2222766.075197482481599 ], [ 3039002.410015627741814, 2222776.801397013943642 ], [ 3039011.026286588050425, 2222783.68204932520166 ], [ 3039013.751795817166567, 2222793.490483620669693 ], [ 3039018.834912969730794, 2222809.804268641863018 ], [ 3039022.409710644744337, 2222824.955200851429254 ], [ 3039024.953233960084617, 2222835.735617461614311 ], [ 3039026.96973180770874, 2222844.282357921823859 ], [ 3039030.435352176427841, 2222851.125427850522101 ], [ 3039047.937553714960814, 2222859.056095186155289 ], [ 3039091.505700764711946, 2222872.85842710826546 ], [ 3039142.967727317940444, 2222889.607785457279533 ], [ 3039149.810098867863417, 2222891.58515893900767 ], [ 3039156.46918675256893, 2222892.785596512723714 ], [ 3039190.036386205814779, 2222899.324694467708468 ], [ 3039318.851019389927387, 2222960.904036981519312 ], [ 3039378.087355516850948, 2222862.969300369732082 ], [ 3039399.994568563997746, 2222794.672778214793652 ], [ 3039432.242808575741947, 2222694.063879049383104 ], [ 3039432.805455891415477, 2222692.541596693918109 ], [ 3039450.661742412950844, 2222634.210538367275149 ], [ 3039457.023550877347589, 2222594.895450178533792 ], [ 3039497.170454094186425, 2222546.477470533922315 ], [ 3039553.461286432109773, 2222586.540254175662994 ], [ 3039576.826763064600527, 2222593.7223702785559 ], [ 3039630.595414106734097, 2222612.713483413215727 ], [ 3039684.770059801638126, 2222642.901478582527488 ], [ 3039694.150905693415552, 2222648.22517595347017 ], [ 3039718.46139123942703, 2222616.434180727228522 ], [ 3039753.596267285756767, 2222570.520483386702836 ], [ 3039756.671139352954924, 2222566.554301259573549 ], [ 3039810.968319165986031, 2222495.943646287545562 ], [ 3039814.043218073435128, 2222491.977568801492453 ], [ 3039891.267979631200433, 2222391.706613132264465 ], [ 3039898.130782810039818, 2222382.874125551898032 ], [ 3039915.769916247110814, 2222360.002331444993615 ], [ 3039917.98339459579438, 2222357.179790517315269 ], [ 3040000.735664860811085, 2222248.516944153700024 ], [ 3040000.906838817987591, 2222248.370819634757936 ], [ 3040071.246766707394272, 2222156.836180332116783 ], [ 3040071.320893325842917, 2222156.714560890104622 ], [ 3040108.266894443426281, 2222111.065103576052934 ], [ 3040137.80241490341723, 2222082.824318039696664 ], [ 3040235.834893844556063, 2221987.491332007106394 ], [ 3040249.803356706164777, 2221973.469819790683687 ], [ 3040341.505821103230119, 2221881.381413652561605 ], [ 3040362.68109099753201, 2221859.984593673143536 ], [ 3040415.222880360670388, 2221807.209898593369871 ], [ 3040444.238472660072148, 2221778.071935578715056 ], [ 3040469.022350152954459, 2221756.278893351089209 ], [ 3040479.248706062324345, 2221747.318168653640896 ], [ 3040482.941714999265969, 2221729.407389908097684 ], [ 3040532.163487006910145, 2221680.866727354004979 ], [ 3040567.981533518992364, 2221645.690395374316722 ], [ 3040605.859471829608083, 2221608.347823859192431 ], [ 3040661.204386815894395, 2221553.940425336826593 ], [ 3040696.754324385430664, 2221518.934967425651848 ], [ 3040697.732407781295478, 2221505.208042275160551 ], [ 3040712.036462052725255, 2221520.943650407250971 ], [ 3040720.927015065215528, 2221512.42297540884465 ], [ 3040906.827126123011112, 2221322.68319578608498 ], [ 3040923.385689332149923, 2221304.818832663353533 ], [ 3040924.728719363920391, 2221298.305841487832367 ], [ 3040928.921361922286451, 2221292.102815608028322 ], [ 3040936.224104721099138, 2221282.954090286511928 ], [ 3040946.651366838254035, 2221275.280527217779309 ], [ 3040947.913148841820657, 2221274.962171467021108 ], [ 3040956.088816528208554, 2221273.001875292509794 ], [ 3040965.135582539252937, 2221267.323151904623955 ], [ 3040967.063519560731947, 2221264.161312654148787 ], [ 3041058.533517523203045, 2221178.927046567201614 ], [ 3041091.893297069706023, 2221146.841780771501362 ], [ 3041176.194825308863074, 2221066.09252017410472 ], [ 3041222.176931783556938, 2221021.252580044791102 ], [ 3041229.452609356027097, 2221014.168772103730589 ], [ 3041250.76609156280756, 2220993.35561433667317 ], [ 3041274.527595851570368, 2220970.278242969885468 ], [ 3041283.692005100194365, 2220961.174328554421663 ], [ 3041296.063515880145133, 2220949.100263745058328 ], [ 3041299.664308003149927, 2220945.619224820751697 ], [ 3041298.643674538470805, 2220947.831783595494926 ], [ 3041296.466245552059263, 2220953.423382735811174 ], [ 3041293.746843525208533, 2220959.769002770073712 ], [ 3041291.848499283194542, 2220964.36404526559636 ], [ 3041289.351593593135476, 2220970.344799201004207 ], [ 3041287.025887817610055, 2220976.179533795453608 ], [ 3041284.152768105268478, 2220983.181464220862836 ], [ 3041310.699925730470568, 2221024.227734456304461 ], [ 3041328.650649198330939, 2220996.134082317817956 ], [ 3041341.735300899483263, 2220983.15978917805478 ], [ 3041339.165279673412442, 2220974.444527582265437 ], [ 3041359.01683471351862, 2220945.253833709284663 ], [ 3041385.131428008899093, 2220947.410520671866834 ], [ 3041386.095376257784665, 2220945.829671919345856 ], [ 3041418.821863270364702, 2220897.543830569367856 ], [ 3041419.14131176052615, 2220897.15448054112494 ], [ 3041421.764881388284266, 2220892.582261776551604 ], [ 3041438.990073072724044, 2220905.008232950698584 ], [ 3041484.381168557330966, 2220872.048566459212452 ], [ 3041484.455317251384258, 2220871.927049125544727 ], [ 3041513.127245128154755, 2220856.151484477333724 ], [ 3041533.291804200969636, 2220841.802444759756327 ], [ 3041519.727687470149249, 2220813.943868630100042 ], [ 3041513.639550008811057, 2220804.264184339903295 ], [ 3041516.333103513810784, 2220801.732303395867348 ], [ 3041549.744548351503909, 2220769.429059254471213 ], [ 3041546.59112556418404, 2220759.11170688457787 ], [ 3041559.243077279534191, 2220747.790260647889227 ], [ 3041548.41109568066895, 2220740.233653392177075 ], [ 3041607.90124305151403, 2220690.751588928047568 ], [ 3041615.43441525939852, 2220684.323176230303943 ], [ 3041627.053702862001956, 2220674.29135125875473 ], [ 3041661.768790560774505, 2220644.026054469402879 ], [ 3041664.14281103014946, 2220641.883550447411835 ], [ 3041694.932069985661656, 2220615.901629005093127 ], [ 3041725.224043598398566, 2220589.119189244695008 ], [ 3041731.221841906197369, 2220583.592807834036648 ], [ 3041741.334054599516094, 2220574.147083763964474 ], [ 3041745.985058579593897, 2220569.886587231419981 ], [ 3041761.727721557952464, 2220577.335936008021235 ], [ 3041777.454751208424568, 2220578.615489163435996 ], [ 3041798.871381311677396, 2220583.089698092546314 ], [ 3041813.204678160138428, 2220583.691913175862283 ], [ 3041821.106883049476892, 2220565.74888753797859 ], [ 3041809.306839349679649, 2220561.934992238879204 ], [ 3041794.925416486803442, 2220557.640664546284825 ], [ 3041784.85183058027178, 2220556.786807226017118 ], [ 3041803.802120385691524, 2220511.566387556493282 ], [ 3041818.608936382923275, 2220477.989988004323095 ], [ 3041819.270381279755384, 2220468.150705634616315 ], [ 3041814.286755328532308, 2220453.561936573591083 ], [ 3041877.67422210611403, 2220407.521996086928993 ], [ 3041904.253475327044725, 2220387.233165903948247 ], [ 3041964.374776186887175, 2220341.297323826234788 ], [ 3041955.543149806559086, 2220336.117054211907089 ], [ 3041954.103574064560235, 2220335.245473428163677 ], [ 3041953.812416433356702, 2220335.318974809721112 ], [ 3041945.121760052163154, 2220335.968251178041101 ], [ 3041942.500018470454961, 2220334.880604563746601 ], [ 3041925.675580074079335, 2220349.003739897161722 ], [ 3041899.406918637920171, 2220364.069402546621859 ], [ 3041885.135046520270407, 2220369.83127525402233 ], [ 3041865.878858460579067, 2220368.413185015320778 ], [ 3041900.101051753386855, 2220309.461602000519633 ], [ 3041902.428073959425092, 2220305.375907322391868 ], [ 3041898.823623067699373, 2220303.610041439533234 ], [ 3041895.699151153676212, 2220302.134612916968763 ], [ 3041892.648731848224998, 2220300.537686044815928 ], [ 3041888.107520662248135, 2220298.287909258622676 ], [ 3041885.080101595260203, 2220296.787980745080858 ], [ 3041881.932630152907223, 2220295.215555006172508 ], [ 3041878.328278524801135, 2220293.449672749266028 ], [ 3041896.196580848656595, 2220260.644438924733549 ], [ 3041901.472243793308735, 2220251.184452651999891 ], [ 3041905.664052582345903, 2220243.232665962073952 ], [ 3041910.494811236858368, 2220234.50238798558712 ], [ 3041914.264517481438816, 2220227.377342250663787 ], [ 3041921.747349842451513, 2220213.759037721902132 ], [ 3041937.163258139509708, 2220185.379988357890397 ], [ 3041942.741063767112792, 2220175.020560747478157 ], [ 3041946.556633211672306, 2220168.089847707655281 ], [ 3041948.267556049395353, 2220164.879881041590124 ], [ 3041951.415695973671973, 2220159.043637016788125 ], [ 3041953.520328582264483, 2220155.322792952880263 ], [ 3041970.054128344170749, 2220124.706717380322516 ], [ 3042030.674866243265569, 2220013.305983017198741 ], [ 3042050.899047901853919, 2219976.09961367584765 ], [ 3042078.360696450807154, 2219925.542775567155331 ], [ 3042104.185705161653459, 2219878.074294408783317 ], [ 3042107.761395409703255, 2219870.998381098732352 ], [ 3042134.896117944736034, 2219817.746044707484543 ], [ 3042136.829499803483486, 2219814.171349611133337 ], [ 3042149.162073948420584, 2219794.081940057687461 ], [ 3042162.977642492391169, 2219771.560518848244101 ], [ 3042229.910375931300223, 2219678.633517340756953 ], [ 3042236.330382226966321, 2219672.280524954199791 ], [ 3042281.988818473182619, 2219626.496890248730779 ], [ 3042294.02402866538614, 2219614.302781752776355 ], [ 3042358.304633034393191, 2219551.98801561165601 ], [ 3042392.624967625364661, 2219518.737285871990025 ], [ 3042389.04200841113925, 2219497.004320200998336 ], [ 3042392.119315607473254, 2219487.378932596649975 ], [ 3042401.613514341879636, 2219475.311499461531639 ], [ 3042430.496583740226924, 2219449.092004404403269 ], [ 3042443.109877134673297, 2219438.912898413836956 ], [ 3042470.048569684382528, 2219417.093953578732908 ], [ 3042484.282389308791608, 2219405.065543775912374 ], [ 3042507.442368866875768, 2219385.537629551719874 ], [ 3042537.793423746246845, 2219359.873873543459922 ], [ 3042587.348995269741863, 2219308.374824211467057 ], [ 3042598.951361261308193, 2219297.833478975575417 ], [ 3042618.94872136041522, 2219279.720938973128796 ], [ 3042645.452408878132701, 2219256.057021209504455 ], [ 3042655.204090043902397, 2219244.644978034775704 ], [ 3042673.971385552547872, 2219222.624188700690866 ], [ 3042704.612597704865038, 2219185.980783600360155 ], [ 3042712.090431922115386, 2219172.775880746077746 ], [ 3042722.66001661401242, 2219154.366709982976317 ], [ 3042749.088467134162784, 2219119.918000186793506 ], [ 3042758.613361017778516, 2219101.875244700349867 ], [ 3042765.90800609998405, 2219087.89342991868034 ], [ 3042784.394915546290576, 2219046.805264757480472 ], [ 3042806.199528855737299, 2219005.394602034240961 ], [ 3042808.389345194213092, 2219000.726389806717634 ], [ 3042811.052443197928369, 2218995.012844529468566 ], [ 3042866.311236907728016, 2218940.223827833775431 ], [ 3042935.04080370021984, 2218839.644762821029872 ], [ 3042942.479595547076315, 2218827.581792815588415 ], [ 3043031.368859116919339, 2218683.847427774686366 ], [ 3043033.416962623596191, 2218680.758467694278806 ], [ 3043035.44213586859405, 2218677.572295377030969 ], [ 3043114.959823329001665, 2218558.633351335767657 ], [ 3043115.256406716071069, 2218558.147004792001098 ], [ 3043211.231772197410464, 2218420.03482600627467 ], [ 3043219.590193259529769, 2218407.945868759881705 ], [ 3043282.080400378443301, 2218316.659896853845567 ], [ 3043265.839753756299615, 2218306.660407033748925 ], [ 3043319.239669042639434, 2218196.883609608747065 ], [ 3043315.557188271544874, 2218179.086304617114365 ], [ 3043316.519312213174999, 2218164.850335764233023 ], [ 3043316.700656430795789, 2218152.972052692901343 ], [ 3043330.831498653627932, 2218139.632929102517664 ], [ 3043350.661804503761232, 2218126.9139369209297 ], [ 3043366.949647521600127, 2218120.541809083428234 ], [ 3043399.789046669378877, 2218080.567770344670862 ], [ 3043448.209969725459814, 2218018.143050814978778 ], [ 3043381.14818318374455, 2217981.452459413092583 ], [ 3043372.551577942445874, 2218006.051198034547269 ], [ 3043365.951079654507339, 2218016.873408467043191 ], [ 3043357.162139204330742, 2218015.797897757031024 ], [ 3043353.234095239080489, 2218007.425598967354745 ], [ 3043348.731282972730696, 2218002.285039514303207 ], [ 3043341.822464505210519, 2218003.51328786322847 ], [ 3043335.351602877490222, 2218020.99070228356868 ], [ 3043319.176370644941926, 2218053.571691749151796 ], [ 3043307.98521386180073, 2218084.175292991101742 ], [ 3043294.867754431441426, 2218130.595663383137435 ], [ 3043289.41349062230438, 2218148.022633714601398 ], [ 3043285.871110700070858, 2218154.369380399119109 ], [ 3043235.669957026839256, 2218142.955835909582675 ], [ 3043240.044444867409766, 2218134.032657441683114 ], [ 3043241.017342031002045, 2218128.128131438046694 ], [ 3043237.889772275928408, 2218121.406024277675897 ], [ 3043233.735863585025072, 2218117.309258629567921 ], [ 3043226.859791683033109, 2218116.059862498193979 ], [ 3043211.581801694817841, 2218121.045501999557018 ], [ 3043194.870748592540622, 2218126.495539184659719 ], [ 3043184.551559789571911, 2218135.066215981263667 ], [ 3043178.783246819861233, 2218143.31213375646621 ], [ 3043177.247495767660439, 2218153.37136061117053 ], [ 3043181.568293770775199, 2218159.483822579029948 ], [ 3043185.854085638187826, 2218164.576253349892795 ], [ 3043187.667668894398957, 2218170.086477275472134 ], [ 3043186.875789727084339, 2218173.270121035166085 ], [ 3043183.902888, 2218176.798164679203182 ], [ 3043180.219943543896079, 2218177.3155363406986 ], [ 3043176.01039578858763, 2218175.599324263632298 ], [ 3043166.947708367370069, 2218175.107323508709669 ], [ 3043161.860129004344344, 2218175.773333311546594 ], [ 3043156.931836983188987, 2218175.37018327973783 ], [ 3043149.67844867054373, 2218173.3928661220707 ], [ 3043142.696731287054718, 2218167.334243981167674 ], [ 3043135.916631938423961, 2218164.311505896504968 ], [ 3043125.834207800216973, 2218167.780743981245905 ], [ 3043110.287794605828822, 2218182.094509547110647 ], [ 3043092.484905896242708, 2218195.125277592800558 ], [ 3043086.197600825689733, 2218204.222389640286565 ], [ 3043077.071093331091106, 2218230.498462855815887 ], [ 3043052.594545644707978, 2218274.537058174610138 ], [ 3043038.275386984460056, 2218269.197454149834812 ], [ 3043013.832328588236123, 2218264.971179942134768 ], [ 3043005.872226277366281, 2218265.229981640353799 ], [ 3042998.613255918491632, 2218272.823031804524362 ], [ 3042986.272149001248181, 2218289.826619348954409 ], [ 3042972.851289072539657, 2218306.176472474820912 ], [ 3042967.625343749299645, 2218304.510927949100733 ], [ 3042966.550079480279237, 2218301.695342116989195 ], [ 3042963.627403859980404, 2218294.09834195766598 ], [ 3042961.122481277212501, 2218287.836452129296958 ], [ 3042956.872688412666321, 2218276.355582501739264 ], [ 3042954.462710632942617, 2218266.57136239670217 ], [ 3042948.074249914847314, 2218259.539951840415597 ], [ 3042937.406318755820394, 2218257.909526788629591 ], [ 3042920.867849730886519, 2218255.805017315782607 ], [ 3042896.042180357966572, 2218251.263700536452234 ], [ 3042883.633597045205534, 2218251.40987580223009 ], [ 3042872.444276380352676, 2218256.290324599482119 ], [ 3042855.088839534670115, 2218262.931920766830444 ], [ 3042847.568222002591938, 2218262.874127988703549 ], [ 3042832.382072208914906, 2218259.090866034850478 ], [ 3042810.017805316485465, 2218254.957583707757294 ], [ 3042794.060597941279411, 2218250.957265556789935 ], [ 3042776.234437229111791, 2218234.669772887602448 ], [ 3042767.21229659859091, 2218225.627540556248277 ], [ 3042758.352554233279079, 2218220.762857501860708 ], [ 3042737.449674159288406, 2218215.849358935840428 ], [ 3042712.919523494318128, 2218209.072817739564925 ], [ 3042692.392878854181617, 2218203.138406087644398 ], [ 3042685.586764086969197, 2218194.771798429545015 ], [ 3042675.202589527703822, 2218180.825566438958049 ], [ 3042657.968593486119062, 2218161.816339858341962 ], [ 3042641.862286560237408, 2218147.152814834844321 ], [ 3042641.336580334231257, 2218146.66812727227807 ], [ 3042628.059072375297546, 2218135.715320646762848 ], [ 3042616.122983320616186, 2218123.90975284948945 ], [ 3042596.323883621487767, 2218112.338549023028463 ], [ 3042573.509364052675664, 2218100.190322192851454 ], [ 3042551.603311751969159, 2218088.841964363120496 ], [ 3042529.732076913118362, 2218078.513682692777365 ], [ 3042498.361037788912654, 2218062.350378759671003 ], [ 3042463.566575555130839, 2218050.857757988851517 ], [ 3042433.229190468788147, 2218044.311409079004079 ], [ 3042405.704383958131075, 2218033.557174005545676 ], [ 3042384.41774133220315, 2218026.579870572779328 ], [ 3042345.193083348218352, 2218026.391176210250705 ], [ 3042347.815390416420996, 2218000.006450101733208 ], [ 3042354.478595791384578, 2217960.666716006118804 ], [ 3042356.699708231724799, 2217931.708084086421877 ], [ 3042356.052409534342587, 2217909.337848532944918 ], [ 3042354.728908108081669, 2217892.385698272846639 ], [ 3042353.47535167215392, 2217868.316273402422667 ], [ 3042353.72042647562921, 2217838.827186060138047 ], [ 3042358.164343167096376, 2217802.722688126843423 ], [ 3042361.533701080828905, 2217783.866554590407759 ], [ 3042356.236153742298484, 2217767.505335426423699 ], [ 3042352.993910073302686, 2217731.076142978854477 ], [ 3042200.634946099948138, 2217604.778511241078377 ], [ 3042177.042951251845807, 2217591.07718114182353 ], [ 3042149.337187912780792, 2217583.043851078953594 ], [ 3042119.062075290828943, 2217575.452791058924049 ], [ 3042088.814965370576829, 2217576.70350934099406 ], [ 3042059.739057593978941, 2217578.99635695014149 ], [ 3042033.489946464076638, 2217581.502153938636184 ], [ 3042017.100863813888282, 2217580.903447929769754 ], [ 3042012.578259086236358, 2217580.912481314502656 ], [ 3042006.114395129494369, 2217581.41122267069295 ], [ 3042016.687957366928458, 2217568.248899464961141 ], [ 3042042.095926898531616, 2217543.421650383621454 ], [ 3042064.96967011410743, 2217510.899558358360082 ], [ 3042072.261585418134928, 2217500.828706533648074 ], [ 3042086.737447401508689, 2217481.537329698912799 ], [ 3042099.314836430363357, 2217457.683287896681577 ], [ 3042111.20056414976716, 2217442.235092277172953 ], [ 3042120.96171629242599, 2217426.499600290320814 ], [ 3042115.951113783754408, 2217412.226826218888164 ], [ 3042112.828103700187057, 2217403.342743632383645 ], [ 3042111.717350029852241, 2217388.600666547659785 ], [ 3042117.914690250065178, 2217371.706341062206775 ], [ 3042129.756982605904341, 2217350.404285554774106 ], [ 3042142.16738049685955, 2217333.691938163712621 ], [ 3042145.041663971263915, 2217317.53311440628022 ], [ 3042145.414937134832144, 2217311.265372447203845 ], [ 3042146.235546947456896, 2217298.608393509872258 ], [ 3042157.30898857396096, 2217280.587103438563645 ], [ 3042164.650252219289541, 2217266.799815917853266 ], [ 3042167.409505614079535, 2217239.248963156715035 ], [ 3042172.45590570801869, 2217207.005503006279469 ], [ 3042176.074046138674021, 2217193.128442819230258 ], [ 3042179.800077374093235, 2217178.401082473807037 ], [ 3042184.997952036559582, 2217151.161183602176607 ], [ 3042199.065787872299552, 2217117.053734848275781 ], [ 3042208.000888642854989, 2217094.324386106804013 ], [ 3042219.387991618365049, 2217065.420507311355323 ], [ 3042232.869548459071666, 2217024.464327778667212 ], [ 3042245.21683332324028, 2216986.984126529656351 ], [ 3042261.328722863923758, 2216931.885850052349269 ], [ 3042258.436193566769361, 2216896.500524307601154 ], [ 3042264.730413655750453, 2216848.611824537627399 ], [ 3042272.744488797150552, 2216802.347147630527616 ], [ 3042273.639134801458567, 2216758.598545962944627 ], [ 3042274.239483711775392, 2216749.804256596136838 ], [ 3042274.71445498149842, 2216741.350303011480719 ], [ 3042275.121650204528123, 2216734.353877279907465 ], [ 3042290.151193282566965, 2216693.419248834718019 ], [ 3042306.300725507549942, 2216653.745475120842457 ], [ 3042314.261239890940487, 2216613.359323624521494 ], [ 3042325.039579988457263, 2216577.509783199988306 ], [ 3042332.889315604232252, 2216532.727377761155367 ], [ 3042345.697616585530341, 2216491.53006925387308 ], [ 3042357.572160208597779, 2216455.095525645185262 ], [ 3042370.032049163244665, 2216423.760772523004562 ], [ 3042374.398620939813554, 2216410.003942529670894 ], [ 3042374.930620666127652, 2216408.35708999959752 ], [ 3036269.344290000852197, 2216408.35708999959752 ], [ 3036269.344290000852197, 2222766.077140314970165 ], [ 3036271.837484239600599, 2222764.840407826472074 ] ] ] } }
]
}
