{
"type": "FeatureCollection",
"name": "Miranda_del_Castañar",
"crs": { "type": "name", "properties": { "name": "urn:ogc:def:crs:EPSG::3035" } },
"features": [
{ "type": "Feature", "properties": { "SITE_NAME": "Las Batuecas-Sierra de Francia", "ODESIGNATE": "Parque Natural", "NUT2": 41, "SITE_CODE_": "ES415001", "DESIG_ABBR": "ES10", "SITE_CDDA": "195786_CDDA", "Sup_ha": 31544.645480200001 }, "geometry": { "type": "MultiPolygon", "coordinates": [ [ [ [ 2966105.673679052386433, 2078329.900858384557068 ], [ 2966120.59017285425216, 2078304.390835408587009 ], [ 2966177.161486893426627, 2078199.359008212806657 ], [ 2966212.61743370629847, 2078105.233360137790442 ], [ 2966227.622089444193989, 2078015.808485490968451 ], [ 2966228.738917544484138, 2078000.900167297571898 ], [ 2966229.962139859329909, 2077995.608466508099809 ], [ 2966249.916338934097439, 2077897.177384712267667 ], [ 2966256.853451170958579, 2077858.398937629070133 ], [ 2966259.031692086718976, 2077826.563877908978611 ], [ 2966259.299286263994873, 2077824.487182314740494 ], [ 2966259.691354813985527, 2077819.345002535963431 ], [ 2966262.52933644503355, 2077780.291372369974852 ], [ 2966265.367431115359068, 2077741.237635100493208 ], [ 2966269.032004688400775, 2077701.020559125114232 ], [ 2966265.876376434229314, 2077671.6683882875368 ], [ 2966266.72741006501019, 2077642.608412960777059 ], [ 2966265.082593801431358, 2077613.491177415475249 ], [ 2966277.262702661566436, 2077575.796361953718588 ], [ 2966312.734514825046062, 2077537.96042837575078 ], [ 2966349.1917081233114, 2077499.947038018144667 ], [ 2966365.039603602606803, 2077469.198286741040647 ], [ 2966369.599602191708982, 2077459.247970218770206 ], [ 2966380.933811904862523, 2077438.441104216501117 ], [ 2966390.966655326075852, 2077419.390226405579597 ], [ 2966390.379553025122732, 2077412.396206871373579 ], [ 2966387.735808707773685, 2077380.416256428463385 ], [ 2966386.416508767753839, 2077358.340260182972997 ], [ 2966385.331465715542436, 2077340.27905072690919 ], [ 2966372.057652635499835, 2077308.186671628151089 ], [ 2966371.55676828417927, 2077279.877617875346914 ], [ 2966386.149709017947316, 2077250.876358142588288 ], [ 2966400.742722656577826, 2077221.875405067810789 ], [ 2966432.333078165072948, 2077204.010383705142885 ], [ 2966463.096849506255239, 2077187.308449760079384 ], [ 2966494.687261813785881, 2077169.443478691391647 ], [ 2966525.200700698420405, 2077138.587081683799624 ], [ 2966556.540704051032662, 2077106.567672146251425 ], [ 2966587.054350142367184, 2077075.711414985358715 ], [ 2966611.081136409193277, 2077061.23826339142397 ], [ 2966634.949318527244031, 2077045.779442815342918 ], [ 2966642.354351355694234, 2077041.401970020728186 ], [ 2966723.709876265376806, 2077011.524986248463392 ], [ 2966806.050649847369641, 2076981.470512647880241 ], [ 2966850.077743687666953, 2076974.549640416400507 ], [ 2966862.360863958019763, 2076972.335851426003501 ], [ 2966927.086206033825874, 2076983.998399573611096 ], [ 2967015.93894609529525, 2076962.913249502656981 ], [ 2967104.63325082976371, 2076940.842793006915599 ], [ 2967196.868268650956452, 2076871.478414504323155 ], [ 2967217.1804432827048, 2076846.518376451684162 ], [ 2967286.273183211684227, 2076809.724146212916821 ], [ 2967374.175093174912035, 2076782.725927175721154 ], [ 2967462.07704961579293, 2076755.727807816118002 ], [ 2967550.964395170100033, 2076728.552319248206913 ], [ 2967592.949784751981497, 2076699.686677020508796 ], [ 2967618.471746994182467, 2076681.902093551354483 ], [ 2967630.744547109119594, 2076657.376653714803979 ], [ 2967642.858902149833739, 2076631.865816270001233 ], [ 2967646.67429980635643, 2076624.078384723514318 ], [ 2967667.972077368292958, 2076598.941063546575606 ], [ 2967689.663265366107225, 2076532.148395759984851 ], [ 2967770.755572903901339, 2076431.323601717595011 ], [ 2967815.379603553563356, 2076399.954303037142381 ], [ 2967889.582152114715427, 2076388.611236329190433 ], [ 2967913.100401369854808, 2076377.273375429445878 ], [ 2967988.095948122441769, 2076370.85860723699443 ], [ 2968082.644999685697258, 2076328.464313223259524 ], [ 2968097.827981824055314, 2076312.394808233715594 ], [ 2968145.011235627811402, 2076262.456575989257544 ], [ 2968265.616629026830196, 2076224.495740029029548 ], [ 2968309.448182611726224, 2076188.198512554634362 ], [ 2968373.352583387866616, 2076081.344171641860157 ], [ 2968440.861681044567376, 2076034.695216017076746 ], [ 2968461.17494607809931, 2076009.735738028073683 ], [ 2968486.106443039607257, 2075950.474059531232342 ], [ 2968496.363886660896242, 2075924.333561581326649 ], [ 2968508.716943845152855, 2075895.687669578241184 ], [ 2968513.618682411499321, 2075869.44835043977946 ], [ 2968518.361927909310907, 2075842.223239348968491 ], [ 2968532.956738063134253, 2075813.223052299814299 ], [ 2968543.827072991989553, 2075805.178973882226273 ], [ 2968570.844299561344087, 2075784.082865349482745 ], [ 2968598.688235380221158, 2075761.823671463876963 ], [ 2968633.235973052214831, 2075743.427785567007959 ], [ 2968667.783743883948773, 2075725.0319298945833 ], [ 2968679.581807452253997, 2075697.55001440201886 ], [ 2968692.206365542951971, 2075668.904941157903522 ], [ 2968687.324091977439821, 2075632.257741492940113 ], [ 2968682.441939719952643, 2075595.610531551763415 ], [ 2968705.363013883121312, 2075599.460198880406097 ], [ 2968721.717976574786007, 2075593.22144498792477 ], [ 2968726.381213222630322, 2075591.482000296935439 ], [ 2968741.792847448959947, 2075592.762092703720555 ], [ 2968745.866961996536702, 2075600.271779790055007 ], [ 2968753.321438734885305, 2075614.012326120631769 ], [ 2968760.150172756053507, 2075624.952987873461097 ], [ 2968765.835130291990936, 2075635.085276482161134 ], [ 2968780.352776175830513, 2075649.711546839680523 ], [ 2968792.77537359111011, 2075657.615626975893974 ], [ 2968797.508931984659284, 2075661.833921011304483 ], [ 2968808.946288628969342, 2075669.915623677661642 ], [ 2968822.161527628079057, 2075682.748165604425594 ], [ 2968842.590349278412759, 2075696.309413152979687 ], [ 2968849.294233145192266, 2075700.172710799146444 ], [ 2968856.156621659174562, 2075705.021806071745232 ], [ 2968871.693187024910003, 2075713.379005037015304 ], [ 2968889.517366186715662, 2075723.352650884538889 ], [ 2968909.311675190925598, 2075732.971339736133814 ], [ 2968922.7193553019315, 2075740.697972803842276 ], [ 2968931.393569035455585, 2075744.206283533712849 ], [ 2968941.211434110999107, 2075748.522795332130045 ], [ 2968950.395066316705197, 2075748.896667015040293 ], [ 2968962.692659011576325, 2075749.72364485450089 ], [ 2968970.891115653328598, 2075750.274920526193455 ], [ 2968994.184186232741922, 2075750.135089494520798 ], [ 2969031.745179316028953, 2075750.467173217795789 ], [ 2969065.490380449686199, 2075758.586553025059402 ], [ 2969089.542623260058463, 2075769.466478533577174 ], [ 2969113.085401776246727, 2075783.481169933918864 ], [ 2969120.774469643831253, 2075787.167010481934994 ], [ 2969127.636878005694598, 2075792.016144855180755 ], [ 2969151.213507193140686, 2075799.939237409038469 ], [ 2969162.684536044485867, 2075801.929344567703083 ], [ 2969169.739276676438749, 2075801.672566258581355 ], [ 2969177.779068681877106, 2075801.238214233191684 ], [ 2969188.615884885657579, 2075799.285781749989837 ], [ 2969196.338620480149984, 2075796.880151149118319 ], [ 2969201.264447439461946, 2075795.99268358736299 ], [ 2969206.031770999077708, 2075794.119418879039586 ], [ 2969211.784079543780535, 2075792.068795560393482 ], [ 2969225.768650696612895, 2075784.478091521654278 ], [ 2969279.736691175960004, 2075754.469896319322288 ], [ 2969294.547839745879173, 2075745.715846816077828 ], [ 2969299.156506836879998, 2075742.857028160709888 ], [ 2969307.739617703482509, 2075733.196748505346477 ], [ 2969318.960968936327845, 2075721.032654574373737 ], [ 2969334.473831819370389, 2075704.038388572400436 ], [ 2969345.185864869505167, 2075695.008721267804503 ], [ 2969353.451730494853109, 2075683.377110175089911 ], [ 2969360.064413899555802, 2075674.071744329994544 ], [ 2969368.330387020483613, 2075662.440120200859383 ], [ 2969373.323591322638094, 2075649.36962252156809 ], [ 2969381.623377604410052, 2075631.646608654176816 ], [ 2969389.254922918975353, 2075616.072188675869256 ], [ 2969395.233412995003164, 2075602.824191231979057 ], [ 2969401.68763802619651, 2075592.533139060949907 ], [ 2969405.34485299885273, 2075583.760350673692301 ], [ 2969414.245072855148464, 2075576.071384349139407 ], [ 2969419.204610799439251, 2075569.092372443061322 ], [ 2969426.451770409476012, 2075563.729827420553192 ], [ 2969432.713645931333303, 2075558.54469076381065 ], [ 2969438.307414979673922, 2075555.508421503938735 ], [ 2969448.668660302646458, 2075550.598999928217381 ], [ 2969466.084481653291732, 2075545.432788955280557 ], [ 2969480.544905952177942, 2075540.799125751946121 ], [ 2969497.134244907647371, 2075536.79607672477141 ], [ 2969507.971146953757852, 2075534.84372891113162 ], [ 2969516.996269185561687, 2075534.231937292730436 ], [ 2969526.179988818243146, 2075534.605926512274891 ], [ 2969538.79484049230814, 2075537.404323432594538 ], [ 2969550.107588679529727, 2075538.409009386785328 ], [ 2969565.677866884041578, 2075540.674975909525529 ], [ 2969576.005346475634724, 2075541.857170681236312 ], [ 2969584.52094498090446, 2075544.379936302779242 ], [ 2969591.417163984850049, 2075543.137545956997201 ], [ 2969610.294041030108929, 2075540.750931074842811 ], [ 2969615.219913846347481, 2075539.86351214023307 ], [ 2969621.130945933517069, 2075538.798511578701437 ], [ 2969625.071546387393028, 2075538.088595094857737 ], [ 2969648.715927146375179, 2075533.828863016562536 ], [ 2969707.826240479946136, 2075523.179761513834819 ], [ 2969717.519325920380652, 2075520.419282909482718 ], [ 2969728.197672497015446, 2075517.481208946555853 ], [ 2969733.632995781488717, 2075513.459279956296086 ], [ 2969739.226898867636919, 2075510.423032459337264 ], [ 2969742.533291618339717, 2075505.770386120071635 ], [ 2969748.00243829889223, 2075495.656975611578673 ], [ 2969753.630052050575614, 2075486.529166301712394 ], [ 2969757.128849922679365, 2075476.770719531923532 ], [ 2969760.786129656247795, 2075467.997971937526017 ], [ 2969763.458332261070609, 2075459.402687716996297 ], [ 2969769.753994873724878, 2075448.126140480162576 ], [ 2969776.015931512229145, 2075442.941058671334758 ], [ 2969779.639588044025004, 2075440.259760501794517 ], [ 2969787.203761385753751, 2075436.868579213507473 ], [ 2969795.243766119237989, 2075436.434422681573778 ], [ 2969814.754915877711028, 2075437.990538276964799 ], [ 2969834.741801781114191, 2075442.503703393740579 ], [ 2969852.950742406304926, 2075442.266033499734476 ], [ 2969869.155496334657073, 2075448.474806972546503 ], [ 2969877.67124082101509, 2075450.997706298949197 ], [ 2969889.142395137809217, 2075452.987995052943006 ], [ 2969897.499564628582448, 2075454.525217327289283 ], [ 2969906.015296039171517, 2075457.048023156123236 ], [ 2969911.09977310616523, 2075457.146318188169971 ], [ 2969915.357548790052533, 2075458.407789163989946 ], [ 2969931.913301127962768, 2075460.496465166797861 ], [ 2969944.528220358304679, 2075463.294971463037655 ], [ 2969952.72681861044839, 2075463.846522771054879 ], [ 2969963.21290114056319, 2075466.014287962345406 ], [ 2969978.624822936952114, 2075467.294891907367855 ], [ 2969992.066468104720116, 2075468.930335273500532 ], [ 2970016.027860102709383, 2075466.642214127583429 ], [ 2970032.10788865108043, 2075465.773784414166585 ], [ 2970045.232209590729326, 2075465.438015449326485 ], [ 2970060.99520709970966, 2075462.59831497981213 ], [ 2970071.680376964155585, 2075459.702314640861005 ], [ 2970093.678255998529494, 2075457.810957045992836 ], [ 2970108.614462447352707, 2075456.134462971705943 ], [ 2970114.684121422003955, 2075456.055209068348631 ], [ 2970120.912372581195086, 2075456.96173550770618 ], [ 2970126.472690986469388, 2075460.017079424811527 ], [ 2970132.859404430259019, 2075461.909207613673061 ], [ 2970137.275849876459688, 2075464.156263235025108 ], [ 2970150.015550522133708, 2075474.032081885496154 ], [ 2970155.575772285461426, 2075477.087447001365945 ], [ 2970157.863291481509805, 2075478.703865689691156 ], [ 2970170.920262164436281, 2075490.551133373053744 ], [ 2970182.826704311650246, 2075501.548106336034834 ], [ 2970195.5597720798105, 2075511.382028665393591 ], [ 2970207.665307588875294, 2075517.315317393979058 ], [ 2970222.885024475865066, 2075523.701565657975152 ], [ 2970236.802339958027005, 2075528.294140794547275 ], [ 2970249.576093760319054, 2075532.078472864814103 ], [ 2970264.002786214463413, 2075533.536657633725554 ], [ 2970277.285901348572224, 2075534.186500496929511 ], [ 2970284.182179970666766, 2075532.944117007311434 ], [ 2970301.915413959883153, 2075529.749692741781473 ], [ 2970314.405656400602311, 2075525.471138287335634 ], [ 2970325.910732321906835, 2075521.370154343079776 ], [ 2970332.489865646697581, 2075518.156415237346664 ], [ 2970341.039388049393892, 2075514.587839914252982 ], [ 2970348.603741836268455, 2075511.196832660119981 ], [ 2970360.93542199395597, 2075505.932610527379438 ], [ 2970377.717329974286258, 2075496.824110315879807 ], [ 2970388.237235960550606, 2075492.900610786862671 ], [ 2970393.163171289023012, 2075492.013276948360726 ], [ 2970402.346989915706217, 2075492.38734202971682 ], [ 2970407.272827838547528, 2075491.500027472386137 ], [ 2970414.486289258114994, 2075492.229126388207078 ], [ 2970408.824824997689575, 2075507.448301607975736 ], [ 2970394.522745098918676, 2075513.06734540918842 ], [ 2970394.613721892237663, 2075526.235962034435943 ], [ 2970411.770012317225337, 2075538.358912020456046 ], [ 2970420.025809990242124, 2075558.170738642336801 ], [ 2970406.324314029887319, 2075573.824068619636819 ], [ 2970394.944064579904079, 2075585.002177050802857 ], [ 2970397.79821661952883, 2075602.744293667608872 ], [ 2970406.212694463785738, 2075623.541690530953929 ], [ 2970410.787746795453131, 2075626.774552695685998 ], [ 2970418.635381531901658, 2075631.446200815960765 ], [ 2970433.379548532888293, 2075634.875747546786442 ], [ 2970453.207899999804795, 2075638.403507941169664 ], [ 2970466.524748991243541, 2075632.961743860505521 ], [ 2970486.353239318355918, 2075636.489697694312781 ], [ 2970505.071778974495828, 2075633.117765897419304 ], [ 2970523.122290550731122, 2075631.894671328831464 ], [ 2970537.866263824515045, 2075635.324187671998516 ], [ 2970564.081598828546703, 2075640.744241301901639 ], [ 2970581.463991051539779, 2075641.670015746727586 ], [ 2970600.533653614111245, 2075634.177992669632658 ], [ 2970602.220527395606041, 2075625.760260154725984 ], [ 2970608.901012791320682, 2075604.272065216908231 ], [ 2970611.957918326370418, 2075585.465186594985425 ], [ 2970618.446125965565443, 2075569.082971127936617 ], [ 2970619.917398226447403, 2075540.419257631292567 ], [ 2970633.969884246587753, 2075520.645910008111969 ], [ 2970626.031269162893295, 2075502.805519529618323 ], [ 2970624.259850029833615, 2075498.096480577951297 ], [ 2970651.95328264683485, 2075474.894776831846684 ], [ 2970665.30409430898726, 2075463.361709030112252 ], [ 2970678.654830703511834, 2075451.828762763878331 ], [ 2970684.758327240124345, 2075445.65823010285385 ], [ 2970698.267615339718759, 2075435.110776130110025 ], [ 2970705.514866188168526, 2075429.748370479326695 ], [ 2970716.227189815603197, 2075420.719181591877714 ], [ 2970729.736608405597508, 2075410.171820455696434 ], [ 2970735.840004193596542, 2075404.001216307748109 ], [ 2970745.725817382335663, 2075396.13515949412249 ], [ 2970756.438142524566501, 2075387.105884519638494 ], [ 2970760.888414300046861, 2075383.26164603093639 ], [ 2970769.120959070511162, 2075377.721678641391918 ], [ 2970778.848115497268736, 2075368.869967384729534 ], [ 2970790.036150800064206, 2075362.797648550011218 ], [ 2970801.382775951176882, 2075357.71111296582967 ], [ 2970811.902779581956565, 2075353.787719226907939 ], [ 2970821.754616601392627, 2075352.013067280407995 ], [ 2970829.794831829145551, 2075351.578977134544402 ], [ 2970843.07798477075994, 2075352.229102506535128 ], [ 2970856.519777022302151, 2075353.864698346704245 ], [ 2970869.610589314252138, 2075359.62069523986429 ], [ 2970881.557621464133263, 2075364.568371266126633 ], [ 2970893.153708308003843, 2075373.636035458184779 ], [ 2970905.384208824951202, 2075386.646609160816297 ], [ 2970917.931739047635347, 2075401.628469409421086 ], [ 2970931.271996892057359, 2075421.538564265705645 ], [ 2970946.899827008135617, 2075443.065316478488967 ], [ 2970961.701106283348054, 2075465.754997016629204 ], [ 2970977.770869703963399, 2075496.330161399673671 ], [ 2971017.876191159244627, 2075569.187603183556348 ], [ 2971023.871586746536195, 2075581.249794686213136 ], [ 2971047.880036996677518, 2075629.665450111730024 ], [ 2971047.812517712824047, 2075641.848457408603281 ], [ 2971047.778751191217452, 2075647.93991208798252 ], [ 2971047.570768513716757, 2075649.219317713053897 ], [ 2971047.269278401508927, 2075651.074415284907445 ], [ 2971045.93318476062268, 2075655.372055000858381 ], [ 2971042.943735524080694, 2075661.995887167053297 ], [ 2971038.776869080029428, 2075673.903026097686961 ], [ 2971036.580281691625714, 2075685.455178886186332 ], [ 2971035.051872071344405, 2075694.858691378263757 ], [ 2971037.973613761831075, 2075700.417904270580038 ], [ 2971041.053915290161967, 2075706.962702591903508 ], [ 2971047.565724734216928, 2075715.932157418457791 ], [ 2971055.413311722688377, 2075720.603926768060774 ], [ 2971061.958782439120114, 2075723.481944297906011 ], [ 2971071.776973548810929, 2075727.798873719759285 ], [ 2971079.466200117021799, 2075731.485026282723993 ], [ 2971087.506238016299903, 2075731.051108409184963 ], [ 2971104.413118072785437, 2075729.020006950711831 ], [ 2971114.423550304491073, 2075728.231189926387742 ], [ 2971126.245883238967508, 2075726.101671830983832 ], [ 2971135.588355827145278, 2075727.461562511976808 ], [ 2971143.119028305634856, 2075730.162139833206311 ], [ 2971153.888564814347774, 2075740.393109231023118 ], [ 2971163.83148246537894, 2075751.78721616929397 ], [ 2971169.969272459857166, 2075760.832576326094568 ], [ 2971171.804124311544001, 2075763.536307564936578 ], [ 2971176.028187143616378, 2075770.889250186039135 ], [ 2971180.569418149068952, 2075780.213660536333919 ], [ 2971187.239618469495326, 2075790.168855248950422 ], [ 2971177.674740713089705, 2075806.330365631030872 ], [ 2971167.021996480878443, 2075824.329789708834141 ], [ 2971172.159722580574453, 2075841.555968473199755 ], [ 2971192.343159889802337, 2075861.596458755200729 ], [ 2971233.286683877930045, 2075887.355482776183635 ], [ 2971245.67412933614105, 2075922.906340001383796 ], [ 2971245.855947691015899, 2075947.2923145419918 ], [ 2971247.997661001514643, 2075956.174956999486312 ], [ 2971250.967022684402764, 2075961.343851603101939 ], [ 2971252.068333626259118, 2075963.386570015689358 ], [ 2971252.413950693793595, 2075964.027598341461271 ], [ 2971278.394772773608565, 2075971.477434197673574 ], [ 2971309.688189879059792, 2075976.971780390013009 ], [ 2971311.286022273823619, 2075976.593516435939819 ], [ 2971347.40645688213408, 2075968.042889264877886 ], [ 2971364.897436503320932, 2075969.538999035721645 ], [ 2971396.591674746014178, 2075902.938102249521762 ], [ 2971398.44527556700632, 2075867.879481729585677 ], [ 2971400.999922054819763, 2075844.532584532396868 ], [ 2971413.236864424310625, 2075827.558811862254515 ], [ 2971460.87731138151139, 2075814.921068440191448 ], [ 2971479.429871101398021, 2075796.503313995199278 ], [ 2971486.297524037770927, 2075770.036420060088858 ], [ 2971473.898252001032233, 2075744.622130856616423 ], [ 2971455.064930546097457, 2075709.473388944286853 ], [ 2971400.322867515031248, 2075671.664203701307997 ], [ 2971374.694794098846614, 2075619.483018750092015 ], [ 2971421.394472788088024, 2075569.488109613303095 ], [ 2971437.825753244571388, 2075564.500088360859081 ], [ 2971451.618489718995988, 2075562.015888589899987 ], [ 2971459.534005684312433, 2075554.504873479250818 ], [ 2971468.276042957790196, 2075545.830652408069 ], [ 2971472.443121124990284, 2075533.923652843572199 ], [ 2971472.193664226680994, 2075519.769279346102849 ], [ 2971475.692554879002273, 2075510.010912690544501 ], [ 2971483.925109820906073, 2075504.471190848853439 ], [ 2971495.237961494363844, 2075505.476385912159458 ], [ 2971503.244343037251383, 2075511.133872783510014 ], [ 2971512.586887512356043, 2075512.493939615786076 ], [ 2971521.963205602020025, 2075507.762367148185149 ], [ 2971535.438944933470339, 2075503.306909361621365 ], [ 2971594.392533640842885, 2075491.674469619756564 ], [ 2971605.16207770910114, 2075501.905526395421475 ], [ 2971622.477133390493691, 2075515.014678964624181 ], [ 2971660.606165934354067, 2075531.474653415149078 ], [ 2971665.206743989139795, 2075532.456900940043852 ], [ 2971688.950865027494729, 2075537.526141261216253 ], [ 2971707.896049558650702, 2075522.957393617602065 ], [ 2971730.181438822299242, 2075497.644863296533003 ], [ 2971733.849821649491787, 2075457.429054480046034 ], [ 2971744.346768274903297, 2075428.154222997138277 ], [ 2971738.729451147373766, 2075405.838562936289236 ], [ 2971727.902940781787038, 2075376.347567891702056 ], [ 2971704.312429391313344, 2075342.40785788721405 ], [ 2971702.841606498230249, 2075340.291927117621526 ], [ 2971676.953647740185261, 2075305.399424629751593 ], [ 2971630.025505852885544, 2075278.353506836108863 ], [ 2971616.050987523980439, 2075254.500422491924837 ], [ 2971616.09561427263543, 2075216.965809744549915 ], [ 2971594.590417083352804, 2075190.412184723187238 ], [ 2971595.076840410940349, 2075161.926176041131839 ], [ 2971636.511116347275674, 2075085.496003337670118 ], [ 2971656.158420957624912, 2075062.687059658812359 ], [ 2971668.84155311062932, 2075053.30314307496883 ], [ 2971677.458952048793435, 2075037.551909544039518 ], [ 2971678.6706383372657, 2075026.177168354624882 ], [ 2971675.782722148112953, 2075014.526532211573794 ], [ 2971670.097846022807062, 2075004.393971249228343 ], [ 2971670.007010603323579, 2074991.225343225989491 ], [ 2971671.569583067204803, 2074975.730461946455762 ], [ 2971674.434506869874895, 2074962.0296047818847 ], [ 2971673.834260456264019, 2074951.995540095027536 ], [ 2971672.056237894576043, 2074947.244475712999701 ], [ 2971664.400946252048016, 2074937.466793207218871 ], [ 2971656.58698321133852, 2074926.703350911848247 ], [ 2971647.312264484353364, 2074913.160486218053848 ], [ 2971643.631677110679448, 2074896.581438839435577 ], [ 2971645.703830191865563, 2074877.952184685971588 ], [ 2971654.672467948868871, 2074858.080771346110851 ], [ 2971667.072330581955612, 2074840.634108999045566 ], [ 2971680.967061671428382, 2074819.875521321315318 ], [ 2971690.094291088636965, 2074800.98980368883349 ], [ 2971699.697115742601454, 2074785.061246264260262 ], [ 2971711.270446066278964, 2074768.777606004616246 ], [ 2971724.304584535304457, 2074755.273690550355241 ], [ 2971739.309246103279293, 2074741.414793584030122 ], [ 2971745.163684351369739, 2074721.090161986649036 ], [ 2971749.874543189071119, 2074699.957155400654301 ], [ 2971750.485809965990484, 2074678.548346251016483 ], [ 2971753.701930153183639, 2074660.727351596346125 ], [ 2971756.376811387017369, 2074649.267847045324743 ], [ 2971757.90316026750952, 2074642.728843765798956 ], [ 2971761.877945222891867, 2074635.927694934885949 ], [ 2971768.683831971138716, 2074621.517038346035406 ], [ 2971773.519190326333046, 2074607.461270328145474 ], [ 2971776.384215973783284, 2074593.76035453681834 ], [ 2971769.397079223766923, 2074581.833879266865551 ], [ 2971756.339969566091895, 2074569.986252053175122 ], [ 2971735.718336830846965, 2074561.529544869204983 ], [ 2971733.781992348376662, 2074561.079160380642861 ], [ 2971728.346172645688057, 2074559.81465186807327 ], [ 2971722.117877080570906, 2074558.90798575989902 ], [ 2971706.037308302242309, 2074559.775691882474348 ], [ 2971691.961083545349538, 2074554.197024815483019 ], [ 2971685.098583372775465, 2074549.347649370087311 ], [ 2971653.163941240403801, 2074539.885837145382538 ], [ 2971639.880582457408309, 2074539.235559924738482 ], [ 2971630.22088965959847, 2074535.904199114069343 ], [ 2971623.00727054476738, 2074535.174902284983546 ], [ 2971603.948371892794967, 2074511.223409597296268 ], [ 2971606.111279389820993, 2074505.762804660247639 ], [ 2971612.985110803041607, 2074479.169202435063198 ], [ 2971631.57959649246186, 2074468.720715397736058 ], [ 2971656.402483436278999, 2074459.178876727353781 ], [ 2971678.77921502199024, 2074447.035006672143936 ], [ 2971694.644583052024245, 2074425.921609677141532 ], [ 2971710.0003966325894, 2074407.942690350115299 ], [ 2971721.030282110907137, 2074400.885083614848554 ], [ 2971730.248281105887145, 2074395.168026759289205 ], [ 2971773.473112037871033, 2074380.283591983839869 ], [ 2971786.632105017080903, 2074373.856796625768766 ], [ 2971803.448725393041968, 2074358.6574375575874 ], [ 2971810.888916668482125, 2074348.189623906742781 ], [ 2971812.134609066415578, 2074330.723455386934802 ], [ 2971809.563914632424712, 2074321.044112623203546 ], [ 2971803.36955950409174, 2074314.046035097213462 ], [ 2971787.673924813978374, 2074304.702162322588265 ], [ 2971778.048250840045512, 2074295.279256634414196 ], [ 2971771.219695863313973, 2074284.338376018917188 ], [ 2971767.188276327680796, 2074271.879618203500286 ], [ 2971767.063786596059799, 2074264.802525642560795 ], [ 2971768.909626759123057, 2074257.370486065512523 ], [ 2971771.899334729649127, 2074250.746673109941185 ], [ 2971770.121299466118217, 2074245.99583728169091 ], [ 2971775.375935006886721, 2074215.637134944554418 ], [ 2971785.783073498867452, 2074173.194082908099517 ], [ 2971795.080545148812234, 2074123.851292343810201 ], [ 2971803.075843318365514, 2074072.714482610113919 ], [ 2971805.635408143512905, 2074025.599523451179266 ], [ 2971801.457063755020499, 2073980.7121582464315 ], [ 2971792.896244442556053, 2073927.486217669676989 ], [ 2971785.72822807636112, 2073889.222770935622975 ], [ 2971779.998623177409172, 2073828.387406889582053 ], [ 2971777.82490015309304, 2073777.053846825379878 ], [ 2971788.266512107569724, 2073728.519317232770845 ], [ 2971810.496908223256469, 2073683.947111916961148 ], [ 2971818.107460261322558, 2073643.022058978443965 ], [ 2971816.058340908028185, 2073598.765718074049801 ], [ 2971797.577401209622622, 2073559.496952197747305 ], [ 2971775.75578580936417, 2073530.972167087253183 ], [ 2971734.263522840104997, 2073499.904572793282568 ], [ 2971691.435071390122175, 2073473.134653449291363 ], [ 2971672.217956509441137, 2073448.19756826153025 ], [ 2971671.968972523696721, 2073434.043384342221543 ], [ 2971670.927445073612034, 2073414.960919913602993 ], [ 2971680.667167965322733, 2073374.666805299464613 ], [ 2971677.564872669056058, 2073342.770690346136689 ], [ 2971667.475677790120244, 2073298.948188420152292 ], [ 2971660.059103005565703, 2073246.530612434726208 ], [ 2971648.882456874474883, 2073221.159869664814323 ], [ 2971627.026593542657793, 2073198.726503855548799 ], [ 2971594.809080893173814, 2073181.201880120439455 ], [ 2971551.119979678187519, 2073161.686670717550442 ], [ 2971514.202926293481141, 2073133.852241253014654 ], [ 2971484.024070359300822, 2073103.790100955637172 ], [ 2971465.792336646467447, 2073078.675792902475223 ], [ 2971457.729851899668574, 2073053.758388212416321 ], [ 2971455.703281996771693, 2073034.853281307034194 ], [ 2971464.616405672393739, 2072995.722224050667137 ], [ 2971476.904778249096125, 2072939.756010670214891 ], [ 2971487.154452964663506, 2072896.327415844192728 ], [ 2971488.027430680580437, 2072857.630292820511386 ], [ 2971498.20877970661968, 2072826.384558790363371 ], [ 2971510.960694551467896, 2072804.817972669843584 ], [ 2971534.245283945463598, 2072747.885558109963313 ], [ 2971563.826775121036917, 2072679.677209416637197 ], [ 2971588.118701958097517, 2072647.918696897802874 ], [ 2971614.2785425176844, 2072634.079503596061841 ], [ 2971646.281561377458274, 2072631.358523547416553 ], [ 2971675.590010700281709, 2072611.881367328576744 ], [ 2971686.020352516323328, 2072594.789850193774328 ], [ 2971691.434389414265752, 2072565.417122384533286 ], [ 2971681.57068107649684, 2072549.524921448202804 ], [ 2971674.876796470023692, 2072538.882150428835303 ], [ 2971633.557069684378803, 2072501.803501464193687 ], [ 2971574.433505545835942, 2072455.655852943891659 ], [ 2971507.620859851129353, 2072405.82206149911508 ], [ 2971430.604740086942911, 2072361.88291592290625 ], [ 2971398.539766972884536, 2072343.232206093845889 ], [ 2971346.726294990163296, 2072313.094600220443681 ], [ 2971310.949304564390332, 2072302.660761203849688 ], [ 2971245.679345263633877, 2072283.625777306267992 ], [ 2971209.645378415007144, 2072273.888414132408798 ], [ 2971175.898810595739633, 2072265.76744827022776 ], [ 2971118.870386027731001, 2072226.34249782236293 ], [ 2971042.1156917642802, 2072165.115533747477457 ], [ 2971015.300060948356986, 2072149.661131792701781 ], [ 2970910.166433310136199, 2072088.474683482199907 ], [ 2970905.750079164281487, 2072086.227553569246083 ], [ 2970893.926129335537553, 2072081.182870652759448 ], [ 2970858.947112442925572, 2072066.259576166979969 ], [ 2970823.015866202767938, 2072038.248293348588049 ], [ 2970790.515770426020026, 2072012.6617042706348 ], [ 2970772.057702132500708, 2071998.74483329965733 ], [ 2970720.486968415789306, 2071980.649933628039435 ], [ 2970706.728029543533921, 2071977.04297517426312 ], [ 2970700.341126730665565, 2071975.15078145894222 ], [ 2970647.945776973851025, 2071940.962578780017793 ], [ 2970635.782489661127329, 2071933.026001347927377 ], [ 2970602.118268578313291, 2071897.425966027425602 ], [ 2970585.430133781395853, 2071879.778276067692786 ], [ 2970506.30493917549029, 2071796.103300652001053 ], [ 2970496.362601600587368, 2071784.709500969620422 ], [ 2970373.893702601082623, 2071685.064545300090685 ], [ 2970323.377073420211673, 2071654.609819493955001 ], [ 2970319.297247480135411, 2071653.414421467343345 ], [ 2970177.623410050291568, 2071611.898129150504246 ], [ 2970147.818104954436421, 2071603.068047930020839 ], [ 2970131.103571401908994, 2071599.993637194158509 ], [ 2969909.171391154639423, 2071568.976355001796037 ], [ 2969734.834636539686471, 2071562.855257784714922 ], [ 2969700.069233707152307, 2071561.004234440391883 ], [ 2969638.703159804455936, 2071563.945025532739237 ], [ 2969474.784927460364997, 2071572.175399822881445 ], [ 2969433.915609248913825, 2071576.495219092816114 ], [ 2969417.008574351668358, 2071578.526836036937311 ], [ 2969378.109903544653207, 2071582.491619041422382 ], [ 2969333.355875960551202, 2071606.781203255988657 ], [ 2969296.132446572184563, 2071633.771120779914781 ], [ 2969258.592119267210364, 2071658.789641205221415 ], [ 2969235.892332557588816, 2071669.455257414374501 ], [ 2969234.086249297484756, 2071670.303847671719268 ], [ 2969223.792732244823128, 2071663.030338361626491 ], [ 2969162.961413130164146, 2071599.952365223784 ], [ 2969106.014982250053436, 2071516.904568425146863 ], [ 2969072.465104153379798, 2071415.443253346718848 ], [ 2969062.749710755422711, 2071392.852644734783098 ], [ 2969013.060487376525998, 2071361.236260075354949 ], [ 2968929.004112044349313, 2071286.115468417992815 ], [ 2968887.911522393580526, 2071213.396672679577023 ], [ 2968875.004539129324257, 2071145.742076037218794 ], [ 2968874.19039976131171, 2071115.462705996818841 ], [ 2968878.143813438713551, 2071083.310152647551149 ], [ 2968837.291072009596974, 2070967.951970124617219 ], [ 2968774.146167249884456, 2070732.877455151174217 ], [ 2968761.205349312163889, 2070671.314180217916146 ], [ 2968733.661596555728465, 2070625.483416647650301 ], [ 2968730.086354555562139, 2070622.205058047780767 ], [ 2968669.948755970224738, 2070564.022432755446061 ], [ 2968632.467771620023996, 2070520.064946198137477 ], [ 2968590.026553167030215, 2070483.086552395485342 ], [ 2968349.237024768255651, 2070334.784524761140347 ], [ 2968294.202268708031625, 2070320.359105906216428 ], [ 2968251.975580438040197, 2070303.626220356905833 ], [ 2968177.772442437708378, 2070226.731719135073945 ], [ 2968136.929230247158557, 2070168.167584842070937 ], [ 2968109.968277284409851, 2070122.464257289888337 ], [ 2968100.695133444853127, 2070106.744693915359676 ], [ 2968088.993108812719584, 2070058.109713087091222 ], [ 2968058.211506359279156, 2070019.064603528473526 ], [ 2968031.969977990724146, 2069983.491736291442066 ], [ 2968023.211204895284027, 2069971.618290586397052 ], [ 2967985.979112358763814, 2069941.815366960596293 ], [ 2967975.527414705604315, 2069933.556491231312975 ], [ 2967967.997006694786251, 2069930.856617286335677 ], [ 2967926.245845346245915, 2069917.080989024601877 ], [ 2967895.421752230264246, 2069914.521116632036865 ], [ 2967873.623044889420271, 2069911.349364689784124 ], [ 2967848.710225139278919, 2069907.724492119625211 ], [ 2967840.862926756497473, 2069903.053226162446663 ], [ 2967830.06000328855589, 2069898.91447987803258 ], [ 2967825.603541205637157, 2069896.792341460473835 ], [ 2967807.820110217668116, 2069886.694519816664979 ], [ 2967781.164013683795929, 2069872.227637914242223 ], [ 2967773.15822975942865, 2069866.570735682034865 ], [ 2967771.297310814261436, 2069865.75256836367771 ], [ 2967766.613030952401459, 2069863.693287954898551 ], [ 2967747.80423627840355, 2069853.897678546607494 ], [ 2967701.848366542719305, 2069819.054186212597415 ], [ 2967694.880180701147765, 2069812.559536792570725 ], [ 2967692.492033403366804, 2069810.333722317125648 ], [ 2967670.145683312788606, 2069785.836208446417004 ], [ 2967665.440913768485188, 2069780.654857129557058 ], [ 2967664.708956943824887, 2069780.73663557250984 ], [ 2967649.106642383150756, 2069763.527413371950388 ], [ 2967631.748197735287249, 2069741.100510354153812 ], [ 2967608.927935438230634, 2069713.53455662005581 ], [ 2967601.376437561586499, 2069704.412761903833598 ], [ 2967600.766157914884388, 2069703.670079516014084 ], [ 2967578.548883893992752, 2069673.425311008933932 ], [ 2967568.849367268383503, 2069655.785545888589695 ], [ 2967566.524055806919932, 2069660.90878791641444 ], [ 2967557.739925500005484, 2069684.188314762199298 ], [ 2967550.987779058050364, 2069702.089542915346101 ], [ 2967543.475976241752505, 2069727.413276757579297 ], [ 2967543.086311124265194, 2069728.722841616952792 ], [ 2967540.185409449972212, 2069757.08184395194985 ], [ 2967539.389080120716244, 2069764.873330075759441 ], [ 2967546.033556967042387, 2069825.513452592305839 ], [ 2967550.963060691021383, 2069860.698573820991442 ], [ 2967552.080365410540253, 2069868.657546967733651 ], [ 2967558.588031941093504, 2069888.851758256787434 ], [ 2967562.312116488814354, 2069900.395534528419375 ], [ 2967563.653265558648854, 2069904.558680712478235 ], [ 2967564.171539725270122, 2069907.183468723203987 ], [ 2967572.562009334564209, 2069949.984121535439044 ], [ 2967585.583874501287937, 2069984.034140062984079 ], [ 2967592.863591337576509, 2069996.461124758468941 ], [ 2967618.565855297259986, 2070032.482554183341563 ], [ 2967625.790137025527656, 2070045.738608251325786 ], [ 2967631.147284377366304, 2070058.693853546632454 ], [ 2967635.021357296966016, 2070072.158711454598233 ], [ 2967641.462369060143828, 2070106.904326592804864 ], [ 2967645.4046038268134, 2070156.573205023538321 ], [ 2967645.679428190458566, 2070180.903593508293852 ], [ 2967648.302232209593058, 2070201.060803204076365 ], [ 2967648.214998838491738, 2070215.654630997683853 ], [ 2967639.690455818548799, 2070252.123206676216796 ], [ 2967624.408261812757701, 2070274.417964602354914 ], [ 2967615.363715410232544, 2070284.841790881939232 ], [ 2967604.156896975357085, 2070291.978306608041748 ], [ 2967592.306995489168912, 2070298.388802373316139 ], [ 2967571.189548728056252, 2070314.197492100065574 ], [ 2967553.015398900490254, 2070328.906598075525835 ], [ 2967536.36217478569597, 2070344.447161826537922 ], [ 2967507.428256913088262, 2070364.534182557836175 ], [ 2967473.102103299461305, 2070386.872647701995447 ], [ 2967453.843815369531512, 2070399.405633240239695 ], [ 2967413.665505174547434, 2070418.989454325521365 ], [ 2967381.534887994639575, 2070431.969033870613202 ], [ 2967378.227107021957636, 2070433.305216853274032 ], [ 2967338.980435661971569, 2070450.418190193595365 ], [ 2967324.44927104189992, 2070458.262226038612425 ], [ 2967302.084181916899979, 2070472.184222786687315 ], [ 2967290.63062438275665, 2070480.799708012724295 ], [ 2967282.924654667731375, 2070489.8796984734945 ], [ 2967271.732192364521325, 2070503.06767358398065 ], [ 2967253.435836164280772, 2070521.11078873090446 ], [ 2967238.5568075068295, 2070538.065833722241223 ], [ 2967223.844615065027028, 2070550.576470175059512 ], [ 2967202.391764666885138, 2070575.589992992347106 ], [ 2967190.977955651469529, 2070587.294747900450602 ], [ 2967178.113518627360463, 2070602.191261347383261 ], [ 2967163.143616240471601, 2070611.498630128335208 ], [ 2967112.356446523685008, 2070639.366857767337933 ], [ 2967105.256129552144557, 2070642.00877723400481 ], [ 2967092.517779968678951, 2070646.692915039835498 ], [ 2967067.504159915260971, 2070653.215043823933229 ], [ 2967048.941775115206838, 2070654.116839923197404 ], [ 2967034.439247106201947, 2070654.821569915860891 ], [ 2966993.223283467814326, 2070659.2589955360163 ], [ 2966978.32501604128629, 2070661.786197260953486 ], [ 2966955.78095915261656, 2070665.610114585142583 ], [ 2966945.528978737536818, 2070667.35454667895101 ], [ 2966938.341316454578191, 2070670.395609902916476 ], [ 2966929.77407805249095, 2070674.02868342702277 ], [ 2966918.477628203574568, 2070683.219453276600689 ], [ 2966906.310592186637223, 2070695.486419192049652 ], [ 2966899.551671406254172, 2070704.506611979566514 ], [ 2966897.613269897643477, 2070710.967563157668337 ], [ 2966899.116918864659965, 2070725.665497280657291 ], [ 2966904.069489582907408, 2070742.916941244155169 ], [ 2966911.576753919012845, 2070762.012027680873871 ], [ 2966920.200589233078063, 2070778.804663693532348 ], [ 2966935.257271504495293, 2070800.405554469209164 ], [ 2966969.71525783278048, 2070845.768432054203004 ], [ 2966976.016043712384999, 2070852.53348007495515 ], [ 2966991.736502587795258, 2070869.412177091697231 ], [ 2967000.930641626007855, 2070880.599446291103959 ], [ 2967022.961912723258138, 2070910.588162044761702 ], [ 2967024.742186176590621, 2070913.482426900416613 ], [ 2967025.350302552804351, 2070914.472560610389337 ], [ 2967031.399730646517128, 2070924.323429604526609 ], [ 2967043.188044935464859, 2070937.113163301255554 ], [ 2967047.963917310349643, 2070944.136273112613708 ], [ 2967054.066657855641097, 2070952.709973089862615 ], [ 2967058.518346265889704, 2070958.964103851700202 ], [ 2967062.303069425281137, 2070967.412288260180503 ], [ 2967065.308839842677116, 2070978.295501109678298 ], [ 2967079.725419133901596, 2070988.482198156416416 ], [ 2967128.129432637244463, 2071018.986991768237203 ], [ 2967111.756493216380477, 2071017.461567055666819 ], [ 2967097.14428990194574, 2071022.630251986905932 ], [ 2967031.994829569477588, 2071047.047925595194101 ], [ 2967025.864278143737465, 2071050.688173464965075 ], [ 2966953.289131795987487, 2071078.472613421501592 ], [ 2966950.135348250158131, 2071127.215953880688176 ], [ 2966945.393757136538625, 2071199.572361262049526 ], [ 2966925.246744204312563, 2071282.311119791585952 ], [ 2966905.926661735400558, 2071363.886828585993499 ], [ 2966810.385227391030639, 2071494.695505817886442 ], [ 2966764.806587326806039, 2071520.150780053576455 ], [ 2966759.880715579725802, 2071521.038450568914413 ], [ 2966639.248319297097623, 2071533.65000609587878 ], [ 2966570.942794737406075, 2071575.371698256814852 ], [ 2966522.793989109341055, 2071591.148329480085522 ], [ 2966493.487960922997445, 2071610.628773572389036 ], [ 2966374.814898177515715, 2071654.328516119625419 ], [ 2966325.510972701944411, 2071700.739929814822972 ], [ 2966313.360310597345233, 2071732.341824937844649 ], [ 2966251.079465552698821, 2071811.518649741541594 ], [ 2966170.024186966009438, 2071874.809311634628102 ], [ 2966142.156150731258094, 2071912.030243542743847 ], [ 2966102.432859980035573, 2071965.08568059373647 ], [ 2966034.841943977400661, 2072055.36220059520565 ], [ 2966004.664502152241766, 2072113.540431657107547 ], [ 2966005.022306831553578, 2072129.208480363013223 ], [ 2966006.510187350213528, 2072194.345208242535591 ], [ 2965995.979418243747205, 2072229.712365856394172 ], [ 2965903.579085339792073, 2072298.091156972572207 ], [ 2965879.991550000850111, 2072315.546742322854698 ], [ 2965879.991550000850111, 2078334.60665 ], [ 2966100.473623153287917, 2078334.60665 ], [ 2966105.673679052386433, 2078329.900858384557068 ] ] ], [ [ [ 2965926.044674377888441, 2069077.987724766135216 ], [ 2966065.833318102639169, 2069159.285822951467708 ], [ 2966097.097875393927097, 2069170.892740732990205 ], [ 2966129.34764956170693, 2069182.322236598702148 ], [ 2966160.612229102291167, 2069193.929196447366849 ], [ 2966194.90104190679267, 2069192.82095834100619 ], [ 2966228.204664800316095, 2069191.890186480479315 ], [ 2966262.493397627957165, 2069190.781918385764584 ], [ 2966282.435936729423702, 2069164.87579896999523 ], [ 2966305.434906361624599, 2069167.830358813516796 ], [ 2966345.883166363462806, 2069179.810907065402716 ], [ 2966385.346448109485209, 2069191.968990076566115 ], [ 2966482.832972477190197, 2069211.926426368765533 ], [ 2966515.275534878484905, 2069218.25036060390994 ], [ 2966516.453589343465865, 2069212.967066293116659 ], [ 2966629.108421782497317, 2069131.814417616697028 ], [ 2966727.820604955311865, 2069108.955060502048582 ], [ 2966747.490200932137668, 2069111.495805407408625 ], [ 2966832.079697284847498, 2069120.593435554299504 ], [ 2966857.129766992293298, 2069117.093613112810999 ], [ 2966897.419635454192758, 2069110.847634888719767 ], [ 2966961.774458327330649, 2069101.279551604297012 ], [ 2967006.404150444548577, 2069069.911029022419825 ], [ 2967030.833506792783737, 2069013.785259175579995 ], [ 2967044.246247227303684, 2068933.275550395715982 ], [ 2967049.349899469874799, 2068813.695843173423782 ], [ 2967053.468588583637029, 2068694.293543155770749 ], [ 2967056.327059361152351, 2068623.799563980428502 ], [ 2967058.57268170453608, 2068574.713924173498526 ], [ 2967064.544893513899297, 2068554.73655 ], [ 2965879.991550000850111, 2068554.73655 ], [ 2965879.991550000850111, 2069058.239220776828006 ], [ 2965926.044674377888441, 2069077.987724766135216 ] ] ] ] } }
]
}
