{
"type": "FeatureCollection",
"name": "Torregamones",
"crs": { "type": "name", "properties": { "name": "urn:ogc:def:crs:EPSG::3035" } },
"features": [
{ "type": "Feature", "properties": { "SITE_NAME": "Arribes del Duero", "ODESIGNATE": "Parque Natural", "NUT2": 41, "SITE_CODE_": "ES410002", "DESIG_ABBR": "ES10", "SITE_CDDA": "349215_CDDA", "Sup_ha": 106377.207522 }, "geometry": { "type": "MultiPolygon", "coordinates": [ [ [ [ 2979368.922677092254162, 2186841.563742727506906 ], [ 2979363.71164826489985, 2186843.592351346742362 ], [ 2979358.010527174454182, 2186846.949359831400216 ], [ 2979350.696200638543814, 2186850.137989621143788 ], [ 2979345.197890465613455, 2186853.001158015802503 ], [ 2979341.953309176489711, 2186857.095567708835006 ], [ 2979337.299652696587145, 2186865.479149261023849 ], [ 2979334.324976860545576, 2186878.338100082240999 ], [ 2979332.283404274843633, 2186891.578710503876209 ], [ 2979330.511491065379232, 2186897.781729439739138 ], [ 2979322.207779354415834, 2186916.631698888726532 ], [ 2979315.615074642002583, 2186935.409262814559042 ], [ 2979309.116779449395835, 2186958.177802475169301 ], [ 2979307.951255631167442, 2186964.597993729636073 ], [ 2979307.831688630860299, 2186967.284265100955963 ], [ 2979309.415310897864401, 2186972.185359099879861 ], [ 2979312.074826316908002, 2186977.46285146381706 ], [ 2979314.416147005744278, 2186983.88118311110884 ], [ 2979317.975979551672935, 2186991.370766718871891 ], [ 2979323.792286647483706, 2187002.510316531173885 ], [ 2979332.13682017615065, 2187017.406020752619952 ], [ 2979338.960845344699919, 2187030.689250856637955 ], [ 2979348.86459225602448, 2187049.987836624495685 ], [ 2979352.453036603052169, 2187057.161306830588728 ], [ 2979360.033092518337071, 2187078.344950853846967 ], [ 2979363.568435706198215, 2187091.945391067769378 ], [ 2979363.45589814055711, 2187092.560707242693752 ], [ 2979364.982018486596644, 2187102.819243723526597 ], [ 2979366.620334373321384, 2187150.233779001049697 ], [ 2979347.624471136368811, 2187176.061160231940448 ], [ 2979340.591675615403801, 2187187.362949175294489 ], [ 2979323.798708246089518, 2187208.515086483675987 ], [ 2979296.046743977349252, 2187245.050836994312704 ], [ 2979357.142416146583855, 2187441.181332612410188 ], [ 2979401.014345, 2187518.245700741186738 ], [ 2979401.014345, 2186823.479275525081903 ], [ 2979368.922677092254162, 2186841.563742727506906 ] ] ], [ [ [ 2979399.626239310018718, 2187549.224089384078979 ], [ 2979389.942342712543905, 2187558.128736288752407 ], [ 2979389.873292447067797, 2187558.228605485986918 ], [ 2979387.413335330784321, 2187564.698351094033569 ], [ 2979385.040026970207691, 2187572.412431598175317 ], [ 2979383.392045943066478, 2187579.973901982419193 ], [ 2979382.240764598362148, 2187587.986238244920969 ], [ 2979382.215122698806226, 2187595.22988265985623 ], [ 2979382.740624869242311, 2187602.148799484129995 ], [ 2979384.108328063040972, 2187609.544457465410233 ], [ 2979385.531458361074328, 2187617.306958037428558 ], [ 2979386.62152964156121, 2187626.059690326917917 ], [ 2979387.63737149303779, 2187634.409076350275427 ], [ 2979388.376898671500385, 2187643.50780020840466 ], [ 2979388.033663308247924, 2187651.676047327462584 ], [ 2979387.984593526925892, 2187659.738929646089673 ], [ 2979388.553942331578583, 2187668.376294187270105 ], [ 2979389.303609000518918, 2187678.131348389666528 ], [ 2979390.177008113823831, 2187691.345011746510863 ], [ 2979401.014345, 2187692.808678385335952 ], [ 2979401.014345, 2187548.849515909794718 ], [ 2979399.626239310018718, 2187549.224089384078979 ] ] ], [ [ [ 2979387.940956665668637, 2192855.143191956914961 ], [ 2979382.383262971881777, 2192858.145538893528283 ], [ 2979376.840553120709956, 2192861.123557705897838 ], [ 2979371.285738944076002, 2192864.094421583693475 ], [ 2979320.910322898067534, 2192890.691442077513784 ], [ 2979314.904450885951519, 2192893.75580090098083 ], [ 2979308.812338822521269, 2192896.759581247344613 ], [ 2979290.447999227326363, 2192905.134411616716534 ], [ 2979284.186829698272049, 2192907.769206196069717 ], [ 2979277.929756112862378, 2192910.289757697843015 ], [ 2979275.345291283912957, 2192911.283614800311625 ], [ 2979271.6280214083381, 2192912.708317452576011 ], [ 2979265.296041057445109, 2192915.041878131218255 ], [ 2979258.929144128691405, 2192917.27107927436009 ], [ 2979252.529789597261697, 2192919.40542652644217 ], [ 2979246.107541250996292, 2192921.442686236463487 ], [ 2979239.652752919122577, 2192923.385208456311375 ], [ 2979233.473703391849995, 2192925.144766297657043 ], [ 2979227.695613922551274, 2192927.471974175889045 ], [ 2979221.660002539400011, 2192929.884950064588338 ], [ 2979215.607895094901323, 2192932.271258781664073 ], [ 2979209.560830003581941, 2192934.635642733890563 ], [ 2979203.499464719556272, 2192936.983115699142218 ], [ 2979197.42617588955909, 2192939.32329972833395 ], [ 2979191.353455286938697, 2192941.622163004241884 ], [ 2979185.268712724559009, 2192943.913755109999329 ], [ 2979179.177088115829974, 2192946.176132719032466 ], [ 2979173.071277771145105, 2192948.421680224128067 ], [ 2979166.970493700355291, 2192950.64520435128361 ], [ 2979160.855507831089199, 2192952.851799737662077 ], [ 2979154.73365595843643, 2192955.029279274400324 ], [ 2979148.607216314412653, 2192957.187282749451697 ], [ 2979142.53447746951133, 2192959.311127743218094 ], [ 2979136.394314580596983, 2192961.585825527086854 ], [ 2979130.246249389369041, 2192963.914032827597111 ], [ 2979124.100380935706198, 2192966.251997133716941 ], [ 2979117.968361462466419, 2192968.648276432417333 ], [ 2979111.840816978830844, 2192971.063952537253499 ], [ 2979105.73722050152719, 2192973.494191116653383 ], [ 2979099.635351839009672, 2192975.975490493699908 ], [ 2979093.576970498543233, 2192978.466303000692278 ], [ 2979069.53503979369998, 2192988.720980235841125 ], [ 2979058.60950181633234, 2192994.832321006339043 ], [ 2979053.035950149875134, 2192997.941744004376233 ], [ 2979047.442942417692393, 2193001.056100697722286 ], [ 2979041.857369722798467, 2193004.158253189641982 ], [ 2979036.262069433927536, 2193007.262872891966254 ], [ 2979030.676514535676688, 2193010.365125441458076 ], [ 2979025.078921685926616, 2193013.460008151363581 ], [ 2979019.471715708263218, 2193016.557438933290541 ], [ 2979013.871830294840038, 2193019.642584651708603 ], [ 2979002.657875522039831, 2193025.796047382988036 ], [ 2978991.449064062908292, 2193031.927569630555809 ], [ 2978985.825267986394465, 2193034.998354582581669 ], [ 2978980.216325009707361, 2193038.044631774071604 ], [ 2978969.283256434835494, 2193043.993192851543427 ], [ 2978964.331678473390639, 2193047.604092922993004 ], [ 2978959.274372021667659, 2193051.509513821452856 ], [ 2978954.372467858716846, 2193055.550647927913815 ], [ 2978944.807832041755319, 2193064.169358727056533 ], [ 2978940.272539962083101, 2193068.632460323162377 ], [ 2978935.841812065802515, 2193073.233851389028132 ], [ 2978931.54920946713537, 2193077.985546106472611 ], [ 2978927.422304844483733, 2193082.829165745526552 ], [ 2978919.236430002376437, 2193093.374318437185138 ], [ 2978914.357074453029782, 2193100.354300904087722 ], [ 2978912.287892241030931, 2193103.451882859691978 ], [ 2978905.611900663468987, 2193114.469419161789119 ], [ 2978902.560839171055704, 2193120.039499743841588 ], [ 2978899.660575292538851, 2193125.725717665627599 ], [ 2978891.577011899091303, 2193143.266693222336471 ], [ 2978885.725129313766956, 2193154.858154013752937 ], [ 2978879.412326418794692, 2193166.195641567930579 ], [ 2978876.031246257945895, 2193171.849149609915912 ], [ 2978865.407100497744977, 2193188.076962455641478 ], [ 2978861.560527562629431, 2193193.45711940061301 ], [ 2978847.569930041208863, 2193212.688844492193311 ], [ 2978808.6921362048015, 2193250.739175752270967 ], [ 2978798.290504151023924, 2193259.209610653109848 ], [ 2978792.726765763945878, 2193263.191746255382895 ], [ 2978781.401063188444823, 2193270.269338221289217 ], [ 2978775.455781212076545, 2193273.503772467840463 ], [ 2978769.424914620351046, 2193276.461363199166954 ], [ 2978763.27402405301109, 2193279.171372638083994 ], [ 2978757.017977536190301, 2193281.609390828758478 ], [ 2978750.671190554276109, 2193283.792410353664309 ], [ 2978744.199873128440231, 2193285.708255401812494 ], [ 2978731.792812842875719, 2193288.581027060281485 ], [ 2978725.907972314860672, 2193290.935299307107925 ], [ 2978719.679998104460537, 2193293.448664754629135 ], [ 2978713.458875774405897, 2193295.991049084812403 ], [ 2978707.242244666442275, 2193298.55292887520045 ], [ 2978701.030301600694656, 2193301.134268612600863 ], [ 2978694.837717792019248, 2193303.710693820845336 ], [ 2978689.252671310678124, 2193306.071472105570138 ], [ 2978657.774795710109174, 2193319.650132242590189 ], [ 2978651.63592791184783, 2193322.367329862900078 ], [ 2978645.65005902107805, 2193325.035592952743173 ], [ 2978641.235654366202652, 2193327.388441639952362 ], [ 2978636.557415257208049, 2193329.756524461321533 ], [ 2978631.805541779845953, 2193332.030078294686973 ], [ 2978622.260617703199387, 2193336.227148697245866 ], [ 2978617.377930301241577, 2193338.163189189042896 ], [ 2978612.464881766121835, 2193340.014149524271488 ], [ 2978607.529701915103942, 2193341.726664760150015 ], [ 2978602.549859849736094, 2193343.337188209872693 ], [ 2978597.544910682365298, 2193344.840768936090171 ], [ 2978592.667868274729699, 2193346.188570047263056 ], [ 2978586.422753121703863, 2193348.19143328955397 ], [ 2978580.054212207905948, 2193350.194645615760237 ], [ 2978573.664586355444044, 2193352.151714113075286 ], [ 2978567.277708150446415, 2193354.077119350899011 ], [ 2978560.845830048900098, 2193355.942016571760178 ], [ 2978548.012831518426538, 2193359.540269268676639 ], [ 2978541.548965085297823, 2193361.269010559655726 ], [ 2978535.095312342047691, 2193362.954080824740231 ], [ 2978528.620558561757207, 2193364.592908651567996 ], [ 2978522.144094129092991, 2193366.180775848217309 ], [ 2978515.648724622093141, 2193367.732156800106168 ], [ 2978509.229372771922499, 2193369.212862058542669 ], [ 2978503.016729035414755, 2193370.785398810170591 ], [ 2978477.994137897156179, 2193376.738167211879045 ], [ 2978471.691818282939494, 2193378.14810831611976 ], [ 2978465.399778527673334, 2193379.514163302723318 ], [ 2978459.108223988674581, 2193380.839013787917793 ], [ 2978452.797878755256534, 2193382.127458855509758 ], [ 2978446.480749489739537, 2193383.386671688873321 ], [ 2978440.14692709967494, 2193384.619253070093691 ], [ 2978414.846761014312506, 2193389.128719292581081 ], [ 2978408.479255783837289, 2193390.174283389002085 ], [ 2978402.124308671336621, 2193391.185601138975471 ], [ 2978395.760315207298845, 2193392.158145494759083 ], [ 2978389.394496446941048, 2193393.079648289829493 ], [ 2978383.033932369668037, 2193393.979289289563894 ], [ 2978376.654463090933859, 2193394.842444029636681 ], [ 2978370.282912868540734, 2193395.652189215645194 ], [ 2978363.906872939318419, 2193396.442440589889884 ], [ 2978357.541128795593977, 2193397.188904441893101 ], [ 2978325.766966302879155, 2193400.979412053711712 ], [ 2978308.579612107016146, 2193402.200060156174004 ], [ 2978291.210527441464365, 2193402.035508726723492 ], [ 2978233.188864487223327, 2193394.936351954005659 ], [ 2978207.824087822344154, 2193393.573172747157514 ], [ 2978188.917736252304167, 2193393.169781755656004 ], [ 2978156.030232263728976, 2193392.969478184357285 ], [ 2978090.680034180171788, 2193391.401064118370414 ], [ 2978084.631693911273032, 2193391.222939731087536 ], [ 2978078.588411277160048, 2193391.022988928947598 ], [ 2978072.545679817907512, 2193390.781618473120034 ], [ 2978066.503063331823796, 2193390.540329590439796 ], [ 2978060.46834952943027, 2193390.245532338507473 ], [ 2978054.431341830641031, 2193389.940997377038002 ], [ 2978048.397195749916136, 2193389.604879802558571 ], [ 2978042.365911284927279, 2193389.2371796220541 ], [ 2978036.332415266428143, 2193388.859625328797847 ], [ 2978030.299404103308916, 2193388.440866403281689 ], [ 2978024.218417237512767, 2193387.993102177511901 ], [ 2977958.192714940290898, 2193381.365446007810533 ], [ 2977888.872210365720093, 2193375.160136692225933 ], [ 2977819.55114469723776, 2193369.346211754251271 ], [ 2977750.733720615506172, 2193362.612214819062501 ], [ 2977684.022210791707039, 2193356.261443180963397 ], [ 2977677.952664357144386, 2193355.687188943848014 ], [ 2977609.909594297874719, 2193349.272008827421814 ], [ 2977605.988231383264065, 2193348.823195091448724 ], [ 2977602.049777118489146, 2193348.214010408613831 ], [ 2977598.142675678245723, 2193347.432156396098435 ], [ 2977594.172785249073058, 2193346.470565584488213 ], [ 2977582.941916177980602, 2193342.755117425695062 ], [ 2977572.256777393631637, 2193337.686502340249717 ], [ 2977541.42476825369522, 2193319.67944518616423 ], [ 2977524.279101444873959, 2193310.099656371865422 ], [ 2977491.31591862719506, 2193290.727449053898454 ], [ 2977478.898911041207612, 2193281.618571570608765 ], [ 2977467.432674020063132, 2193271.4349933876656 ], [ 2977459.485797563567758, 2193263.140442799311131 ], [ 2977427.874203860759735, 2193227.385148278903216 ], [ 2977386.375432110391557, 2193178.451956346165389 ], [ 2977383.620563114061952, 2193176.009081694297493 ], [ 2977380.585918302647769, 2193174.038551946170628 ], [ 2977379.741811636835337, 2193173.510911309160292 ], [ 2977377.47125215549022, 2193172.078000771347433 ], [ 2977373.694313202053308, 2193170.449801752809435 ], [ 2977368.154559824615717, 2193168.804589917883277 ], [ 2977362.032386309467256, 2193167.65681324293837 ], [ 2977300.272716665174812, 2193154.153195081278682 ], [ 2977306.02471317211166, 2193138.025569915305823 ], [ 2977311.984369875863194, 2193125.098826451227069 ], [ 2977308.428130460437387, 2193116.01200365787372 ], [ 2977308.809445605613291, 2193103.550129027571529 ], [ 2977305.250930877868086, 2193094.453667482826859 ], [ 2977291.299611462745816, 2193079.43210519105196 ], [ 2977272.88324102666229, 2193073.633373329415917 ], [ 2977278.094838824123144, 2193049.477906404528767 ], [ 2977226.210860325023532, 2193038.344299833290279 ], [ 2977219.721479305997491, 2193014.772461516782641 ], [ 2977193.222053294070065, 2193012.914332007057965 ], [ 2977189.491679186932743, 2192998.363273640163243 ], [ 2977182.75246522622183, 2192993.891688477713615 ], [ 2977149.436804195865989, 2192977.13124979659915 ], [ 2977108.966829667333513, 2192979.458294928539544 ], [ 2977077.504006349947304, 2192983.654467223677784 ], [ 2977074.79355807043612, 2193002.656981498468667 ], [ 2977064.660160997882485, 2193003.739611544646323 ], [ 2977053.149907401762903, 2193003.996967006940395 ], [ 2977044.35554873617366, 2193005.131785564124584 ], [ 2977037.291934725828469, 2193004.747525663580745 ], [ 2977032.020573421381414, 2193003.631480519659817 ], [ 2977027.008720415644348, 2192999.288904388435185 ], [ 2977024.487887003459036, 2192996.004286535084248 ], [ 2977023.19448662083596, 2192990.154159390367568 ], [ 2977021.841396087780595, 2192981.951087451074272 ], [ 2977020.820272104348987, 2192974.590650002937764 ], [ 2977018.818509629927576, 2192966.428233654238284 ], [ 2977017.319283401593566, 2192958.128292686771601 ], [ 2977016.364858083892614, 2192951.008309941738844 ], [ 2977014.157287032343447, 2192939.870986510533839 ], [ 2977017.256599485408515, 2192936.955165515188128 ], [ 2977019.625138777308166, 2192931.063570005819201 ], [ 2977019.349333681166172, 2192925.079387612640858 ], [ 2977016.971377095207572, 2192918.072633358184248 ], [ 2977013.044026069808751, 2192913.836519449017942 ], [ 2977007.62629690207541, 2192910.523285834118724 ], [ 2976997.393080732319504, 2192906.895087361335754 ], [ 2976989.174960363656282, 2192903.395000754855573 ], [ 2976975.373616599477828, 2192897.01492340490222 ], [ 2976970.201075349468738, 2192895.225290801841766 ], [ 2976958.379818646237254, 2192892.585837436374277 ], [ 2976950.204652681015432, 2192889.136786422226578 ], [ 2976942.961817203089595, 2192885.060426502954215 ], [ 2976937.906477752607316, 2192879.483038688544184 ], [ 2976934.674308635294437, 2192872.517501877620816 ], [ 2976930.929958801250905, 2192866.217033722437918 ], [ 2976928.069097668398172, 2192859.693007582332939 ], [ 2976923.849698077887297, 2192853.646630360744894 ], [ 2976918.959956326056272, 2192848.161180763505399 ], [ 2976913.016188705340028, 2192843.354454499669373 ], [ 2976918.16169114690274, 2192825.434318102896214 ], [ 2976911.467276039998978, 2192823.164998697582632 ], [ 2976903.453076994046569, 2192820.138482449110597 ], [ 2976903.17750573111698, 2192805.670379371847957 ], [ 2976903.522601925302297, 2192771.709611896425486 ], [ 2976903.720572473481297, 2192752.51945717446506 ], [ 2976902.404563448857516, 2192737.738163524307311 ], [ 2976899.001055517233908, 2192723.351595387794077 ], [ 2976893.557723049074411, 2192709.563639069907367 ], [ 2976888.840256105177104, 2192700.873815516475588 ], [ 2976883.689882338047028, 2192692.355345819145441 ], [ 2976859.121971525251865, 2192663.93908263836056 ], [ 2976847.498362420126796, 2192649.193205744959414 ], [ 2976837.200546690262854, 2192633.349690241273493 ], [ 2976828.387409754097462, 2192616.646559342741966 ], [ 2976823.366391560062766, 2192605.047715053427964 ], [ 2976819.117444193921983, 2192593.758028752170503 ], [ 2976817.780248986091465, 2192589.514853327535093 ], [ 2976811.909509466961026, 2192570.934309607371688 ], [ 2976807.575978382490575, 2192553.467762027867138 ], [ 2976795.354053647723049, 2192495.280619504395872 ], [ 2976793.857742350548506, 2192479.031665060669184 ], [ 2976794.137187679763883, 2192462.724272170104086 ], [ 2976795.323381685651839, 2192451.891392897814512 ], [ 2976798.95485166599974, 2192428.712517062667757 ], [ 2976799.700730193406343, 2192422.830111137125641 ], [ 2976800.349977076984942, 2192416.93093647994101 ], [ 2976801.720094169024378, 2192399.050275021232665 ], [ 2976802.134244410321116, 2192387.208224299829453 ], [ 2976801.834878170862794, 2192366.38340120902285 ], [ 2976799.866924332454801, 2192344.148300085216761 ], [ 2976797.134232995100319, 2192326.534105934668332 ], [ 2976780.653117025271058, 2192245.50803201738745 ], [ 2976774.117373358458281, 2192213.381803344935179 ], [ 2976761.611122612841427, 2192155.513967504259199 ], [ 2976760.421718750149012, 2192150.018515347037464 ], [ 2976754.295008128508925, 2192119.106719464063644 ], [ 2976747.528706755954772, 2192087.749267914798111 ], [ 2976744.774489114526659, 2192071.880555333569646 ], [ 2976737.770314468536526, 2192021.05224986653775 ], [ 2976730.376890735235065, 2191955.970187668688595 ], [ 2976726.804193411022425, 2191928.571452934294939 ], [ 2976720.587508235126734, 2191891.021101259626448 ], [ 2976715.164103934075683, 2191854.701079080812633 ], [ 2976712.411750617437065, 2191831.140843996778131 ], [ 2976711.113711562473327, 2191813.328333635814488 ], [ 2976710.487224922515452, 2191795.397230212576687 ], [ 2976711.741669211536646, 2191759.744613845832646 ], [ 2976713.385021107271314, 2191724.127486202865839 ], [ 2976717.44644979480654, 2191658.63767079077661 ], [ 2976719.54864266468212, 2191635.382832897827029 ], [ 2976720.643682742491364, 2191622.761069362983108 ], [ 2976720.216593489516526, 2191606.159198639914393 ], [ 2976717.626006003469229, 2191589.672568962909281 ], [ 2976714.37930298410356, 2191575.514071848243475 ], [ 2976708.606358260847628, 2191550.391745144501328 ], [ 2976690.998287725262344, 2191471.957873440347612 ], [ 2976674.980932043865323, 2191405.187934174202383 ], [ 2976658.286190092563629, 2191344.766912685707211 ], [ 2976640.989407339133322, 2191278.547412132844329 ], [ 2976623.632865258026868, 2191214.391963715665042 ], [ 2976607.221594717353582, 2191152.550503600854427 ], [ 2976589.826447259634733, 2191089.980082469061017 ], [ 2976573.784396895673126, 2191028.570413022302091 ], [ 2976571.148436924442649, 2191016.615154462866485 ], [ 2976566.426965600810945, 2190999.113271196372807 ], [ 2976560.747819209471345, 2190981.956768687348813 ], [ 2976554.09505339153111, 2190965.077560094650835 ], [ 2976540.970706648658961, 2190933.970840525347739 ], [ 2976528.23643075209111, 2190904.042051022872329 ], [ 2976503.139181702397764, 2190844.625797757413238 ], [ 2976478.790252510458231, 2190786.729325442574918 ], [ 2976462.182935216464102, 2190745.662898716516793 ], [ 2976455.929373213090003, 2190728.600287695415318 ], [ 2976449.225197102408856, 2190705.289112657308578 ], [ 2976445.422577248886228, 2190687.451748931314796 ], [ 2976434.912683601956815, 2190623.890455999877304 ], [ 2976429.210881766397506, 2190592.068410178646445 ], [ 2976423.300190666224808, 2190559.094731678720564 ], [ 2976403.32399097410962, 2190442.271308194380254 ], [ 2976391.773780584335327, 2190365.094990816898644 ], [ 2976381.272501604631543, 2190302.18032952491194 ], [ 2976370.838623236864805, 2190236.664375863038003 ], [ 2976365.235444527585059, 2190201.934755047783256 ], [ 2976359.925369293428957, 2190173.133386325556785 ], [ 2976356.684328655712306, 2190155.452483771368861 ], [ 2976347.9140754500404, 2190114.513276723213494 ], [ 2976335.567427409812808, 2190069.166707208380103 ], [ 2976310.852547430433333, 2189983.719574033282697 ], [ 2976293.216290724463761, 2189921.251964866183698 ], [ 2976274.753835973795503, 2189859.250803122296929 ], [ 2976256.59123114310205, 2189796.206096185836941 ], [ 2976244.597332892939448, 2189755.640144573990256 ], [ 2976237.599641855806112, 2189731.384170276112854 ], [ 2976230.700725556351244, 2189707.504786498378962 ], [ 2976220.056885456200689, 2189671.631598471663892 ], [ 2976203.146952102892101, 2189608.795058501884341 ], [ 2976185.487374262884259, 2189546.137845417484641 ], [ 2976176.287260910496116, 2189516.406210880726576 ], [ 2976165.914353327825665, 2189479.846807247959077 ], [ 2976151.486987347248942, 2189429.014584490098059 ], [ 2976144.012725976295769, 2189397.960645393002778 ], [ 2976139.245698288083076, 2189372.779905061237514 ], [ 2976135.593377728946507, 2189347.440467428416014 ], [ 2976126.379468170925975, 2189264.659691421780735 ], [ 2976118.342503800056875, 2189196.818462491035461 ], [ 2976111.389498673379421, 2189137.176088963169605 ], [ 2976116.579499331302941, 2189095.370553266257048 ], [ 2976113.991933858487755, 2189065.283220813143998 ], [ 2976111.660558947827667, 2189047.09439396020025 ], [ 2976106.810485615860671, 2189021.821405598893762 ], [ 2976099.36228109523654, 2188990.658089900854975 ], [ 2976090.379611428361386, 2188959.924288148991764 ], [ 2976079.933940507471561, 2188929.879890205338597 ], [ 2976075.927775340620428, 2188917.211186792701483 ], [ 2976072.748368142638355, 2188904.384700958617032 ], [ 2976070.386757023632526, 2188891.361543068196625 ], [ 2976068.827487201429904, 2188878.207345667295158 ], [ 2976068.094406521879137, 2188864.936686711851507 ], [ 2976067.84302259190008, 2188837.830688019283116 ], [ 2976064.668139067478478, 2188770.499132111668587 ], [ 2976064.559462009463459, 2188751.26390636106953 ], [ 2976065.103348962496966, 2188738.524654352571815 ], [ 2976066.857988021336496, 2188719.384111622814089 ], [ 2976069.723282841034234, 2188700.374332187697291 ], [ 2976073.698176806326956, 2188681.577841757796705 ], [ 2976080.677932817488909, 2188656.924699395429343 ], [ 2976087.622233737725765, 2188639.559450008440763 ], [ 2976089.885954738594592, 2188633.612331907264888 ], [ 2976092.094349898397923, 2188627.648298856336623 ], [ 2976094.251924240961671, 2188621.686943528708071 ], [ 2976096.359215424396098, 2188615.686747753527015 ], [ 2976097.983425864949822, 2188605.093585286755115 ], [ 2976105.957615677267313, 2188577.100146898068488 ], [ 2976114.463282569311559, 2188554.912765995133668 ], [ 2976115.990451452322304, 2188548.719640950206667 ], [ 2976117.45410900330171, 2188542.563261004630476 ], [ 2976118.872837375849485, 2188536.346160409040749 ], [ 2976123.951124100480229, 2188511.566891861148179 ], [ 2976125.107730935327709, 2188505.241074136458337 ], [ 2976135.628835608251393, 2188435.483488926663995 ], [ 2976150.825359716080129, 2188327.634076022543013 ], [ 2976153.98014641739428, 2188302.415104296058416 ], [ 2976154.82602602429688, 2188296.167932074517012 ], [ 2976157.087189605459571, 2188268.066052341368049 ], [ 2976159.140987136401236, 2188257.549484419636428 ], [ 2976162.408372133970261, 2188246.025717728771269 ], [ 2976163.450192065443844, 2188239.780536523088813 ], [ 2976164.535399832762778, 2188233.544883295893669 ], [ 2976165.630238568875939, 2188227.306781157385558 ], [ 2976166.778310927562416, 2188220.900898142252117 ], [ 2976167.922292321920395, 2188214.959201716352254 ], [ 2976173.949088859371841, 2188183.711377644911408 ], [ 2976181.963397110812366, 2188146.565935662481934 ], [ 2976185.16914069885388, 2188134.07981769181788 ], [ 2976186.522187139373273, 2188127.714601953979582 ], [ 2976188.551365641877055, 2188120.725302007980645 ], [ 2976190.859209812246263, 2188115.796640229877084 ], [ 2976197.771531457081437, 2188104.42127674492076 ], [ 2976199.710886291693896, 2188101.994951315689832 ], [ 2976201.755921665113419, 2188099.449244491290301 ], [ 2976207.339782295748591, 2188094.237199093680829 ], [ 2976212.502284886315465, 2188088.194935044273734 ], [ 2976216.412413456477225, 2188082.469516962300986 ], [ 2976220.841083637438715, 2188077.024801037739962 ], [ 2976226.0092289946042, 2188071.269335554912686 ], [ 2976236.219930192921311, 2188061.499234446324408 ], [ 2976240.621187146287411, 2188055.587800537236035 ], [ 2976253.765163168311119, 2188023.156739528756589 ], [ 2976262.821644543670118, 2188003.136346382088959 ], [ 2976268.201338267885149, 2187991.016375395003706 ], [ 2976272.11093166237697, 2187986.73257227614522 ], [ 2976277.219121017493308, 2187982.865992813836783 ], [ 2976281.971569952555001, 2187976.392191180959344 ], [ 2976290.088390075135976, 2187964.320746853016317 ], [ 2976295.648145491722971, 2187948.459286380093545 ], [ 2976296.179526977241039, 2187942.405053028836846 ], [ 2976298.734626201447099, 2187936.034224511589855 ], [ 2976301.462830726988614, 2187929.218141907826066 ], [ 2976303.130045094527304, 2187921.651369519066066 ], [ 2976304.463804920203984, 2187914.41595789976418 ], [ 2976307.517151804175228, 2187890.427477013319731 ], [ 2976305.970590085722506, 2187882.490012405440211 ], [ 2976305.429214789997786, 2187858.216972211841494 ], [ 2976308.380833963863552, 2187848.544050463009626 ], [ 2976309.809073133394122, 2187836.940271660685539 ], [ 2976331.877881041262299, 2187843.534729506354779 ], [ 2976343.530315435957164, 2187848.039769463706762 ], [ 2976358.045338019728661, 2187854.877970427740365 ], [ 2976385.953626432456076, 2187875.159648695029318 ], [ 2976396.932465971447527, 2187876.622987953480333 ], [ 2976407.83515059389174, 2187880.78227760642767 ], [ 2976476.653796723112464, 2187825.202730823308229 ], [ 2976475.587540808599442, 2187817.689420943148434 ], [ 2976468.265318898484111, 2187788.852318994700909 ], [ 2976467.343292820733041, 2187773.550134950317442 ], [ 2976467.277225133031607, 2187759.308040147647262 ], [ 2976468.490655191242695, 2187737.206044232472777 ], [ 2976483.499066366814077, 2187733.233028894290328 ], [ 2976505.190386810339987, 2187687.716240959241986 ], [ 2976564.968508360441774, 2187687.105310697574168 ], [ 2976569.410414787940681, 2187670.950403456576169 ], [ 2976569.796332645229995, 2187631.278074021916837 ], [ 2976554.997044129297137, 2187582.703025136142969 ], [ 2976543.401994669809937, 2187583.125164809636772 ], [ 2976490.679581943899393, 2187545.310005085542798 ], [ 2976472.215050245635211, 2187513.3934431145899 ], [ 2976487.982740630861372, 2187492.869327668566257 ], [ 2976494.70199357625097, 2187487.761331306304783 ], [ 2976519.801343079656363, 2187474.821002532728016 ], [ 2976530.68684032605961, 2187470.635434472933412 ], [ 2976547.643646986223757, 2187459.240913135465235 ], [ 2976501.427173075266182, 2187450.160300754942 ], [ 2976410.781642043963075, 2187434.089915929827839 ], [ 2976369.089336110278964, 2187429.073985892813653 ], [ 2976289.345915517769754, 2187416.50435141287744 ], [ 2976259.25320100504905, 2187413.360997830051929 ], [ 2976201.273844399955124, 2187405.476225422229618 ], [ 2976195.038011160679162, 2187405.201039249077439 ], [ 2976184.149949999526143, 2187404.867831041570753 ], [ 2976173.217919182963669, 2187402.991115104407072 ], [ 2976158.404971013776958, 2187395.147181560285389 ], [ 2976134.160326889716089, 2187373.34136815648526 ], [ 2976129.402685867156833, 2187368.326925410889089 ], [ 2976125.394867775030434, 2187363.133163836784661 ], [ 2976124.286132099106908, 2187359.553071955684572 ], [ 2976123.719292464666069, 2187354.909180661663413 ], [ 2976123.615135102532804, 2187349.345331084914505 ], [ 2976126.45368321146816, 2187342.779297397471964 ], [ 2976137.833538759499788, 2187323.190428147092462 ], [ 2976144.460575621575117, 2187313.400833953171968 ], [ 2976145.663948590867221, 2187311.562405712902546 ], [ 2976183.866624664515257, 2187253.322355282492936 ], [ 2976187.707831658422947, 2187247.696936331689358 ], [ 2976190.434840507805347, 2187243.588876135181636 ], [ 2976201.241325314156711, 2187226.11153757898137 ], [ 2976208.85705944430083, 2187212.869936170056462 ], [ 2976214.732202610000968, 2187200.799794879276305 ], [ 2976219.142701563425362, 2187187.96787955192849 ], [ 2976220.665399232879281, 2187176.021125184837729 ], [ 2976226.245255142450333, 2187148.469749822281301 ], [ 2976239.964271124452353, 2187073.138072814792395 ], [ 2976244.850933579728007, 2187053.709985616616905 ], [ 2976247.184066009242088, 2187040.178599156439304 ], [ 2976249.107694605365396, 2187019.914871030952781 ], [ 2976249.336006188765168, 2187006.267621298786253 ], [ 2976247.085089802742004, 2186988.635417572688311 ], [ 2976242.884101182688028, 2186946.860388969536871 ], [ 2976236.112113513983786, 2186894.668893170543015 ], [ 2976235.517475746572018, 2186881.415083156898618 ], [ 2976234.655951911583543, 2186843.345592164434493 ], [ 2976236.507772725075483, 2186793.975361093878746 ], [ 2976237.862363071646541, 2186757.939502419903874 ], [ 2976237.907851614058018, 2186710.642654912080616 ], [ 2976242.983541264664382, 2186640.237157303839922 ], [ 2976242.503839228767902, 2186627.252975853160024 ], [ 2976240.893400125205517, 2186608.099858202971518 ], [ 2976238.202551247086376, 2186589.075991057790816 ], [ 2976235.783501220867038, 2186576.417739315889776 ], [ 2976229.583547243848443, 2186551.651842819526792 ], [ 2976223.682193577289581, 2186533.409461067989469 ], [ 2976219.157762723974884, 2186521.376648479141295 ], [ 2976208.82095483597368, 2186498.089907773770392 ], [ 2976196.752203776035458, 2186475.70473965164274 ], [ 2976089.991738312412053, 2186299.042004918679595 ], [ 2976079.435675292275846, 2186283.182028852868825 ], [ 2976070.365006313659251, 2186266.771077424753457 ], [ 2976062.632398752495646, 2186249.620218982920051 ], [ 2976058.279809378553182, 2186237.92483780067414 ], [ 2976052.90630966424942, 2186219.826912478543818 ], [ 2976050.167048968374729, 2186207.599794469773769 ], [ 2976048.066183906979859, 2186195.200786074623466 ], [ 2976030.970718630589545, 2186051.792974499985576 ], [ 2976031.653779, 2186045.463740962557495 ], [ 2976031.50267175026238, 2186031.644888002425432 ], [ 2976030.554915864951909, 2186024.503176034428179 ], [ 2976027.082631897181273, 2186011.082041461020708 ], [ 2976021.463155693374574, 2185998.327699545305222 ], [ 2976013.385370694100857, 2185990.169305930379778 ], [ 2975997.310880903154612, 2185973.934940162114799 ], [ 2975981.367404130287468, 2185955.762870278675109 ], [ 2975972.242840987164527, 2185942.886577777564526 ], [ 2975962.631369176320732, 2185927.806775223929435 ], [ 2975957.408490041270852, 2185917.659662494435906 ], [ 2975949.556709011085331, 2185899.694761147722602 ], [ 2975945.20494438521564, 2185887.783029864076525 ], [ 2975941.609186336863786, 2185875.587316052988172 ], [ 2975938.6918880706653, 2185862.777262572664768 ], [ 2975932.53680325159803, 2185844.372683385852724 ], [ 2975930.791779205668718, 2185838.215186985209584 ], [ 2975977.453830303624272, 2185812.684994049370289 ], [ 2976013.952335781417787, 2185792.094461454544216 ], [ 2976040.45718114823103, 2185775.020849644206464 ], [ 2976051.459320307709277, 2185756.928423724137247 ], [ 2976048.862544976174831, 2185743.512311117723584 ], [ 2976078.733119058888406, 2185752.364397864788771 ], [ 2976124.919932404067367, 2185759.569082600530237 ], [ 2976177.052800437435508, 2185758.505542336497456 ], [ 2976193.423476828727871, 2185754.857515403069556 ], [ 2976209.426764530129731, 2185743.38569064065814 ], [ 2976221.532183076720685, 2185729.94539036648348 ], [ 2976225.470935293938965, 2185702.758527244441211 ], [ 2976243.05215827608481, 2185689.466701430734247 ], [ 2976243.478217923548073, 2185674.163549060933292 ], [ 2976242.676001034677029, 2185668.035148007329553 ], [ 2976238.245104058645666, 2185654.691959792748094 ], [ 2976227.068848149385303, 2185631.638408764731139 ], [ 2976206.072554536163807, 2185611.790162638761103 ], [ 2976230.602692013140768, 2185586.311413839459419 ], [ 2976222.887683904729784, 2185572.604947637300938 ], [ 2976211.120011892169714, 2185563.187294762581587 ], [ 2976196.796970471739769, 2185548.146646307781339 ], [ 2976192.032842491287738, 2185542.227964912075549 ], [ 2976203.623354544863105, 2185528.434254420921206 ], [ 2976216.334826208185405, 2185519.761689325328916 ], [ 2976225.125894322060049, 2185512.482578278984874 ], [ 2976228.572003876790404, 2185508.851569624152035 ], [ 2976233.574813978746533, 2185505.104729401413351 ], [ 2976239.673508894629776, 2185501.687970960512757 ], [ 2976257.710839009378105, 2185486.396957357414067 ], [ 2976263.959651452023536, 2185482.437690190039575 ], [ 2976271.213082328438759, 2185478.594937142916024 ], [ 2976277.105485388077796, 2185476.09519245615229 ], [ 2976282.919487204402685, 2185474.356480755377561 ], [ 2976288.934561935719103, 2185472.947756641544402 ], [ 2976295.864478738047183, 2185470.792897429782897 ], [ 2976303.185658017639071, 2185468.333104969933629 ], [ 2976309.888282810803503, 2185466.524038728326559 ], [ 2976316.332789123058319, 2185465.016990040428936 ], [ 2976324.266645382158458, 2185463.194907474797219 ], [ 2976331.178904226981103, 2185460.745890920516104 ], [ 2976336.566366042010486, 2185459.774007371161133 ], [ 2976339.361554808914661, 2185460.33306771190837 ], [ 2976341.366419350728393, 2185451.661893725395203 ], [ 2976341.795839665457606, 2185451.213528021704406 ], [ 2976348.24241601023823, 2185433.079846780281514 ], [ 2976351.020227070897818, 2185426.560345685109496 ], [ 2976352.694906462915242, 2185418.672915635164827 ], [ 2976354.824753128923476, 2185410.927580792456865 ], [ 2976357.32029159925878, 2185401.236703341361135 ], [ 2976366.53236161544919, 2185388.394813441671431 ], [ 2976380.252198722213507, 2185376.265580678824335 ], [ 2976386.184264283627272, 2185371.789420553483069 ], [ 2976391.532019726932049, 2185367.934758082963526 ], [ 2976400.13277599029243, 2185361.990718651562929 ], [ 2976406.505296581424773, 2185361.140212593600154 ], [ 2976419.249097625724971, 2185358.821884231641889 ], [ 2976427.944059581495821, 2185357.74403406586498 ], [ 2976434.967490431852639, 2185357.037653543520719 ], [ 2976442.617422019131482, 2185356.327218021731824 ], [ 2976446.167681590653956, 2185355.809919184073806 ], [ 2976452.124483937397599, 2185344.872667674440891 ], [ 2976440.226694875862449, 2185281.666567125357687 ], [ 2976382.232696145772934, 2185253.142653372138739 ], [ 2976380.814603259321302, 2185245.049372054636478 ], [ 2976377.93864063359797, 2185237.448479663580656 ], [ 2976367.286510733887553, 2185217.587556953541934 ], [ 2976359.814559663645923, 2185206.928699741140008 ], [ 2976356.4900275291875, 2185201.315009891055524 ], [ 2976351.330339310225099, 2185194.281576433219016 ], [ 2976341.210000185295939, 2185182.944170760922134 ], [ 2976345.117275722324848, 2185172.432815381325781 ], [ 2976347.69988807477057, 2185165.870192387141287 ], [ 2976352.321748982183635, 2185158.750439079478383 ], [ 2976355.860040629748255, 2185153.891690727323294 ], [ 2976359.576517621986568, 2185149.090826614294201 ], [ 2976364.630583046935499, 2185142.89119729725644 ], [ 2976369.293865168001503, 2185138.180231656879187 ], [ 2976374.350416786968708, 2185134.399157222826034 ], [ 2976379.258255637716502, 2185128.102681440301239 ], [ 2976383.640267775394022, 2185112.869561702478677 ], [ 2976386.188932793214917, 2185107.869972574524581 ], [ 2976381.263585979118943, 2185107.788105105981231 ], [ 2976367.37330450117588, 2185108.378726417664438 ], [ 2976361.28327528340742, 2185128.162040945142508 ], [ 2976328.627041925676167, 2185124.482386497780681 ], [ 2976309.911432067863643, 2185129.094084487762302 ], [ 2976283.393362967297435, 2185112.578245542012155 ], [ 2976278.317410413175821, 2185111.855070669203997 ], [ 2976261.124785493128002, 2185142.518575543537736 ], [ 2976258.713007536716759, 2185148.2761798389256 ], [ 2976251.195878777187318, 2185160.102386715821922 ], [ 2976245.270256818272173, 2185172.267077204305679 ], [ 2976247.714405786711723, 2185225.223046800121665 ], [ 2976243.525463900528848, 2185267.544702847953886 ], [ 2976234.069286230485886, 2185295.983249630779028 ], [ 2976234.351330602541566, 2185309.748224217444658 ], [ 2976223.460832539014518, 2185328.316588767804205 ], [ 2976223.510428534820676, 2185356.676654648035765 ], [ 2976217.445802417583764, 2185361.464371304959059 ], [ 2976209.826347157824785, 2185370.753024377860129 ], [ 2976201.928202904760838, 2185374.697136568836868 ], [ 2976190.992126379162073, 2185378.668639077339321 ], [ 2976167.577432410791516, 2185387.444704604800791 ], [ 2976153.687026420608163, 2185393.419721461832523 ], [ 2976140.389361857436597, 2185399.903664295561612 ], [ 2976125.528049807064235, 2185406.82438637688756 ], [ 2976057.315562278963625, 2185401.91856044717133 ], [ 2976051.992351671215147, 2185330.974689181894064 ], [ 2975995.480153710581362, 2185321.234809487126768 ], [ 2975984.628773697651923, 2185278.023972860537469 ], [ 2975957.367239431943744, 2185260.883144814986736 ], [ 2975967.474662255495787, 2185234.997536301612854 ], [ 2975917.075287632644176, 2185227.24219121877104 ], [ 2975886.715108433738351, 2185225.411452676169574 ], [ 2975882.367038695141673, 2185217.060826558619738 ], [ 2975878.618237933143973, 2185211.348631564993411 ], [ 2975874.35376866068691, 2185206.024134962819517 ], [ 2975869.577480096369982, 2185201.148365831933916 ], [ 2975864.536217772401869, 2185196.895538257434964 ], [ 2975799.192737023346126, 2185142.517527734395117 ], [ 2975723.67561360495165, 2185078.370180618949234 ], [ 2975718.986718841828406, 2185074.347354026511312 ], [ 2975714.288095587864518, 2185070.326994796283543 ], [ 2975709.5797278014943, 2185066.309004308655858 ], [ 2975704.871376409661025, 2185062.291112895589322 ], [ 2975700.157882792875171, 2185058.295164819806814 ], [ 2975695.442080352455378, 2185054.289380586706102 ], [ 2975690.709113715216517, 2185050.298268629238009 ], [ 2975685.976261883974075, 2185046.307237987406552 ], [ 2975681.247866165358573, 2185042.335504279006273 ], [ 2975676.505270154681057, 2185038.346842845901847 ], [ 2975647.983797972090542, 2185014.6169269294478 ], [ 2975643.201815112493932, 2185010.679438866209239 ], [ 2975638.434049277566373, 2185006.758978051133454 ], [ 2975634.036837851628661, 2185003.146128754597157 ], [ 2975633.642322240397334, 2185002.823859217111021 ], [ 2975628.857392558362335, 2184998.91807116381824 ], [ 2975624.067959348205477, 2184994.992691240273416 ], [ 2975619.263655065558851, 2184991.091721589677036 ], [ 2975614.469079967588186, 2184987.188285476528108 ], [ 2975609.655047551263124, 2184983.289783690590411 ], [ 2975600.036140216514468, 2184975.531634802930057 ], [ 2975595.205026675947011, 2184971.647689879871905 ], [ 2975590.388146191835403, 2184967.780870827846229 ], [ 2975585.559326471760869, 2184963.906664814800024 ], [ 2975580.725266099907458, 2184960.054419929627329 ], [ 2975575.889011369086802, 2184956.192419776692986 ], [ 2975571.03557640267536, 2184952.344993323553354 ], [ 2975541.810020912438631, 2184929.338881695643067 ], [ 2975431.608431968837976, 2184850.556862068828195 ], [ 2975405.907345689833164, 2184832.35205106716603 ], [ 2975380.906482339836657, 2184813.362694329116493 ], [ 2975363.714855110272765, 2184801.827508463524282 ], [ 2975337.994787952397019, 2184780.652358112856746 ], [ 2975318.923905367031693, 2184760.111092805396765 ], [ 2975263.209054548293352, 2184712.829940607771277 ], [ 2975211.555158018134534, 2184664.665477972943336 ], [ 2975191.994274012744427, 2184648.736836707219481 ], [ 2975181.966016765683889, 2184641.030753172002733 ], [ 2975161.581015207804739, 2184626.278280573431402 ], [ 2975146.783602372277528, 2184616.30955233797431 ], [ 2974735.375192894600332, 2184391.721542857121676 ], [ 2974576.461937183048576, 2184300.279974539764225 ], [ 2974425.68599002994597, 2184214.624229041393846 ], [ 2974309.825832979287952, 2184148.702298573218286 ], [ 2974300.198295223526657, 2184142.614149439614266 ], [ 2974293.407408501021564, 2184138.618821010924876 ], [ 2974286.542295637540519, 2184134.570095659699291 ], [ 2974272.816575392149389, 2184126.492239899002016 ], [ 2974231.572768443264067, 2184102.193271370138973 ], [ 2974218.222295220009983, 2184093.742513909004629 ], [ 2974198.202063530217856, 2184081.286250668112189 ], [ 2974178.072727398015559, 2184069.02237931964919 ], [ 2974157.682901648338884, 2184056.875901963096112 ], [ 2974147.470780956558883, 2184049.875402362085879 ], [ 2974154.750446802005172, 2184031.520146011840552 ], [ 2974151.368141709361225, 2184022.359654999803752 ], [ 2967817.917754999827594, 2184022.359654999803752 ], [ 2967817.917754999827594, 2188853.085510183591396 ], [ 2967921.696069976780564, 2188889.344642487820238 ], [ 2967936.123424121644348, 2188891.617162849754095 ], [ 2967997.491966901812702, 2188901.283615466672927 ], [ 2968115.826083684340119, 2188919.923171879258007 ], [ 2968187.960332561284304, 2188935.927888525649905 ], [ 2968202.295791415031999, 2188939.108588355593383 ], [ 2968213.935273221693933, 2188944.42474159412086 ], [ 2968295.639475003816187, 2188981.741702494677156 ], [ 2968432.741881965659559, 2189059.428360022604465 ], [ 2968581.385558829642832, 2189164.289057365152985 ], [ 2968588.211659862659872, 2189168.505516783334315 ], [ 2968650.657584128901362, 2189207.077925386838615 ], [ 2968686.016714045777917, 2189228.919103079475462 ], [ 2968813.744034115690738, 2189268.164016166236252 ], [ 2968918.99243009230122, 2189280.073123579844832 ], [ 2969005.925916541367769, 2189254.200375230051577 ], [ 2969140.539083705283701, 2189190.55263662757352 ], [ 2969251.112544842064381, 2189134.428010819479823 ], [ 2969307.035111181437969, 2189117.804800930898637 ], [ 2969307.129770640749484, 2189117.825667442753911 ], [ 2969316.483383747749031, 2189119.883681957609951 ], [ 2969345.987575827632099, 2189126.375430773943663 ], [ 2969359.448307826649398, 2189160.355912500061095 ], [ 2969362.389647267293185, 2189186.377332143485546 ], [ 2969363.051425238139927, 2189192.232387493364513 ], [ 2969358.207039281725883, 2189207.109282676596195 ], [ 2969336.763799612410367, 2189272.960606088861823 ], [ 2969317.140694070141762, 2189333.222596351057291 ], [ 2969295.513211633078754, 2189378.269119796343148 ], [ 2969248.952903251163661, 2189475.247355641331524 ], [ 2969226.982113151345402, 2189544.964065170846879 ], [ 2969189.493986652232707, 2189638.742427838034928 ], [ 2969129.065694639459252, 2189769.991517108865082 ], [ 2969088.451463260687888, 2189846.870255540125072 ], [ 2969051.00653241854161, 2189942.847276213113219 ], [ 2969028.33806915814057, 2190033.585251700598747 ], [ 2969032.26952070556581, 2190053.476108629256487 ], [ 2969041.642305505461991, 2190100.896788106765598 ], [ 2969071.562715746462345, 2190164.339144566562027 ], [ 2969087.877209215424955, 2190198.931801271159202 ], [ 2969147.166815962642431, 2190273.106465180404484 ], [ 2969172.789558235555887, 2190302.275380638893694 ], [ 2969203.824858963023871, 2190337.605786985252053 ], [ 2969231.999380078166723, 2190369.679634967353195 ], [ 2969291.571279752068222, 2190421.54419932467863 ], [ 2969352.550681862048805, 2190458.469729612581432 ], [ 2969429.597010916098952, 2190461.922992457635701 ], [ 2969506.411452806089073, 2190414.587799253873527 ], [ 2969569.761276763863862, 2190366.118033909704536 ], [ 2969644.8676693784073, 2190313.139126278460026 ], [ 2969907.356094607152045, 2190172.315596273634583 ], [ 2969994.126786331646144, 2190138.394049499183893 ], [ 2970080.972688078414649, 2190121.958517263643444 ], [ 2970187.588776923716068, 2190130.356508696451783 ], [ 2970189.585924960672855, 2190130.513866827823222 ], [ 2970194.693915013689548, 2190133.289668770506978 ], [ 2970273.357649589888752, 2190176.036823714151978 ], [ 2970386.686441919766366, 2190244.976373147685081 ], [ 2970451.373418336734176, 2190295.707384855020791 ], [ 2970467.205512226559222, 2190308.123792004771531 ], [ 2970533.645353995263577, 2190369.808372845873237 ], [ 2970534.877540883142501, 2190371.921453819144517 ], [ 2970573.726889469660819, 2190438.543422669637948 ], [ 2970555.453094930388033, 2190538.341559056192636 ], [ 2970527.324301091022789, 2190614.985259762965143 ], [ 2970450.987404596991837, 2190888.064970906823874 ], [ 2970429.771706053987145, 2191099.280044815503061 ], [ 2970400.622057019732893, 2191239.459670113865286 ], [ 2970350.599670984782279, 2191377.789626670069993 ], [ 2970303.91146797966212, 2191508.561554630286992 ], [ 2970283.003341399133205, 2191574.589551188983023 ], [ 2970258.82609975989908, 2191693.542649280279875 ], [ 2970228.248976446688175, 2191769.826497184112668 ], [ 2970225.08602907974273, 2191837.712691818363965 ], [ 2970238.271662540733814, 2191901.15022053103894 ], [ 2970263.727701752446592, 2191961.250854254234582 ], [ 2970296.14459711778909, 2192002.826480072923005 ], [ 2970318.666147201322019, 2192023.905661111697555 ], [ 2970382.516829977277666, 2192051.270420703105628 ], [ 2970443.349500762298703, 2192063.322051375173032 ], [ 2970517.195739440619946, 2192069.41187313105911 ], [ 2970588.539162094239146, 2192067.737232401967049 ], [ 2970676.05955401994288, 2192063.997633564751595 ], [ 2970755.140165499411523, 2192053.419625931419432 ], [ 2970831.904588261153549, 2192053.63523032143712 ], [ 2970891.420522063039243, 2192059.22731975838542 ], [ 2970963.951898366212845, 2192048.293547369074076 ], [ 2971126.139902180060744, 2191997.372511825524271 ], [ 2971240.592052107676864, 2191969.156534960959107 ], [ 2971243.641983357258141, 2191968.404628639109433 ], [ 2971266.70213043037802, 2191971.935328019782901 ], [ 2971307.163876974023879, 2191978.130503094755113 ], [ 2971374.600075324531645, 2192017.630742352921516 ], [ 2971489.744916845113039, 2192145.38172762747854 ], [ 2971529.396249581128359, 2192179.059424715582281 ], [ 2971577.8249635649845, 2192238.260875231120735 ], [ 2971638.417338510975242, 2192288.556071017868817 ], [ 2971695.276006483472884, 2192316.002403289545327 ], [ 2971790.266389171592891, 2192344.919818033929914 ], [ 2971823.279168976470828, 2192354.969761955551803 ], [ 2971877.712249220348895, 2192360.424498835578561 ], [ 2971897.562931008636951, 2192362.413765441160649 ], [ 2971972.516851877328008, 2192354.645303120836616 ], [ 2971984.758361043408513, 2192353.376571375876665 ], [ 2972153.325771459378302, 2192417.907289408612996 ], [ 2972213.847909233998507, 2192485.597680198960006 ], [ 2972277.027611563913524, 2192565.216308936942369 ], [ 2972317.48630940169096, 2192633.602583749219775 ], [ 2972338.036232243292034, 2192669.963101145345718 ], [ 2972341.978732577525079, 2192676.938868341036141 ], [ 2972345.964927280321717, 2192680.329954504035413 ], [ 2972368.952097281813622, 2192699.884835810400546 ], [ 2972406.077654371969402, 2192745.627924913540483 ], [ 2972444.569412651937455, 2192807.010486593935639 ], [ 2972462.466813135892153, 2192835.551308513619006 ], [ 2972489.158612824976444, 2192870.637229012325406 ], [ 2972521.258493214845657, 2192889.708140626084059 ], [ 2972548.225463373120874, 2192905.729621947277337 ], [ 2972614.16067763324827, 2192969.828683529514819 ], [ 2972701.224619127810001, 2193054.468070700298995 ], [ 2972755.196235706098378, 2193101.869255890604109 ], [ 2972851.570972807705402, 2193186.511321282479912 ], [ 2972910.130702057853341, 2193250.996305361390114 ], [ 2972967.837962418794632, 2193322.124764584936202 ], [ 2973085.218164782039821, 2193461.139078262262046 ], [ 2973162.525296474341303, 2193548.679757517296821 ], [ 2973162.528513222467154, 2193548.683339134324342 ], [ 2973190.624450244009495, 2193580.49854961456731 ], [ 2973202.971370344050229, 2193593.617174045648426 ], [ 2973277.829289596527815, 2193673.154093958903104 ], [ 2973342.97345189191401, 2193721.886787170544267 ], [ 2973349.826906229369342, 2193726.929244999308139 ], [ 2979401.014345, 2193726.929244999308139 ], [ 2979401.014345, 2192847.923886258155107 ], [ 2979387.940956665668637, 2192855.143191956914961 ] ] ] ] } }
]
}
