{
"type": "FeatureCollection",
"name": "Donamaria",
"crs": { "type": "name", "properties": { "name": "urn:ogc:def:crs:EPSG::3035" } },
"features": [
{ "type": "Feature", "properties": { "ENP_GRAL": 6.0, "ENP_GRAL_NAME": "Otros Espacios Naturales Protegidos", "color": "#7F8F0D" }, "geometry": { "type": "Polygon", "coordinates": [ [ [ 3369271.223937719129026, 2293233.757809655740857 ], [ 3369279.033886326942593, 2293232.921465220861137 ], [ 3369291.419265833683312, 2293230.643472420517355 ], [ 3369303.792877531610429, 2293227.546290670055896 ], [ 3369315.955690978094935, 2293224.151207413058728 ], [ 3369328.457404703833163, 2293220.656750285997987 ], [ 3369337.076391223818064, 2293218.869228903204203 ], [ 3369346.030416104476899, 2293217.642033656127751 ], [ 3369363.934867588803172, 2293216.850703407078981 ], [ 3369379.556785047054291, 2293218.056714631151408 ], [ 3369393.896453185938299, 2293220.985155401751399 ], [ 3369411.284107813145965, 2293222.128498564939946 ], [ 3369409.789247433654964, 2293192.766168429516256 ], [ 3369405.582161387894303, 2293177.032059027347714 ], [ 3369376.596635681577027, 2293150.791138308122754 ], [ 3369345.705980316735804, 2293133.101877774577588 ], [ 3369319.633202309720218, 2293114.587701206095517 ], [ 3369282.111502285115421, 2293086.531530924141407 ], [ 3369265.911730000283569, 2293076.594015615060925 ], [ 3369265.911730000283569, 2293234.334137659985572 ], [ 3369271.223937719129026, 2293233.757809655740857 ] ] ] } }
]
}
