{
"type": "FeatureCollection",
"name": "Lesaka",
"crs": { "type": "name", "properties": { "name": "urn:ogc:def:crs:EPSG::3035" } },
"features": [
{ "type": "Feature", "properties": { "ENP_GRAL": 1.0, "ENP_GRAL_NAME": "Otros Parques", "color": "#38A800" }, "geometry": { "type": "Polygon", "coordinates": [ [ [ 3370748.585651443805546, 2318954.709472697228193 ], [ 3370764.234923432115465, 2318845.530634033493698 ], [ 3370771.7694883774966, 2318705.313656794838607 ], [ 3370757.554989625699818, 2318581.037839169614017 ], [ 3370749.806917313486338, 2318390.748210807796568 ], [ 3370759.19593450659886, 2318237.028955872170627 ], [ 3370778.732823599129915, 2318145.427191610913724 ], [ 3370776.799997050315142, 2318133.595286246389151 ], [ 3370781.876310200896114, 2318090.12938726041466 ], [ 3370828.63961855461821, 2318016.11033049505204 ], [ 3370847.371731162536889, 2317919.578735571354628 ], [ 3370854.018193933181465, 2317898.14702485781163 ], [ 3370862.41795655246824, 2317843.96523028658703 ], [ 3370856.619537960737944, 2317808.46980962716043 ], [ 3370857.690063976682723, 2317734.267304671928287 ], [ 3370873.843493849504739, 2317671.643031147774309 ], [ 3370876.463597834575921, 2317625.561618904583156 ], [ 3370941.56712787039578, 2317459.257989963516593 ], [ 3370941.618455888237804, 2317459.126801304053515 ], [ 3370965.958736487198621, 2317401.574682406149805 ], [ 3370966.272699601948261, 2317342.454793370328844 ], [ 3370958.108084091451019, 2317297.026600178796798 ], [ 3370954.551615010946989, 2317277.238780750427395 ], [ 3370948.207691881339997, 2317282.890442506410182 ], [ 3370935.927711553871632, 2317293.830577528104186 ], [ 3370895.610164439771324, 2317307.923073521349579 ], [ 3370868.309116828721017, 2317310.059222732670605 ], [ 3370810.44534099008888, 2317314.586839857045561 ], [ 3370768.54302433039993, 2317331.597494653891772 ], [ 3370701.318873113486916, 2317358.887678335420787 ], [ 3370694.642470281105489, 2317361.59801159799099 ], [ 3370653.425066092051566, 2317378.330548640340567 ], [ 3370652.816811669617891, 2317461.578115645796061 ], [ 3370611.993021995294839, 2317450.773313461337239 ], [ 3370525.545027502812445, 2317427.893400973640382 ], [ 3370501.159159538336098, 2317396.636798068415374 ], [ 3370417.341957667376846, 2317442.610905137844384 ], [ 3370340.051158824469894, 2317453.993164296727628 ], [ 3370330.786870366893709, 2317471.823352022096515 ], [ 3370343.823888933286071, 2317524.110333417542279 ], [ 3370351.384544162079692, 2317554.433917636983097 ], [ 3370313.726307404693216, 2317559.95387338520959 ], [ 3370290.285957066342235, 2317540.700194732286036 ], [ 3370289.383440840058029, 2317540.636169112753123 ], [ 3370190.703197053167969, 2317533.644130582455546 ], [ 3370121.324812740087509, 2317568.018147581722587 ], [ 3370093.072148079052567, 2317582.01598382787779 ], [ 3370044.847921739332378, 2317454.517293031793088 ], [ 3370024.167092748917639, 2317445.938756989315152 ], [ 3369873.674929765053093, 2317574.461532875429839 ], [ 3369835.010247872211039, 2317586.241048933006823 ], [ 3369775.102416340261698, 2317561.149584547616541 ], [ 3369737.871036626398563, 2317488.523574396036565 ], [ 3369694.918783679138869, 2317455.419505349826068 ], [ 3369641.03087037242949, 2317448.547895915806293 ], [ 3369558.868602904491127, 2317492.210792682599276 ], [ 3369469.399111583363265, 2317460.082399935461581 ], [ 3369361.662978923879564, 2317483.849013822153211 ], [ 3369256.727506891358644, 2317456.432311662472785 ], [ 3369189.110469892155379, 2317328.243054540362209 ], [ 3369128.960188969038427, 2317326.515080583281815 ], [ 3369117.304417168721557, 2317224.101843891665339 ], [ 3369064.746110340580344, 2317212.944397290237248 ], [ 3369011.484216562472284, 2317166.420890032313764 ], [ 3368909.248030290473253, 2317118.257905306760222 ], [ 3368871.611337874550372, 2317117.692114019300789 ], [ 3368831.998934736009687, 2317167.152203113771975 ], [ 3368816.613010527566075, 2317197.199250609613955 ], [ 3368814.898478007875383, 2317267.458790636621416 ], [ 3368749.794142344966531, 2317272.674134853295982 ], [ 3368694.960524356923997, 2317253.800213092006743 ], [ 3368658.974921700078994, 2317250.920307083521038 ], [ 3368577.860622229520231, 2317276.151616962626576 ], [ 3368542.217442370951176, 2317269.156468852423131 ], [ 3368494.231982821132988, 2317217.66195844579488 ], [ 3368460.88441682420671, 2317212.296057558152825 ], [ 3368321.774469571188092, 2317230.35646489681676 ], [ 3368303.774026373401284, 2317157.434797565918416 ], [ 3368316.706600645557046, 2317152.57763696834445 ], [ 3368343.92853675223887, 2317142.353770127985626 ], [ 3368323.325176842045039, 2317106.427541424985975 ], [ 3368285.755200803745538, 2317040.916285037994385 ], [ 3368211.044618664309382, 2317068.078356341458857 ], [ 3368099.74656917527318, 2317026.559250657912344 ], [ 3368084.845269054174423, 2317009.880355469416827 ], [ 3368086.280206743162125, 2316997.593116874806583 ], [ 3368091.613567277323455, 2316951.924803046043962 ], [ 3368071.685030086897314, 2316943.596282861195505 ], [ 3367999.043330773245543, 2316913.238692636601627 ], [ 3367950.148834641091526, 2316936.933914593420923 ], [ 3367776.773253499530256, 2317079.012984517030418 ], [ 3367656.878896886948496, 2317177.265735412016511 ], [ 3367567.125374124385417, 2317250.818858223967254 ], [ 3367359.326228105463088, 2317314.264273710083216 ], [ 3367229.067407459020615, 2317295.452665155287832 ], [ 3367000.510109907947481, 2317262.445744326803833 ], [ 3366847.567297062836587, 2317240.35898933140561 ], [ 3366517.548202022910118, 2317192.701414688955992 ], [ 3366515.023312738165259, 2317172.913271838799119 ], [ 3366499.448549910448492, 2317050.847977321594954 ], [ 3366429.473566825035959, 2316914.166694120503962 ], [ 3366298.267929568886757, 2316657.882533826865256 ], [ 3366137.538392151705921, 2316456.63070668745786 ], [ 3365914.09871778357774, 2316331.158498150296509 ], [ 3365746.336614780593663, 2316266.998077237512916 ], [ 3365561.390083692967892, 2316211.934461307246238 ], [ 3365492.488329688087106, 2316191.420542153529823 ], [ 3365465.899702436756343, 2315762.181643250398338 ], [ 3365465.209252817090601, 2315751.033894289284945 ], [ 3365474.939538156613708, 2315692.563852481078357 ], [ 3365502.311488832812756, 2315617.850111240521073 ], [ 3365537.454081801231951, 2315578.289417185820639 ], [ 3365589.036190361715853, 2315440.56452237861231 ], [ 3365576.469624639954418, 2315407.191803215071559 ], [ 3365560.366097419522703, 2315364.426189714111388 ], [ 3365482.202145432122052, 2315251.433755855076015 ], [ 3365472.697187780868262, 2315237.693615204654634 ], [ 3365188.807796816341579, 2314860.107348199933767 ], [ 3365165.884066308382899, 2314729.494633014313877 ], [ 3365159.622576626949012, 2314693.818451232742518 ], [ 3365161.032568129710853, 2314689.532989636063576 ], [ 3365232.86276917019859, 2314471.219717799220234 ], [ 3365232.938926295377314, 2314303.907553998753428 ], [ 3365221.376930130179971, 2314127.462519794236869 ], [ 3365246.321048221550882, 2313994.363464208785444 ], [ 3364976.862814743071795, 2313709.798633582424372 ], [ 3364961.845184863079339, 2313693.938977702986449 ], [ 3364976.471799788065255, 2313550.655043949373066 ], [ 3364979.020399753004313, 2313525.687378498259932 ], [ 3364977.764248280320317, 2313412.345495007466525 ], [ 3364974.488171930424869, 2313396.942023929208517 ], [ 3364955.926339135505259, 2313309.673819042742252 ], [ 3364952.85070079471916, 2313294.810992371290922 ], [ 3364936.685005034785718, 2313216.690964843146503 ], [ 3364927.880756909959018, 2313013.060124518349767 ], [ 3364925.720130039379001, 2312963.085420404095203 ], [ 3364894.013344882521778, 2312899.590560026932508 ], [ 3364826.899268817156553, 2312864.432738216593862 ], [ 3364761.86810111021623, 2312842.623233462218195 ], [ 3364708.240090223960578, 2312814.211582609917969 ], [ 3364642.945242339745164, 2312797.323278489056975 ], [ 3364576.504245496354997, 2312787.262674755416811 ], [ 3364518.467846234329045, 2312782.799862048588693 ], [ 3364454.62938516587019, 2312784.040921621955931 ], [ 3364411.44820160465315, 2312797.822663285303861 ], [ 3364379.843397474847734, 2312839.157535232137889 ], [ 3364375.317631734069437, 2312845.076649593189359 ], [ 3364338.776056560222059, 2312836.92994298832491 ], [ 3364154.432350510731339, 2312795.831884451210499 ], [ 3364089.515370938461274, 2312646.068520605564117 ], [ 3364033.014619422145188, 2312515.720813358202577 ], [ 3363981.216684740036726, 2312396.221932004205883 ], [ 3363976.339028842747211, 2312392.710790199227631 ], [ 3363918.590468881651759, 2312351.140871094539762 ], [ 3363887.767478910274804, 2312328.953258296009153 ], [ 3363841.54514536447823, 2312314.767177419736981 ], [ 3363796.19337302306667, 2312300.8483662661165 ], [ 3363694.66141953645274, 2312294.779822318349034 ], [ 3363694.163959710393101, 2312294.877228280063719 ], [ 3363492.147814460098743, 2312334.44750344986096 ], [ 3363430.295526582747698, 2312336.158708459232002 ], [ 3363425.146182483993471, 2312340.115918114315718 ], [ 3363423.399065000470728, 2312341.458540902938694 ], [ 3363423.399065000470728, 2316825.961765580344945 ], [ 3363424.60294342180714, 2316825.752721877302974 ], [ 3363434.939437550492585, 2316824.97178712580353 ], [ 3363450.860084262676537, 2316819.165261967107654 ], [ 3363466.006659840233624, 2316817.549003330990672 ], [ 3363469.687814707867801, 2316816.40289876004681 ], [ 3363481.050143291708082, 2316809.866977259516716 ], [ 3363488.749888818711042, 2316804.980943605769426 ], [ 3363498.541401982773095, 2316801.25271582044661 ], [ 3363505.107235031202435, 2316797.577692845836282 ], [ 3363511.496842944528908, 2316797.482112150173634 ], [ 3363513.507972491905093, 2316798.146912235766649 ], [ 3363516.235208122059703, 2316799.701278937980533 ], [ 3363521.153599380515516, 2316803.410103720147163 ], [ 3363524.758018088061363, 2316806.8400804027915 ], [ 3363525.554662683513016, 2316808.222668612375855 ], [ 3363526.35132341645658, 2316809.605355430860072 ], [ 3363526.454431392252445, 2316815.671223304700106 ], [ 3363525.423626131378114, 2316822.948098327033222 ], [ 3363522.998310660477728, 2316829.453104110900313 ], [ 3363520.572996207512915, 2316835.958110478240997 ], [ 3363515.263091021683067, 2316844.991923698224127 ], [ 3363513.535018731374294, 2316851.882767716888338 ], [ 3363510.991549212485552, 2316856.887374980375171 ], [ 3363504.129800277296454, 2316869.232594558503479 ], [ 3363497.168648687191308, 2316880.581064674537629 ], [ 3363486.944200816564262, 2316890.975363783538342 ], [ 3363478.416187463328242, 2316910.200815286487341 ], [ 3363467.873239120002836, 2316923.692370909266174 ], [ 3363455.403423469047993, 2316942.081279255449772 ], [ 3363445.814464742317796, 2316952.872158388141543 ], [ 3363431.07307783421129, 2316968.613683955743909 ], [ 3363423.399065000470728, 2316975.954557351302356 ], [ 3363423.399065000470728, 2317204.844939041882753 ], [ 3363426.298170209396631, 2317200.629648320842534 ], [ 3363428.386082825250924, 2317196.718234286643565 ], [ 3363430.991281642112881, 2317191.702877754345536 ], [ 3363433.795306956395507, 2317188.681030284613371 ], [ 3363435.009866166394204, 2317187.963119103573263 ], [ 3363439.208291404880583, 2317185.713056444190443 ], [ 3363441.138879884500057, 2317185.884827124886215 ], [ 3363444.643905565142632, 2317188.318043449893594 ], [ 3363446.079821962863207, 2317195.166618347167969 ], [ 3363449.170817986130714, 2317204.769644522108138 ], [ 3363453.514017614535987, 2317214.662240192294121 ], [ 3363456.263893259689212, 2317221.789560098666698 ], [ 3363460.308870885055512, 2317228.691991636529565 ], [ 3363461.626491148024797, 2317234.039982484653592 ], [ 3363466.406453786883503, 2317242.3357118004933 ], [ 3363471.707301720511168, 2317254.596959254704416 ], [ 3363473.480668220669031, 2317258.851896638516337 ], [ 3363478.502164066769183, 2317268.626711486838758 ], [ 3363479.658718213904649, 2317272.988755854777992 ], [ 3363489.338147383648902, 2317284.489683704450727 ], [ 3363492.965329152997583, 2317293.492598671466112 ], [ 3363499.323427733965218, 2317309.119119978975505 ], [ 3363512.687752928584814, 2317324.543059446848929 ], [ 3363518.71744288969785, 2317321.467996308580041 ], [ 3363533.009427686687559, 2317323.54913569893688 ], [ 3363533.896755842957646, 2317322.381038221530616 ], [ 3363535.196715075522661, 2317320.634280815720558 ], [ 3363544.731468304526061, 2317319.992635689210147 ], [ 3363554.802278549410403, 2317318.750798760913312 ], [ 3363561.0307841533795, 2317317.669150583911687 ], [ 3363566.903191274963319, 2317318.677472893614322 ], [ 3363568.631181410048157, 2317311.786510169040412 ], [ 3363570.201771779917181, 2317308.97884537326172 ], [ 3363573.922023508232087, 2317302.248947320505977 ], [ 3363576.028885066509247, 2317298.841154488734901 ], [ 3363577.040765450336039, 2317291.060627158265561 ], [ 3363582.507887171581388, 2317277.943502637557685 ], [ 3363584.592017052695155, 2317268.962771874386817 ], [ 3363587.534574038814753, 2317261.353904805146158 ], [ 3363593.177899825386703, 2317244.657337563112378 ], [ 3363595.503663544543087, 2317237.155677126720548 ], [ 3363611.464674491435289, 2317194.331965251360089 ], [ 3363615.241556433495134, 2317189.113272478338331 ], [ 3363619.497986083850265, 2317181.783179079182446 ], [ 3363628.286395963281393, 2317164.540517440997064 ], [ 3363636.732469569891691, 2317176.25561342574656 ], [ 3363643.680865108966827, 2317181.13286746898666 ], [ 3363647.883147996850312, 2317183.952025492209941 ], [ 3363653.954250481911004, 2317186.953686301596463 ], [ 3363659.987727492116392, 2317188.947967341169715 ], [ 3363664.825497768353671, 2317192.163786446675658 ], [ 3363672.988455206621438, 2317196.323136555030942 ], [ 3363681.070689845830202, 2317199.989598106592894 ], [ 3363685.291843717452139, 2317203.3124881060794 ], [ 3363693.638510975055397, 2317214.030833325814456 ], [ 3363698.498908619396389, 2317222.819603318348527 ], [ 3363704.914906642399728, 2317233.366287089884281 ], [ 3363708.1015390381217, 2317238.896741587668657 ], [ 3363708.802455759607255, 2317244.351912779733539 ], [ 3363716.156108498107642, 2317263.354503872338682 ], [ 3363720.408788178581744, 2317250.955297099426389 ], [ 3363725.36240389989689, 2317244.0113615533337 ], [ 3363730.514912608545274, 2317239.060718085616827 ], [ 3363734.272907063364983, 2317233.338205468375236 ], [ 3363738.728176053613424, 2317228.001727310009301 ], [ 3363742.566714195534587, 2317222.772238133009523 ], [ 3363750.067723959218711, 2317215.892884511500597 ], [ 3363754.266155386343598, 2317213.642846942413598 ], [ 3363761.965975010301918, 2317208.75690215267241 ], [ 3363767.738875615410507, 2317208.768510714173317 ], [ 3363777.80970314797014, 2317207.526720924302936 ], [ 3363784.555540679488331, 2317205.341362975072116 ], [ 3363794.526957530993968, 2317203.102824276313186 ], [ 3363798.824802479241043, 2317201.849543012678623 ], [ 3363805.712952962610871, 2317200.146483958698809 ], [ 3363810.029668216127902, 2317199.396933925803751 ], [ 3363815.185936684254557, 2317199.51551734469831 ], [ 3363820.342221347149462, 2317199.634199774824083 ], [ 3363824.582146272063255, 2317203.460842527449131 ], [ 3363826.274863535072654, 2317207.222772508393973 ], [ 3363826.336535126436502, 2317207.212063937447965 ], [ 3363827.673114153090864, 2317213.063759081996977 ], [ 3363827.875689981039613, 2317220.126476432196796 ], [ 3363828.415617063175887, 2317224.595582715235651 ], [ 3363828.856050006113946, 2317228.068052900955081 ], [ 3363828.560260939411819, 2317236.738124530762434 ], [ 3363828.123499160632491, 2317238.33498409204185 ], [ 3363825.499422057997435, 2317242.846580312587321 ], [ 3363823.867151058744639, 2317245.664939763024449 ], [ 3363818.435272484086454, 2317248.129046538844705 ], [ 3363812.12621439434588, 2317248.717641760129482 ], [ 3363801.101308210752904, 2317252.660029600374401 ], [ 3363791.129895661026239, 2317254.898571783676744 ], [ 3363777.818265629932284, 2317260.758952214382589 ], [ 3363769.957482530735433, 2317264.658936806023121 ], [ 3363759.629822461865842, 2317268.987171548884362 ], [ 3363750.635007476899773, 2317274.097987538669258 ], [ 3363744.271802261006087, 2317284.835737553890795 ], [ 3363745.229542340151966, 2317287.204370668157935 ], [ 3363747.021679726429284, 2317291.963054337538779 ], [ 3363748.856617966666818, 2317296.207298601046205 ], [ 3363750.989781569689512, 2317303.441702612675726 ], [ 3363755.134177044499665, 2317311.340889499057084 ], [ 3363758.420230058487505, 2317317.868097434751689 ], [ 3363760.77247118903324, 2317321.008501958567649 ], [ 3363760.952428043819964, 2317322.498276810161769 ], [ 3363762.108981766737998, 2317326.860317084006965 ], [ 3363760.219900436233729, 2317332.765220418572426 ], [ 3363758.469268157146871, 2317334.083217688370496 ], [ 3363746.333180539309978, 2317344.809372155927122 ], [ 3363735.748816076666117, 2317352.224142529070377 ], [ 3363729.719121138565242, 2317355.299181865528226 ], [ 3363721.502121713012457, 2317361.288968812674284 ], [ 3363713.802423354238272, 2317366.174916630610824 ], [ 3363704.888168449047953, 2317371.778773130383343 ], [ 3363696.67107439879328, 2317377.768583244178444 ], [ 3363688.392392874229699, 2317383.768988489173353 ], [ 3363680.076000727713108, 2317388.762130543123931 ], [ 3363672.29566582525149, 2317393.155082136858255 ], [ 3363663.461945123039186, 2317399.251872963272035 ], [ 3363655.065012670122087, 2317403.751998222433031 ], [ 3363650.16933791898191, 2317405.616119168233126 ], [ 3363645.970822982490063, 2317407.866191550157964 ], [ 3363636.638779532164335, 2317415.570546170696616 ], [ 3363630.275617429520935, 2317426.308333232998848 ], [ 3363638.641082626301795, 2317437.530324389226735 ], [ 3363646.029945224989206, 2317445.880048481747508 ], [ 3363649.913857188541442, 2317451.796437409706414 ], [ 3363658.436650062445551, 2317458.935345551464707 ], [ 3363665.986603916157037, 2317468.271115525159985 ], [ 3363670.74772212933749, 2317476.063116590958089 ], [ 3363676.723215137142688, 2317483.137341318186373 ], [ 3363682.89772551227361, 2317492.204941569827497 ], [ 3363683.874348124489188, 2317495.077307589352131 ], [ 3363692.699151878245175, 2317510.275509565137327 ], [ 3363689.143786472268403, 2317523.060582973062992 ], [ 3363688.392545673064888, 2317532.82389596151188 ], [ 3363686.745112001430243, 2317540.207784476689994 ], [ 3363686.112052525859326, 2317551.471503288950771 ], [ 3363680.806075570639223, 2317565.57458708807826 ], [ 3363716.634174940641969, 2317565.943936169613153 ], [ 3363732.240117538720369, 2317568.303837293293327 ], [ 3363746.689404326491058, 2317566.301813207566738 ], [ 3363760.602491158992052, 2317564.899706671945751 ], [ 3363774.633986048866063, 2317564.998170172795653 ], [ 3363787.589339124038815, 2317561.22753433836624 ], [ 3363801.165195370092988, 2317562.419038434978575 ], [ 3363810.898748814128339, 2317563.770724703092128 ], [ 3363818.602212937083095, 2317563.953998404555023 ], [ 3363835.939927673898637, 2317564.492290692403913 ], [ 3363846.745737885124981, 2317564.643877669703215 ], [ 3363859.168696894310415, 2317566.542491899803281 ], [ 3363877.479251613840461, 2317564.883938172832131 ], [ 3363883.688895859289914, 2317563.298677909187973 ], [ 3363893.34192283032462, 2317564.157452150247991 ], [ 3363896.77010351093486, 2317571.166894339025021 ], [ 3363898.462860619649291, 2317574.928925307933241 ], [ 3363902.346781597472727, 2317580.845317595172673 ], [ 3363904.461121691856533, 2317587.576091959141195 ], [ 3363907.571028344333172, 2317597.682748045306653 ], [ 3363911.198066781740636, 2317606.685795516241342 ], [ 3363916.300252988003194, 2317616.953619848936796 ], [ 3363919.586321641691029, 2317623.480731890071183 ], [ 3363921.421298718079925, 2317627.725076677743345 ], [ 3363925.485074619762599, 2317635.131163332145661 ], [ 3363930.583472484257072, 2317640.329766604118049 ], [ 3363939.385734298732132, 2317649.955004545859993 ], [ 3363940.86070007737726, 2317651.219914297107607 ], [ 3363947.115676896646619, 2317660.780560001265258 ], [ 3363945.92389104841277, 2317667.071400329936296 ], [ 3363943.206759158056229, 2317687.31572313606739 ], [ 3363945.244363578036427, 2317698.622698834631592 ], [ 3363957.605766375083476, 2317700.532108716201037 ], [ 3363968.572650138754398, 2317701.669650162570179 ], [ 3363981.451346945483238, 2317702.475223803892732 ], [ 3363987.304768086411059, 2317702.979752616025507 ], [ 3363995.463870218489319, 2317702.070006100926548 ], [ 3363994.024123027920723, 2317690.152314285747707 ], [ 3363993.105270380619913, 2317682.20003757905215 ], [ 3363994.216510220430791, 2317675.416177704930305 ], [ 3363995.963454014621675, 2317669.029043914750218 ], [ 3363998.469100127462298, 2317663.016974582802504 ], [ 3364001.848277678713202, 2317653.811380300670862 ], [ 3364021.820059577934444, 2317671.636899219825864 ], [ 3364031.894771870225668, 2317675.464410451240838 ], [ 3364039.081026142928749, 2317676.751426585949957 ], [ 3364050.308424096088856, 2317679.871779786422849 ], [ 3364060.401896477676928, 2317684.202943217940629 ], [ 3364074.279812483582646, 2317693.453964068088681 ], [ 3364075.754861479625106, 2317694.718759576324373 ], [ 3364089.651735649444163, 2317704.473396735731512 ], [ 3364104.843611911404878, 2317714.003172406926751 ], [ 3364115.197582055814564, 2317720.317038122098893 ], [ 3364127.581661028321832, 2317727.799422297161072 ], [ 3364136.181310897227377, 2317730.362048726063222 ], [ 3364145.918584518134594, 2317736.783101085573435 ], [ 3364157.406580341048539, 2317741.886145991273224 ], [ 3364178.489716798532754, 2317752.927818009629846 ], [ 3364183.745301047805697, 2317754.043177113868296 ], [ 3364192.325994993560016, 2317756.10219391528517 ], [ 3364202.078429755289108, 2317757.957651635631919 ], [ 3364208.207525591831654, 2317755.879393799696118 ], [ 3364213.10329216811806, 2317754.015289183706045 ], [ 3364226.120318224653602, 2317750.234023005701602 ], [ 3364238.47793301846832, 2317747.074266203679144 ], [ 3364252.391045738942921, 2317745.672348691150546 ], [ 3364262.201358268037438, 2317742.447896223049611 ], [ 3364270.678937805816531, 2317738.440944011323154 ], [ 3364282.657669270411134, 2317731.79803854227066 ], [ 3364291.505277131218463, 2317752.569174527656287 ], [ 3364298.897983737755567, 2317765.988233693409711 ], [ 3364305.608493957668543, 2317774.455777002498507 ], [ 3364311.58411063766107, 2317781.530004589352757 ], [ 3364319.314051162917167, 2317792.355473262723535 ], [ 3364327.319664439186454, 2317800.598141029942781 ], [ 3364335.344153432175517, 2317809.344538979697973 ], [ 3364339.465929484926164, 2317811.670792061835527 ], [ 3364346.931560394819826, 2317815.444257953669876 ], [ 3364361.686704611871392, 2317826.570923186372966 ], [ 3364373.120640092995018, 2317841.823117810301483 ], [ 3364368.684298705309629, 2317847.663294771220535 ], [ 3364364.052934863604605, 2317856.579278107732534 ], [ 3364360.076037597842515, 2317866.395638879854232 ], [ 3364357.217996662948281, 2317879.566677941009402 ], [ 3364352.088207956869155, 2317890.090132856741548 ], [ 3364344.970002571120858, 2317905.521920923143625 ], [ 3364342.364837762899697, 2317910.537139615509659 ], [ 3364339.246292674448341, 2317921.725390318781137 ], [ 3364337.540950939059258, 2317934.189281425438821 ], [ 3364341.6086853928864, 2317946.664666523225605 ], [ 3364343.661487207282335, 2317953.406130148563534 ], [ 3364347.031866059172899, 2317965.49559561861679 ], [ 3364351.842239722143859, 2317989.502708248794079 ], [ 3364368.225907783955336, 2317992.741679830476642 ], [ 3364387.535684027243406, 2317999.528535271063447 ], [ 3364393.07074955618009, 2318003.130310417152941 ], [ 3364403.244786869734526, 2318007.954518742859364 ], [ 3364420.524649705737829, 2318013.572825409471989 ], [ 3364445.431182610336691, 2318023.950859050732106 ], [ 3364460.623082452453673, 2318033.480570383835584 ], [ 3364478.461628676857799, 2318044.071854936424643 ], [ 3364484.594631604384631, 2318047.062803503125906 ], [ 3364489.333029102534056, 2318049.281992068979889 ], [ 3364492.439178598113358, 2318054.319432829041034 ], [ 3364497.640753580257297, 2318065.58403068035841 ], [ 3364496.889465575572103, 2318075.347221527714282 ], [ 3364497.532718972302973, 2318085.882387572899461 ], [ 3364495.467574954032898, 2318095.366806940175593 ], [ 3364493.582276729866862, 2318106.340820539742708 ], [ 3364491.655530090909451, 2318111.238343370612711 ], [ 3364488.456490490119904, 2318121.933667758014053 ], [ 3364485.613444696180522, 2318130.539148290641606 ], [ 3364483.088948238641024, 2318136.047371250577271 ], [ 3364480.227027563378215, 2318144.149123187176883 ], [ 3364476.109171377960593, 2318146.892066620755941 ], [ 3364469.899561973288655, 2318148.477395134977996 ], [ 3364464.445022724568844, 2318145.368542461190373 ], [ 3364449.632005793973804, 2318139.321902450639755 ], [ 3364442.882386204786599, 2318136.438026810064912 ], [ 3364430.777737525291741, 2318131.441937080118805 ], [ 3364415.945761717390269, 2318124.891687307972461 ], [ 3364403.822252390906215, 2318119.391968920361251 ], [ 3364397.252691951580346, 2318117.997754909098148 ], [ 3364387.955772072076797, 2318115.049183441326022 ], [ 3364380.233434049878269, 2318114.36214563017711 ], [ 3364375.693873049225658, 2318114.136371337808669 ], [ 3364370.618164514191449, 2318114.510803136043251 ], [ 3364365.906304941512644, 2318122.933787459041923 ], [ 3364361.473834607750177, 2318133.843202132731676 ], [ 3364360.929204269777983, 2318155.738432848826051 ], [ 3364361.330717626959085, 2318164.794465507380664 ], [ 3364360.380632445216179, 2318172.564366121776402 ], [ 3364360.885513011366129, 2318187.686354564037174 ], [ 3364358.451801515184343, 2318215.48641044087708 ], [ 3364357.884371195919812, 2318231.80861904611811 ], [ 3364357.807663457933813, 2318236.384817342273891 ], [ 3364357.952636051923037, 2318248.527457077987492 ], [ 3364355.91015757387504, 2318263.58487262763083 ], [ 3364354.362239766865969, 2318271.965497340075672 ], [ 3364355.131514297798276, 2318294.139416613616049 ], [ 3364336.556748192757368, 2318288.746002486906946 ], [ 3364323.042571359779686, 2318287.543756887782365 ], [ 3364310.064555939286947, 2318285.741404561791569 ], [ 3364295.691917447373271, 2318283.167200187686831 ], [ 3364280.982176745310426, 2318283.186581799760461 ], [ 3364271.348137922585011, 2318282.831519110593945 ], [ 3364260.143360514193773, 2318285.284151876345277 ], [ 3364250.589873305056244, 2318285.422115139197558 ], [ 3364245.594707442447543, 2318286.289488768205047 ], [ 3364238.845184756442904, 2318283.405618358403444 ], [ 3364231.4561224039644, 2318275.055894492194057 ], [ 3364227.23500258103013, 2318271.732884389348328 ], [ 3364219.229328715242445, 2318263.49023134727031 ], [ 3364207.799130558501929, 2318253.30727556720376 ], [ 3364200.310740340035409, 2318243.960781310684979 ], [ 3364190.132847487926483, 2318234.067382755223662 ], [ 3364187.30615506041795, 2318231.516260854434222 ], [ 3364180.196591223590076, 2318225.652954498305917 ], [ 3364171.673624473623931, 2318218.514046887867153 ], [ 3364164.464648203458637, 2318211.654085397720337 ], [ 3364151.640130607876927, 2318200.699228913523257 ], [ 3364146.702790489420295, 2318196.486669984646142 ], [ 3364139.593229402322322, 2318190.623365316540003 ], [ 3364129.239207199774683, 2318184.309421269223094 ], [ 3364123.167972370050848, 2318181.307776624336839 ], [ 3364113.254443470388651, 2318178.466313090641052 ], [ 3364106.864867203403264, 2318178.561905736103654 ], [ 3364097.073474021628499, 2318182.290061792358756 ], [ 3364089.11325491592288, 2318185.193338423967361 ], [ 3364079.482964116148651, 2318189.9075443809852 ], [ 3364066.370424122549593, 2318197.761377139016986 ], [ 3364058.091868440620601, 2318203.761897874064744 ], [ 3364054.234460680745542, 2318208.487699141260237 ], [ 3364047.790911458432674, 2318218.7324737617746 ], [ 3364037.585607758723199, 2318229.630362316966057 ], [ 3364026.407516852486879, 2318242.725218700245023 ], [ 3364020.500055155716836, 2318252.370005036704242 ], [ 3364015.28984203748405, 2318262.400628371164203 ], [ 3364008.727996734902263, 2318271.14492799853906 ], [ 3364005.86236633406952, 2318274.177488128654659 ], [ 3364002.483312730677426, 2318283.38313082465902 ], [ 3364000.656015588901937, 2318289.277352785225958 ], [ 3363998.177032419014722, 2318305.931564133614302 ], [ 3364002.735448987223208, 2318306.660939438268542 ], [ 3364006.857138584367931, 2318308.987184395082295 ], [ 3364017.850604091770947, 2318320.766889714635909 ], [ 3364025.159041259437799, 2318328.623695165850222 ], [ 3364025.856287607457489, 2318329.00953003577888 ], [ 3364025.699060512240976, 2318333.092818771954626 ], [ 3364033.650797856040299, 2318351.484642556402832 ], [ 3364034.393547957297415, 2318363.016515771858394 ], [ 3364042.502534177154303, 2318377.325149762909859 ], [ 3364043.218661882914603, 2318378.214717085473239 ], [ 3364042.548026939388365, 2318388.471090372186154 ], [ 3364046.535326880402863, 2318400.453479779418558 ], [ 3364050.886356036644429, 2318420.484585739206523 ], [ 3364050.292495089117438, 2318426.164630031213164 ], [ 3364050.652452774345875, 2318429.144090918358415 ], [ 3364054.267410835251212, 2318454.372929207980633 ], [ 3364066.05556517932564, 2318424.441334400791675 ], [ 3364074.169129515066743, 2318412.385607086587697 ], [ 3364081.053241930436343, 2318405.613282404839993 ], [ 3364086.642247707117349, 2318399.065749265253544 ], [ 3364093.985653000883758, 2318396.26966034155339 ], [ 3364099.51696938322857, 2318394.802155915182084 ], [ 3364104.232626186683774, 2318391.44834604440257 ], [ 3364112.012856812682003, 2318387.055374675430357 ], [ 3364119.455763757228851, 2318385.255831308662891 ], [ 3364121.448036337271333, 2318385.416993541643023 ], [ 3364130.564871367998421, 2318386.87575524719432 ], [ 3364133.054360091686249, 2318392.020382103510201 ], [ 3364136.704349244013429, 2318406.596293373033404 ], [ 3364137.922656016424298, 2318410.947634422685951 ], [ 3364137.887697413563728, 2318421.600528087932616 ], [ 3364138.986546845175326, 2318431.0426209224388 ], [ 3364139.989816551096737, 2318444.557095310650766 ], [ 3364142.586484890431166, 2318460.836949784774333 ], [ 3364144.562575890216976, 2318472.154658516868949 ], [ 3364146.416479982901365, 2318476.902643217239529 ], [ 3364156.257220797706395, 2318489.389638994820416 ], [ 3364174.176456698682159, 2318500.473733714781702 ], [ 3364184.009337984025478, 2318502.822178202681243 ], [ 3364188.548873326741159, 2318503.047826847992837 ], [ 3364194.317955845035613, 2318497.990062548778951 ], [ 3364199.447492273058742, 2318487.466537609230727 ], [ 3364204.397142907138914, 2318475.453218789305538 ], [ 3364211.273513567633927, 2318458.542443045880646 ], [ 3364214.809666495770216, 2318445.253545455168933 ], [ 3364221.127243305556476, 2318423.369907619431615 ], [ 3364229.739119303412735, 2318409.706657279282808 ], [ 3364236.439295256510377, 2318396.375367098487914 ], [ 3364242.54560481198132, 2318388.724112334195524 ], [ 3364251.67092967312783, 2318368.887899581342936 ], [ 3364257.497746957000345, 2318358.7502336432226 ], [ 3364261.431839868426323, 2318349.448238641023636 ], [ 3364265.151964411139488, 2318342.718347884248942 ], [ 3364268.492084880359471, 2318339.096401433460414 ], [ 3364272.648857429157943, 2318330.769763497170061 ], [ 3364278.318534615915269, 2318324.715268949978054 ], [ 3364280.605216571129858, 2318322.797275805845857 ], [ 3364289.182043130509555, 2318319.786946288309991 ], [ 3364297.483440529555082, 2318319.359493199270219 ], [ 3364302.838538181502372, 2318321.471478590741754 ], [ 3364314.663680509198457, 2318323.981022590771317 ], [ 3364328.637333474121988, 2318329.159453836269677 ], [ 3364338.71197041682899, 2318332.986981083173305 ], [ 3364351.532834967598319, 2318338.872495813295245 ], [ 3364359.695666862651706, 2318343.031993608921766 ], [ 3364372.39813840482384, 2318347.417141697369516 ], [ 3364387.22628908418119, 2318348.898240928538144 ], [ 3364396.140432070940733, 2318343.294408950023353 ], [ 3364423.882176071871072, 2318334.928360506426543 ], [ 3364438.906506065279245, 2318326.74253888335079 ], [ 3364447.758901717141271, 2318321.149543021805584 ], [ 3364457.190350264310837, 2318314.44198534078896 ], [ 3364461.369848507922143, 2318311.688224961049855 ], [ 3364476.313636832870543, 2318303.009396360721439 ], [ 3364486.556701821740717, 2318293.118968404363841 ], [ 3364500.401705728378147, 2318274.998184393160045 ], [ 3364509.752517126500607, 2318267.797637740150094 ], [ 3364519.283392093610018, 2318262.086752346716821 ], [ 3364524.696336845401675, 2318259.118929880205542 ], [ 3364532.135426890105009, 2318252.250235374085605 ], [ 3364539.096303057391196, 2318240.901808425784111 ], [ 3364544.666495693381876, 2318233.850721422582865 ], [ 3364553.477318197023124, 2318222.181081913877279 ], [ 3364559.840353296604007, 2318211.44337804056704 ], [ 3364564.433901253622025, 2318201.519931890070438 ], [ 3364571.233694569207728, 2318189.185474227182567 ], [ 3364578.807455979287624, 2318172.660670892335474 ], [ 3364584.872158590704203, 2318158.932937415316701 ], [ 3364588.346851999871433, 2318145.65482276212424 ], [ 3364594.051728933118284, 2318128.947630825452507 ], [ 3364598.583527243696153, 2318119.034922951366752 ], [ 3364604.567781987600029, 2318104.814063197001815 ], [ 3364613.2214694051072, 2318097.227601638063788 ], [ 3364620.227773176971823, 2318097.024981621652842 ], [ 3364632.48968214681372, 2318097.937840236816555 ], [ 3364640.733136659953743, 2318102.590280172415078 ], [ 3364648.018823721911758, 2318104.874086978845298 ], [ 3364652.159501673653722, 2318107.704176238738 ], [ 3364669.780429900623858, 2318115.798243334982544 ], [ 3364666.738538588862866, 2318122.41029994096607 ], [ 3364665.906704925000668, 2318131.680457579437643 ], [ 3364664.714857516344637, 2318137.971286063082516 ], [ 3364662.806986421346664, 2318143.372527825646102 ], [ 3364659.77285223081708, 2318160.122981637716293 ], [ 3364652.133659746963531, 2318171.589148311410099 ], [ 3364664.98480540048331, 2318193.186187325511128 ], [ 3364673.652515293098986, 2318212.467773708980531 ], [ 3364683.133235154673457, 2318221.975254587829113 ], [ 3364697.750053338706493, 2318237.688836731947958 ], [ 3364699.523378641344607, 2318241.943791979458183 ], [ 3364711.555158188100904, 2318256.585305420681834 ], [ 3364715.45791436592117, 2318263.005455628503114 ], [ 3364719.066354698967189, 2318271.50473961327225 ], [ 3364730.680268704891205, 2318288.24673975026235 ], [ 3364738.294725779443979, 2318309.232034057378769 ], [ 3364739.171967532020062, 2318311.107745638582855 ], [ 3364745.445811104029417, 2318321.172155657317489 ], [ 3364760.150889287702739, 2318347.517176645342261 ], [ 3364789.409441137220711, 2318346.492758439853787 ], [ 3364802.663022056221962, 2318345.712413782253861 ], [ 3364810.604474957101047, 2318342.305482857860625 ], [ 3364822.264689265284687, 2318338.759861213155091 ], [ 3364835.741142670623958, 2318338.954841572791338 ], [ 3364843.544134830124676, 2318340.13492246856913 ], [ 3364856.008824407123029, 2318348.110387593507767 ], [ 3364855.536967596970499, 2318360.359986704774201 ], [ 3364860.221389992628247, 2318372.728303358890116 ], [ 3364864.860367001034319, 2318373.950753780081868 ], [ 3364877.199063072446734, 2318370.287333378568292 ], [ 3364887.16659446246922, 2318362.979771451558918 ], [ 3364898.271883739624172, 2318359.530617913231254 ], [ 3364909.476586980745196, 2318357.07811858644709 ], [ 3364914.989048009738326, 2318355.106967099942267 ], [ 3364924.699797577224672, 2318350.88584073074162 ], [ 3364935.724540367722511, 2318346.943675092421472 ], [ 3364950.09324725298211, 2318344.448721893131733 ], [ 3364967.170358832925558, 2318343.004531516227871 ], [ 3364978.811818236950785, 2318338.955295369029045 ], [ 3364980.283024201635271, 2318335.150802655145526 ], [ 3364971.04008848592639, 2318322.053069531451911 ], [ 3364968.65014640102163, 2318317.905178320594132 ], [ 3364964.965090633369982, 2318313.982056603301316 ], [ 3364954.565546230878681, 2318296.522289935033768 ], [ 3364949.723879463970661, 2318288.237134377472103 ], [ 3364944.403904655948281, 2318275.472272658720613 ], [ 3364945.231877168640494, 2318261.132835319731385 ], [ 3364945.848590643610805, 2318261.025755374226719 ], [ 3364950.483721621334553, 2318257.17891901684925 ], [ 3364959.217951577622443, 2318250.085528946481645 ], [ 3364978.382918730843812, 2318244.729901342652738 ], [ 3364991.756130768917501, 2318238.858980563469231 ], [ 3364998.691901273094118, 2318235.119801244698465 ], [ 3365001.984203316736966, 2318233.534150745719671 ], [ 3365013.365057549905032, 2318227.502162110060453 ], [ 3365020.011433112900704, 2318224.320138773880899 ], [ 3365032.070774177089334, 2318218.17035157373175 ], [ 3365040.647660532034934, 2318215.160248490516096 ], [ 3365047.554446204099804, 2318213.96093747485429 ], [ 3365051.951795307919383, 2318213.704441977664828 ], [ 3365055.177486549131572, 2318213.651378862094134 ], [ 3365062.2026740713045, 2318213.95252921897918 ], [ 3365080.436411319766194, 2318216.870419788639992 ], [ 3365087.542065236251801, 2318217.664708689786494 ], [ 3365096.042310853954405, 2318219.230668181553483 ], [ 3365104.523597014136612, 2318220.293016284704208 ], [ 3365114.617104441393167, 2318224.62427712790668 ], [ 3365117.116674865595996, 2318226.725313130766153 ], [ 3365128.774569986853749, 2318236.361814455129206 ], [ 3365138.174656050279737, 2318245.376422302331775 ], [ 3365148.650899232365191, 2318258.260023333597928 ], [ 3365157.376429155003279, 2318272.461606319993734 ], [ 3365160.486448372714221, 2318282.56843876093626 ], [ 3365162.880312703549862, 2318291.785502415150404 ], [ 3365169.675274313427508, 2318305.815380732528865 ], [ 3365174.440203929785639, 2318318.676608656067401 ], [ 3365196.04064865456894, 2318328.614848559722304 ], [ 3365220.966098451521248, 2318339.496701368130744 ], [ 3365239.743684904649854, 2318351.952992835082114 ], [ 3365246.35484707634896, 2318359.423916056752205 ], [ 3365267.527112053707242, 2318349.663907161913812 ], [ 3365279.50589872803539, 2318343.021142205689102 ], [ 3365300.996638363692909, 2318330.164028620813042 ], [ 3365315.166433749720454, 2318325.675787700805813 ], [ 3365340.379976652562618, 2318317.749181455932558 ], [ 3365375.484361832030118, 2318307.091201455798 ], [ 3365394.13218184420839, 2318302.839609352406114 ], [ 3365407.42857415182516, 2318301.544865001458675 ], [ 3365419.169491002336144, 2318298.49247462907806 ], [ 3365431.331996218767017, 2318298.408714310731739 ], [ 3365439.134985368698835, 2318299.588765555992723 ], [ 3365446.321276188828051, 2318300.875991137232631 ], [ 3365450.46194564551115, 2318303.706011394970119 ], [ 3365455.54140922287479, 2318308.400953233707696 ], [ 3365460.199269161559641, 2318310.127169650048018 ], [ 3365465.914308738429099, 2318315.218665305990726 ], [ 3365469.779418469872326, 2318320.631449815817177 ], [ 3365484.576215391978621, 2318337.834873139392585 ], [ 3365490.754542258568108, 2318351.971708825789392 ], [ 3365494.102268326096237, 2318358.488331942353398 ], [ 3365502.670555788557976, 2318376.773159892763942 ], [ 3365522.812295655719936, 2318374.290035671554506 ], [ 3365542.773979474790394, 2318370.317268888000399 ], [ 3365559.054437118116766, 2318367.49054810591042 ], [ 3365573.085866517387331, 2318367.589329349808395 ], [ 3365589.347465384285897, 2318364.258989372290671 ], [ 3365603.796758956741542, 2318362.257212583906949 ], [ 3365621.329446056857705, 2318359.720205191057175 ], [ 3365633.829270488582551, 2318357.042893931269646 ], [ 3365645.313493545167148, 2318357.07693192223087 ], [ 3365656.081576484255493, 2318356.221299697645009 ], [ 3365668.002557250671089, 2318354.658603246789426 ], [ 3365682.433307741302997, 2318352.153266285546124 ], [ 3365702.854843543376774, 2318352.156548126600683 ], [ 3365720.909060724079609, 2318353.584952110424638 ], [ 3365733.707463258877397, 2318353.8978460454382 ], [ 3365767.01179132796824, 2318359.776327701285481 ], [ 3365754.105250394437462, 2318379.761625730898231 ], [ 3365793.603055748157203, 2318395.211484770290554 ], [ 3365802.98056918149814, 2318398.65332674048841 ], [ 3365812.974880434107035, 2318401.987982222344726 ], [ 3365825.256093636155128, 2318403.404688115697354 ], [ 3365837.001140826381743, 2318405.421486107166857 ], [ 3365847.512643365655094, 2318407.652347041293979 ], [ 3365851.473358472343534, 2318408.99271775688976 ], [ 3365860.234339257702231, 2318412.541504108346999 ], [ 3365871.124767483212054, 2318418.255601832643151 ], [ 3365886.974208908621222, 2318465.188475025817752 ], [ 3365920.090914130210876, 2318459.43891406012699 ], [ 3365947.837362071499228, 2318456.142736034002155 ], [ 3365962.903677857015282, 2318454.033912111073732 ], [ 3365977.433844541199505, 2318452.525279384106398 ], [ 3366000.123333542142063, 2318450.107085704803467 ], [ 3366012.286248638294637, 2318450.023352170363069 ], [ 3366024.824068360030651, 2318448.353728201705962 ], [ 3366049.86584514984861, 2318449.075981168076396 ], [ 3366058.741309600882232, 2318449.056098225526512 ], [ 3366072.73529921611771, 2318448.147477609571069 ], [ 3366089.831760335713625, 2318447.20733863580972 ], [ 3366115.490258138161153, 2318447.822548044379801 ], [ 3366120.944912976585329, 2318450.931473860982805 ], [ 3366122.082740155979991, 2318454.789747881703079 ], [ 3366129.314456747844815, 2318467.222891030833125 ], [ 3366128.283799244090915, 2318474.499651193618774 ], [ 3366126.938399670645595, 2318489.942683866247535 ], [ 3366124.895871624816209, 2318504.999949262477458 ], [ 3366119.869281668681651, 2318521.589189253747463 ], [ 3366115.896053161006421, 2318536.474549918435514 ], [ 3366112.565988621208817, 2318561.894900786690414 ], [ 3366109.80349104385823, 2318570.993245172314346 ], [ 3366106.504830274730921, 2318580.691678361967206 ], [ 3366104.282337674405426, 2318594.259095712564886 ], [ 3366099.431906160898507, 2318607.26885585905984 ], [ 3366091.263950350694358, 2318629.473332150839269 ], [ 3366088.681446735747159, 2318640.061446198262274 ], [ 3366085.842159031424671, 2318653.735959053505212 ], [ 3366083.857496405486017, 2318663.713279956020415 ], [ 3366081.48153611458838, 2318686.433111653663218 ], [ 3366077.090509980916977, 2318703.419057348743081 ], [ 3366072.657963990233839, 2318714.328275436535478 ], [ 3366065.183559954166412, 2318731.849447993095964 ], [ 3366058.046297756955028, 2318746.777277937158942 ], [ 3366053.636497973464429, 2318763.259394758846611 ], [ 3366047.832189504057169, 2318778.969718202017248 ], [ 3366043.341767468955368, 2318794.958938104100525 ], [ 3366042.414339633658528, 2318808.301551649812609 ], [ 3366045.781086188741028, 2318815.321887294296175 ], [ 3366052.270315219648182, 2318816.223166227340698 ], [ 3366054.959846301935613, 2318816.770228081382811 ], [ 3366059.276742489542812, 2318816.020745205692947 ], [ 3366068.451643423177302, 2318812.399921134114265 ], [ 3366079.476686167530715, 2318808.457885502371937 ], [ 3366086.996537518687546, 2318802.082486724480987 ], [ 3366092.643610610160977, 2318790.455394738353789 ], [ 3366097.773389143869281, 2318779.932021679822356 ], [ 3366103.429051271639764, 2318747.010005938820541 ], [ 3366107.092470553237945, 2318713.926882147789001 ], [ 3366120.088073183316737, 2318673.139741978608072 ], [ 3366125.118467700667679, 2318661.619740200228989 ], [ 3366128.888958400581032, 2318639.671720421873033 ], [ 3366138.604853144381195, 2318609.086773117538542 ], [ 3366142.478632446378469, 2318593.204664985649288 ], [ 3366149.053260321263224, 2318568.235024440102279 ], [ 3366151.329840279184282, 2318544.518383505754173 ], [ 3366154.686353985220194, 2318529.740097201894969 ], [ 3366157.499135845340788, 2318505.423475420102477 ], [ 3366158.767710065469146, 2318494.55659868568182 ], [ 3366160.549736936576664, 2318477.516659888904542 ], [ 3366170.606896988581866, 2318449.407445782329887 ], [ 3366178.743527972605079, 2318442.92502916418016 ], [ 3366187.041257017757744, 2318437.428650081623346 ], [ 3366193.687755788210779, 2318434.2467464026995 ], [ 3366196.832908027805388, 2318433.700717597734183 ], [ 3366204.716672923415899, 2318435.373928755521774 ], [ 3366216.817843286786228, 2318435.301058059558272 ], [ 3366230.830718817189336, 2318434.896199019625783 ], [ 3366252.543588055297732, 2318429.605750670190901 ], [ 3366270.138378979638219, 2318427.058147960808128 ], [ 3366280.987326521426439, 2318426.695584383793175 ], [ 3366292.310688559431583, 2318425.743760960642248 ], [ 3366300.531692605931312, 2318424.823531854432076 ], [ 3366307.377045061904937, 2318423.63512644264847 ], [ 3366322.685030081309378, 2318423.005449280608445 ], [ 3366334.866753869690001, 2318423.42561936751008 ], [ 3366343.623927961103618, 2318421.905312752351165 ], [ 3366366.416690568439662, 2318425.553145816083997 ], [ 3366384.7314428454265, 2318428.964394864626229 ], [ 3366397.192531990353018, 2318431.870877388399094 ], [ 3366407.642491496168077, 2318434.112605887465179 ], [ 3366416.821266162674874, 2318435.561019540764391 ], [ 3366424.903882901649922, 2318439.227735860273242 ], [ 3366437.445520930923522, 2318442.627241365145892 ], [ 3366450.96390179451555, 2318448.899082724004984 ], [ 3366459.027544477488846, 2318452.062095345929265 ], [ 3366473.779260502196848, 2318458.119826446287334 ], [ 3366492.116706900298595, 2318467.103961427696049 ], [ 3366504.501081362832338, 2318474.586679547093809 ], [ 3366511.790743777062744, 2318481.939964629709721 ], [ 3366525.052340539172292, 2318491.298295144923031 ], [ 3366530.051361992955208, 2318495.500243973452598 ], [ 3366534.390986883081496, 2318500.323768864385784 ], [ 3366542.895093336701393, 2318506.959121049381793 ], [ 3366551.797096958383918, 2318517.581400102004409 ], [ 3366563.028575781267136, 2318525.77117031160742 ], [ 3366568.207671212498099, 2318531.462860037107021 ], [ 3366580.637362207751721, 2318550.091422202065587 ], [ 3366587.31039856094867, 2318557.55165864340961 ], [ 3366589.083737147971988, 2318561.806702150963247 ], [ 3366604.739123094826937, 2318580.38217227300629 ], [ 3366620.850132377818227, 2318597.864545419812202 ], [ 3366628.936597266700119, 2318606.600509978365153 ], [ 3366637.658525798469782, 2318615.732953782193363 ], [ 3366648.633349009789526, 2318627.009289522655308 ], [ 3366654.708456275984645, 2318635.080332417972386 ], [ 3366661.063049926888198, 2318645.637756667565554 ], [ 3366667.138175535481423, 2318653.708898437209427 ], [ 3366677.771945696789771, 2318662.509543596766889 ], [ 3366690.156338831875473, 2318669.992274578660727 ], [ 3366694.81814107298851, 2318676.787672481033951 ], [ 3366708.799653788097203, 2318692.104944273363799 ], [ 3366715.311621925793588, 2318698.579249433241785 ], [ 3366723.298457873985171, 2318706.318413125816733 ], [ 3366736.322282464709133, 2318719.266943112481385 ], [ 3366750.0243980451487, 2318732.097720969934016 ], [ 3366758.826908504590392, 2318741.723285009618849 ], [ 3366767.809382604435086, 2318752.838507410138845 ], [ 3366777.133036156650633, 2318766.429503140039742 ], [ 3366785.954413841478527, 2318776.558692647144198 ], [ 3366794.040785768534988, 2318785.294581668451428 ], [ 3366812.703114392701536, 2318807.910965395625681 ], [ 3366820.176517584361136, 2318821.823071552906185 ], [ 3366828.565110011957586, 2318838.618201260454953 ], [ 3366835.482402255292982, 2318859.217758388258517 ], [ 3366842.538045145571232, 2318875.230293174739927 ], [ 3366848.654804642312229, 2318889.378021815326065 ], [ 3366851.255191116593778, 2318910.726910328958184 ], [ 3366853.829085416160524, 2318921.433687006123364 ], [ 3366858.275776747614145, 2318937.392249193042517 ], [ 3366864.296973457094282, 2318955.612376760225743 ], [ 3366869.778157034888864, 2318969.363447775598615 ], [ 3366871.696413475088775, 2318985.760857542976737 ], [ 3366872.680813409388065, 2318998.771585037000477 ], [ 3366872.829503410961479, 2319015.983304366469383 ], [ 3366871.683082605712116, 2319033.419761351775378 ], [ 3366871.602032531518489, 2319036.194034999702126 ], [ 3370731.663783833850175, 2319036.194034999702126 ], [ 3370748.585651443805546, 2318954.709472697228193 ] ] ] } },
{ "type": "Feature", "properties": { "ENP_GRAL": 3.0, "ENP_GRAL_NAME": "Monumentos Naturales", "color": "#AAFF00" }, "geometry": { "type": "Polygon", "coordinates": [ [ [ 3367431.117108629085124, 2312845.244243831839412 ], [ 3367431.0189816551283, 2312845.101089490577579 ], [ 3367430.89733410673216, 2312844.977420675568283 ], [ 3367430.75586218200624, 2312844.876994994468987 ], [ 3367430.598864434286952, 2312844.802863837685436 ], [ 3367430.431111161131412, 2312844.757279642857611 ], [ 3367430.257699459325522, 2312844.741627456620336 ], [ 3367430.083898358047009, 2312844.75638287467882 ], [ 3367429.914988714270294, 2312844.801097551826388 ], [ 3367429.756102762185037, 2312844.874412856064737 ], [ 3367429.612068171147257, 2312844.974101137369871 ], [ 3367429.487261360045522, 2312845.097133421804756 ], [ 3367429.385474521666765, 2312845.239771440159529 ], [ 3367429.309800395276397, 2312845.397681194357574 ], [ 3367429.262538302224129, 2312845.566064686980098 ], [ 3367429.245124278124422, 2312845.739805668126792 ], [ 3367429.258087438996881, 2312845.913625113200396 ], [ 3367429.301033904310316, 2312846.082241589669138 ], [ 3367429.372658768668771, 2312846.240531787276268 ], [ 3367429.470785744953901, 2312846.383686121553183 ], [ 3367429.592433296144009, 2312846.507354933768511 ], [ 3367429.733905223198235, 2312846.607780613005161 ], [ 3367429.890902972314507, 2312846.68191176885739 ], [ 3367430.058656245470047, 2312846.727495959028602 ], [ 3367430.232067945413291, 2312846.743148136418313 ], [ 3367430.405869045294821, 2312846.728392722085118 ], [ 3367430.57477868674323, 2312846.683678046334535 ], [ 3367430.733664635568857, 2312846.610362742096186 ], [ 3367430.877699223347008, 2312846.510674460791051 ], [ 3367431.002506030723453, 2312846.387642175890505 ], [ 3367431.104292867239565, 2312846.245004159864038 ], [ 3367431.17996699269861, 2312846.087094408459961 ], [ 3367431.227229084819555, 2312845.918710918165743 ], [ 3367431.244643109850585, 2312845.74496993701905 ], [ 3367431.231679952703416, 2312845.571150501724333 ], [ 3367431.188733489718288, 2312845.402534025255591 ], [ 3367431.117108629085124, 2312845.244243831839412 ] ] ] } }
]
}
