{
"type": "FeatureCollection",
"name": "Marcilla",
"crs": { "type": "name", "properties": { "name": "urn:ogc:def:crs:EPSG::3035" } },
"features": [
{ "type": "Feature", "properties": { "ENP_GRAL": 2.0, "ENP_GRAL_NAME": "Reservas Naturales", "color": "#FFD37F" }, "geometry": { "type": "MultiPolygon", "coordinates": [ [ [ [ 3359419.987170744221658, 2212298.254739022348076 ], [ 3359432.224232242442667, 2212294.825686255469918 ], [ 3359444.378640620969236, 2212291.512207293882966 ], [ 3359467.641958460677415, 2212286.585582287050784 ], [ 3359480.089240118861198, 2212283.829296694602817 ], [ 3359490.357187885791063, 2212282.6650052042678 ], [ 3359499.264980550855398, 2212280.621104994788766 ], [ 3359508.271618623286486, 2212278.560045829508454 ], [ 3359518.450710005592555, 2212275.587603667750955 ], [ 3359527.307357998564839, 2212273.856350171379745 ], [ 3359529.432376569136977, 2212273.185583296697587 ], [ 3359548.777128144633025, 2212269.137802640907466 ], [ 3359565.352743420284241, 2212269.316232101991773 ], [ 3359579.975501158740371, 2212268.717143614310771 ], [ 3359597.37963819783181, 2212267.739541200920939 ], [ 3359603.531404852401465, 2212267.488276646006852 ], [ 3359609.976041398476809, 2212267.794196650851518 ], [ 3359628.272226275410503, 2212266.05471881153062 ], [ 3359636.399432865902781, 2212265.462527237832546 ], [ 3359644.838539732154459, 2212264.917812801897526 ], [ 3359652.914600158110261, 2212264.638264506589621 ], [ 3359665.807406722567976, 2212264.641879712231457 ], [ 3359666.89378981012851, 2212264.454387341625988 ], [ 3359688.882107256446034, 2212245.970242909155786 ], [ 3359710.310990042053163, 2212221.504373532254249 ], [ 3359692.803216893225908, 2212214.294323018286377 ], [ 3359677.923257889226079, 2212210.784058125689626 ], [ 3359662.906533982139081, 2212205.1700977711007 ], [ 3359650.142127281986177, 2212199.673951699398458 ], [ 3359640.496480328962207, 2212195.260438989382237 ], [ 3359624.814043348189443, 2212188.0391929987818 ], [ 3359611.409418089780957, 2212182.349528077989817 ], [ 3359600.530896618496627, 2212177.844879696611315 ], [ 3359594.646813260391355, 2212177.239602908492088 ], [ 3359594.649610516615212, 2212179.771743999794126 ], [ 3359594.445464672055095, 2212181.022534572053701 ], [ 3359595.219047818332911, 2212183.928174822591245 ], [ 3359597.372097074985504, 2212187.203570353332907 ], [ 3359599.572761530522257, 2212190.774561875965446 ], [ 3359601.29885990684852, 2212193.921134029049426 ], [ 3359603.492919456213713, 2212198.708925156388432 ], [ 3359603.409578813705593, 2212201.965168720576912 ], [ 3359601.466041431296617, 2212202.503101972863078 ], [ 3359598.589348302222788, 2212202.290541538968682 ], [ 3359596.123680566903204, 2212202.108146904967725 ], [ 3359585.997350771911442, 2212195.346381838433444 ], [ 3359578.409684501588345, 2212190.476294616702944 ], [ 3359571.494744399096817, 2212182.856175995897502 ], [ 3359564.853706592228264, 2212176.303343761246651 ], [ 3359553.032986297272146, 2212166.592046319507062 ], [ 3359549.248809683136642, 2212163.902074774261564 ], [ 3359533.061381260398775, 2212149.778057380579412 ], [ 3359524.54093836247921, 2212141.016758222598583 ], [ 3359514.962842702399939, 2212133.248536472674459 ], [ 3359499.966565490234643, 2212120.843743203673512 ], [ 3359484.963667504955083, 2212109.65565322805196 ], [ 3359468.432101865764707, 2212095.286921073682606 ], [ 3359459.84141868725419, 2212087.348189294803888 ], [ 3359451.059424362145364, 2212081.367372022010386 ], [ 3359433.768597942776978, 2212073.613405670039356 ], [ 3359424.461286512669176, 2212064.380188309587538 ], [ 3359409.789295217953622, 2212055.870234169997275 ], [ 3359397.210409421473742, 2212046.492413259111345 ], [ 3359386.779097087215632, 2212035.325781695079058 ], [ 3359375.184464521706104, 2212026.386126697529107 ], [ 3359362.258262246381491, 2212017.372167280409485 ], [ 3359344.958734828978777, 2212005.162196122575551 ], [ 3359332.69257964938879, 2211992.691360197030008 ], [ 3359316.728428547270596, 2211976.80665487376973 ], [ 3359300.151864111889154, 2211964.67452637385577 ], [ 3359286.187642014119774, 2211953.00328656937927 ], [ 3359278.056372337974608, 2211942.250044209882617 ], [ 3359278.155134565196931, 2211942.232999034225941 ], [ 3359277.941617676988244, 2211942.168645787984133 ], [ 3359266.528890212066472, 2211933.096201474778354 ], [ 3359255.524120062589645, 2211921.521927878726274 ], [ 3359246.465581533964723, 2211911.941875163000077 ], [ 3359233.17412005038932, 2211897.520702194888145 ], [ 3359219.049160851165652, 2211876.050625796429813 ], [ 3359201.789641817100346, 2211853.399356043897569 ], [ 3359189.854402160737664, 2211843.60665902402252 ], [ 3359178.375148180872202, 2211831.607758852187544 ], [ 3359164.882267452776432, 2211820.969743595458567 ], [ 3359150.338617474772036, 2211806.967203503940254 ], [ 3359139.397519688121974, 2211795.787273852620274 ], [ 3359126.974564963020384, 2211788.003553232643753 ], [ 3359116.991320909000933, 2211782.128679722547531 ], [ 3359102.376381104812026, 2211775.229801036883146 ], [ 3359095.73131743259728, 2211772.425775070209056 ], [ 3359080.95987052610144, 2211767.073486981913447 ], [ 3359070.138309942558408, 2211764.180047374684364 ], [ 3359057.045184909366071, 2211761.678457027301192 ], [ 3359044.923266699537635, 2211762.048501112964004 ], [ 3359032.361339438706636, 2211764.72309985011816 ], [ 3359022.580583461094648, 2211767.019102813676 ], [ 3359014.686213480774313, 2211767.165940974839032 ], [ 3359002.459346226416528, 2211765.629311398603022 ], [ 3358988.140074457973242, 2211761.819883029442281 ], [ 3358981.711767586413771, 2211758.472032538615167 ], [ 3358965.268075439147651, 2211752.192722768522799 ], [ 3358951.124231085646898, 2211746.326921224128455 ], [ 3358941.386357004754245, 2211740.713735935278237 ], [ 3358925.602084677666426, 2211734.118012759368867 ], [ 3358909.51222912967205, 2211726.258067046757787 ], [ 3358901.210829599760473, 2211722.625572779681534 ], [ 3358885.773879788815975, 2211715.665996020194143 ], [ 3358869.747580386232585, 2211708.200410209130496 ], [ 3358849.163029117044061, 2211698.279787483159453 ], [ 3358835.401733483187854, 2211691.638843195512891 ], [ 3358820.238550884183496, 2211685.746384655125439 ], [ 3358809.646945228800178, 2211679.875341772567481 ], [ 3358786.959238489624113, 2211672.647645299322903 ], [ 3358776.1415970842354, 2211666.005177250131965 ], [ 3358768.728961828630418, 2211662.219299596734345 ], [ 3358749.18243351066485, 2211654.955988015048206 ], [ 3358739.915230521000922, 2211653.516408736817539 ], [ 3358724.639537954702973, 2211653.215175596997142 ], [ 3358708.802992414683104, 2211653.213358142413199 ], [ 3358695.92001854814589, 2211651.384800783824176 ], [ 3358671.284437179099768, 2211651.58470708783716 ], [ 3358645.083866867236793, 2211655.296609291806817 ], [ 3358625.636908389162272, 2211659.970076829660684 ], [ 3358610.605952244251966, 2211663.071017416194081 ], [ 3358592.057270373217762, 2211668.906530558597296 ], [ 3358567.066529305651784, 2211676.968305334448814 ], [ 3358543.87212538998574, 2211687.354091820307076 ], [ 3358514.264151351992041, 2211700.7714799544774 ], [ 3358477.557354143820703, 2211719.264073813799769 ], [ 3358467.428766625002027, 2211725.064505751244724 ], [ 3358443.851932779885828, 2211736.225405088625848 ], [ 3358422.938475917093456, 2211747.534448157530278 ], [ 3358412.092542714439332, 2211755.180909462738782 ], [ 3358396.903891013935208, 2211766.109686207957566 ], [ 3358392.420067426748574, 2211774.17772078095004 ], [ 3358375.224941269960254, 2211782.109544047620147 ], [ 3358362.267428307794034, 2211787.993274302687496 ], [ 3358356.26815928472206, 2211790.447055232245475 ], [ 3358338.324706633109599, 2211796.887371496297419 ], [ 3358325.093299123924226, 2211801.703824453055859 ], [ 3358310.796831675805151, 2211811.870814592577517 ], [ 3358300.411309281364083, 2211828.656779213808477 ], [ 3358288.818708391394466, 2211843.624781527556479 ], [ 3358278.077783626504242, 2211853.178083386272192 ], [ 3358280.1319684041664, 2211856.470528847072273 ], [ 3358286.037851372733712, 2211859.098044095560908 ], [ 3358297.101364258676767, 2211862.861436536535621 ], [ 3358312.577343089971691, 2211865.660599522758275 ], [ 3358321.774692902341485, 2211864.782120261341333 ], [ 3358333.055545493960381, 2211864.860993863549083 ], [ 3358343.680120506323874, 2211864.648126231506467 ], [ 3358353.244199548847973, 2211862.89590648887679 ], [ 3358365.417130555957556, 2211862.213075808249414 ], [ 3358375.471602912060916, 2211860.983949593733996 ], [ 3358386.150597669184208, 2211859.849844105541706 ], [ 3358398.888075061608106, 2211855.118551750667393 ], [ 3358412.112251573242247, 2211854.659404683392495 ], [ 3358422.548791548237205, 2211855.795882344711572 ], [ 3358440.318717021495104, 2211857.08477130997926 ], [ 3358450.458758351393044, 2211858.272329147905111 ], [ 3358470.060312165878713, 2211861.473705839831382 ], [ 3358489.964593148324639, 2211863.407371199224144 ], [ 3358504.258836675900966, 2211865.80271928338334 ], [ 3358513.627897712402046, 2211866.616831988096237 ], [ 3358517.507608525920659, 2211869.898004890419543 ], [ 3358522.071980226784945, 2211874.276874592527747 ], [ 3358525.992830647155643, 2211879.07063334621489 ], [ 3358533.80048927012831, 2211882.78809567913413 ], [ 3358539.266915476880968, 2211884.579832405317575 ], [ 3358546.973735798615962, 2211882.641685397364199 ], [ 3358554.321055542677641, 2211877.219993995502591 ], [ 3358559.330006906297058, 2211872.40452155424282 ], [ 3358565.83360242145136, 2211864.899737904779613 ], [ 3358569.832927666138858, 2211858.232418591156602 ], [ 3358575.346127910073847, 2211848.366043379530311 ], [ 3358577.396020429208875, 2211840.312904344405979 ], [ 3358582.734202713239938, 2211829.362278892658651 ], [ 3358594.106274086982012, 2211818.687177691608667 ], [ 3358598.050132508389652, 2211819.222032410092652 ], [ 3358602.692559965420514, 2211815.280277609359473 ], [ 3358615.789487454108894, 2211814.032805427443236 ], [ 3358621.886897929944098, 2211814.702487077564001 ], [ 3358634.893242153804749, 2211821.068567217327654 ], [ 3358644.006102774292231, 2211829.72734712716192 ], [ 3358658.25028122914955, 2211844.389342315960675 ], [ 3358669.940177108161151, 2211853.920403152704239 ], [ 3358681.085345570929348, 2211863.849502463825047 ], [ 3358703.472412060014904, 2211878.017597012687474 ], [ 3358710.167801463976502, 2211883.649450385943055 ], [ 3358716.420496662613004, 2211889.053694750647992 ], [ 3358724.317548906430602, 2211891.438978906255215 ], [ 3358728.837561252526939, 2211894.913561474066228 ], [ 3358734.575571864843369, 2211892.099691832438111 ], [ 3358741.569779820740223, 2211885.118092481978238 ], [ 3358744.803616981953382, 2211883.141662211157382 ], [ 3358748.514943564776331, 2211884.121982513461262 ], [ 3358760.450195428449661, 2211893.914622203912586 ], [ 3358777.969228189438581, 2211908.112604247406125 ], [ 3358801.015733486972749, 2211921.964395041111857 ], [ 3358834.363084730226547, 2211946.802783132530749 ], [ 3358830.663250976242125, 2211952.810551904141903 ], [ 3358827.434206067584455, 2211962.991894427221268 ], [ 3358824.301608516834676, 2211985.718472522683442 ], [ 3358821.934489506296813, 2212003.754087795503438 ], [ 3358820.000149947591126, 2212023.842426493763924 ], [ 3358821.767256177961826, 2212046.736397134140134 ], [ 3358824.356870590243489, 2212066.55044563068077 ], [ 3358826.172421890776604, 2212086.599506198428571 ], [ 3358826.54104230273515, 2212091.398450003471226 ], [ 3358827.763414721470326, 2212096.455361260101199 ], [ 3358831.426736847031862, 2212115.375058696139604 ], [ 3358837.357859391719103, 2212137.651444412302226 ], [ 3358841.614937248639762, 2212150.187614193651825 ], [ 3358845.579163369257003, 2212162.166699492838234 ], [ 3358852.137782643549144, 2212183.929462020285428 ], [ 3358859.936029586941004, 2212204.566821340005845 ], [ 3358864.391333712264895, 2212213.928305884823203 ], [ 3358872.480944161303341, 2212226.309618437662721 ], [ 3358878.398369661066681, 2212235.925271448679268 ], [ 3358885.134411981794983, 2212246.210077896248549 ], [ 3358892.296736476477236, 2212259.764397008344531 ], [ 3358897.835144731681794, 2212269.546876725275069 ], [ 3358902.592558623291552, 2212280.781028843019158 ], [ 3358905.356700649019331, 2212286.584792979992926 ], [ 3358904.626462223008275, 2212290.864365976769477 ], [ 3358906.547482606489211, 2212291.444652038626373 ], [ 3358911.099721360951662, 2212291.975812234450132 ], [ 3358915.664784846827388, 2212293.214000513311476 ], [ 3358922.458950727246702, 2212298.82871521031484 ], [ 3358927.380155963357538, 2212304.158968450501561 ], [ 3358929.946776319760829, 2212309.996825241483748 ], [ 3358932.00970754865557, 2212317.745222704485059 ], [ 3358931.919189461506903, 2212325.358775328844786 ], [ 3358932.38069239910692, 2212328.216986450832337 ], [ 3358932.360415360890329, 2212335.007970378734171 ], [ 3358932.958417346701026, 2212339.970042637083679 ], [ 3358935.181607100181282, 2212342.422781180590391 ], [ 3358938.055109417997301, 2212343.243791529908776 ], [ 3358944.468426185194403, 2212340.212151024490595 ], [ 3358951.452169192954898, 2212338.196217098273337 ], [ 3358959.983399932738394, 2212338.851055652368814 ], [ 3358969.441535227466375, 2212341.473434188403189 ], [ 3358979.663942030631006, 2212345.685997514054179 ], [ 3358990.080589755903929, 2212350.472971939947456 ], [ 3359002.335162015631795, 2212355.95557964220643 ], [ 3359013.471649034880102, 2212361.428658211138099 ], [ 3359026.500536064151675, 2212366.676521176006645 ], [ 3359034.939119243528694, 2212369.272167237009853 ], [ 3359046.401580054778606, 2212369.218481837771833 ], [ 3359057.181923334486783, 2212370.599503847304732 ], [ 3359073.641749201342463, 2212376.977299413178116 ], [ 3359089.06934346864, 2212382.621608615852892 ], [ 3359111.722139301709831, 2212390.260454578325152 ], [ 3359120.985854669474065, 2212392.308574476279318 ], [ 3359133.670711412094533, 2212397.311815345194191 ], [ 3359138.856755058746785, 2212399.25318105192855 ], [ 3359152.064427247270942, 2212401.836160291917622 ], [ 3359162.899298718199134, 2212402.296037031337619 ], [ 3359183.952421738766134, 2212392.482628426514566 ], [ 3359192.363767395261675, 2212387.991707350127399 ], [ 3359207.058407020755112, 2212377.148338582366705 ], [ 3359224.623271766118705, 2212367.734500254504383 ], [ 3359233.480586163699627, 2212362.862600983120501 ], [ 3359256.916822889819741, 2212353.347066407557577 ], [ 3359277.220618522260338, 2212348.323094121180475 ], [ 3359293.000497938133776, 2212343.573498331476003 ], [ 3359306.562779283151031, 2212341.435265323147178 ], [ 3359320.937584140338004, 2212338.042543665040284 ], [ 3359333.964927292428911, 2212334.477064218837768 ], [ 3359337.316707273479551, 2212331.973673191387206 ], [ 3359357.25449548009783, 2212324.682987561449409 ], [ 3359368.63472639862448, 2212321.604507773183286 ], [ 3359386.950591618195176, 2212316.214549255091697 ], [ 3359395.476531499065459, 2212311.805204305797815 ], [ 3359404.174777129665017, 2212305.947849705349654 ], [ 3359408.332665438763797, 2212303.406645556911826 ], [ 3359419.987170744221658, 2212298.254739022348076 ] ] ], [ [ [ 3360324.96785279456526, 2212344.069694550242275 ], [ 3360320.323442652821541, 2212342.338680409826338 ], [ 3360308.286951213143766, 2212345.124975085258484 ], [ 3360292.392845876514912, 2212346.652308205142617 ], [ 3360286.741386731620878, 2212345.601506527047604 ], [ 3360273.300429574679583, 2212346.604194468352944 ], [ 3360270.289815925061703, 2212346.819730516057462 ], [ 3360256.115206638351083, 2212352.710444228257984 ], [ 3360251.285243121441454, 2212354.860825098119676 ], [ 3360240.702856221236289, 2212362.481279694009572 ], [ 3360248.851203893776983, 2212373.110572322271764 ], [ 3360256.149098749272525, 2212376.815068999771029 ], [ 3360262.041287693660706, 2212385.016842678654939 ], [ 3360270.243417717050761, 2212391.806835300754756 ], [ 3360275.903397698886693, 2212397.31366330338642 ], [ 3360283.723103404045105, 2212404.878886219579726 ], [ 3360294.409698096569628, 2212414.481872784905136 ], [ 3360299.060242785606533, 2212418.136813141405582 ], [ 3360311.938835796900094, 2212426.855099781416357 ], [ 3360320.651109143160284, 2212430.518024977296591 ], [ 3360332.061494294088334, 2212437.058480303734541 ], [ 3360333.881629999727011, 2212438.133301025722176 ], [ 3360333.881629999727011, 2212340.584330349229276 ], [ 3360324.96785279456526, 2212344.069694550242275 ] ] ] ] } },
{ "type": "Feature", "properties": { "ENP_GRAL": 6.0, "ENP_GRAL_NAME": "Otros Espacios Naturales Protegidos", "color": "#7F8F0D" }, "geometry": { "type": "MultiPolygon", "coordinates": [ [ [ [ 3352360.247078873217106, 2215296.134092445950955 ], [ 3352361.225767875090241, 2215288.366400236729532 ], [ 3352361.710294808726758, 2215283.824840282090008 ], [ 3352361.784074749331921, 2215279.252926608547568 ], [ 3352363.384556383360177, 2215262.76605548709631 ], [ 3352363.397605614271015, 2215257.191486639901996 ], [ 3352361.84668824262917, 2215250.620269045233727 ], [ 3352361.776795360259712, 2215249.67025841679424 ], [ 3352359.783393256366253, 2215241.099139497615397 ], [ 3352354.263315609656274, 2215230.806847278494388 ], [ 3352348.313430516049266, 2215220.994068331550807 ], [ 3352341.662461183965206, 2215213.126278034877032 ], [ 3352335.665790024213493, 2215205.555472367443144 ], [ 3352334.963604496791959, 2215204.962614230345935 ], [ 3352326.372957729268819, 2215193.883805525489151 ], [ 3352318.288673965260386, 2215183.426721564494073 ], [ 3352307.550751583650708, 2215170.996628767345101 ], [ 3352299.928415277972817, 2215160.257110559381545 ], [ 3352286.827487890142947, 2215140.737859801854938 ], [ 3352282.753615465015173, 2215133.741843580268323 ], [ 3352279.921998147387058, 2215128.152149761561304 ], [ 3352277.348443211056292, 2215123.531121965963393 ], [ 3352273.666324679739773, 2215117.075112631078809 ], [ 3352263.744309327099472, 2215102.781717555131763 ], [ 3352259.858325652778149, 2215097.576908323448151 ], [ 3352253.357093979138881, 2215089.379108482971787 ], [ 3352247.906728328205645, 2215084.545878062024713 ], [ 3352241.825698302127421, 2215080.834749395959079 ], [ 3352238.496782468631864, 2215079.079717591404915 ], [ 3352230.781766721047461, 2215073.421751222573221 ], [ 3352221.02808900969103, 2215064.570274371653795 ], [ 3352211.889029552228749, 2215057.63870866689831 ], [ 3352206.495856229681522, 2215054.416635782457888 ], [ 3352199.156738423742354, 2215049.200507613830268 ], [ 3352186.092999038286507, 2215041.224828701931983 ], [ 3352169.802215304691344, 2215034.009189140517265 ], [ 3352149.727157230488956, 2215024.104044903069735 ], [ 3352136.16628052201122, 2215019.962805037852377 ], [ 3352125.039138029329479, 2215015.806369152851403 ], [ 3352117.1102329865098, 2215013.225010119844228 ], [ 3352106.209281797520816, 2215009.839916611555964 ], [ 3352088.261781035456806, 2215004.937010820489377 ], [ 3352076.81929101748392, 2215001.341534991748631 ], [ 3352072.655794867314398, 2214998.818759365007281 ], [ 3352070.907692075707018, 2214990.509210094343871 ], [ 3352071.969338922761381, 2214979.485010786913335 ], [ 3352073.528145070653409, 2214967.767236133106053 ], [ 3352074.369894323404878, 2214957.895593791734427 ], [ 3352075.660814093891531, 2214950.175277666188776 ], [ 3352079.72999647539109, 2214936.402671285439283 ], [ 3352082.461000283248723, 2214926.913844280410558 ], [ 3352083.207547137048095, 2214913.310009482782334 ], [ 3352084.568555058911443, 2214904.7671730783768 ], [ 3352083.06875206483528, 2214896.110586940310895 ], [ 3352079.661253592930734, 2214884.440294303465635 ], [ 3352076.976086454931647, 2214879.129351880401373 ], [ 3352070.134516637772322, 2214866.937874891795218 ], [ 3352066.063801827840507, 2214859.333334007766098 ], [ 3352063.025363203138113, 2214852.4622877468355 ], [ 3352060.270422725472599, 2214844.833061312325299 ], [ 3352059.894591377582401, 2214844.391619808040559 ], [ 3352054.746266070753336, 2214847.712606231682003 ], [ 3352050.10439847689122, 2214851.655299799051136 ], [ 3352039.676647203974426, 2214864.398809432517737 ], [ 3352035.457893702201545, 2214875.360439146403223 ], [ 3352031.65018714312464, 2214886.35237236507237 ], [ 3352028.505103445146233, 2214896.419414321891963 ], [ 3352027.759344312828034, 2214900.600743155460805 ], [ 3352027.251564094331115, 2214915.682954221963882 ], [ 3352027.273169044405222, 2214923.987034207209945 ], [ 3352028.301404769998044, 2214931.610631994903088 ], [ 3352029.039941830560565, 2214938.068400578573346 ], [ 3352029.873510896228254, 2214951.399259977973998 ], [ 3352029.993366435635835, 2214965.967786458786577 ], [ 3352027.746245748829097, 2214980.337556402664632 ], [ 3352026.646640136837959, 2214986.099743947386742 ], [ 3352022.558610685635358, 2214997.241439010947943 ], [ 3352018.620241621509194, 2215008.05333579191938 ], [ 3352014.835052938200533, 2215014.786073561757803 ], [ 3352014.236044836230576, 2215016.105440924409777 ], [ 3352021.836662250570953, 2215021.681737107690424 ], [ 3352031.488548893481493, 2215028.018010223284364 ], [ 3352035.499031587038189, 2215031.478951247408986 ], [ 3352042.198050352279097, 2215036.501707424409688 ], [ 3352048.967147353105247, 2215040.701939263381064 ], [ 3352051.426316450349987, 2215042.100649817846715 ], [ 3352051.525072931312025, 2215042.083588247187436 ], [ 3352070.117117517627776, 2215034.008340292610228 ], [ 3352082.314856887795031, 2215034.737730933818966 ], [ 3352087.465919081121683, 2215037.089891392737627 ], [ 3352099.121809860691428, 2215040.749610975850374 ], [ 3352106.74176892824471, 2215042.675137137062848 ], [ 3352118.939314355142415, 2215046.545327747240663 ], [ 3352131.331047764979303, 2215050.989962141960859 ], [ 3352141.241176330018789, 2215055.154021506197751 ], [ 3352153.460817357525229, 2215061.04659509472549 ], [ 3352161.086984860245138, 2215064.896136722061783 ], [ 3352167.773328606970608, 2215069.21188798174262 ], [ 3352175.612521151546389, 2215076.266600493341684 ], [ 3352190.26199189061299, 2215092.174922571517527 ], [ 3352198.043510427698493, 2215103.900081691332161 ], [ 3352205.239058800041676, 2215114.510595764499158 ], [ 3352215.16080561792478, 2215131.944895737338811 ], [ 3352220.42929158359766, 2215140.051620410755277 ], [ 3352226.40155378356576, 2215148.74596358044073 ], [ 3352229.04216032102704, 2215153.152980737853795 ], [ 3352233.259308855980635, 2215161.036077925935388 ], [ 3352238.164528032764792, 2215169.408293444663286 ], [ 3352242.470899642445147, 2215175.958884034771472 ], [ 3352246.65955251082778, 2215183.036386352963746 ], [ 3352253.976172415539622, 2215192.511525093577802 ], [ 3352259.970687210094184, 2215203.228525939397514 ], [ 3352265.917414174415171, 2215213.649636079091579 ], [ 3352271.341763001866639, 2215223.350474850274622 ], [ 3352289.959445481188595, 2215253.770384857896715 ], [ 3352293.154245939105749, 2215259.094607037957758 ], [ 3352295.683027167804539, 2215265.952401546761394 ], [ 3352297.434602860826999, 2215273.653469243086874 ], [ 3352295.588777515571564, 2215289.878896876703948 ], [ 3352293.208161803893745, 2215301.536131728440523 ], [ 3352290.88853033259511, 2215307.914355262182653 ], [ 3352284.975106055382639, 2215319.067566944286227 ], [ 3352281.989722616039217, 2215323.838455704506487 ], [ 3352272.467573454137892, 2215327.104668579529971 ], [ 3352254.522375977598131, 2215334.156421905383468 ], [ 3352247.226910971105099, 2215339.266780481673777 ], [ 3352240.097136563621461, 2215344.145986946299672 ], [ 3352229.975766795687377, 2215351.872077674604952 ], [ 3352226.868700553663075, 2215364.060095524415374 ], [ 3352224.507205846719444, 2215378.348340034484863 ], [ 3352223.687701938208193, 2215387.101498559582978 ], [ 3352222.176779623143375, 2215399.115181859582663 ], [ 3352220.357249468099326, 2215407.332007478922606 ], [ 3352215.212210542522371, 2215410.044560664799064 ], [ 3352198.786886187735945, 2215412.67995599610731 ], [ 3352173.524553048424423, 2215416.537839240394533 ], [ 3352155.363247518893331, 2215414.711355385836214 ], [ 3352137.753346711862832, 2215411.26958120893687 ], [ 3352127.40664481325075, 2215408.802109803538769 ], [ 3352118.232205147854984, 2215405.422703117132187 ], [ 3352107.283793680835515, 2215398.601321775931865 ], [ 3352093.825080579612404, 2215390.693809819873422 ], [ 3352080.643478914629668, 2215383.244999987073243 ], [ 3352069.491253204178065, 2215374.533846649806947 ], [ 3352057.399366905447096, 2215363.148009110242128 ], [ 3352044.428423695266247, 2215350.090574557427317 ], [ 3352036.895650506485254, 2215334.877819722983986 ], [ 3352037.588216407224536, 2215319.054314118809998 ], [ 3352035.889340271241963, 2215289.054693561978638 ], [ 3352035.864351951517165, 2215281.359161459375173 ], [ 3352037.053678011521697, 2215267.982718620914966 ], [ 3352036.92946304846555, 2215266.585767157841474 ], [ 3352039.437244766857475, 2215258.857817658223212 ], [ 3352030.921543646603823, 2215264.584384040441364 ], [ 3352025.346756206825376, 2215264.635585549753159 ], [ 3352011.559049275703728, 2215269.145468946080655 ], [ 3352008.940111339557916, 2215273.04265101114288 ], [ 3352005.508255437482148, 2215284.47618494881317 ], [ 3352002.168988320976496, 2215293.968938937876374 ], [ 3352000.087803404312581, 2215304.966595282778144 ], [ 3352002.498027087654918, 2215321.773567014373839 ], [ 3352003.045420659705997, 2215330.189472529105842 ], [ 3352005.083229709882289, 2215342.805752036161721 ], [ 3352010.157014602329582, 2215356.619668613187969 ], [ 3352013.962898787111044, 2215367.613384693861008 ], [ 3352016.717914027627558, 2215375.242624722421169 ], [ 3352019.613052335567772, 2215384.367283682338893 ], [ 3352023.826632270589471, 2215395.999669995624572 ], [ 3352028.116943145636469, 2215405.592495023738593 ], [ 3352033.121074178721756, 2215413.947729562874883 ], [ 3352039.316509862896055, 2215420.881057417951524 ], [ 3352044.292178105562925, 2215425.289711898192763 ], [ 3352050.561137027107179, 2215430.79212677013129 ], [ 3352057.999151420313865, 2215435.99125109706074 ], [ 3352063.159634489566088, 2215439.658668152987957 ], [ 3352067.04603209067136, 2215441.722734661772847 ], [ 3352071.620271833147854, 2215444.275754455476999 ], [ 3352081.661138181574643, 2215448.620031307451427 ], [ 3352089.344660550355911, 2215450.939712373539805 ], [ 3352099.570493810344487, 2215451.401853140443563 ], [ 3352105.122965003829449, 2215452.468871275428683 ], [ 3352111.143683669622988, 2215455.177350998390466 ], [ 3352113.609066670760512, 2215458.499975688755512 ], [ 3352111.449129950255156, 2215459.582450329326093 ], [ 3352099.158961808308959, 2215460.794056719169021 ], [ 3352087.799036245327443, 2215460.223804502747953 ], [ 3352082.456677300855517, 2215459.829795762430876 ], [ 3352069.746022139675915, 2215459.695641817059368 ], [ 3352056.799692725297064, 2215457.474485432263464 ], [ 3352047.609280472621322, 2215457.137410508003086 ], [ 3352036.991661868989468, 2215456.135076089762151 ], [ 3352024.851052199024707, 2215457.016914340667427 ], [ 3352003.902357874438167, 2215456.786324513144791 ], [ 3351983.785296180285513, 2215454.791218350641429 ], [ 3351971.05240140017122, 2215452.634520040825009 ], [ 3351958.950222735758871, 2215452.496680662967265 ], [ 3351945.77449354249984, 2215453.253428264521062 ], [ 3351931.652557153720409, 2215452.552609813865274 ], [ 3351906.01799251884222, 2215449.079122595489025 ], [ 3351897.99348442396149, 2215449.047112333122641 ], [ 3351889.347754389047623, 2215448.312010586261749 ], [ 3351882.49808205710724, 2215456.182259934954345 ], [ 3351878.987140475772321, 2215460.841571656055748 ], [ 3351869.725074690300971, 2215480.171905565075576 ], [ 3351869.265784461982548, 2215489.268336988519877 ], [ 3351872.555191502906382, 2215507.747231027111411 ], [ 3351873.994723789859563, 2215512.260348307900131 ], [ 3351875.647704339586198, 2215516.838004514575005 ], [ 3351877.434827301651239, 2215517.846137602347881 ], [ 3351882.726102978922427, 2215518.552998328115791 ], [ 3351883.985035627614707, 2215518.479357352945954 ], [ 3351891.030955637339503, 2215518.435249965637922 ], [ 3351901.916475203353912, 2215515.439860900398344 ], [ 3351909.845476476475596, 2215514.880576161202043 ], [ 3351917.277887881733477, 2215511.873999883420765 ], [ 3351926.443285635206848, 2215507.65617509977892 ], [ 3351936.506936179008335, 2215504.600261204410344 ], [ 3351947.31279313378036, 2215501.112272965256125 ], [ 3351955.162263717036694, 2215500.059956907760352 ], [ 3351967.219947634264827, 2215499.293841506354511 ], [ 3351982.46629851590842, 2215498.787142160348594 ], [ 3351995.639002475887537, 2215498.638913976028562 ], [ 3352003.625281045679003, 2215499.690592100378126 ], [ 3352012.930301020853221, 2215503.249947612173855 ], [ 3352024.6307347365655, 2215507.813864529598504 ], [ 3352038.796916632913053, 2215512.559568019583821 ], [ 3352049.854179508984089, 2215514.397778967861086 ], [ 3352065.412474881857634, 2215517.07939837127924 ], [ 3352077.664520829916, 2215516.887516691349447 ], [ 3352092.894972097594291, 2215516.282378631643951 ], [ 3352109.549477486871183, 2215516.9508419749327 ], [ 3352126.162729250267148, 2215516.106910794042051 ], [ 3352141.520955909974873, 2215510.008585386909544 ], [ 3352148.144353612326086, 2215504.507722876500338 ], [ 3352157.020153029356152, 2215495.983525360934436 ], [ 3352169.259938829112798, 2215488.802933235652745 ], [ 3352189.629389530979097, 2215480.420546267647296 ], [ 3352207.125318185891956, 2215474.358390824869275 ], [ 3352229.508112875279039, 2215467.755604075733572 ], [ 3352251.279232957400382, 2215461.765182157512754 ], [ 3352273.241596460342407, 2215453.816947543527931 ], [ 3352279.746996631845832, 2215448.843074975069612 ], [ 3352290.333497788757086, 2215440.225899641402066 ], [ 3352300.926577270030975, 2215430.391811809502542 ], [ 3352309.783246658276767, 2215422.377543030772358 ], [ 3352323.109745081979781, 2215408.727836252655834 ], [ 3352331.431632899213582, 2215396.145477453712374 ], [ 3352339.189847398549318, 2215381.330159563105553 ], [ 3352343.211180244106799, 2215367.261955093592405 ], [ 3352348.296423130203038, 2215354.124313801527023 ], [ 3352353.171477830503136, 2215340.313784008845687 ], [ 3352355.899174569174647, 2215331.433407557196915 ], [ 3352357.397376973181963, 2215318.712947600521147 ], [ 3352359.434064440894872, 2215306.811192856635898 ], [ 3352360.247078873217106, 2215296.134092445950955 ] ] ], [ [ [ 3351252.406536001246423, 2216680.242314425297081 ], [ 3351255.83170617185533, 2216666.884481863118708 ], [ 3351260.018116800114512, 2216655.725407788529992 ], [ 3351264.169580378569663, 2216644.977744968608022 ], [ 3351267.540356824174523, 2216632.541173966601491 ], [ 3351270.220149900764227, 2216620.224004998803139 ], [ 3351271.975792145822197, 2216608.471796804107726 ], [ 3351275.1908880607225, 2216594.441160801798105 ], [ 3351279.320053982548416, 2216578.53008775273338 ], [ 3351280.527823218144476, 2216567.784410378430039 ], [ 3351282.487727183848619, 2216554.781109798699617 ], [ 3351285.778934103436768, 2216541.851820888463408 ], [ 3351289.204131303355098, 2216528.49391081975773 ], [ 3351292.944587271194905, 2216517.715974234975874 ], [ 3351293.929372862912714, 2216508.731225584633648 ], [ 3351294.869818183127791, 2216495.701559963170439 ], [ 3351296.332460262347013, 2216486.532925582956523 ], [ 3351298.62050364818424, 2216470.534846938215196 ], [ 3351301.32873454503715, 2216459.023125710897148 ], [ 3351302.670484152622521, 2216447.849248547572643 ], [ 3351302.667353144846857, 2216445.31686537200585 ], [ 3351301.823658213019371, 2216436.951924584805965 ], [ 3351316.006187457591295, 2216432.37371688336134 ], [ 3351318.39142044307664, 2216385.558517653960735 ], [ 3351313.747878168243915, 2216361.842203373089433 ], [ 3351313.43326829187572, 2216349.839959688484669 ], [ 3351312.127970000728965, 2216332.335056150332093 ], [ 3351313.129310333169997, 2216310.885496593080461 ], [ 3351315.082654973492026, 2216302.240095810964704 ], [ 3351317.495010731741786, 2216287.639008213765919 ], [ 3351318.655283983331174, 2216273.456805330701172 ], [ 3351317.528189845848829, 2216259.568627364002168 ], [ 3351316.550921772606671, 2216248.491330253425986 ], [ 3351314.19100803649053, 2216234.512225680053234 ], [ 3351314.115564551670104, 2216217.7067841431126 ], [ 3351314.256447597406805, 2216203.497998001985252 ], [ 3351313.779459841083735, 2216187.977846497669816 ], [ 3351313.223352310713381, 2216165.682947858702391 ], [ 3351312.797141835093498, 2216152.990793303120881 ], [ 3351314.39065606566146, 2216137.720481954980642 ], [ 3351313.684306156821549, 2216125.178052891045809 ], [ 3351314.051261542830616, 2216114.881767668295652 ], [ 3351314.895959167741239, 2216104.401516491081566 ], [ 3351316.645263549406081, 2216097.007091090548784 ], [ 3351319.528526593931019, 2216092.861494445707649 ], [ 3351323.784896131139249, 2216087.161523880437016 ], [ 3351318.124234035611153, 2216081.655366228893399 ], [ 3351313.938644459471107, 2216077.110130502842367 ], [ 3351308.374318632297218, 2216059.63227410055697 ], [ 3351307.779421182814986, 2216047.779710287693888 ], [ 3351305.728603709489107, 2216034.456333896610886 ], [ 3351302.011441820766777, 2216025.271015761885792 ], [ 3351298.750060259364545, 2216013.879195251036435 ], [ 3351295.892949325032532, 2216006.875449563376606 ], [ 3351293.275006767828017, 2215998.209516437724233 ], [ 3351292.176344102714211, 2215991.408512899652123 ], [ 3351286.181124883703887, 2215986.973330236971378 ], [ 3351283.174263830296695, 2215983.440324001479894 ], [ 3351283.171816150657833, 2215971.485397120472044 ], [ 3351288.912577756680548, 2215964.921148837544024 ], [ 3351296.189401374198496, 2215950.897814474534243 ], [ 3351299.139714885037392, 2215943.397196451202035 ], [ 3351303.081035267561674, 2215931.976635839324445 ], [ 3351309.866750427521765, 2215926.852700287476182 ], [ 3351313.390117983333766, 2215926.041372324340045 ], [ 3351314.135528032667935, 2215925.000726298429072 ], [ 3351314.120388697832823, 2215912.338686237111688 ], [ 3351313.372368043288589, 2215901.4245460992679 ], [ 3351312.729436807800084, 2215892.417260622605681 ], [ 3351312.917937435209751, 2215884.785959366243333 ], [ 3351311.481848366092891, 2215873.382711886428297 ], [ 3351311.265657089650631, 2215867.645134016871452 ], [ 3351312.259928493760526, 2215859.975923805031925 ], [ 3351313.695170404855162, 2215854.939314755611122 ], [ 3351314.203552863560617, 2215853.155841854866594 ], [ 3351316.583715916145593, 2215844.639169231522828 ], [ 3351313.369792443234473, 2215839.82482834905386 ], [ 3351311.350166441872716, 2215839.262048044241965 ], [ 3351310.815470725297928, 2215838.505810819100589 ], [ 3351304.903038948774338, 2215830.143077326007187 ], [ 3351304.299921781755984, 2215820.998219619505107 ], [ 3351304.202798294369131, 2215819.524637815542519 ], [ 3351301.562703848350793, 2215808.836014333646744 ], [ 3351297.473037926480174, 2215798.600592782255262 ], [ 3351293.832504674326628, 2215787.375619201920927 ], [ 3351288.63101775245741, 2215779.054684545379132 ], [ 3351287.87807837035507, 2215777.963515766430646 ], [ 3351283.19676691154018, 2215771.179335451219231 ], [ 3351279.173870537430048, 2215763.870450779795647 ], [ 3351278.181665723212063, 2215762.008776422124356 ], [ 3351273.78435484552756, 2215753.758211143314838 ], [ 3351269.783526089042425, 2215748.471941628027707 ], [ 3351265.056336518377066, 2215743.716443324927241 ], [ 3351262.323257803916931, 2215741.250511207152158 ], [ 3351260.192363725509495, 2215739.506155979819596 ], [ 3351252.614078843966126, 2215733.303083652630448 ], [ 3351247.030030624940991, 2215728.898273038677871 ], [ 3351240.547527025919408, 2215723.331592414993793 ], [ 3351235.670688785612583, 2215718.905901738908142 ], [ 3351232.211287569254637, 2215713.829929355531931 ], [ 3351229.972459675278515, 2215704.996986621059477 ], [ 3351230.600318092852831, 2215701.342531328089535 ], [ 3351234.541441505774856, 2215693.062731937970966 ], [ 3351241.706443330738693, 2215684.631256281863898 ], [ 3351251.557000494096428, 2215675.229173853993416 ], [ 3351261.831317101139575, 2215663.423501155339181 ], [ 3351268.164728766772896, 2215656.756680976599455 ], [ 3351275.776112486142665, 2215644.803439517039806 ], [ 3351283.431657149922103, 2215636.895016596652567 ], [ 3351289.898820935748518, 2215629.799929670058191 ], [ 3351301.097144014202058, 2215617.42945994110778 ], [ 3351311.415865999646485, 2215609.668786671943963 ], [ 3351328.587544760666788, 2215593.429374929517508 ], [ 3351331.480558053590357, 2215587.458438625559211 ], [ 3351334.937531661707908, 2215577.438631247729063 ], [ 3351337.257429671473801, 2215567.919444770552218 ], [ 3351339.987796227447689, 2215561.571248697116971 ], [ 3351345.959123603999615, 2215539.465865278150886 ], [ 3351347.498420594260097, 2215531.398566279560328 ], [ 3351348.913492075633258, 2215521.934308054391295 ], [ 3351352.688652102835476, 2215517.026752127334476 ], [ 3351360.490843223873526, 2215509.396974266506732 ], [ 3351371.848276428878307, 2215501.153118390124291 ], [ 3351379.341053180862218, 2215496.008289859630167 ], [ 3351387.461784894578159, 2215490.350004165899009 ], [ 3351390.462637953925878, 2215488.818148877937347 ], [ 3351392.161695819348097, 2215486.239198818802834 ], [ 3351396.414034225977957, 2215479.785998399369419 ], [ 3351400.017412954475731, 2215473.185761354863644 ], [ 3351401.219223214313388, 2215460.516253750771284 ], [ 3351402.071226160041988, 2215454.507412089034915 ], [ 3351402.927599846385419, 2215448.4684340916574 ], [ 3351405.311350564472377, 2215436.202608559280634 ], [ 3351408.564237805083394, 2215430.574777918867767 ], [ 3351413.215825673192739, 2215424.806595397181809 ], [ 3351420.036512048449367, 2215419.271531062666327 ], [ 3351428.316602386534214, 2215411.457995589356869 ], [ 3351436.663413262926042, 2215403.430303530301899 ], [ 3351443.016019225586206, 2215396.253549362998456 ], [ 3351438.693702614400536, 2215389.60450783977285 ], [ 3351435.941741282586008, 2215384.507622465025634 ], [ 3351433.721528733149171, 2215381.446594752836972 ], [ 3351435.909223965834826, 2215377.076154985465109 ], [ 3351441.549705973826349, 2215365.808417513500899 ], [ 3351452.505928610917181, 2215355.708831151947379 ], [ 3351458.944468539208174, 2215350.948917486704886 ], [ 3351462.441880406346172, 2215347.32076860871166 ], [ 3351467.030217458959669, 2215342.561186064500362 ], [ 3351474.255637318827212, 2215335.132427242584527 ], [ 3351481.930525683332235, 2215327.670186099596322 ], [ 3351482.239381927531213, 2215327.370118705090135 ], [ 3351487.703049941919744, 2215323.487859207205474 ], [ 3351493.794232521206141, 2215319.091917324345559 ], [ 3351501.500969427637756, 2215310.870897854212672 ], [ 3351506.955378511920571, 2215302.532454750966281 ], [ 3351510.291575766168535, 2215290.507468683645129 ], [ 3351513.164424587972462, 2215285.442783719394356 ], [ 3351514.242238072678447, 2215283.543213511817157 ], [ 3351518.033835014794022, 2215275.593488940037787 ], [ 3351523.701569326687604, 2215267.319409982766956 ], [ 3351529.955579656176269, 2215260.159926669672132 ], [ 3351537.780130554921925, 2215251.411889211274683 ], [ 3351544.27607882861048, 2215245.122449336573482 ], [ 3351549.179332439787686, 2215238.398880707100034 ], [ 3351556.828434607945383, 2215231.707677506376058 ], [ 3351568.749753263313323, 2215222.55577574763447 ], [ 3351579.877902297303081, 2215214.148913681972772 ], [ 3351594.00073737744242, 2215202.28639985434711 ], [ 3351599.986996534280479, 2215195.983721644151956 ], [ 3351603.249365134630352, 2215191.671395585872233 ], [ 3351613.04755278956145, 2215184.144067691639066 ], [ 3351613.195051237940788, 2215184.030945910606533 ], [ 3351619.414333499036729, 2215179.253335962072015 ], [ 3351628.261287773959339, 2215173.064303896855563 ], [ 3351633.285902500152588, 2215171.813412828370929 ], [ 3351642.899487286806107, 2215169.420638307463378 ], [ 3351651.937462249770761, 2215164.414292687550187 ], [ 3351657.655569786671549, 2215161.207246526610106 ], [ 3351662.641713001299649, 2215158.410854626446962 ], [ 3351676.910645489115268, 2215153.108741461765021 ], [ 3351688.895392447710037, 2215147.49196903873235 ], [ 3351708.200881581753492, 2215141.319588977377862 ], [ 3351725.222186141181737, 2215134.832551820203662 ], [ 3351741.348321506753564, 2215129.716066124849021 ], [ 3351759.344249127432704, 2215125.492324429564178 ], [ 3351780.009922301396728, 2215120.199344888795167 ], [ 3351806.307980908080935, 2215113.325581242330372 ], [ 3351823.695427952799946, 2215109.105475501623005 ], [ 3351839.324569763615727, 2215104.682885422371328 ], [ 3351853.943733041640371, 2215101.549158829730004 ], [ 3351873.347906728740782, 2215095.359807044267654 ], [ 3351890.926507547032088, 2215092.322585686575621 ], [ 3351924.341498964000493, 2215083.003335419110954 ], [ 3351947.600409423932433, 2215075.540055921766907 ], [ 3351968.269255169201642, 2215069.638729799538851 ], [ 3351978.492439950816333, 2215064.427701774053276 ], [ 3351986.829420952126384, 2215024.285149555187672 ], [ 3351990.364023744128644, 2215002.803722719661891 ], [ 3351990.623556423000991, 2214984.927564558107406 ], [ 3351998.754793218336999, 2214968.021498954854906 ], [ 3352003.95185290556401, 2214952.432979989796877 ], [ 3352006.440939308144152, 2214938.933443545363843 ], [ 3352009.025641488842666, 2214926.02527954056859 ], [ 3352018.457061788067222, 2214902.714408013038337 ], [ 3352027.686727056279778, 2214892.609321093652397 ], [ 3352031.348843564279377, 2214871.916425067000091 ], [ 3352032.851013473235071, 2214852.30599655257538 ], [ 3352034.131118486169726, 2214821.893062398768961 ], [ 3352033.431439177598804, 2214808.133930863346905 ], [ 3352031.962219806388021, 2214778.297403938136995 ], [ 3352028.854977466631681, 2214756.544996318407357 ], [ 3352024.743666779715568, 2214741.14645014051348 ], [ 3352024.164733835030347, 2214732.533410961274058 ], [ 3352018.410687643568963, 2214704.450299315620214 ], [ 3352009.661285285837948, 2214686.104400306940079 ], [ 3351991.464004582725465, 2214660.171001489274204 ], [ 3351977.531937746331096, 2214639.275875659659505 ], [ 3351959.89192797197029, 2214616.792319438420236 ], [ 3351935.962906785309315, 2214598.738645056262612 ], [ 3351904.88163010077551, 2214586.682600472122431 ], [ 3351869.158852091990411, 2214575.428242583293468 ], [ 3351850.871107346378267, 2214563.39069511089474 ], [ 3351836.776076866313815, 2214548.399884104728699 ], [ 3351824.598236200399697, 2214537.738124380353838 ], [ 3351823.359165277332067, 2214537.02526274882257 ], [ 3351815.13449385901913, 2214530.052368964068592 ], [ 3351797.761289274785668, 2214522.296640693675727 ], [ 3351796.317565447185189, 2214521.652265832293779 ], [ 3351752.722100222483277, 2214555.931262635625899 ], [ 3351759.548336208797991, 2214561.742542651481926 ], [ 3351769.919636607170105, 2214575.04653666773811 ], [ 3351774.932851201388985, 2214584.717057549394667 ], [ 3351786.581598681397736, 2214599.01613225415349 ], [ 3351802.960202836431563, 2214620.603233691770583 ], [ 3351815.150066991336644, 2214638.253424786031246 ], [ 3351822.622122695669532, 2214655.604224609211087 ], [ 3351830.623295563273132, 2214669.317800634074956 ], [ 3351837.553836587816477, 2214683.317456723656505 ], [ 3351849.202604103367776, 2214697.616536035202444 ], [ 3351861.758613568730652, 2214717.533716595731676 ], [ 3351871.501912754029036, 2214734.492234798613936 ], [ 3351879.410918870475143, 2214747.005861168727279 ], [ 3351893.244273172691464, 2214767.918043289333582 ], [ 3351904.539006265811622, 2214786.938874759245664 ], [ 3351910.837888596579432, 2214811.483089781366289 ], [ 3351910.900520083494484, 2214813.565432847943157 ], [ 3351911.006500111892819, 2214817.078349055722356 ], [ 3351911.117507328744978, 2214820.755641282536089 ], [ 3351910.059782420750707, 2214822.780990768689662 ], [ 3351905.767918332479894, 2214831.000822473783046 ], [ 3351900.593552678823471, 2214842.330298189539462 ], [ 3351892.972469452768564, 2214852.967919487506151 ], [ 3351882.448501714970917, 2214874.542392967268825 ], [ 3351871.6449433574453, 2214886.844513668678701 ], [ 3351863.571145269088447, 2214902.220748344901949 ], [ 3351850.321188840083778, 2214913.831072389613837 ], [ 3351838.877614979632199, 2214922.798873631749302 ], [ 3351827.271036674268544, 2214937.671212372370064 ], [ 3351815.445399885065854, 2214944.273371438961476 ], [ 3351801.654101756867021, 2214952.532436175271869 ], [ 3351778.308508672751486, 2214967.001467006281018 ], [ 3351771.232557249255478, 2214974.100345531944185 ], [ 3351756.928134687244892, 2214986.095426626037806 ], [ 3351751.747979622334242, 2214989.219229442998767 ], [ 3351735.809511049650609, 2214999.267702226527035 ], [ 3351720.689786332659423, 2215006.844480306375772 ], [ 3351707.764818374067545, 2215016.068379485979676 ], [ 3351696.025111728813499, 2215025.087404766120017 ], [ 3351684.552914531901479, 2215033.249898237641901 ], [ 3351671.61544432118535, 2215041.766565155237913 ], [ 3351666.684101836755872, 2215044.926826164126396 ], [ 3351656.897071938961744, 2215051.199123168364167 ], [ 3351643.707789812237024, 2215060.671348636038601 ], [ 3351627.62245739530772, 2215073.582082728855312 ], [ 3351612.457859268411994, 2215086.536278116516769 ], [ 3351605.439121106639504, 2215095.24626412242651 ], [ 3351597.432921752333641, 2215104.126860151998699 ], [ 3351596.455724189057946, 2215105.309455757960677 ], [ 3351585.71510174870491, 2215118.309340110514313 ], [ 3351573.493968217168003, 2215131.261686820536852 ], [ 3351562.145809340290725, 2215143.961796012241393 ], [ 3351548.4146459531039, 2215156.364528777077794 ], [ 3351534.670989321544766, 2215168.060118348803371 ], [ 3351533.246126360725611, 2215169.500404303427786 ], [ 3351519.923515392001718, 2215182.968819332309067 ], [ 3351508.272617316339165, 2215196.936948950402439 ], [ 3351506.496457405388355, 2215199.10337308049202 ], [ 3351493.177719000726938, 2215215.350425149314106 ], [ 3351478.573784661944956, 2215228.00520984409377 ], [ 3351476.19781737960875, 2215230.315086868125945 ], [ 3351466.027928455732763, 2215240.203198965638876 ], [ 3351442.9080705861561, 2215261.72551147500053 ], [ 3351428.966679347213358, 2215276.596114818938076 ], [ 3351427.273503459058702, 2215278.549122809898108 ], [ 3351422.934179219417274, 2215283.555139507632703 ], [ 3351417.500586722977459, 2215289.823360075242817 ], [ 3351407.066831166855991, 2215300.643197808414698 ], [ 3351402.421731315087527, 2215308.335247179027647 ], [ 3351398.913763461634517, 2215315.526978687383235 ], [ 3351392.694808184169233, 2215324.489732809830457 ], [ 3351390.926506391260773, 2215327.038492865860462 ], [ 3351382.133842690382153, 2215332.306476971600205 ], [ 3351371.174908049404621, 2215336.732862180564553 ], [ 3351350.448815595824271, 2215344.164138369262218 ], [ 3351331.455497634597123, 2215350.384090095758438 ], [ 3351316.766206267289817, 2215357.481548197567463 ], [ 3351296.957318936940283, 2215365.564802965149283 ], [ 3351273.570932671427727, 2215375.380674405954778 ], [ 3351255.561892624478787, 2215385.179288023617119 ], [ 3351239.515115776099265, 2215397.070346750319004 ], [ 3351227.612770596984774, 2215408.853319826535881 ], [ 3351219.829806588590145, 2215415.973107433877885 ], [ 3351208.478459294419736, 2215429.281943880487233 ], [ 3351199.487788970116526, 2215440.865686912555248 ], [ 3351193.950607476290315, 2215449.319921319372952 ], [ 3351191.033885256387293, 2215455.185637145768851 ], [ 3351187.667724211700261, 2215461.955445793457329 ], [ 3351185.023070306982845, 2215470.720426447223872 ], [ 3351183.376846163067967, 2215486.470675762742758 ], [ 3351182.90947537869215, 2215490.943485353607684 ], [ 3351181.363428665790707, 2215506.509460141416639 ], [ 3351179.69944576267153, 2215522.60219376347959 ], [ 3351176.407370640896261, 2215541.813096420839429 ], [ 3351172.168767684139311, 2215568.989002034068108 ], [ 3351167.615291019901633, 2215587.303493361920118 ], [ 3351166.833913873881102, 2215601.318731054197997 ], [ 3351164.213768275920302, 2215624.060938883572817 ], [ 3351160.007211664225906, 2215648.293264355510473 ], [ 3351158.199853719677776, 2215666.63975902274251 ], [ 3351155.799689466133714, 2215685.088789140805602 ], [ 3351151.128420300781727, 2215703.930042614229023 ], [ 3351150.152444924227893, 2215723.652743290178478 ], [ 3351149.918644385412335, 2215742.94315761141479 ], [ 3351147.308408069424331, 2215760.719288083724678 ], [ 3351143.799509873148054, 2215786.755917936563492 ], [ 3351140.517023937311023, 2215807.282445187680423 ], [ 3351139.229032872244716, 2215823.816953818313777 ], [ 3351140.622994896490127, 2215846.270888807717711 ], [ 3351139.526053730398417, 2215863.988089698366821 ], [ 3351136.712092992849648, 2215883.015246775466949 ], [ 3351133.177943076938391, 2215901.356318323407322 ], [ 3351131.259359084069729, 2215915.872055634856224 ], [ 3351130.685153774917126, 2215931.168664143886417 ], [ 3351129.578456446528435, 2215953.852184862829745 ], [ 3351129.497940784785897, 2215969.063493727706373 ], [ 3351127.508922106120735, 2215987.542763397097588 ], [ 3351125.186934175901115, 2216003.144933645613492 ], [ 3351124.490964486263692, 2216007.821100167930126 ], [ 3351124.330859201960266, 2216022.539586711674929 ], [ 3351124.488639289047569, 2216025.252738007344306 ], [ 3351125.702454261016101, 2216046.112015544436872 ], [ 3351125.994160865433514, 2216071.795862682629377 ], [ 3351126.047312297392637, 2216089.719747129362077 ], [ 3351126.039019977673888, 2216089.912871341686696 ], [ 3351125.22111152485013, 2216109.112497098743916 ], [ 3351125.516552127897739, 2216120.822909553069621 ], [ 3351125.860039852559566, 2216134.432614191435277 ], [ 3351126.371690979227424, 2216158.964093907736242 ], [ 3351125.842415796592832, 2216167.958160316571593 ], [ 3351125.396008783951402, 2216175.546017319895327 ], [ 3351125.691232286859304, 2216194.339841752313077 ], [ 3351124.868433273397386, 2216209.983501749113202 ], [ 3351124.985404924489558, 2216228.301548929419369 ], [ 3351124.566992961801589, 2216248.33318214584142 ], [ 3351124.684070689603686, 2216250.484477625228465 ], [ 3351125.4961914322339, 2216265.396400470286608 ], [ 3351125.59706427808851, 2216286.756748385261744 ], [ 3351125.538743334822357, 2216307.131540102418512 ], [ 3351122.017542317509651, 2216326.179583959281445 ], [ 3351122.003769999369979, 2216326.382173491176218 ], [ 3351122.003769999369979, 2216714.003432575147599 ], [ 3351122.14911896083504, 2216715.315032726153731 ], [ 3351122.619937033392489, 2216728.911423762794584 ], [ 3351123.275563428644091, 2216741.766659470740706 ], [ 3351123.17633475875482, 2216754.347167844418436 ], [ 3351123.666486802510917, 2216764.292895955964923 ], [ 3351123.863511607982218, 2216776.822112801019102 ], [ 3351123.831267410423607, 2216786.047573897987604 ], [ 3351124.015344927087426, 2216801.010751537047327 ], [ 3351124.419621185399592, 2216808.539703542366624 ], [ 3351125.292244093492627, 2216814.569178749341518 ], [ 3351126.993085299152881, 2216819.442361816298217 ], [ 3351128.388289582449943, 2216823.051333341281861 ], [ 3351129.235518528614193, 2216827.666853486094624 ], [ 3351138.942137784324586, 2216823.65913155907765 ], [ 3351151.75481432210654, 2216820.026640700176358 ], [ 3351163.124274645000696, 2216818.771108116488904 ], [ 3351174.700732658617198, 2216818.796935700811446 ], [ 3351193.999185858294368, 2216816.981815474107862 ], [ 3351211.752631135750562, 2216815.028410064987838 ], [ 3351219.124127835966647, 2216814.159684205427766 ], [ 3351224.349046787247062, 2216802.517277411185205 ], [ 3351225.601296694483608, 2216792.675636400468647 ], [ 3351225.932989823631942, 2216785.931575804948807 ], [ 3351227.147465874906629, 2216767.687123257666826 ], [ 3351228.1990114916116, 2216758.488173159770668 ], [ 3351233.213732504751533, 2216746.172877792268991 ], [ 3351235.303557706531137, 2216742.772137793246657 ], [ 3351234.97282912582159, 2216730.671310521196574 ], [ 3351241.185375206638128, 2216715.717322792857885 ], [ 3351245.403707768768072, 2216701.614623262546957 ], [ 3351249.258863341063261, 2216690.917950079310685 ], [ 3351252.406536001246423, 2216680.242314425297081 ] ] ] ] } }
]
}
