{
"type": "FeatureCollection",
"name": "Mendavia",
"crs": { "type": "name", "properties": { "name": "urn:ogc:def:crs:EPSG::3035" } },
"features": [
{ "type": "Feature", "properties": { "ENP_GRAL": 5.0, "ENP_GRAL_NAME": "Espacios Protegidos Red Natura 2000", "color": "#A87000" }, "geometry": { "type": "Polygon", "coordinates": [ [ [ 3319772.59521771222353, 2227119.861666138283908 ], [ 3319875.373849468305707, 2227014.861146107316017 ], [ 3319908.164073128253222, 2226966.601963962893933 ], [ 3319923.152967577334493, 2226927.513080131728202 ], [ 3319945.05304551217705, 2226887.224995138589293 ], [ 3319956.820760115515441, 2226834.505355773493648 ], [ 3319951.375464576296508, 2226738.150101905688643 ], [ 3319954.48191666090861, 2226641.322574974969029 ], [ 3319957.588520678691566, 2226544.499879896640778 ], [ 3319957.588621413800865, 2226544.496112277731299 ], [ 3320065.953806650359184, 2226172.983590078074485 ], [ 3320106.473974356427789, 2226090.950652507133782 ], [ 3320188.451556010171771, 2225970.304063404910266 ], [ 3320188.455166268162429, 2225970.298774701543152 ], [ 3320226.468149412423372, 2225929.246703993529081 ], [ 3320226.472380974795669, 2225929.242118339054286 ], [ 3320266.244687749538571, 2225899.029979494400322 ], [ 3320376.490856390446424, 2225846.456669854000211 ], [ 3320376.495751122944057, 2225846.454300303012133 ], [ 3320430.827842115890235, 2225837.956369792111218 ], [ 3320431.748916104435921, 2225837.812273535411805 ], [ 3320435.795658570714295, 2225837.179288266226649 ], [ 3320435.889453819487244, 2225837.163014822639525 ], [ 3320435.89435549871996, 2225837.162569800391793 ], [ 3320563.327436359599233, 2225829.41458486719057 ], [ 3320646.342985686846077, 2225824.372537069953978 ], [ 3320759.548998823855072, 2225817.491976169403642 ], [ 3320873.165924664586782, 2225794.774821364320815 ], [ 3320989.619301820639521, 2225771.49045286886394 ], [ 3320989.623744769953191, 2225771.489682073704898 ], [ 3321015.010040021501482, 2225768.068799474276602 ], [ 3321068.096347563900054, 2225760.916082808747888 ], [ 3321068.100590043701231, 2225760.915954918600619 ], [ 3321090.777960453182459, 2225760.072412927169353 ], [ 3321209.356484836898744, 2225755.664157237391919 ], [ 3321380.780255417339504, 2225767.476474380120635 ], [ 3321566.729915129486471, 2225800.079452121630311 ], [ 3321566.733992059715092, 2225800.079555689357221 ], [ 3321640.921693459618837, 2225825.722238662652671 ], [ 3321770.478111022152007, 2225892.434769299346954 ], [ 3321824.026644437108189, 2225934.829804019071162 ], [ 3321824.03165874350816, 2225934.833190994802862 ], [ 3321855.355439515318722, 2225984.128798489458859 ], [ 3321862.552914774045348, 2226000.094716342166066 ], [ 3321868.646934979595244, 2226013.604413203429431 ], [ 3321885.446754613891244, 2226050.866394517943263 ], [ 3321902.827854383736849, 2226126.906550729647279 ], [ 3321903.963293536566198, 2226196.643175054341555 ], [ 3321895.584121875464916, 2226295.395746872294694 ], [ 3321910.572322563268244, 2226356.64816733263433 ], [ 3321967.077041963115335, 2226467.45631267875433 ], [ 3322005.629971242509782, 2226517.516008411068469 ], [ 3322046.378731770440936, 2226556.056071390397847 ], [ 3322067.311555198393762, 2226578.776598426513374 ], [ 3322146.605399888940156, 2226635.968417156487703 ], [ 3322234.684604140929878, 2226678.459646118804812 ], [ 3322322.504247281234711, 2226706.804823745042086 ], [ 3322346.47925740852952, 2226710.852413783315569 ], [ 3322363.882953980006278, 2226713.788991141598672 ], [ 3322449.819092175457627, 2226728.294323885813355 ], [ 3322513.007653225678951, 2226717.333092353772372 ], [ 3322588.93188345991075, 2226690.986851722933352 ], [ 3322614.750483479350805, 2226656.104564553126693 ], [ 3322614.751779003068805, 2226656.101907350122929 ], [ 3322656.708456511609256, 2226482.608306480105966 ], [ 3322666.89124508202076, 2226451.44980428321287 ], [ 3322666.894352715928108, 2226451.446427346207201 ], [ 3322692.233824141789228, 2226413.607980946544558 ], [ 3322692.236358343623579, 2226413.604196726810187 ], [ 3322714.995054217986763, 2226397.494143220130354 ], [ 3322830.808057553134859, 2226302.891007798723876 ], [ 3322874.265838268212974, 2226220.686732963658869 ], [ 3322894.382680661976337, 2226198.224222676362842 ], [ 3322931.347407516557723, 2226137.426962158177048 ], [ 3323106.320016093552113, 2225975.158055919688195 ], [ 3323058.069065288174897, 2225871.563814416062087 ], [ 3322946.773436276242137, 2225913.864745251834393 ], [ 3322768.567443943582475, 2225917.410060092806816 ], [ 3322733.673247512429953, 2225955.439218619372696 ], [ 3322645.962279046420008, 2225999.903519867919385 ], [ 3322588.305327228736132, 2226015.945206621196121 ], [ 3322594.43508548149839, 2226034.817940529435873 ], [ 3322721.511923462152481, 2226073.414477994665504 ], [ 3322719.330633179284632, 2226099.26265781512484 ], [ 3322702.898870197124779, 2226125.9306605393067 ], [ 3322682.991024924442172, 2226142.032611899543554 ], [ 3322669.636555859819055, 2226152.842388898134232 ], [ 3322639.910153661854565, 2226176.890797338448465 ], [ 3322614.540794316679239, 2226203.588906515389681 ], [ 3322584.063397635240108, 2226235.227193769998848 ], [ 3322555.381832865066826, 2226259.459335498511791 ], [ 3322520.960431426763535, 2226276.072188902646303 ], [ 3322475.114553224295378, 2226287.572127936873585 ], [ 3322363.726841722149402, 2226332.749140494503081 ], [ 3322311.037671984173357, 2226351.010753779672086 ], [ 3322259.448858763091266, 2226352.865092881955206 ], [ 3322212.9021264789626, 2226351.817772590555251 ], [ 3322188.515606386121362, 2226342.314783119596541 ], [ 3322163.403762499801815, 2226332.532211918849498 ], [ 3322104.342603265307844, 2226311.358201936818659 ], [ 3322017.195021954830736, 2226279.144044354557991 ], [ 3322016.312446945346892, 2226237.438346649520099 ], [ 3322024.695846252143383, 2226071.285561067517847 ], [ 3322006.737190638668835, 2226001.021423386409879 ], [ 3321979.185497426427901, 2225963.617803057655692 ], [ 3321904.505381579976529, 2225904.13581030536443 ], [ 3321855.987024049274623, 2225866.882809968199581 ], [ 3321731.213326211087406, 2225788.826906424481422 ], [ 3321764.615164871327579, 2225723.386477083899081 ], [ 3321726.059608326759189, 2225715.206366548780352 ], [ 3321715.353041787166148, 2225708.884500389918685 ], [ 3321699.183075486682355, 2225710.199673191644251 ], [ 3321685.39731721021235, 2225705.486308958847076 ], [ 3321637.333840718027204, 2225687.979115720372647 ], [ 3321619.650901787914336, 2225654.792757810093462 ], [ 3321606.004877437371761, 2225646.426735595334321 ], [ 3321580.301622966304421, 2225663.159435037989169 ], [ 3321541.867769575677812, 2225671.60045380005613 ], [ 3321494.008763895370066, 2225657.301177625544369 ], [ 3321473.865935231558979, 2225657.085982837248594 ], [ 3321428.628577088005841, 2225658.234233626164496 ], [ 3321394.272175489459187, 2225653.045507570262998 ], [ 3321371.540053606033325, 2225664.428368960041553 ], [ 3321311.062080406583846, 2225673.136282701510936 ], [ 3321259.258743487298489, 2225683.136726278811693 ], [ 3321228.606397536583245, 2225678.31904727127403 ], [ 3321196.535444677341729, 2225675.774550894275308 ], [ 3321164.809930362273008, 2225670.534960474353284 ], [ 3321127.702657135203481, 2225664.404677945189178 ], [ 3321082.12776623480022, 2225640.384949240833521 ], [ 3321066.914258461911231, 2225622.834697490558028 ], [ 3321042.240132345352322, 2225612.996786395087838 ], [ 3321035.202881786972284, 2225597.109217444900423 ], [ 3321053.258537050336599, 2225579.848188412375748 ], [ 3321108.160599201451987, 2225550.98536119889468 ], [ 3321192.424920313991606, 2225501.906934084370732 ], [ 3321182.656729270704091, 2225489.026969261933118 ], [ 3321191.629146420396864, 2225454.713135616853833 ], [ 3321178.202162857167423, 2225390.119104593526572 ], [ 3321115.389601744711399, 2225333.34253003122285 ], [ 3321061.468367222696543, 2225308.490252214018255 ], [ 3321042.191419465932995, 2225304.405286065302789 ], [ 3321016.382344086188823, 2225278.395735718309879 ], [ 3320998.021464022342116, 2225284.550673263613135 ], [ 3320973.566107699647546, 2225253.106879119761288 ], [ 3320928.293090094812214, 2225309.296270466875285 ], [ 3320857.812498422339559, 2225337.547551088035107 ], [ 3320801.020830385852605, 2225323.622697291895747 ], [ 3320714.071688067167997, 2225324.497613742016256 ], [ 3320688.330380933824927, 2225343.943470899481326 ], [ 3320666.358434858731925, 2225383.796632390469313 ], [ 3320648.225669776555151, 2225401.020484399516135 ], [ 3320604.581028021406382, 2225421.231233517639339 ], [ 3320575.700787473469973, 2225431.441169614437968 ], [ 3320521.241511310450733, 2225394.043891213834286 ], [ 3320486.768734877929091, 2225388.135935032740235 ], [ 3320467.924606310669333, 2225368.34735347982496 ], [ 3320449.040112333372235, 2225334.447233952116221 ], [ 3320405.465606498997658, 2225303.908385976683348 ], [ 3320362.034034291282296, 2225273.060970226302743 ], [ 3320223.97547879209742, 2225278.313938902691007 ], [ 3320201.523772691376507, 2225282.209272691514343 ], [ 3320124.90966565348208, 2225310.380507101304829 ], [ 3320076.402831911575049, 2225341.692317056935281 ], [ 3319987.08872195193544, 2225494.168482380919158 ], [ 3319907.213385176379234, 2225544.899966275319457 ], [ 3319898.083012227434665, 2225581.309459096752107 ], [ 3319888.61334409378469, 2225601.196284447796643 ], [ 3319881.268354662694037, 2225628.316040349192917 ], [ 3319865.035532821435481, 2225662.04564292030409 ], [ 3319855.055235843639821, 2225690.129449949134141 ], [ 3319842.246503595728427, 2225715.66340093081817 ], [ 3319792.174119377508759, 2225746.14270373666659 ], [ 3319739.41942735016346, 2225791.783913666848093 ], [ 3319731.178494912106544, 2225807.910237710922956 ], [ 3319708.275756950490177, 2225919.654592284932733 ], [ 3319688.034463550895452, 2225950.127126503270119 ], [ 3319668.383998181670904, 2225987.825122792739421 ], [ 3319639.379749783314764, 2226025.615735799539834 ], [ 3319613.197933772113174, 2226037.821172206662595 ], [ 3319574.715649996418506, 2226021.501116163562983 ], [ 3319519.609870955348015, 2226013.163730818312615 ], [ 3319443.66570997890085, 2226011.351174249313772 ], [ 3319327.176685789134353, 2226144.981097765732557 ], [ 3319281.369193449616432, 2226218.993267144542187 ], [ 3319255.006397085264325, 2226276.363959918729961 ], [ 3319213.036587958224118, 2226293.873662077821791 ], [ 3319150.436290870886296, 2226306.084663671441376 ], [ 3319070.963561642449349, 2226279.647560553625226 ], [ 3319000.351147765759379, 2226209.052945766132325 ], [ 3318893.102109558880329, 2226215.197425953112543 ], [ 3318804.689695382490754, 2226277.832692535594106 ], [ 3318662.827571520581841, 2226342.4867626526393 ], [ 3318635.235399704892188, 2226336.632722126320004 ], [ 3318587.280060406774282, 2226368.773615292739123 ], [ 3318568.902715016622096, 2226344.596693335101008 ], [ 3318526.436887366231531, 2226357.034109086729586 ], [ 3318484.671551868319511, 2226362.761848011985421 ], [ 3318448.130621057935059, 2226347.5245570265688 ], [ 3318407.834227816667408, 2226314.289474007673562 ], [ 3318380.370652194600552, 2226327.103321278002113 ], [ 3318435.176662255078554, 2226416.809683936648071 ], [ 3318444.894208826124668, 2226470.514486977830529 ], [ 3318439.738289488479495, 2226469.513909073080868 ], [ 3318395.019848683848977, 2226443.512798200361431 ], [ 3318301.681550063192844, 2226485.243081067223102 ], [ 3318238.318716182839125, 2226522.592344973236322 ], [ 3318205.431734578218311, 2226528.299889855086803 ], [ 3318185.361497195437551, 2226514.04568609315902 ], [ 3318132.848340559750795, 2226530.254387960769236 ], [ 3318112.322666038759053, 2226546.486254943534732 ], [ 3318044.210223850794137, 2226565.402374994475394 ], [ 3318005.915490061044693, 2226548.736532538663596 ], [ 3317985.682938727550209, 2226500.556020290125161 ], [ 3317963.721137202810496, 2226507.915086989291012 ], [ 3317942.24778766091913, 2226561.813546811230481 ], [ 3317887.019416916184127, 2226583.571771976538002 ], [ 3317848.868936261627823, 2226601.849142536055297 ], [ 3317806.718883957713842, 2226626.395356057211757 ], [ 3317800.813288475386798, 2226582.823228622786701 ], [ 3317790.073691359255463, 2226565.135414988268167 ], [ 3317760.216366017702967, 2226523.024249939713627 ], [ 3317715.285586779937148, 2226467.930398287251592 ], [ 3317700.236372054088861, 2226418.850278374738991 ], [ 3317692.15058466559276, 2226357.919130912981927 ], [ 3317677.181248964741826, 2226309.33196531701833 ], [ 3317647.75148389255628, 2226259.200273698661476 ], [ 3317606.477354094851762, 2226213.151429719291627 ], [ 3317565.216111140791327, 2226164.485361480154097 ], [ 3317523.001983923371881, 2226148.814172426238656 ], [ 3317480.055510520935059, 2226149.689927587285638 ], [ 3317385.531072656624019, 2226145.084481566213071 ], [ 3317355.384247083216906, 2226178.696822350844741 ], [ 3317299.977037874981761, 2226188.313539913855493 ], [ 3317266.324042357504368, 2226177.937396137975156 ], [ 3317235.259643808938563, 2226162.044119804166257 ], [ 3317210.612297892104834, 2226168.551923908293247 ], [ 3317220.928997467271984, 2226275.375644955784082 ], [ 3317178.753616666421294, 2226353.321709087584168 ], [ 3317150.216721660457551, 2226454.949546147603542 ], [ 3317090.854176248423755, 2226585.929520565085113 ], [ 3317006.314133243635297, 2226660.941753302700818 ], [ 3316904.197107389103621, 2226726.943663319572806 ], [ 3316693.81845971243456, 2227015.813009262084961 ], [ 3316792.982424001675099, 2227104.012387773487717 ], [ 3316867.886117297690362, 2227143.169349076226354 ], [ 3316876.821698720566928, 2227266.279009080026299 ], [ 3316873.758345148060471, 2227348.809807628393173 ], [ 3316869.163219349458814, 2227357.543830146547407 ], [ 3316829.782434792723507, 2227432.300208430737257 ], [ 3316881.209248809609562, 2227458.230453405529261 ], [ 3316961.618505503050983, 2227355.452099025715142 ], [ 3317066.567875435575843, 2227284.254716865718365 ], [ 3317086.097154501825571, 2227278.361263481434435 ], [ 3317086.278761531226337, 2227278.542592539452016 ], [ 3317139.816299605648965, 2227301.8362459205091 ], [ 3317438.245457710232586, 2227195.302721202373505 ], [ 3317424.47221618052572, 2227154.109473397023976 ], [ 3317425.033078275155276, 2227154.062802175991237 ], [ 3317458.518861301708966, 2227151.240664196200669 ], [ 3317515.262534147128463, 2227113.011420422233641 ], [ 3317537.730012599378824, 2227105.077702661044896 ], [ 3317577.961305061355233, 2227090.878119135741144 ], [ 3317643.869772350415587, 2227075.718691606074572 ], [ 3317670.976809096988291, 2227069.483305072411895 ], [ 3317750.574680944439024, 2227051.167560691479594 ], [ 3317750.653664413839579, 2227051.153851933777332 ], [ 3317806.529894491191953, 2227046.756726944819093 ], [ 3317809.406514622271061, 2227046.531115110497922 ], [ 3317846.879968129098415, 2227043.574607918038964 ], [ 3317965.714802999515086, 2227050.315909598022699 ], [ 3318066.020827664528042, 2227080.544741776771843 ], [ 3318148.525767644867301, 2227119.9446602454409 ], [ 3318148.528520149178803, 2227119.946615103632212 ], [ 3318172.117023300379515, 2227136.699400541838259 ], [ 3318262.076477846130729, 2227200.58078319998458 ], [ 3318326.46121998783201, 2227247.180035006254911 ], [ 3318365.959596434608102, 2227284.324041293933988 ], [ 3318440.201627884525806, 2227354.135715421754867 ], [ 3318625.180329322814941, 2227418.318270022980869 ], [ 3318776.408865239005536, 2227415.763449450954795 ], [ 3318922.791534414514899, 2227413.286102879792452 ], [ 3318948.810206294525415, 2227404.716411505825818 ], [ 3318982.148527079261839, 2227378.659370379056782 ], [ 3319070.205625840462744, 2227257.966781669296324 ], [ 3319119.361761486157775, 2227223.928515147417784 ], [ 3319154.17780294502154, 2227199.816022448707372 ], [ 3319189.602254759054631, 2227189.416514478158206 ], [ 3319190.386913424357772, 2227189.185983537696302 ], [ 3319213.263720158487558, 2227182.462342971935868 ], [ 3319213.287034455686808, 2227182.46214861376211 ], [ 3319253.680888165254146, 2227182.077169372700155 ], [ 3319281.187934917397797, 2227181.824186048004776 ], [ 3319386.530217216350138, 2227192.936910046264529 ], [ 3319544.229859547689557, 2227220.303180968388915 ], [ 3319611.336530338041484, 2227214.739477209746838 ], [ 3319658.756870578974485, 2227200.429287921171635 ], [ 3319703.275022176560014, 2227174.460050800349563 ], [ 3319710.871555266901851, 2227168.479570411145687 ], [ 3319750.287285308353603, 2227137.435986594762653 ], [ 3319753.74115157360211, 2227134.715068614576012 ], [ 3319754.042546451091766, 2227134.477591498754919 ], [ 3319772.59521771222353, 2227119.861666138283908 ] ] ] } }
]
}
