{
"type": "FeatureCollection",
"name": "Agoncillo",
"crs": { "type": "name", "properties": { "name": "urn:ogc:def:crs:EPSG::3035" } },
"features": [
{ "type": "Feature", "properties": { "ENP_GRAL": 5.0, "ENP_GRAL_NAME": "Espacios Protegidos Red Natura 2000", "color": "#A87000" }, "geometry": { "type": "MultiPolygon", "coordinates": [ [ [ [ 3319070.963561642449349, 2226279.647560553625226 ], [ 3319000.351147765759379, 2226209.052945766132325 ], [ 3318893.102109558880329, 2226215.197425953112543 ], [ 3318804.689695382490754, 2226277.832692535594106 ], [ 3318662.827571520581841, 2226342.4867626526393 ], [ 3318635.235399704892188, 2226336.632722126320004 ], [ 3318587.280060406774282, 2226368.773615292739123 ], [ 3318568.902715016622096, 2226344.596693335101008 ], [ 3318526.436887366231531, 2226357.034109086729586 ], [ 3318484.671551868319511, 2226362.761848011985421 ], [ 3318448.130621057935059, 2226347.5245570265688 ], [ 3318407.834227816667408, 2226314.289474007673562 ], [ 3318380.370652194600552, 2226327.103321278002113 ], [ 3318435.176662255078554, 2226416.809683936648071 ], [ 3318444.894208826124668, 2226470.514486977830529 ], [ 3318439.738289488479495, 2226469.513909073080868 ], [ 3318395.019848683848977, 2226443.512798200361431 ], [ 3318301.681550063192844, 2226485.243081067223102 ], [ 3318238.318716182839125, 2226522.592344973236322 ], [ 3318205.431734578218311, 2226528.299889855086803 ], [ 3318185.361497195437551, 2226514.04568609315902 ], [ 3318132.848340559750795, 2226530.254387960769236 ], [ 3318112.322666038759053, 2226546.486254943534732 ], [ 3318044.210223850794137, 2226565.402374994475394 ], [ 3318005.915490061044693, 2226548.736532538663596 ], [ 3317985.682938727550209, 2226500.556020290125161 ], [ 3317963.721137202810496, 2226507.915086989291012 ], [ 3317942.24778766091913, 2226561.813546811230481 ], [ 3317887.019416916184127, 2226583.571771976538002 ], [ 3317848.868936261627823, 2226601.849142536055297 ], [ 3317806.718883957713842, 2226626.395356057211757 ], [ 3317800.813288475386798, 2226582.823228622786701 ], [ 3317790.073691359255463, 2226565.135414988268167 ], [ 3317760.216366017702967, 2226523.024249939713627 ], [ 3317715.285586779937148, 2226467.930398287251592 ], [ 3317700.236372054088861, 2226418.850278374738991 ], [ 3317692.15058466559276, 2226357.919130912981927 ], [ 3317677.181248964741826, 2226309.33196531701833 ], [ 3317647.75148389255628, 2226259.200273698661476 ], [ 3317606.477354094851762, 2226213.151429719291627 ], [ 3317565.216111140791327, 2226164.485361480154097 ], [ 3317523.001983923371881, 2226148.814172426238656 ], [ 3317480.055510520935059, 2226149.689927587285638 ], [ 3317385.531072656624019, 2226145.084481566213071 ], [ 3317355.384247083216906, 2226178.696822350844741 ], [ 3317299.977037874981761, 2226188.313539913855493 ], [ 3317266.324042357504368, 2226177.937396137975156 ], [ 3317235.259643808938563, 2226162.044119804166257 ], [ 3317210.612297892104834, 2226168.551923908293247 ], [ 3317220.928997467271984, 2226275.375644955784082 ], [ 3317178.753616666421294, 2226353.321709087584168 ], [ 3317150.216721660457551, 2226454.949546147603542 ], [ 3317090.854176248423755, 2226585.929520565085113 ], [ 3317006.314133243635297, 2226660.941753302700818 ], [ 3316904.197107389103621, 2226726.943663319572806 ], [ 3316693.81845971243456, 2227015.813009262084961 ], [ 3316792.982424001675099, 2227104.012387773487717 ], [ 3316867.886117297690362, 2227143.169349076226354 ], [ 3316876.821698720566928, 2227266.279009080026299 ], [ 3316873.758345148060471, 2227348.809807628393173 ], [ 3316869.163219349458814, 2227357.543830146547407 ], [ 3316829.782434792723507, 2227432.300208430737257 ], [ 3316881.209248809609562, 2227458.230453405529261 ], [ 3316961.618505503050983, 2227355.452099025715142 ], [ 3317066.567875435575843, 2227284.254716865718365 ], [ 3317086.097154501825571, 2227278.361263481434435 ], [ 3317086.278761531226337, 2227278.542592539452016 ], [ 3317139.816299605648965, 2227301.8362459205091 ], [ 3317438.245457710232586, 2227195.302721202373505 ], [ 3317424.47221618052572, 2227154.109473397023976 ], [ 3317425.033078275155276, 2227154.062802175991237 ], [ 3317458.518861301708966, 2227151.240664196200669 ], [ 3317515.262534147128463, 2227113.011420422233641 ], [ 3317537.730012599378824, 2227105.077702661044896 ], [ 3317577.961305061355233, 2227090.878119135741144 ], [ 3317643.869772350415587, 2227075.718691606074572 ], [ 3317670.976809096988291, 2227069.483305072411895 ], [ 3317750.574680944439024, 2227051.167560691479594 ], [ 3317750.653664413839579, 2227051.153851933777332 ], [ 3317806.529894491191953, 2227046.756726944819093 ], [ 3317809.406514622271061, 2227046.531115110497922 ], [ 3317846.879968129098415, 2227043.574607918038964 ], [ 3317965.714802999515086, 2227050.315909598022699 ], [ 3318066.020827664528042, 2227080.544741776771843 ], [ 3318148.525767644867301, 2227119.9446602454409 ], [ 3318148.528520149178803, 2227119.946615103632212 ], [ 3318172.117023300379515, 2227136.699400541838259 ], [ 3318262.076477846130729, 2227200.58078319998458 ], [ 3318326.46121998783201, 2227247.180035006254911 ], [ 3318365.959596434608102, 2227284.324041293933988 ], [ 3318440.201627884525806, 2227354.135715421754867 ], [ 3318625.180329322814941, 2227418.318270022980869 ], [ 3318776.408865239005536, 2227415.763449450954795 ], [ 3318922.791534414514899, 2227413.286102879792452 ], [ 3318948.810206294525415, 2227404.716411505825818 ], [ 3318982.148527079261839, 2227378.659370379056782 ], [ 3319070.205625840462744, 2227257.966781669296324 ], [ 3319119.361761486157775, 2227223.928515147417784 ], [ 3319149.44597499910742, 2227203.093137307558209 ], [ 3319149.44597499910742, 2226305.755228869616985 ], [ 3319070.963561642449349, 2226279.647560553625226 ] ] ], [ [ [ 3306922.753236358985305, 2233297.416138111613691 ], [ 3306856.884408507496119, 2233331.077671644743532 ], [ 3306772.210512391291559, 2233332.619177880696952 ], [ 3306697.664076174609363, 2233320.74230426363647 ], [ 3306669.692190258763731, 2233319.370655734091997 ], [ 3306608.911850256379694, 2233322.232757981866598 ], [ 3306516.178509103134274, 2233423.872734980192035 ], [ 3306448.270818086341023, 2233476.207606120500714 ], [ 3306346.542226883582771, 2233570.18713101465255 ], [ 3306285.727269755676389, 2233577.658112194389105 ], [ 3306222.945589495822787, 2233543.989000951405615 ], [ 3306155.175837845075876, 2233655.55347280902788 ], [ 3306153.613391750026494, 2233688.943942591082305 ], [ 3306183.590021410491318, 2233744.718714091926813 ], [ 3306202.791823094710708, 2233809.351474680006504 ], [ 3306214.951441372744739, 2233927.487176757771522 ], [ 3306212.823075459804386, 2234021.96274546533823 ], [ 3306203.544923867098987, 2234072.377368114423007 ], [ 3306034.911462852731347, 2234149.890094917267561 ], [ 3305945.956751251593232, 2234197.542839023284614 ], [ 3305740.732777100987732, 2234285.696920818183571 ], [ 3305768.734380138572305, 2234349.823835898656398 ], [ 3305769.088445816654712, 2234349.691310754511505 ], [ 3305844.029769609216601, 2234319.974752239417285 ], [ 3305944.787764369510114, 2234280.021655145566911 ], [ 3305991.862032430246472, 2234279.267637616489083 ], [ 3306129.294057169463485, 2234341.551088769454509 ], [ 3306167.420474977232516, 2234368.507539939600974 ], [ 3306362.1441870322451, 2234669.461359104141593 ], [ 3306442.511417443398386, 2234759.346566742286086 ], [ 3306462.086719294078648, 2234786.193293598946184 ], [ 3306494.878388623241335, 2234794.948006583377719 ], [ 3306557.912642942741513, 2234801.425071623641998 ], [ 3306717.142031258903444, 2234669.082385373301804 ], [ 3306908.532509312499315, 2234571.475930111948401 ], [ 3306981.748154456727207, 2234471.231070746667683 ], [ 3307027.994965068995953, 2234338.095798355061561 ], [ 3306988.234961295500398, 2234075.252867494244128 ], [ 3307050.614699380006641, 2233822.876315888483077 ], [ 3307058.428523398470134, 2233709.551309277303517 ], [ 3307084.81362324859947, 2233586.935892450623214 ], [ 3307084.025194604415447, 2233399.594002726487815 ], [ 3307066.98030778253451, 2233168.041537925601006 ], [ 3307066.523457692470402, 2233161.835958329029381 ], [ 3307066.144181955605745, 2233156.681102766655385 ], [ 3307149.953357666730881, 2232971.826755463145673 ], [ 3307077.810899026226252, 2232980.363348317798227 ], [ 3307014.481419635470957, 2233084.827530348207802 ], [ 3307004.274431727826595, 2233136.720473368186504 ], [ 3306992.380754227284342, 2233252.12265994027257 ], [ 3306922.753236358985305, 2233297.416138111613691 ] ] ] ] } }
]
}
