{
"type": "FeatureCollection",
"name": "Cellorigo",
"crs": { "type": "name", "properties": { "name": "urn:ogc:def:crs:EPSG::3035" } },
"features": [
{ "type": "Feature", "properties": { "ENP_GRAL": 5.0, "ENP_GRAL_NAME": "Espacios Protegidos Red Natura 2000", "color": "#A87000" }, "geometry": { "type": "Polygon", "coordinates": [ [ [ 3258600.266323553398252, 2261989.398718675598502 ], [ 3258938.123155092820525, 2261829.000333041418344 ], [ 3258983.299727888777852, 2261832.250380233861506 ], [ 3258983.30408929195255, 2261832.252862785477191 ], [ 3259177.93242590688169, 2261943.236479009501636 ], [ 3259214.500597083009779, 2261987.181062462273985 ], [ 3259214.715535105206072, 2261987.439332452137023 ], [ 3259252.356432947330177, 2262032.668020084500313 ], [ 3259284.88374609593302, 2262083.439103078562766 ], [ 3259335.340216015465558, 2262162.186934580560774 ], [ 3259387.144734975881875, 2262193.693974037654698 ], [ 3259627.228175462689251, 2262259.791812907438725 ], [ 3259743.02097868733108, 2262291.672672735061496 ], [ 3259743.024291651323438, 2262291.674324467778206 ], [ 3259813.708251129370183, 2262326.975439463276416 ], [ 3259817.874656867235899, 2262327.140439221635461 ], [ 3259842.185653517022729, 2262328.093238133005798 ], [ 3259865.798704533372074, 2262329.01534648379311 ], [ 3259876.335917606484145, 2262306.65967811550945 ], [ 3259876.467008379753679, 2262306.381515756715089 ], [ 3259894.454925534315407, 2262268.209366508759558 ], [ 3259894.459578689187765, 2262268.20865348353982 ], [ 3259898.178390000481158, 2262267.625530041288584 ], [ 3259898.178390000481158, 2260476.516817156225443 ], [ 3259874.461248670704663, 2260484.830659372732043 ], [ 3259823.651820997707546, 2260497.790882682893425 ], [ 3259808.985245252493769, 2260532.817335791885853 ], [ 3259737.645387365482748, 2260569.647993000224233 ], [ 3259707.163192607928067, 2260607.442622230853885 ], [ 3259712.298415770288557, 2260639.003397887572646 ], [ 3259727.97456737793982, 2260685.456235585734248 ], [ 3259686.793971853796393, 2260757.593166906386614 ], [ 3259630.837981467135251, 2260738.984738767147064 ], [ 3259552.005315283313394, 2260679.748416467104107 ], [ 3259467.378329964820296, 2260735.135059620253742 ], [ 3259482.974359676241875, 2260781.094782604370266 ], [ 3259471.557175268884748, 2260835.840092847123742 ], [ 3259454.759462576825172, 2260886.516233721747994 ], [ 3259454.739492672961205, 2260886.580591003876179 ], [ 3259448.815024685114622, 2260904.42559560155496 ], [ 3259444.24227585690096, 2260918.230139677412808 ], [ 3259436.6472701523453, 2260996.651348076760769 ], [ 3259449.590759962331504, 2261051.190367392264307 ], [ 3259410.007356223184615, 2261058.118761332239956 ], [ 3259361.964150312356651, 2261038.1256442242302 ], [ 3259342.814397554844618, 2261045.534976767376065 ], [ 3259355.74337521661073, 2261124.928596960846335 ], [ 3259320.003453297540545, 2261155.539341316558421 ], [ 3259300.758949564769864, 2261187.310165117960423 ], [ 3259286.511290990747511, 2261299.86318526417017 ], [ 3259247.34111265046522, 2261359.46676631225273 ], [ 3259195.385993548668921, 2261346.488240650389344 ], [ 3259170.951619733124971, 2261340.378071120474488 ], [ 3259032.446167579852045, 2261339.780328862369061 ], [ 3258932.174703531898558, 2261349.217272221110761 ], [ 3258841.632918820716441, 2261418.320934703107923 ], [ 3258787.518304316326976, 2261435.90859913546592 ], [ 3258763.267005098052323, 2261386.899045736528933 ], [ 3258770.104718846268952, 2261328.897111185826361 ], [ 3258789.567902001552284, 2261248.397679339163005 ], [ 3258797.065876815933734, 2261194.327611867338419 ], [ 3258745.08090328797698, 2261150.172808675095439 ], [ 3258653.737105876673013, 2261089.069943164475262 ], [ 3258562.134817834477872, 2261076.702371820807457 ], [ 3258469.207879471592605, 2261055.944635645020753 ], [ 3258411.201981558464468, 2261049.868691044393927 ], [ 3258339.306501192972064, 2261058.396732875611633 ], [ 3258284.541654279455543, 2261072.051221353001893 ], [ 3258207.386261309497058, 2261073.385219885967672 ], [ 3258110.330324711278081, 2261127.400404415093362 ], [ 3258082.427050461992621, 2261180.975297738332301 ], [ 3257980.57028693985194, 2261255.621880299877375 ], [ 3257983.043653659522533, 2261295.764093952253461 ], [ 3257957.022747325710952, 2261386.034598217811435 ], [ 3257926.512416274286807, 2261423.836100875865668 ], [ 3257786.999547444749624, 2261517.248405343852937 ], [ 3257735.439349188935012, 2261575.47267404012382 ], [ 3257700.546304177958518, 2261711.422798509709537 ], [ 3257642.225782305002213, 2261803.301459036767483 ], [ 3257584.126063505187631, 2261821.588368372991681 ], [ 3257458.202035730704665, 2261823.346977166831493 ], [ 3257373.934396958909929, 2261780.787453766446561 ], [ 3257332.549602075479925, 2261751.515069185290486 ], [ 3257348.68069130834192, 2261722.752911965362728 ], [ 3257357.789462711662054, 2261706.520523734856397 ], [ 3257350.912484652362764, 2261642.002302105538547 ], [ 3257350.097626693546772, 2261634.313888897188008 ], [ 3257361.590788324829191, 2261613.403635854832828 ], [ 3257384.648286971263587, 2261571.459115590900183 ], [ 3257404.015897215344012, 2261515.320168799720705 ], [ 3257426.593613385222852, 2261478.906985262874514 ], [ 3257439.988935670815408, 2261411.133907944429666 ], [ 3257439.767274073325098, 2261383.95675515756011 ], [ 3257439.555537733249366, 2261358.461750417482108 ], [ 3257422.064662280492485, 2261339.897265641950071 ], [ 3257390.331407942809165, 2261306.206398294307292 ], [ 3257325.959687788039446, 2261235.81830137828365 ], [ 3257276.980643024202436, 2261186.066216973587871 ], [ 3257087.539106142707169, 2261180.179371327161789 ], [ 3256891.838736176490784, 2261207.352332914248109 ], [ 3256655.633442747406662, 2261270.517975688446313 ], [ 3256554.617902455851436, 2261273.506243135314435 ], [ 3256505.498949835076928, 2261283.628129778429866 ], [ 3256467.342717878520489, 2261307.553648643195629 ], [ 3256415.171246300451458, 2261316.688523944001645 ], [ 3256399.076295912731439, 2261306.826748223043978 ], [ 3256393.305045558139682, 2261289.071002149023116 ], [ 3256325.110213943757117, 2261190.949987259227782 ], [ 3256318.208676996640861, 2261148.539564404636621 ], [ 3256367.070709341205657, 2261074.545779445208609 ], [ 3256336.005324609111995, 2261088.607431179843843 ], [ 3256294.849998186342418, 2261079.076019141357392 ], [ 3256218.505402778275311, 2261035.130446322262287 ], [ 3256183.40865823533386, 2261069.688840858172625 ], [ 3256139.208212487399578, 2261073.370620805770159 ], [ 3256083.253109537065029, 2261054.765235487837344 ], [ 3256041.102690669707954, 2261045.915423288475722 ], [ 3255994.135626580100507, 2261082.542329541407526 ], [ 3255984.820728106424212, 2261125.256310692988336 ], [ 3255941.80016563506797, 2261161.192294548265636 ], [ 3255895.075473145581782, 2261124.233326554298401 ], [ 3255872.198221850208938, 2261083.605833442416042 ], [ 3255813.863942780531943, 2261000.496055333409458 ], [ 3255755.236665337346494, 2260990.474000527523458 ], [ 3255714.275933523196727, 2261013.876713681034744 ], [ 3255697.560966691933572, 2261061.436975373420864 ], [ 3255646.109894320834428, 2261070.446371651254594 ], [ 3255626.31874992325902, 2261073.911936471238732 ], [ 3255618.520312666427344, 2261050.931994799058884 ], [ 3255635.837800415698439, 2261007.323763295076787 ], [ 3255610.188369262963533, 2260974.789713871665299 ], [ 3255555.423037344124168, 2260988.437092998065054 ], [ 3255540.986255243420601, 2260974.734753094613552 ], [ 3255443.617400458082557, 2260926.863535322248936 ], [ 3255283.696536380797625, 2260851.39893772918731 ], [ 3255114.300586148165166, 2260809.557561031542718 ], [ 3255066.149024317972362, 2260785.52890289761126 ], [ 3255033.352540052030236, 2260759.146107218693942 ], [ 3254972.419969150796533, 2260710.139375451952219 ], [ 3254930.958982398733497, 2260693.054349788464606 ], [ 3254748.417184269987047, 2260614.451430021319538 ], [ 3254737.290864313952625, 2260602.198295087087899 ], [ 3254723.088227346539497, 2260579.832704966887832 ], [ 3254575.141550313681364, 2260637.187786969356239 ], [ 3254429.832302598282695, 2260694.59888163022697 ], [ 3254407.048647190444171, 2260701.124924474395812 ], [ 3254378.82461, 2260701.017347876913846 ], [ 3254378.82461, 2263064.914049811661243 ], [ 3254430.583800769876689, 2263031.211754404939711 ], [ 3254663.120096547529101, 2262895.123326828237623 ], [ 3254776.461828482337296, 2262905.703094578813761 ], [ 3254892.189465107396245, 2262893.548119158484042 ], [ 3254936.282745208591223, 2262884.053053812589496 ], [ 3254993.168968295678496, 2262871.798758459277451 ], [ 3255039.103175351396203, 2262848.537824092432857 ], [ 3255099.07025537872687, 2262805.574259903281927 ], [ 3255149.365402129478753, 2262759.232599365059286 ], [ 3255225.656151628121734, 2262704.280780108645558 ], [ 3255225.659139110706747, 2262704.277315113693476 ], [ 3255325.352297835983336, 2262587.398588514886796 ], [ 3255540.835448738653213, 2262271.706858124118298 ], [ 3255540.837956685107201, 2262271.704187238123268 ], [ 3255590.651091008447111, 2262222.40499351080507 ], [ 3255641.755510837770998, 2262179.473213067278266 ], [ 3255699.979789386503398, 2262130.380346620921046 ], [ 3255701.164262975566089, 2262129.381590073462576 ], [ 3255795.895381700247526, 2262049.507934693712741 ], [ 3255854.977229977492243, 2262025.974763664416969 ], [ 3256017.17772357724607, 2262149.733378657605499 ], [ 3256017.179701074026525, 2262149.736177023034543 ], [ 3256010.704755424987525, 2262209.706603144761175 ], [ 3256010.704211256466806, 2262209.711364691611379 ], [ 3255969.44737375061959, 2262299.100874326191843 ], [ 3256128.219780755229294, 2262632.428131362888962 ], [ 3256128.222425809130073, 2262632.432537338230759 ], [ 3256259.978879383765161, 2262855.865901796612889 ], [ 3256285.215911908075213, 2262873.764409272000194 ], [ 3256612.871917027980089, 2262960.43299481458962 ], [ 3256688.290697040967643, 2262918.821806379593909 ], [ 3256761.370743985287845, 2262844.144160905387253 ], [ 3256761.375082975253463, 2262844.139647853560746 ], [ 3257142.867875052616, 2263161.807936329394579 ], [ 3257406.615665470715612, 2262986.792150332126766 ], [ 3257406.619141625706106, 2262986.78981721540913 ], [ 3257567.022519334685057, 2262893.781817766837776 ], [ 3257626.624193323310465, 2262864.797292606905103 ], [ 3257626.779620554763824, 2262864.72169301006943 ], [ 3257713.709898786619306, 2262822.443040527869016 ], [ 3257880.859810324385762, 2262770.861698739230633 ], [ 3257889.748053781222552, 2262770.421394480392337 ], [ 3258187.873584873974323, 2262755.658320025075227 ], [ 3258263.452447411604226, 2262758.655868622474372 ], [ 3258306.080869660712779, 2262740.035404128953815 ], [ 3258306.083558929152787, 2262740.032600214704871 ], [ 3258348.645653657615185, 2262696.065554303117096 ], [ 3258348.647576744668186, 2262696.061160067562014 ], [ 3258374.002065183594823, 2262639.882419689092785 ], [ 3258495.487351789604872, 2262070.835804978385568 ], [ 3258495.490146839991212, 2262070.831156702712178 ], [ 3258521.78408085834235, 2262026.661215987056494 ], [ 3258600.266323553398252, 2261989.398718675598502 ] ] ] } }
]
}
