{
"type": "FeatureCollection",
"name": "Pazuengos",
"crs": { "type": "name", "properties": { "name": "urn:ogc:def:crs:EPSG::3035" } },
"features": [
{ "type": "Feature", "properties": { "ENP_GRAL": 1.0, "ENP_GRAL_NAME": "Otros Parques", "color": "#38A800" }, "geometry": { "type": "Polygon", "coordinates": [ [ [ 3252383.353437636513263, 2217927.734385755378753 ], [ 3252341.450679537374526, 2218101.356820981483907 ], [ 3252352.906290860846639, 2218147.013154724147171 ], [ 3252431.81711361464113, 2218283.294201659504324 ], [ 3252617.622249461710453, 2218546.909438209608197 ], [ 3252623.397001315839589, 2218682.792298055719584 ], [ 3253071.547948625404388, 2218799.151749424170703 ], [ 3253262.031285301782191, 2218941.283053848426789 ], [ 3253524.448548072949052, 2219095.178690525237471 ], [ 3253677.095746044069529, 2219103.989340070169419 ], [ 3253855.17641054559499, 2219157.027899765409529 ], [ 3254030.633249649778008, 2219243.987973739393055 ], [ 3254071.087500517256558, 2219274.436150920577347 ], [ 3254096.897205989807844, 2219308.457847603596747 ], [ 3254109.802049105986953, 2219325.468600020743906 ], [ 3254121.126683018170297, 2219304.730121849570423 ], [ 3254161.362153853289783, 2219230.266267603263259 ], [ 3254178.510298802051693, 2219148.176385273691267 ], [ 3254343.356373011134565, 2218883.609602588228881 ], [ 3254665.052782802842557, 2218367.539762230589986 ], [ 3254793.245949325151742, 2218194.051989938132465 ], [ 3254845.955809117294848, 2218099.665356982499361 ], [ 3254929.05265760794282, 2217904.653380261734128 ], [ 3254974.603267364669591, 2217827.742178166285157 ], [ 3255005.64005754282698, 2217775.487680000253022 ], [ 3252354.135973283555359, 2217775.487680000253022 ], [ 3252383.353437636513263, 2217927.734385755378753 ] ] ] } },
{ "type": "Feature", "properties": { "ENP_GRAL": 5.0, "ENP_GRAL_NAME": "Espacios Protegidos Red Natura 2000", "color": "#A87000" }, "geometry": { "type": "Polygon", "coordinates": [ [ [ 3252436.59032936161384, 2230178.559373834170401 ], [ 3252570.607327076140791, 2230307.748371009714901 ], [ 3252632.129134810529649, 2230444.038524426519871 ], [ 3252684.276584021747112, 2230587.038969952613115 ], [ 3252703.444574918132275, 2230672.930786638520658 ], [ 3252696.27037611650303, 2230839.490143981296569 ], [ 3252695.884463211055845, 2230891.856836504302919 ], [ 3252695.347653948701918, 2230963.376641030423343 ], [ 3252709.444865511730313, 2230995.980118143372238 ], [ 3252710.043539298698306, 2230997.356059652753174 ], [ 3252715.972938572987914, 2231011.074796548113227 ], [ 3252728.991763063706458, 2231041.159129405394197 ], [ 3252804.040308987721801, 2231114.742706071119756 ], [ 3252886.348785346373916, 2231193.750720000825822 ], [ 3261041.581345970742404, 2231193.750720000825822 ], [ 3261033.956253093667328, 2231186.457179440651089 ], [ 3261012.212514758110046, 2231184.171973943710327 ], [ 3261022.085909300483763, 2231169.770808300934732 ], [ 3261022.54255397291854, 2231141.296802519820631 ], [ 3261012.385286141186953, 2231097.438022252637893 ], [ 3261033.0461246939376, 2231116.137711922638118 ], [ 3261048.908165914006531, 2231169.140497878193855 ], [ 3261071.419452086556703, 2231193.750720000825822 ], [ 3261490.313990510068834, 2231193.750720000825822 ], [ 3261477.392856452148408, 2231174.375696988310665 ], [ 3261492.804093888029456, 2231164.58451455226168 ], [ 3261514.811331735458225, 2231165.302757731638849 ], [ 3261528.69339173194021, 2231151.276273052208126 ], [ 3261566.991269381716847, 2231112.580723123624921 ], [ 3261584.381185587495565, 2231099.908690337557346 ], [ 3261611.356480906717479, 2231146.406396036967635 ], [ 3261625.328976326622069, 2231187.570369555149227 ], [ 3261634.016187633387744, 2231193.750720000825822 ], [ 3261687.23893267987296, 2231193.750720000825822 ], [ 3261694.279797581024468, 2231163.354621516074985 ], [ 3261717.906391330529004, 2231159.226687737274915 ], [ 3261752.856901628430933, 2231179.993262941949069 ], [ 3261830.261641430202872, 2231192.825334899593145 ], [ 3261831.101263895165175, 2231193.750720000825822 ], [ 3261887.71408376051113, 2231193.750720000825822 ], [ 3261854.07754993531853, 2231159.763304663356394 ], [ 3261849.43986776471138, 2231131.165458097588271 ], [ 3261877.973678663372993, 2231082.575155522208661 ], [ 3261917.520862265024334, 2231041.694437618367374 ], [ 3261960.926299314014614, 2231009.773387109860778 ], [ 3262051.135103313717991, 2230996.548351926263422 ], [ 3262082.837325201835483, 2230952.47512536123395 ], [ 3262073.701922723092139, 2230881.058180829044431 ], [ 3262051.813999688252807, 2230850.910833560395986 ], [ 3262028.137443156912923, 2230869.751267130952328 ], [ 3261966.082743387203664, 2230921.662480154074728 ], [ 3261927.444473653566092, 2230938.046583589166403 ], [ 3261903.63753467798233, 2230896.065685946960002 ], [ 3261901.508736284915358, 2230838.12859919667244 ], [ 3261842.882830222602934, 2230761.171249695587903 ], [ 3261833.607871177140623, 2230733.890701293479651 ], [ 3261850.995479214005172, 2230726.147652345709503 ], [ 3261864.399290674366057, 2230720.185667316429317 ], [ 3261887.977469844743609, 2230709.687878809869289 ], [ 3261926.665733239613473, 2230678.591126246377826 ], [ 3261925.966414307244122, 2230659.446016567759216 ], [ 3261924.708302117884159, 2230634.101176494732499 ], [ 3261921.678678161930293, 2230572.985333616379648 ], [ 3261931.623072442598641, 2230544.375226887874305 ], [ 3261934.591578976251185, 2230502.786930904258043 ], [ 3261905.208132341969758, 2230471.413992451503873 ], [ 3261870.867595763877034, 2230409.471056735143065 ], [ 3261833.998365043196827, 2230376.870789362117648 ], [ 3261767.51567845698446, 2230386.45761439576745 ], [ 3261725.469408289995044, 2230366.930657365825027 ], [ 3261685.311803921125829, 2230373.946523913182318 ], [ 3261699.806430169846863, 2230350.990888785105199 ], [ 3261700.783126313704997, 2230349.441121633630246 ], [ 3261701.693079514428973, 2230310.240596283227205 ], [ 3261702.152758210897446, 2230307.44258991535753 ], [ 3261710.228694940917194, 2230258.046072834637016 ], [ 3261677.037280965596437, 2230203.000932488590479 ], [ 3261578.383492269553244, 2230104.126065833494067 ], [ 3261565.540963599458337, 2230069.863424951210618 ], [ 3261528.372524057514966, 2230020.583505065180361 ], [ 3261558.985020122490823, 2230029.432150724343956 ], [ 3261628.89540936332196, 2230070.96369113214314 ], [ 3261701.124776905402541, 2230096.879193416796625 ], [ 3261794.31233143992722, 2230117.105155741795897 ], [ 3261866.941506284289062, 2230145.486144543625414 ], [ 3261946.346852480433881, 2230170.655273317359388 ], [ 3261991.162175269797444, 2230177.529890870675445 ], [ 3262023.913752768188715, 2230154.569118796382099 ], [ 3262056.715698382351547, 2230132.106614594813436 ], [ 3262093.034304652363062, 2230101.414193389005959 ], [ 3262098.652755452785641, 2230100.888988709077239 ], [ 3262124.147037878166884, 2230098.514021545648575 ], [ 3262162.675542063545436, 2230096.346479522529989 ], [ 3262190.599715407006443, 2230103.636952291242778 ], [ 3262208.410316245630383, 2230078.723221507389098 ], [ 3262180.706487472169101, 2230027.789668181911111 ], [ 3262201.355332739651203, 2229990.211422016378492 ], [ 3262230.390580285806209, 2229914.662051360588521 ], [ 3262196.500547882169485, 2229840.471838528290391 ], [ 3262213.171498966403306, 2229823.362727045081556 ], [ 3262215.170805273577571, 2229805.774485870730132 ], [ 3262163.361500324681401, 2229785.934728533029556 ], [ 3262149.399982655886561, 2229744.76924860291183 ], [ 3262199.761053572408855, 2229725.820808801334351 ], [ 3262228.036034204531461, 2229675.248860825784504 ], [ 3262217.005962031893432, 2229577.301379431039095 ], [ 3262163.927439308259636, 2229489.731461718212813 ], [ 3262247.283084042370319, 2229419.397100214846432 ], [ 3262285.375920000486076, 2229403.245444148313254 ], [ 3262285.375920000486076, 2228913.121429025195539 ], [ 3262260.533665482420474, 2228856.819345989264548 ], [ 3262245.884258317761123, 2228781.296667134854943 ], [ 3262283.8252416937612, 2228745.768704656511545 ], [ 3262240.932049649301916, 2228660.983117391820997 ], [ 3262210.911296483129263, 2228595.750983230303973 ], [ 3262237.538362786639482, 2228550.030879921279848 ], [ 3262269.293789097107947, 2228491.246470551006496 ], [ 3262233.087499326094985, 2228402.757825531996787 ], [ 3262224.716774623375386, 2228388.309669438749552 ], [ 3262185.847281671129167, 2228321.26684885006398 ], [ 3262114.226298872381449, 2228329.214441619347781 ], [ 3262036.547193641774356, 2228359.515336356125772 ], [ 3261873.100609900429845, 2228310.502577846404165 ], [ 3261751.933788019698113, 2228387.441481889691204 ], [ 3261695.869962379336357, 2228266.423118650447577 ], [ 3261694.312448333017528, 2228263.76460369490087 ], [ 3261655.615117337089032, 2228197.908718793652952 ], [ 3261606.448243123944849, 2228166.321131654083729 ], [ 3261561.758492100518197, 2228137.622313257306814 ], [ 3261560.670352856628597, 2228136.920039766468108 ], [ 3261622.059848491102457, 2228065.860181488096714 ], [ 3261586.729803008958697, 2228003.746120967436582 ], [ 3261562.456347160972655, 2227961.066551511641592 ], [ 3261540.481950539164245, 2227922.426890433765948 ], [ 3261615.489249160513282, 2227950.392799173947424 ], [ 3261910.624477022793144, 2228017.48018845403567 ], [ 3262087.594549497589469, 2228044.864206977188587 ], [ 3262052.392194989137352, 2227917.677016113884747 ], [ 3262049.230641096830368, 2227884.025676547549665 ], [ 3262049.01580331614241, 2227881.76133186975494 ], [ 3261952.330302329268306, 2227855.046529909595847 ], [ 3261907.615740943700075, 2227833.957117677666247 ], [ 3261898.181689855642617, 2227826.722064798232168 ], [ 3261871.527177639771253, 2227806.290724251884967 ], [ 3261975.901012897491455, 2227790.593785031698644 ], [ 3262019.136411422863603, 2227802.30824615387246 ], [ 3262112.294805171899498, 2227822.54100727243349 ], [ 3262183.863737197592854, 2227829.296242938842624 ], [ 3262218.495682717300951, 2227818.176718124188483 ], [ 3262217.40769449621439, 2227796.564931750763208 ], [ 3262215.033304035663605, 2227721.940851470921189 ], [ 3262128.882323831319809, 2227715.197549497708678 ], [ 3262081.748776318505406, 2227694.023517196066678 ], [ 3262088.546346566174179, 2227676.10451041162014 ], [ 3262095.449413319118321, 2227640.49239806458354 ], [ 3262097.804284424521029, 2227628.348641690798104 ], [ 3262114.786011322867125, 2227613.213907779194415 ], [ 3262175.326784215867519, 2227551.937170234974474 ], [ 3262264.61443084012717, 2227458.260406015440822 ], [ 3262285.375920000486076, 2227458.444155781064183 ], [ 3262285.375920000486076, 2226227.975184850860387 ], [ 3262256.027832415420562, 2226196.786947250366211 ], [ 3262203.229281739331782, 2226145.167299677152187 ], [ 3262181.605044553056359, 2226148.944178875535727 ], [ 3262162.906247036531568, 2226102.015958258416504 ], [ 3262123.658378512598574, 2226031.308373753912747 ], [ 3262078.895693649537861, 2225995.01664320146665 ], [ 3261996.715997146908194, 2225864.872009742073715 ], [ 3261920.525532972067595, 2225806.183968155179173 ], [ 3261874.463937882333994, 2225773.587176984641701 ], [ 3261769.961990647017956, 2225699.644915365148336 ], [ 3261883.813746764324605, 2225467.322027218062431 ], [ 3261960.98629557993263, 2225333.682050223927945 ], [ 3262117.007527591660619, 2225544.726173364091665 ], [ 3262185.267243314534426, 2225554.605669791810215 ], [ 3262193.023718207608908, 2225636.907458419911563 ], [ 3262253.01804925641045, 2225698.424492675811052 ], [ 3262285.375920000486076, 2225702.327044268138707 ], [ 3262285.375920000486076, 2217775.487680000253022 ], [ 3252308.10948000010103, 2217775.487680000253022 ], [ 3252308.10948000010103, 2230108.072890849318355 ], [ 3252436.59032936161384, 2230178.559373834170401 ] ] ] } }
]
}
