{
"type": "FeatureCollection",
"name": "Viniegra_de_Arriba",
"crs": { "type": "name", "properties": { "name": "urn:ogc:def:crs:EPSG::3035" } },
"features": [
{ "type": "Feature", "properties": { "ENP_GRAL": 1.0, "ENP_GRAL_NAME": "Otros Parques", "color": "#38A800" }, "geometry": { "type": "Polygon", "coordinates": [ [ [ 3262975.186063982546329, 2194840.741624410729855 ], [ 3262999.528176429215819, 2194838.956843086052686 ], [ 3263016.511555045843124, 2194837.711708968505263 ], [ 3263054.601086441427469, 2194832.918313994538039 ], [ 3263118.337167167104781, 2194821.804802919272333 ], [ 3263274.593472830951214, 2194784.903630191460252 ], [ 3263317.871216673403978, 2194793.450361556839198 ], [ 3263346.037520726211369, 2194802.366748593747616 ], [ 3263376.559824374504387, 2194812.028945857193321 ], [ 3263437.558300407603383, 2194807.766073738224804 ], [ 3263473.967039390467107, 2194784.13814741326496 ], [ 3263489.296214857138693, 2194770.608872152864933 ], [ 3263627.901950350962579, 2194648.278134408872575 ], [ 3263638.472857106011361, 2194636.703101503662765 ], [ 3263692.791840474586934, 2194588.265013087540865 ], [ 3263710.419852838851511, 2194571.820396390277892 ], [ 3263713.758256392553449, 2194568.04673164896667 ], [ 3263840.62697979202494, 2194424.636406644713134 ], [ 3263865.747642381582409, 2194394.308947119861841 ], [ 3263810.893443590961397, 2194358.685358364600688 ], [ 3263804.488093345426023, 2194354.970967796631157 ], [ 3263703.063190492801368, 2194397.223519431427121 ], [ 3263647.603944734670222, 2194420.542182563338429 ], [ 3263642.864903073757887, 2194422.301678113639355 ], [ 3263603.283698717597872, 2194438.791011625900865 ], [ 3263577.551106907892972, 2194461.642497386783361 ], [ 3263469.741993924137205, 2194563.129422006197274 ], [ 3263325.853838353417814, 2194546.912885521538556 ], [ 3263171.382567062042654, 2194541.661198012996465 ], [ 3263077.78302805731073, 2194540.815989320166409 ], [ 3263023.685744253918529, 2194521.818195344414562 ], [ 3263020.882199288345873, 2194520.732278145384043 ], [ 3263004.105674833524972, 2194515.687380047049373 ], [ 3262994.690942625515163, 2194517.765016607008874 ], [ 3262999.4515290716663, 2194514.778946898877621 ], [ 3262985.591353735886514, 2194510.119997722096741 ], [ 3262959.559256820008159, 2194502.291804018430412 ], [ 3262959.24912835098803, 2194501.265252444893122 ], [ 3262957.420838162302971, 2194500.650682559236884 ], [ 3262954.383442988619208, 2194485.157443174161017 ], [ 3262936.156190192792565, 2194424.816779759712517 ], [ 3262923.413837362080812, 2194382.633570591919124 ], [ 3262915.522460783831775, 2194360.97617245465517 ], [ 3262946.647132677026093, 2194210.921487931162119 ], [ 3262959.859129053074867, 2194141.570420730859041 ], [ 3262925.653070278465748, 2194121.864323299843818 ], [ 3262805.672016520053148, 2194056.667202901095152 ], [ 3262672.636126224882901, 2193977.943794026039541 ], [ 3262633.698762010782957, 2193953.670785944443196 ], [ 3262583.175798308569938, 2193924.56484172353521 ], [ 3262568.729468490928411, 2193913.169835180975497 ], [ 3262565.722095172852278, 2193911.295015674550086 ], [ 3262554.676662263460457, 2193902.085247850045562 ], [ 3262413.265065718442202, 2193790.542244092561305 ], [ 3262368.342079496942461, 2193760.109933636151254 ], [ 3262400.732040891423821, 2193671.316556870937347 ], [ 3262429.596522046253085, 2193593.098418376408517 ], [ 3262435.8538728938438, 2193575.711217173840851 ], [ 3262436.289847008418292, 2193459.130486301146448 ], [ 3262436.458000446669757, 2193355.674041643738747 ], [ 3262436.174146172124892, 2193316.591201670933515 ], [ 3262404.051741454750299, 2193308.970880973618478 ], [ 3262365.125249401666224, 2193299.736489423550665 ], [ 3262319.530112048145384, 2193363.506045958027244 ], [ 3262301.588380263186991, 2193388.599492616485804 ], [ 3262273.221629387699068, 2193428.273310936056077 ], [ 3262256.632802577223629, 2193451.474721722770482 ], [ 3262253.652697888202965, 2193455.642762248869985 ], [ 3262251.981401768513024, 2193456.808078649453819 ], [ 3262184.82577287312597, 2193503.632426381111145 ], [ 3262131.083000159822404, 2193541.104731715284288 ], [ 3262112.962546189781278, 2193553.73933335300535 ], [ 3262104.512393510900438, 2193559.631251924205571 ], [ 3262067.707785035017878, 2193576.274249552283436 ], [ 3261967.770122746005654, 2193621.465958652552217 ], [ 3261858.9059595791623, 2193670.694560713600367 ], [ 3261851.374227262567729, 2193681.228792714886367 ], [ 3261810.922379540279508, 2193737.806916032917798 ], [ 3261763.360058918129653, 2193804.330276109278202 ], [ 3261699.339122833218426, 2193730.39023650623858 ], [ 3261668.121380751021206, 2193694.335672378540039 ], [ 3261631.36690992442891, 2193651.886542530264705 ], [ 3261569.722941098269075, 2193566.923385889735073 ], [ 3261510.40043392078951, 2193485.159876558929682 ], [ 3261493.248751430306584, 2193461.519908333662897 ], [ 3261439.289956079795957, 2193389.277705741580576 ], [ 3261306.43789726216346, 2193211.409991175867617 ], [ 3261137.874082296155393, 2193108.092378810048103 ], [ 3261118.735595754347742, 2193115.636031438130885 ], [ 3261022.82801407109946, 2193190.295590556692332 ], [ 3260958.214593038428575, 2193210.693020202685148 ], [ 3260956.983443173579872, 2193200.61642021778971 ], [ 3260935.116561555769295, 2193204.760895342100412 ], [ 3260925.471147191245109, 2193209.61284543434158 ], [ 3260918.202683516778052, 2193207.966670682188123 ], [ 3260900.56450406415388, 2193211.309703200589865 ], [ 3260898.253806142136455, 2193207.192966695874929 ], [ 3260835.612774113193154, 2193208.461780074052513 ], [ 3260745.239664067979902, 2193140.658235010225326 ], [ 3260760.002800702117383, 2193127.77337493468076 ], [ 3260736.307052254676819, 2193110.058862440288067 ], [ 3260705.020924677141011, 2193086.669958566781133 ], [ 3260688.261582344770432, 2193147.526845800224692 ], [ 3260615.079281810671091, 2193143.39248538389802 ], [ 3260608.343646871391684, 2193125.755634837783873 ], [ 3260600.240411610342562, 2193129.862774863839149 ], [ 3260564.408890242688358, 2193028.885209246538579 ], [ 3260566.482908422127366, 2193016.144984669983387 ], [ 3260560.627185127697885, 2193000.812067588791251 ], [ 3260590.80902583617717, 2192843.471597831696272 ], [ 3260549.355637180618942, 2192869.713846457190812 ], [ 3260493.666160770691931, 2192953.492048955522478 ], [ 3260462.431146139279008, 2192992.219540177844465 ], [ 3260337.382546595763415, 2193147.264921697787941 ], [ 3260306.349658485502005, 2193192.408869646023959 ], [ 3260206.563032907899469, 2193323.629183157347143 ], [ 3260202.058900540228933, 2193329.552244685124606 ], [ 3260168.78562908153981, 2193373.307150182314217 ], [ 3260114.154325523413718, 2193424.045917756855488 ], [ 3260111.70101329497993, 2193427.087768045254052 ], [ 3260054.523835843428969, 2193497.982840235345066 ], [ 3260025.814863811712712, 2193506.091465117409825 ], [ 3259991.180901104584336, 2193538.257885760162026 ], [ 3259881.446776466444135, 2193562.225708398967981 ], [ 3259820.481454331427813, 2193582.208533236756921 ], [ 3259779.28926636185497, 2193595.710226791445166 ], [ 3259771.258064071647823, 2193598.342697881162167 ], [ 3259508.336408437229693, 2193646.617295533418655 ], [ 3259491.288861522451043, 2193643.851926886010915 ], [ 3259473.590025508776307, 2193648.051489025820047 ], [ 3259422.521708515007049, 2193632.697305681649595 ], [ 3259314.726726984139532, 2193615.212167124263942 ], [ 3259199.379808934405446, 2193589.467534679919481 ], [ 3259193.311773187480867, 2193551.902615800965577 ], [ 3259021.844975925050676, 2193478.012587200384587 ], [ 3258994.332021860405803, 2193459.514079677406698 ], [ 3258962.47034552693367, 2193444.767960771452636 ], [ 3258958.423209447413683, 2193435.370649499818683 ], [ 3258917.097103173378855, 2193407.584862082730979 ], [ 3258920.071189215872437, 2193401.621535401325673 ], [ 3258904.31895117321983, 2193360.870893454644829 ], [ 3258904.826967403758317, 2193359.622569017112255 ], [ 3258845.063655234873295, 2193184.173011780250818 ], [ 3258845.152112244162709, 2193172.357490699272603 ], [ 3258837.5166956782341, 2193154.628085307776928 ], [ 3258845.625917713157833, 2193109.083219208754599 ], [ 3258846.348764140158892, 2193012.558131551835686 ], [ 3258866.292065341956913, 2192941.488721189089119 ], [ 3258820.78939791675657, 2192884.249433908611536 ], [ 3258787.420438420958817, 2192827.307532186619937 ], [ 3258786.84450270049274, 2192795.356582193635404 ], [ 3258744.819148828741163, 2192713.509309689048678 ], [ 3258691.864017611369491, 2192647.239528996869922 ], [ 3258641.128070304170251, 2192542.634377802256495 ], [ 3258637.366471509914845, 2192532.902874999679625 ], [ 3257878.639175000600517, 2192532.902874999679625 ], [ 3257878.639175000600517, 2204865.776025 ], [ 3266445.344224999658763, 2204865.776025 ], [ 3266445.344224999658763, 2202704.741423006635159 ], [ 3266258.699270276352763, 2202514.853780679870397 ], [ 3266258.546343630179763, 2202514.698270373046398 ], [ 3266189.336814540904015, 2202444.28620335413143 ], [ 3266136.680916037876159, 2202357.159966788254678 ], [ 3266133.858677655924112, 2202354.637507080566138 ], [ 3266074.986372785642743, 2202302.023447624407709 ], [ 3266037.661834240891039, 2202222.318841731641442 ], [ 3266002.130116569343954, 2202146.44251165818423 ], [ 3265890.449450522661209, 2201964.177545845974237 ], [ 3265782.367684827186167, 2201935.775071238167584 ], [ 3265742.043074200395495, 2201925.17742373328656 ], [ 3265742.038692019879818, 2201925.176058911718428 ], [ 3265433.525406522676349, 2201818.800764835905284 ], [ 3265023.806797807104886, 2201507.047082815784961 ], [ 3265009.899679122492671, 2201466.006208234466612 ], [ 3264907.361473044846207, 2201163.411637591663748 ], [ 3264782.586290536448359, 2200906.38938781619072 ], [ 3264782.585271102376282, 2200906.386220155283809 ], [ 3264756.800054332707077, 2200740.570732878986746 ], [ 3264753.799506238661706, 2200684.323265224695206 ], [ 3264808.396723167970777, 2200519.696631088852882 ], [ 3264918.82373499777168, 2200367.637410663068295 ], [ 3264925.928365830332041, 2200339.844673586543649 ], [ 3264944.321393107064068, 2200267.897621178533882 ], [ 3264929.755198633298278, 2200158.92456996999681 ], [ 3264928.28411172516644, 2200126.596342700533569 ], [ 3264926.496746999211609, 2200087.318935596384108 ], [ 3264926.47157917637378, 2200086.764947802294046 ], [ 3264924.583540235646069, 2200045.272010044194758 ], [ 3264890.173206491395831, 2199895.1543247862719 ], [ 3264890.172072461806238, 2199895.151075751055032 ], [ 3264829.782301008701324, 2199778.971639975905418 ], [ 3264829.779236931819469, 2199778.966497210785747 ], [ 3264775.881407742388546, 2199705.932660255581141 ], [ 3264697.213411339558661, 2199599.334303203038871 ], [ 3264651.541469338349998, 2199561.679173234384507 ], [ 3264331.720066733658314, 2199416.727631481364369 ], [ 3264272.005705444142222, 2199361.250751399435103 ], [ 3264272.002533278428018, 2199361.247452259995043 ], [ 3264265.852182150352746, 2199353.882202825509012 ], [ 3264123.484430029988289, 2199183.382773013785481 ], [ 3263768.366131187416613, 2198870.222995875403285 ], [ 3263768.362079956568778, 2198870.218025284353644 ], [ 3263572.610171689651906, 2198575.905875019729137 ], [ 3263553.141472280956805, 2198452.055770685896277 ], [ 3263536.315279619302601, 2198345.018065114505589 ], [ 3263541.886258463840932, 2198316.674713714048266 ], [ 3263565.927528543863446, 2198277.001607290934771 ], [ 3263573.518277345690876, 2198270.183992378879339 ], [ 3263749.414435787126422, 2198112.202905951067805 ], [ 3263809.633045569527894, 2198070.275683050043881 ], [ 3263817.72217660676688, 2198060.990565730258822 ], [ 3263848.164103775750846, 2198026.048035237938166 ], [ 3263882.265847432427108, 2197948.125618795864284 ], [ 3263948.818058641627431, 2197685.048467909451574 ], [ 3263966.508339936845005, 2197615.121133059263229 ], [ 3263960.489974837284535, 2197125.521727078594267 ], [ 3263933.851743329316378, 2196872.679025955498219 ], [ 3263956.945438682567328, 2196661.590890673920512 ], [ 3263957.011763617396355, 2196660.98477472178638 ], [ 3263963.361206220462918, 2196602.949573576916009 ], [ 3263608.947566381655633, 2196187.282518809661269 ], [ 3263459.453498214483261, 2195217.873029340524226 ], [ 3263463.526054121553898, 2195098.558902295306325 ], [ 3263446.665380853228271, 2195023.767762097995728 ], [ 3263446.583774653729051, 2195023.406407143454999 ], [ 3263438.459048442076892, 2194987.366131143644452 ], [ 3263404.029184524901211, 2194874.764639055356383 ], [ 3263412.516438758932054, 2194850.090003038756549 ], [ 3263424.057275012601167, 2194816.538405125960708 ], [ 3263424.059561608824879, 2194816.531822810415179 ], [ 3263381.817587364464998, 2194830.318265615031123 ], [ 3263344.02770481724292, 2194842.650789476465434 ], [ 3263301.575424476992339, 2194850.052895757835358 ], [ 3263058.45496833929792, 2194857.07146110245958 ], [ 3262967.146806520409882, 2194859.707697938196361 ], [ 3262905.426193278282881, 2194842.085754948668182 ], [ 3262882.254096701741219, 2194830.44077901635319 ], [ 3262838.040448351763189, 2194808.222108428366482 ], [ 3262838.036104444414377, 2194808.219723269343376 ], [ 3262769.770371774211526, 2194750.738936611451209 ], [ 3262771.947475970722735, 2194752.389527004212141 ], [ 3262811.282214219681919, 2194783.080473251175135 ], [ 3262813.444880961906165, 2194782.70340409129858 ], [ 3262815.95504845213145, 2194786.538781367707998 ], [ 3262841.184690948575735, 2194795.127081390470266 ], [ 3262954.874717816710472, 2194833.827526999171823 ], [ 3262975.186063982546329, 2194840.741624410729855 ] ], [ [ 3258020.313252162188292, 2192969.530372247565538 ], [ 3257984.159140731208026, 2192933.437244070693851 ], [ 3257938.774488777853549, 2192888.129352760966867 ], [ 3257929.386137430556118, 2192881.306448305957019 ], [ 3257956.786962896119803, 2192898.834204939194024 ], [ 3258020.313252162188292, 2192969.530372247565538 ] ], [ [ 3258146.262812374625355, 2193261.486231563612819 ], [ 3258117.596952792722732, 2193115.440448666457087 ], [ 3258078.093516998924315, 2193033.831028509885073 ], [ 3258083.023766919504851, 2193039.319268022663891 ], [ 3258097.030809161253273, 2193046.088320592883974 ], [ 3258101.855723708868027, 2193060.276814925484359 ], [ 3258123.381449367851019, 2193084.232082534581423 ], [ 3258156.306578116957098, 2193220.397798832505941 ], [ 3258213.616850750055164, 2193388.927215627860278 ], [ 3258146.262812374625355, 2193261.486231563612819 ] ], [ [ 3258269.297832452692091, 2193627.272758622653782 ], [ 3258223.080959623679519, 2193416.755992485210299 ], [ 3258312.103221893310547, 2193678.535030357539654 ], [ 3258304.234668044373393, 2193673.89324451982975 ], [ 3258269.297832452692091, 2193627.272758622653782 ] ], [ [ 3258381.287942838855088, 2193719.348958401940763 ], [ 3258321.594546806998551, 2193684.134165699593723 ], [ 3258586.916519776917994, 2193829.357076971791685 ], [ 3258542.298776406329125, 2193814.333645021077245 ], [ 3258381.287942838855088, 2193719.348958401940763 ] ], [ [ 3258879.092152826488018, 2193917.57459978479892 ], [ 3259032.868708954192698, 2193973.673467566724867 ], [ 3259131.009181241504848, 2194004.834244082681835 ], [ 3259130.080964986700565, 2194005.894726671278477 ], [ 3259297.182613738812506, 2194076.283003074117005 ], [ 3259496.573391572572291, 2194092.451868493575603 ], [ 3259773.411924785934389, 2194053.910664460156113 ], [ 3259786.126057508867234, 2194062.043355525005609 ], [ 3259828.578041236847639, 2194089.19805230665952 ], [ 3259911.103435041382909, 2194126.528658476658165 ], [ 3260198.146281284280121, 2194283.790210920851678 ], [ 3259911.104119771160185, 2194126.532898117788136 ], [ 3259911.098823706619442, 2194126.530273714102805 ], [ 3259805.975791406352073, 2194078.97706281254068 ], [ 3259750.975614324212074, 2194065.254779241513461 ], [ 3259466.813322908245027, 2194107.536200630478561 ], [ 3259395.120447430759668, 2194118.203979094512761 ], [ 3259395.116906112059951, 2194118.20216378942132 ], [ 3259156.105808682739735, 2194021.015317125245929 ], [ 3258774.17649942310527, 2193892.41116576269269 ], [ 3258610.381065739318728, 2193837.258129758760333 ], [ 3258613.555115818046033, 2193834.85996737703681 ], [ 3258629.868575465865433, 2193842.09779862081632 ], [ 3258721.324697493575513, 2193869.59687519678846 ], [ 3258833.863890899345279, 2193907.901755940634757 ], [ 3258833.987367517314851, 2193906.606753860134631 ], [ 3258872.919802632182837, 2193925.22828770801425 ], [ 3258879.092152826488018, 2193917.57459978479892 ] ], [ [ 3260384.48039125232026, 2194371.700354584958404 ], [ 3260353.212893222458661, 2194368.74457925464958 ], [ 3260309.015716349706054, 2194344.530876904726028 ], [ 3260384.48039125232026, 2194371.700354584958404 ] ], [ [ 3260969.519782780203968, 2194463.99853211408481 ], [ 3260860.369448279961944, 2194437.074672983959317 ], [ 3260969.521703099831939, 2194463.995967021211982 ], [ 3260994.916300897952169, 2194476.895563177298754 ], [ 3260969.519782780203968, 2194463.99853211408481 ] ], [ [ 3261603.002991428598762, 2194207.896642268635333 ], [ 3261732.127504718489945, 2194033.977752990089357 ], [ 3261769.196232605259866, 2194016.655249012168497 ], [ 3261841.419157077092677, 2193933.449220606591552 ], [ 3261933.70365533977747, 2193919.502070146612823 ], [ 3261931.490669472143054, 2193918.296699913218617 ], [ 3261955.297138466499746, 2193918.769291465170681 ], [ 3261842.405195686966181, 2193935.680008214898407 ], [ 3261842.402332639321685, 2193935.683649961836636 ], [ 3261694.192268223501742, 2194142.98193035274744 ], [ 3261610.980507454369217, 2194243.658480850514024 ], [ 3261610.978392840828747, 2194243.660471544601023 ], [ 3261439.042099426500499, 2194398.329741891939193 ], [ 3261439.039468915201724, 2194398.332937661092728 ], [ 3261414.237480230629444, 2194417.675749633461237 ], [ 3261401.728795577771962, 2194427.431379323359579 ], [ 3261286.6866664304398, 2194517.152063002344221 ], [ 3261220.636629274114966, 2194541.84981317166239 ], [ 3261090.923657767940313, 2194543.184686600696295 ], [ 3261024.124366732314229, 2194493.403531547635794 ], [ 3261148.330088863149285, 2194540.544929747469723 ], [ 3261224.325233019888401, 2194534.442765204701573 ], [ 3261274.979433969594538, 2194499.021594688296318 ], [ 3261339.36296983063221, 2194454.000180737115443 ], [ 3261399.104483497329056, 2194412.224980443716049 ], [ 3261459.560405788943172, 2194369.950450927484781 ], [ 3261603.002991428598762, 2194207.896642268635333 ] ], [ [ 3262162.40633907681331, 2193998.25182673195377 ], [ 3262180.94648242322728, 2194013.663779515773058 ], [ 3262055.950438848696649, 2193910.882934188935906 ], [ 3262057.110740970820189, 2193911.605741641484201 ], [ 3262087.081378674134612, 2193904.654385009780526 ], [ 3262096.958693983033299, 2193902.017393976449966 ], [ 3262097.162074338644743, 2193902.316357976291329 ], [ 3262101.147793428041041, 2193901.391901559196413 ], [ 3262158.470023375935853, 2193992.46395046915859 ], [ 3262162.40633907681331, 2193998.25182673195377 ] ], [ [ 3262529.901245740242302, 2194314.54323595110327 ], [ 3262480.605333933606744, 2194262.974989387206733 ], [ 3262487.565415152348578, 2194268.771117352880538 ], [ 3262524.81033867970109, 2194299.82629338465631 ], [ 3262526.452235920354724, 2194299.540020138025284 ], [ 3262533.338050093501806, 2194316.041292850393802 ], [ 3262580.097229624167085, 2194393.016302918549627 ], [ 3262567.76080708950758, 2194373.729607370682061 ], [ 3262529.901245740242302, 2194314.54323595110327 ] ], [ [ 3262621.143212124705315, 2194460.585201596375555 ], [ 3262624.900858516804874, 2194472.285751082003117 ], [ 3262616.740735133178532, 2194453.337826154660434 ], [ 3262621.143212124705315, 2194460.585201596375555 ] ], [ [ 3262699.401299101300538, 2194691.487711427267641 ], [ 3262662.531572563573718, 2194589.664109569508582 ], [ 3262651.754852243699133, 2194559.902359644882381 ], [ 3262642.031605184078217, 2194522.233004059176892 ], [ 3262641.900300970301032, 2194521.724810051731765 ], [ 3262638.13064266834408, 2194507.121031983755529 ], [ 3262690.3735485477373, 2194588.220996253658086 ], [ 3262691.346763272769749, 2194591.181779253296554 ], [ 3262694.556291684508324, 2194595.837365337647498 ], [ 3262716.123501772526652, 2194666.559581828769296 ], [ 3262732.196990358177572, 2194715.459563249256462 ], [ 3262733.852076360024512, 2194720.495354963466525 ], [ 3262699.401299101300538, 2194691.487711427267641 ] ] ] } },
{ "type": "Feature", "properties": { "ENP_GRAL": 5.0, "ENP_GRAL_NAME": "Espacios Protegidos Red Natura 2000", "color": "#A87000" }, "geometry": { "type": "Polygon", "coordinates": [ [ [ 3266258.699270276352763, 2202514.853780679870397 ], [ 3266258.546343630179763, 2202514.698270373046398 ], [ 3266189.333311526570469, 2202444.286509998608381 ], [ 3266136.680916037876159, 2202357.159966788254678 ], [ 3266133.858677655924112, 2202354.637507080566138 ], [ 3266074.986372785642743, 2202302.023447624407709 ], [ 3266037.661834240891039, 2202222.318841731641442 ], [ 3266002.124606860335916, 2202146.439822767395526 ], [ 3265890.450365071184933, 2201964.181948330253363 ], [ 3265782.367684827186167, 2201935.775071238167584 ], [ 3265742.043074200395495, 2201925.17742373328656 ], [ 3265742.038692019879818, 2201925.176058911718428 ], [ 3265433.525406522676349, 2201818.800764835905284 ], [ 3265023.806797807104886, 2201507.047082815784961 ], [ 3265023.803963290527463, 2201507.045245409011841 ], [ 3265009.899679122492671, 2201466.006208234466612 ], [ 3264907.361473044846207, 2201163.411637591663748 ], [ 3264782.586290536448359, 2200906.38938781619072 ], [ 3264782.585271102376282, 2200906.386220155283809 ], [ 3264756.800054332707077, 2200740.570732878986746 ], [ 3264753.799506238661706, 2200684.323265224695206 ], [ 3264808.396723167970777, 2200519.696631088852882 ], [ 3264918.82373499777168, 2200367.637410663068295 ], [ 3264925.928365830332041, 2200339.844673586543649 ], [ 3264944.315797544084489, 2200267.895656938664615 ], [ 3264935.048310751095414, 2200198.548632697202265 ], [ 3264929.751233535818756, 2200158.922017311211675 ], [ 3264928.28411172516644, 2200126.596342700533569 ], [ 3264926.496746999211609, 2200087.318935596384108 ], [ 3264926.47157917637378, 2200086.764947802294046 ], [ 3264924.581055962946266, 2200045.269199192523956 ], [ 3264890.173206491395831, 2199895.1543247862719 ], [ 3264890.172072461806238, 2199895.151075751055032 ], [ 3264829.782301008701324, 2199778.971639975905418 ], [ 3264829.779236931819469, 2199778.966497210785747 ], [ 3264775.881407742388546, 2199705.932660255581141 ], [ 3264697.213411339558661, 2199599.334303203038871 ], [ 3264651.541469338349998, 2199561.679173234384507 ], [ 3264331.722016115672886, 2199416.732157588936388 ], [ 3264272.005705444142222, 2199361.250751399435103 ], [ 3264272.002533278428018, 2199361.247452259995043 ], [ 3264265.852182150352746, 2199353.882202825509012 ], [ 3264243.348407002165914, 2199326.934307617135346 ], [ 3264123.481825135648251, 2199183.384240971878171 ], [ 3263768.366131187416613, 2198870.222995875403285 ], [ 3263768.362079956568778, 2198870.218025284353644 ], [ 3263572.610171689651906, 2198575.905875019729137 ], [ 3263553.141472280956805, 2198452.055770685896277 ], [ 3263536.315279619302601, 2198345.018065114505589 ], [ 3263541.886258463840932, 2198316.674713714048266 ], [ 3263565.927528543863446, 2198277.001607290934771 ], [ 3263573.518277345690876, 2198270.183992378879339 ], [ 3263749.414435787126422, 2198112.202905951067805 ], [ 3263809.633045569527894, 2198070.275683050043881 ], [ 3263817.72217660676688, 2198060.990565730258822 ], [ 3263824.598158377688378, 2198053.094038981013 ], [ 3263848.161788317374885, 2198026.044383991509676 ], [ 3263882.264417336322367, 2197948.122421428095549 ], [ 3263927.062465486116707, 2197771.036881734617054 ], [ 3263948.818058641627431, 2197685.048467909451574 ], [ 3263966.508339936845005, 2197615.121133059263229 ], [ 3263960.489974837284535, 2197125.521727078594267 ], [ 3263933.851743329316378, 2196872.679025955498219 ], [ 3263956.945438682567328, 2196661.590890673920512 ], [ 3263957.011763617396355, 2196660.98477472178638 ], [ 3263963.357792227063328, 2196602.948546830564737 ], [ 3263608.947566381655633, 2196187.282518809661269 ], [ 3263459.453498214483261, 2195217.873029340524226 ], [ 3263463.526054121553898, 2195098.558902295306325 ], [ 3263446.665380853228271, 2195023.767762097995728 ], [ 3263446.583774653729051, 2195023.406407143454999 ], [ 3263438.45490515511483, 2194987.363102742936462 ], [ 3263404.029184524901211, 2194874.764639055356383 ], [ 3263404.028073058463633, 2194874.760271103587002 ], [ 3263412.516438758932054, 2194850.090003038756549 ], [ 3263424.057275012601167, 2194816.538405125960708 ], [ 3263381.817587364464998, 2194830.318265615031123 ], [ 3263344.030134739354253, 2194842.654522076714784 ], [ 3263301.578319360502064, 2194850.055736315436661 ], [ 3263126.961293647997081, 2194855.09577522566542 ], [ 3263058.45496833929792, 2194857.07146110245958 ], [ 3262967.146806520409882, 2194859.707697938196361 ], [ 3262905.426193278282881, 2194842.085754948668182 ], [ 3262882.254096701741219, 2194830.44077901635319 ], [ 3262862.55360965244472, 2194820.543876418378204 ], [ 3262838.040448351763189, 2194808.222108428366482 ], [ 3262838.036104444414377, 2194808.219723269343376 ], [ 3262769.770371774211526, 2194750.738936611451209 ], [ 3262733.852076360024512, 2194720.495354963466525 ], [ 3262699.401299101300538, 2194691.487711427267641 ], [ 3262679.962501974776387, 2194637.815361910499632 ], [ 3262662.531572563573718, 2194589.664109569508582 ], [ 3262651.754852243699133, 2194559.902359644882381 ], [ 3262642.031605184078217, 2194522.233004059176892 ], [ 3262641.900300970301032, 2194521.724810051731765 ], [ 3262635.474055931903422, 2194496.849340378306806 ], [ 3262612.735508891753852, 2194444.045653382316232 ], [ 3262580.097229624167085, 2194393.016302918549627 ], [ 3262567.76080708950758, 2194373.729607370682061 ], [ 3262529.901245740242302, 2194314.54323595110327 ], [ 3262480.605333933606744, 2194262.974989387206733 ], [ 3262467.606534761376679, 2194249.377123350277543 ], [ 3262180.94648242322728, 2194013.663779515773058 ], [ 3262055.950438848696649, 2193910.882934188935906 ], [ 3262048.552914147265255, 2193904.800308455247432 ], [ 3261998.354927403852344, 2193912.319631049409509 ], [ 3261935.583092733286321, 2193921.726909024640918 ], [ 3261842.402332639321685, 2193935.683649961836636 ], [ 3261694.196427397429943, 2194142.981914723291993 ], [ 3261610.980507454369217, 2194243.658480850514024 ], [ 3261610.978392840828747, 2194243.660471544601023 ], [ 3261439.042099426500499, 2194398.329741891939193 ], [ 3261439.039468915201724, 2194398.332937661092728 ], [ 3261414.237480230629444, 2194417.675749633461237 ], [ 3261401.728795577771962, 2194427.431379323359579 ], [ 3261286.690230084583163, 2194517.155901972670108 ], [ 3261220.640791633632034, 2194541.852331261150539 ], [ 3261090.923657767940313, 2194543.184686600696295 ], [ 3261090.920218356885016, 2194543.185387765988708 ], [ 3261024.124366732314229, 2194493.403531547635794 ], [ 3261017.068165794014931, 2194488.144948505796492 ], [ 3260994.916300897952169, 2194476.895563177298754 ], [ 3260969.519782780203968, 2194463.99853211408481 ], [ 3260860.369448279961944, 2194437.074672983959317 ], [ 3260820.257311269640923, 2194427.180380036588758 ], [ 3260726.364393122494221, 2194404.023970939684659 ], [ 3260624.528789625968784, 2194394.393142499029636 ], [ 3260384.48039125232026, 2194371.700354584958404 ], [ 3260353.212893222458661, 2194368.74457925464958 ], [ 3260309.015716349706054, 2194344.530876904726028 ], [ 3260198.146281284280121, 2194283.790210920851678 ], [ 3259911.104119771160185, 2194126.532898117788136 ], [ 3259911.098823706619442, 2194126.530273714102805 ], [ 3259805.975272350478917, 2194078.982019277755171 ], [ 3259750.976598403416574, 2194065.258358438499272 ], [ 3259565.399976067245007, 2194092.870758339297026 ], [ 3259466.813322908245027, 2194107.536200630478561 ], [ 3259395.120447430759668, 2194118.203979094512761 ], [ 3259395.116906112059951, 2194118.20216378942132 ], [ 3259156.102012646850199, 2194021.018209469504654 ], [ 3258885.686593418940902, 2193929.96147236507386 ], [ 3258774.17649942310527, 2193892.41116576269269 ], [ 3258610.381065739318728, 2193837.258129758760333 ], [ 3258586.916519776917994, 2193829.357076971791685 ], [ 3258542.298776406329125, 2193814.333645021077245 ], [ 3258381.287942838855088, 2193719.348958401940763 ], [ 3258304.237932306714356, 2193673.89774383418262 ], [ 3258304.234668044373393, 2193673.89324451982975 ], [ 3258269.297832452692091, 2193627.272758622653782 ], [ 3258223.080959623679519, 2193416.755992485210299 ], [ 3258219.355702613480389, 2193399.787255355156958 ], [ 3258219.354441492818296, 2193399.783217620104551 ], [ 3258219.016838318668306, 2193399.144652271643281 ], [ 3258214.067753597162664, 2193389.79154602997005 ], [ 3258146.259372997097671, 2193261.490075489040464 ], [ 3258117.596952792722732, 2193115.440448666457087 ], [ 3258078.093516998924315, 2193033.831028509885073 ], [ 3258071.898126126267016, 2193021.032393990084529 ], [ 3258071.8942058859393, 2193021.024461023975164 ], [ 3258020.323684929404408, 2192969.540920040104538 ], [ 3258020.313252162188292, 2192969.530372247565538 ], [ 3257984.159140731208026, 2192933.437244070693851 ], [ 3257938.77243787329644, 2192888.131737995892763 ], [ 3257878.639175000600517, 2192844.430278192739934 ], [ 3257878.639175000600517, 2204865.776025 ], [ 3266445.344224999658763, 2204865.776025 ], [ 3266445.344224999658763, 2202704.741423006635159 ], [ 3266258.699270276352763, 2202514.853780679870397 ] ] ] } }
]
}
