{
"type": "FeatureCollection",
"name": "Benalup-Casas_Viejas",
"crs": { "type": "name", "properties": { "name": "urn:ogc:def:crs:EPSG::3035" } },
"features": [
{ "type": "Feature", "properties": { "SITE_NAME": "Acebuchales de la Campiña Sur de Cádiz", "ODESIGNATE": "Zona de Importancia Comunitaria ZIC (ZEPA/ZEC)", "NUT2": 61, "SITE_CODE_": "ES6120015", "DESIG_ABBR": "ES49", "SITE_CDDA": "555588844_CDDA", "Sup_ha": 26488.395341700001 }, "geometry": { "type": "MultiPolygon", "coordinates": [ [ [ [ 2898351.165974567178637, 1627105.998091211542487 ], [ 2898331.699693331494927, 1627102.32132293144241 ], [ 2898315.336654701735824, 1627099.231415591435507 ], [ 2898306.429623368196189, 1627090.663329873234034 ], [ 2898296.331396790221334, 1627073.109688228461891 ], [ 2898279.287295171990991, 1627054.132473135367036 ], [ 2898234.360012442804873, 1627028.813399791717529 ], [ 2898192.507271027658135, 1627001.606846726965159 ], [ 2898158.353986730333418, 1626976.355063984869048 ], [ 2898094.383926288690418, 1626919.060877870768309 ], [ 2898051.129259286914021, 1626880.319482182152569 ], [ 2898008.938706216402352, 1626842.531590825645253 ], [ 2897981.225614217575639, 1626821.853536567650735 ], [ 2897957.539885848760605, 1626804.179148758761585 ], [ 2897953.973344014957547, 1626793.357720108004287 ], [ 2897951.299424780532718, 1626785.246243056608364 ], [ 2897929.283557825256139, 1626768.408055927138776 ], [ 2897909.21135136578232, 1626755.987647835165262 ], [ 2897885.621902187354863, 1626738.187368252081797 ], [ 2897866.064307398162782, 1626723.431225346168503 ], [ 2897852.454453975427896, 1626713.162117546889931 ], [ 2897830.986641075927764, 1626706.599714847281575 ], [ 2897802.859895182773471, 1626694.290710613597184 ], [ 2897766.87776465062052, 1626683.393628255929798 ], [ 2897679.548312182538211, 1626671.040912038180977 ], [ 2897596.492285538464785, 1626664.598668019287288 ], [ 2897553.688072230666876, 1626661.279585719574243 ], [ 2897535.581583918072283, 1626662.190512043889612 ], [ 2897529.145452097989619, 1626655.33340996154584 ], [ 2897511.026781065389514, 1626651.243242306401953 ], [ 2897494.662200290709734, 1626654.18510505836457 ], [ 2897480.41661895159632, 1626653.407473428174853 ], [ 2897463.851160723716021, 1626655.04951955890283 ], [ 2897445.970851706340909, 1626656.821508912369609 ], [ 2897431.422000882215798, 1626658.263227247400209 ], [ 2897412.604889663867652, 1626654.243032983504236 ], [ 2897376.978825248777866, 1626641.279528358019888 ], [ 2897334.1406409451738, 1626638.293896707706153 ], [ 2897286.966283116023988, 1626642.099915214115754 ], [ 2897266.426091805566102, 1626643.756757653784007 ], [ 2897237.773860838729888, 1626650.275610756827518 ], [ 2897221.219412326347083, 1626643.232727913884446 ], [ 2897214.483448259998113, 1626634.425718701910228 ], [ 2897200.647547660395503, 1626627.56317308335565 ], [ 2897186.701779323630035, 1626628.734432682394981 ], [ 2897164.08081386052072, 1626643.487010648008436 ], [ 2897154.052702445536852, 1626652.636087819235399 ], [ 2897145.278827604837716, 1626665.56833850312978 ], [ 2897141.940637297928333, 1626678.858053930103779 ], [ 2897143.984577180817723, 1626696.523805846227333 ], [ 2897145.42353574372828, 1626708.962917009368539 ], [ 2897142.045647206716239, 1626718.911884878063574 ], [ 2897138.862822636961937, 1626728.28821881650947 ], [ 2897137.389442089013755, 1626741.121846214635298 ], [ 2897131.687694829888642, 1626752.164884540718049 ], [ 2897126.053559849970043, 1626763.078846819233149 ], [ 2897115.858882895670831, 1626771.707910655532032 ], [ 2897105.57488629501313, 1626783.574616534402594 ], [ 2897094.947230803780258, 1626788.825089410180226 ], [ 2897079.892188270576298, 1626791.53167206607759 ], [ 2897071.357779919635504, 1626793.066027879947796 ], [ 2897063.272926875855774, 1626797.19126105052419 ], [ 2897054.953691993840039, 1626808.704981215531006 ], [ 2897046.869337300769985, 1626819.895074341446161 ], [ 2897045.916266332846135, 1626833.038263862719759 ], [ 2897046.994685077108443, 1626857.555952174589038 ], [ 2897041.692921741865575, 1626871.199827722040936 ], [ 2897037.091570858377963, 1626889.391239344840869 ], [ 2897037.726191701833159, 1626906.641461045015603 ], [ 2897033.63395981490612, 1626919.400989665882662 ], [ 2897030.355136964470148, 1626929.622787876054645 ], [ 2897027.26874073036015, 1626939.245565401157364 ], [ 2897023.286006144247949, 1626943.969211195828393 ], [ 2897013.058356855995953, 1626951.819316139444709 ], [ 2897003.757080635987222, 1626958.95814617886208 ], [ 2896996.728884260170162, 1626968.112855203682557 ], [ 2896990.673654005862772, 1626981.223283944651484 ], [ 2896985.857225268147886, 1626991.65124711045064 ], [ 2896976.45307535212487, 1627002.481012326898053 ], [ 2896968.9707241198048, 1627011.098023516591638 ], [ 2896957.77962168911472, 1627023.98636555694975 ], [ 2896945.039064434356987, 1627047.533836013171822 ], [ 2896932.124584573321044, 1627071.405708478530869 ], [ 2896924.898389310576022, 1627095.903618546435609 ], [ 2896914.71576073160395, 1627108.421269821003079 ], [ 2896914.300259802024812, 1627109.042369999457151 ], [ 2898367.283688654657453, 1627109.042369999457151 ], [ 2898351.165974567178637, 1627105.998091211542487 ] ] ], [ [ [ 2895584.688516162335873, 1627089.769984246231616 ], [ 2895543.079239070415497, 1627014.843826758442447 ], [ 2895496.173422162421048, 1626925.357019536895677 ], [ 2895479.039329756051302, 1626897.047167081618682 ], [ 2895478.449529963545501, 1626884.463603672105819 ], [ 2895446.666296404786408, 1626900.86533535993658 ], [ 2895384.810102241113782, 1626936.034388711443171 ], [ 2895346.719730000477284, 1626957.690493333851919 ], [ 2895346.719730000477284, 1627109.042369999457151 ], [ 2895595.391256950329989, 1627109.042369999457151 ], [ 2895584.688516162335873, 1627089.769984246231616 ] ] ], [ [ [ 2895357.211525275371969, 1620521.451630311785266 ], [ 2895368.227930122986436, 1620488.082383912522346 ], [ 2895386.438741141930223, 1620432.921881169313565 ], [ 2895397.349605682771653, 1620388.680594306671992 ], [ 2895408.53169168299064, 1620343.34237047098577 ], [ 2895423.421716016717255, 1620313.202469315845519 ], [ 2895430.699082780629396, 1620290.52259312896058 ], [ 2895435.161076178308576, 1620276.620242722099647 ], [ 2895453.543080572970212, 1620259.702260829042643 ], [ 2895461.88583518518135, 1620230.821110486984253 ], [ 2895468.916746068745852, 1620206.482830568915233 ], [ 2895499.81849921355024, 1620131.839225064963102 ], [ 2895511.424131607636809, 1620103.805713857756928 ], [ 2895516.061284354887903, 1620092.603286890313029 ], [ 2895511.223252815194428, 1620070.350548902992159 ], [ 2895460.325885913800448, 1619909.870928741525859 ], [ 2895451.982748594600707, 1619899.350216822698712 ], [ 2895441.185450304765254, 1619907.977495077066123 ], [ 2895418.509440504945815, 1619927.28128673764877 ], [ 2895404.818289936054498, 1619933.875294605502859 ], [ 2895393.844369824975729, 1619932.509908924810588 ], [ 2895376.491198649164289, 1619920.269638442434371 ], [ 2895346.719730000477284, 1619892.929619008908048 ], [ 2895346.719730000477284, 1620563.319444897351786 ], [ 2895357.211525275371969, 1620521.451630311785266 ] ] ] ] } },
{ "type": "Feature", "properties": { "SITE_NAME": "Los Alcornocales", "ODESIGNATE": "Parque Natural", "NUT2": 61, "SITE_CODE_": "ES610005", "DESIG_ABBR": "ES10", "SITE_CDDA": "349067_CDDA", "Sup_ha": 173619.519852 }, "geometry": { "type": "Polygon", "coordinates": [ [ [ 2900941.41215797746554, 1614167.772344026248902 ], [ 2900890.750448003411293, 1614240.975904860766605 ], [ 2900880.83973409421742, 1614256.289455741178244 ], [ 2900855.587239130400121, 1614295.30873066582717 ], [ 2900852.677693496458232, 1614299.804347542813048 ], [ 2900851.184760702308267, 1614306.028424509800971 ], [ 2900829.712230388075113, 1614395.544806578895077 ], [ 2900788.737470176070929, 1614523.039317839313298 ], [ 2900706.838760225102305, 1614760.857791426591575 ], [ 2900652.160257020965219, 1614911.521149926586077 ], [ 2900634.038007196038961, 1614961.456545176915824 ], [ 2900589.671099360100925, 1615066.846546064363793 ], [ 2900550.143193735741079, 1615186.258684182772413 ], [ 2900532.39043035171926, 1615252.820873164571822 ], [ 2900479.429785449057817, 1615451.393890114501119 ], [ 2900473.291495946235955, 1615474.409106297418475 ], [ 2900450.992517873179168, 1615574.574899847386405 ], [ 2900446.231447402387857, 1615676.21133013558574 ], [ 2900440.929360866546631, 1615789.400647094473243 ], [ 2900430.721820878796279, 1615976.994581647682935 ], [ 2900429.104809653479606, 1616194.342797874705866 ], [ 2900427.686656789854169, 1616304.798609340563416 ], [ 2900426.93558372464031, 1616363.30218807188794 ], [ 2900424.89069686550647, 1616412.158025249838829 ], [ 2900427.606949222274125, 1616464.925285699544474 ], [ 2900428.74006845895201, 1616476.749593711923808 ], [ 2900436.546995484270155, 1616558.219791889889166 ], [ 2900449.011699214577675, 1616610.492856042459607 ], [ 2900455.476788955740631, 1616637.605401184642687 ], [ 2900455.983941275626421, 1616639.411101384088397 ], [ 2900464.384188627824187, 1616669.321630545658991 ], [ 2900472.343871799297631, 1616756.230203830171376 ], [ 2900478.651251226663589, 1616832.904445166001096 ], [ 2900489.833022264298052, 1616968.83080549701117 ], [ 2900492.042400444857776, 1616995.68811143678613 ], [ 2900504.070528535172343, 1616993.895769045921043 ], [ 2900539.325459487270564, 1616988.642297455808148 ], [ 2900560.038151425309479, 1616985.555877731181681 ], [ 2900883.744562051258981, 1616920.605102542089298 ], [ 2901140.726363710127771, 1616867.892734697088599 ], [ 2901184.766527297440916, 1616859.558975850697607 ], [ 2901271.468291070312262, 1616843.152435777708888 ], [ 2901312.442351477686316, 1616838.318412919528782 ], [ 2901389.043762037530541, 1616838.714534666622058 ], [ 2901406.708997642621398, 1616838.805871807271615 ], [ 2901419.413383828476071, 1616841.427664875518531 ], [ 2901429.967974372208118, 1616843.605727914720774 ], [ 2901439.942770775407553, 1616845.664184972876683 ], [ 2901425.556373720057309, 1616857.940382126253098 ], [ 2901423.391722600907087, 1616859.787607687292621 ], [ 2901420.379323239903897, 1616862.605721655068919 ], [ 2901398.685322931967676, 1616882.901325274026021 ], [ 2901378.484396755695343, 1616926.659527204930782 ], [ 2901362.415721887722611, 1616970.937712308717892 ], [ 2901339.078774395398796, 1617020.559493725188076 ], [ 2901319.885093248449266, 1617053.284043367952108 ], [ 2901312.098982541821897, 1617081.436108420137316 ], [ 2901315.21323421690613, 1617110.407015241216868 ], [ 2901319.58898356417194, 1617138.899109776131809 ], [ 2901318.156088721007109, 1617164.648377969861031 ], [ 2901312.061575111933053, 1617195.020659052534029 ], [ 2901292.868144946172833, 1617227.745166374836117 ], [ 2901285.454623341094702, 1617235.054438337916508 ], [ 2901269.332331118173897, 1617250.949788663769141 ], [ 2901257.810974456835538, 1617262.309050974203274 ], [ 2901241.75354550499469, 1617289.170205412665382 ], [ 2901230.497835236601532, 1617329.808075576787814 ], [ 2901214.257658680900931, 1617364.273922973312438 ], [ 2901207.026643015444279, 1617413.527703142026439 ], [ 2901199.348167099524289, 1617433.583987130783498 ], [ 2901167.966999999713153, 1617483.388847223250195 ], [ 2901151.710555157158524, 1617526.439262196188793 ], [ 2901143.35394244408235, 1617577.157282592263073 ], [ 2901146.027470849454403, 1617620.84663249226287 ], [ 2901147.671770353335887, 1617675.321442326763645 ], [ 2901159.441845252178609, 1617751.955575782572851 ], [ 2901172.279855865985155, 1617853.132999053690583 ], [ 2901169.818365507759154, 1617889.667868873802945 ], [ 2901159.559546968434006, 1617908.740944626508281 ], [ 2901153.562243237160146, 1617932.718464557779953 ], [ 2901156.269843912683427, 1617978.243666963884607 ], [ 2901157.81002474296838, 1618004.141492429655045 ], [ 2901158.610540189780295, 1618022.517374815884978 ], [ 2901162.07558751385659, 1618102.063040165230632 ], [ 2901174.084783856756985, 1618241.501881011063233 ], [ 2901177.999228885397315, 1618319.547362917801365 ], [ 2901192.620730393566191, 1618379.768850649241358 ], [ 2901209.669003590941429, 1618451.841598895844072 ], [ 2901215.643519381992519, 1618477.098710711114109 ], [ 2901221.438074333127588, 1618486.621963229961693 ], [ 2901237.241592067293823, 1618512.594326291000471 ], [ 2901268.538749924860895, 1618549.881651555188 ], [ 2901291.052638617344201, 1618573.854843897279352 ], [ 2901298.672229248099029, 1618588.387583811767399 ], [ 2901309.47287385025993, 1618641.218692230060697 ], [ 2901320.477735648863018, 1618695.275152186164632 ], [ 2901355.450918268412352, 1618747.803673250367865 ], [ 2901444.935978590510786, 1618874.844536899123341 ], [ 2901628.290439411066473, 1619139.750118902884424 ], [ 2901643.343385100364685, 1619124.174837278435007 ], [ 2901651.624936040956527, 1619108.04842888051644 ], [ 2901655.390025921165943, 1619088.694570934632793 ], [ 2901672.131450538523495, 1619075.08740325178951 ], [ 2901682.627129848115146, 1619055.787030407926068 ], [ 2901697.025158086791635, 1619053.201455012662336 ], [ 2901728.890962234698236, 1619032.839946371503174 ], [ 2901753.758803128264844, 1619028.374338214984164 ], [ 2901761.011489703319967, 1619023.033496181713417 ], [ 2901770.98488796595484, 1619009.127337084850296 ], [ 2901789.030692108441144, 1619012.701655735028908 ], [ 2901801.714695348404348, 1619007.647530720336363 ], [ 2901835.328120182733983, 1619016.250807262025774 ], [ 2901847.71625065151602, 1619018.064599270932376 ], [ 2901866.979638165794313, 1619012.081468399381265 ], [ 2901884.890915820375085, 1619006.088844248559326 ], [ 2901915.420601182617247, 1619008.37150285532698 ], [ 2901932.525085310917348, 1619009.650408455869183 ], [ 2901976.14391350466758, 1618995.760341544402763 ], [ 2902008.657317854464054, 1618988.407711182022467 ], [ 2902030.830332950688899, 1618975.087376510025933 ], [ 2902215.772328068967909, 1618935.316701001022011 ], [ 2902542.94980005081743, 1619068.142679053591564 ], [ 2902654.573763549793512, 1619120.287477499106899 ], [ 2902767.134835510514677, 1619126.075229196343571 ], [ 2902999.201990097761154, 1619089.188841847935691 ], [ 2903084.505115343257785, 1619019.878426973475143 ], [ 2903190.015168757177889, 1619013.503824775340036 ], [ 2903202.613836216274649, 1619012.742653368972242 ], [ 2903203.84118303982541, 1619078.464912813855335 ], [ 2903220.832137389108539, 1619110.24576341570355 ], [ 2903305.073842819780111, 1619203.149295597337186 ], [ 2903346.749058499932289, 1619251.186515854205936 ], [ 2903557.292720785364509, 1619045.5538950196933 ], [ 2903815.359166365116835, 1618797.815063408343121 ], [ 2903898.594634454697371, 1618845.198170100105926 ], [ 2904100.944931814447045, 1618960.390191399259493 ], [ 2904127.499314054846764, 1618975.506820400711149 ], [ 2904274.568675313144922, 1619072.100776325911283 ], [ 2904287.458285156171769, 1619080.566532063530758 ], [ 2904357.492970023304224, 1619114.184998666169122 ], [ 2904374.714950068853796, 1619118.410828031366691 ], [ 2904423.435172657482326, 1619130.365487420465797 ], [ 2904456.718859632965177, 1619163.513290719594806 ], [ 2904461.840433905832469, 1619179.146444555372 ], [ 2904477.960634239483625, 1619228.353028462035581 ], [ 2904491.22142079193145, 1619259.541970161255449 ], [ 2904504.99118691124022, 1619267.641874257707968 ], [ 2904523.768899857997894, 1619278.687677289824933 ], [ 2904567.680849322117865, 1619288.987922882195562 ], [ 2904574.974502055905759, 1619290.698759163729846 ], [ 2904587.302214113529772, 1619291.819478048710153 ], [ 2904642.183021236211061, 1619296.808838128112257 ], [ 2904655.158066304400563, 1619300.201481738360599 ], [ 2904686.257764264941216, 1619308.33312977803871 ], [ 2904795.559197927825153, 1619349.796572865685448 ], [ 2904830.423481225036085, 1619383.923104526009411 ], [ 2904892.26324049802497, 1619556.805580765241757 ], [ 2904901.228688506409526, 1619547.137525114696473 ], [ 2904913.897752841934562, 1619542.087371219415218 ], [ 2904934.999043889343739, 1619530.475976512534544 ], [ 2904946.783852178603411, 1619528.360902367625386 ], [ 2904967.832098547834903, 1619516.506657453952357 ], [ 2904979.886921613011509, 1619524.943921138998121 ], [ 2905001.968938900157809, 1619519.718899361090735 ], [ 2905021.540093413554132, 1619489.45229715318419 ], [ 2905049.172934785485268, 1619450.419243954587728 ], [ 2905077.311782067641616, 1619414.576693405397236 ], [ 2905095.099157434888184, 1619390.183038944611326 ], [ 2905114.762390559073538, 1619351.823251798516139 ], [ 2905132.134791531134397, 1619324.727756127249449 ], [ 2905150.903111123014241, 1619306.720438736025244 ], [ 2905191.259373609442264, 1619297.963747378205881 ], [ 2905235.235986454878002, 1619295.69215949322097 ], [ 2905239.317546483594924, 1619295.481356761185452 ], [ 2905245.001239644363523, 1619332.48882590746507 ], [ 2905245.260273471008986, 1619360.45853895903565 ], [ 2905254.232171840500087, 1619375.001960969762877 ], [ 2905262.854723966680467, 1619396.170387458289042 ], [ 2905278.923930522054434, 1619430.64158829418011 ], [ 2905292.104736862704158, 1619437.614913782803342 ], [ 2905309.106438763439655, 1619451.979263729183003 ], [ 2905311.483125024475157, 1619467.453848833683878 ], [ 2905306.956450250465423, 1619470.948647929355502 ], [ 2905291.038376129232347, 1619483.237978618824854 ], [ 2905283.706303783226758, 1619504.405968013918027 ], [ 2905282.648675349541008, 1619507.459357481682673 ], [ 2905257.526865438558161, 1619527.868796784430742 ], [ 2905232.265031820163131, 1619529.878314580302685 ], [ 2905219.639343643561006, 1619544.00693724420853 ], [ 2905204.276010878849775, 1619551.403862003935501 ], [ 2905202.089169025421143, 1619552.456880634650588 ], [ 2905201.88876143284142, 1619554.630850154208019 ], [ 2905201.109926240518689, 1619563.080437846016139 ], [ 2905200.575166616588831, 1619568.88209297740832 ], [ 2905202.670337818562984, 1619571.293874873779714 ], [ 2905213.663961310870945, 1619583.948611070169136 ], [ 2905222.457268674392253, 1619600.799820342799649 ], [ 2905225.104629173409194, 1619605.873331168433651 ], [ 2905227.450848578009754, 1619605.962733622407541 ], [ 2905249.466834630817175, 1619606.80171119957231 ], [ 2905265.072716542519629, 1619612.077850553207099 ], [ 2905273.991486358456314, 1619626.378348578233272 ], [ 2905263.321874763816595, 1619644.446696785511449 ], [ 2905265.698523436672986, 1619659.921322436304763 ], [ 2905253.795549924951047, 1619687.549721193732694 ], [ 2905248.1269950424321, 1619703.206133613362908 ], [ 2905247.758685833774507, 1619706.517959638498724 ], [ 2905247.064897076226771, 1619712.756238455418497 ], [ 2905245.864319490734488, 1619723.551689122803509 ], [ 2905238.089029370807111, 1619734.285831616260111 ], [ 2905227.845003421418369, 1619737.638686719816178 ], [ 2905202.879065552726388, 1619732.78031878080219 ], [ 2905188.254120192490518, 1619733.89061027392745 ], [ 2905176.361786526627839, 1619744.101625918643549 ], [ 2905158.908345223870128, 1619761.872986216563731 ], [ 2905136.27574116922915, 1619763.410771596478298 ], [ 2905121.553950655274093, 1619755.199659244855866 ], [ 2905111.45904747908935, 1619747.061787985032424 ], [ 2905110.798125681467354, 1619746.529212028486654 ], [ 2905110.028343630488962, 1619746.508347926661372 ], [ 2905093.370671524200588, 1619746.057082356419414 ], [ 2905085.136979655362666, 1619745.834065135801211 ], [ 2905082.039661831222475, 1619747.560639866627753 ], [ 2905069.902055928483605, 1619754.326775504276156 ], [ 2905067.775440934114158, 1619755.512261202558875 ], [ 2905067.035493544302881, 1619757.418098700465634 ], [ 2905061.034097385592759, 1619772.875749081838876 ], [ 2905050.12282884772867, 1619789.4731059812475 ], [ 2905042.066931560635567, 1619807.072421782417223 ], [ 2905026.812306560575962, 1619821.672997951041907 ], [ 2905009.248828914947808, 1619832.222114795120433 ], [ 2905004.638338376767933, 1619834.991289195604622 ], [ 2904967.620097978971899, 1619891.86247873888351 ], [ 2904955.776392973959446, 1619928.566823247354478 ], [ 2904954.425210316665471, 1619963.640513338148594 ], [ 2904941.48273927019909, 1620019.471998711349443 ], [ 2904920.360861142165959, 1620065.918439160799608 ], [ 2904931.586852150037885, 1620104.035347009310499 ], [ 2904930.224194224923849, 1620121.443139253882691 ], [ 2904910.373197249602526, 1620158.575096807675436 ], [ 2904903.471566647756845, 1620183.791770523879677 ], [ 2904905.886340709868819, 1620199.512044586008415 ], [ 2904896.763799565844238, 1620227.651419734116644 ], [ 2904896.646160192787647, 1620253.16498032421805 ], [ 2904915.972306346520782, 1620326.426162724616006 ], [ 2904903.369339613243937, 1620340.803434129804373 ], [ 2904874.23875373788178, 1620352.594081999035552 ], [ 2904860.418059985153377, 1620376.528726055286825 ], [ 2904865.306595519185066, 1620417.045059410156682 ], [ 2904862.926817439030856, 1620462.904492896748707 ], [ 2904850.158359154593199, 1620519.967275818344206 ], [ 2904847.722938584163785, 1620539.082105277571827 ], [ 2904855.235647505614907, 1620561.711803199956194 ], [ 2904849.875292327255011, 1620588.166513176634908 ], [ 2904854.666956711560488, 1620619.361507153138518 ], [ 2904858.429898063186556, 1620661.342077572131529 ], [ 2904847.85603163484484, 1620741.484530201647431 ], [ 2904834.708726247772574, 1620761.007545772241428 ], [ 2904805.46098804846406, 1620798.312126355711371 ], [ 2904800.893200161866844, 1620829.925111658405513 ], [ 2904802.457630514167249, 1620875.076792602660134 ], [ 2904799.10741769336164, 1620897.132319604745135 ], [ 2904761.506856844760478, 1620923.820905334083363 ], [ 2904733.143396044149995, 1620958.190427069552243 ], [ 2904726.043510506395251, 1620999.596836743876338 ], [ 2904713.031261467374861, 1621028.687128803227097 ], [ 2904711.037086611613631, 1621048.299999449169263 ], [ 2904709.208043255843222, 1621066.288357786135748 ], [ 2904706.60059865610674, 1621091.932566639501601 ], [ 2904699.844561660662293, 1621109.299015462165698 ], [ 2904695.076164908707142, 1621122.017879375489429 ], [ 2904693.112185334786773, 1621170.579557228134945 ], [ 2904699.489130186848342, 1621212.091134354704991 ], [ 2904700.057298048399389, 1621250.859378107590601 ], [ 2904696.496445911936462, 1621271.438421147642657 ], [ 2904697.278877647127956, 1621294.014346691779792 ], [ 2904701.016782558523118, 1621353.4156659161672 ], [ 2904712.539514969103038, 1621384.664818655699492 ], [ 2904720.882680085953325, 1621412.698620964540169 ], [ 2904743.494639152660966, 1621445.995903482660651 ], [ 2904749.089288326911628, 1621464.931716489838436 ], [ 2904795.185141519643366, 1621510.924987435108051 ], [ 2904824.349124337080866, 1621525.630426022456959 ], [ 2904856.108831606805325, 1621541.884287686087191 ], [ 2904860.862745133694261, 1621544.31714017293416 ], [ 2904863.850188419222832, 1621551.379810355836526 ], [ 2904869.297508552204818, 1621564.25765993213281 ], [ 2904871.891206182539463, 1621598.624041455099359 ], [ 2904872.755430276505649, 1621630.524302910082042 ], [ 2904874.274136518128216, 1621632.070443827658892 ], [ 2904931.774067858234048, 1621690.60476765781641 ], [ 2904970.002062917686999, 1621711.7603632544633 ], [ 2905029.682281458750367, 1621741.181307461345568 ], [ 2905131.641009520739317, 1621782.954159167129546 ], [ 2905366.254575598053634, 1621891.280375933274627 ], [ 2905509.244282586500049, 1621954.969631513347849 ], [ 2905659.002224918920547, 1622018.95923705259338 ], [ 2905729.939190480858088, 1622042.827622273704037 ], [ 2905940.350681557320058, 1622098.710121765499935 ], [ 2906116.695404131896794, 1622143.038958518067375 ], [ 2906212.953533698339015, 1622173.975089436164126 ], [ 2906315.388549427501857, 1622218.947489719139412 ], [ 2906430.045198549516499, 1622273.337831327226013 ], [ 2906511.744852705858648, 1622314.711873671738431 ], [ 2906604.722476543858647, 1622359.363426827825606 ], [ 2906634.528395823203027, 1622378.246314408024773 ], [ 2906665.692710195668042, 1622405.972153197973967 ], [ 2906680.684868517331779, 1622424.736628884915262 ], [ 2906697.828191835433245, 1622457.502189568243921 ], [ 2906707.297311136499047, 1622484.072583526140079 ], [ 2906738.434389098547399, 1622599.135718350997195 ], [ 2906773.753343617543578, 1622627.630579984746873 ], [ 2906798.340620968490839, 1622691.368661597371101 ], [ 2906819.014004036318511, 1622817.143736257916316 ], [ 2906796.267400214914232, 1622879.278410009341314 ], [ 2906797.681776041164994, 1622881.744860832346603 ], [ 2906816.477398738730699, 1622914.522899718955159 ], [ 2906842.332839746959507, 1622933.862440983764827 ], [ 2906883.200251234695315, 1622937.13100448413752 ], [ 2906915.833867711946368, 1622939.352785222465172 ], [ 2906938.585527963005006, 1622947.386221626540646 ], [ 2906967.054632971994579, 1622966.256915429141372 ], [ 2906982.235793415922672, 1622986.249725969042629 ], [ 2906988.5316206458956, 1623018.437794917263091 ], [ 2906985.597017697989941, 1623043.195387026295066 ], [ 2906963.684482725337148, 1623084.483137131668627 ], [ 2906843.274925057310611, 1623217.612990727182478 ], [ 2906838.328315584920347, 1623223.082125549437478 ], [ 2906836.675273607484996, 1623225.940147160552442 ], [ 2906820.246988771017641, 1623254.343639578903094 ], [ 2906698.888763189315796, 1623451.6635029790923 ], [ 2906680.301552588585764, 1623481.885409099049866 ], [ 2906678.444046607706696, 1623488.825021763565019 ], [ 2906663.198532386682928, 1623545.784821990411729 ], [ 2906663.064463932067156, 1623546.628093200502917 ], [ 2906656.087923647370189, 1623590.527061161352322 ], [ 2906647.466530692763627, 1623644.775726401247084 ], [ 2906632.474102511070669, 1623687.346598083153367 ], [ 2906613.509338316041976, 1623721.543585114879534 ], [ 2906580.677801532670856, 1623735.512062809430063 ], [ 2906569.154303574934602, 1623765.597367208916694 ], [ 2906565.927734711207449, 1623840.889714990276843 ], [ 2906566.410340113099664, 1623852.663100593956187 ], [ 2906567.396580225788057, 1623876.720714547438547 ], [ 2906495.25215464644134, 1623906.325854023220018 ], [ 2906484.650287206284702, 1623880.351613532053307 ], [ 2906477.973074119538069, 1623863.992722530849278 ], [ 2906430.457440428901464, 1623869.995183774968609 ], [ 2906390.489914051722735, 1623863.789557340089232 ], [ 2906331.152150038164109, 1623871.661292724311352 ], [ 2906276.868440432474017, 1623877.364155545830727 ], [ 2906249.264456666074693, 1623890.394974309485406 ], [ 2906200.280673301778734, 1623921.902303705457598 ], [ 2906155.655752531718463, 1623955.404128709575161 ], [ 2906110.455675078555942, 1623994.057353074895218 ], [ 2906082.238770709373057, 1624020.576176601229236 ], [ 2906058.849401380401105, 1624043.452093397732824 ], [ 2906040.227723176125437, 1624053.609065810218453 ], [ 2905996.307579459622502, 1624065.529782415833324 ], [ 2905973.817532119806856, 1624085.467884773155674 ], [ 2905934.203014637343585, 1624099.140015738783404 ], [ 2905888.002521256450564, 1624104.907373207621276 ], [ 2905840.946965946815908, 1624122.691646241117269 ], [ 2905703.151551217772067, 1624162.819286360638216 ], [ 2905591.245922239497304, 1624178.865117934299633 ], [ 2905541.306428679265082, 1624186.566232655663043 ], [ 2905510.070306285750121, 1624193.434620765037835 ], [ 2905417.912208961322904, 1624197.859645090531558 ], [ 2905365.123875200748444, 1624213.392289974726737 ], [ 2905312.382226821966469, 1624220.334571192972362 ], [ 2905239.154248050879687, 1624225.401093953289092 ], [ 2905184.34982780739665, 1624236.500112568726763 ], [ 2905152.818622256629169, 1624250.236958496039733 ], [ 2905117.041664872318506, 1624271.298614108236507 ], [ 2905084.195944903418422, 1624285.271486765472218 ], [ 2905034.445645960513502, 1624294.201571616344154 ], [ 2905002.228262378368527, 1624294.683833033544943 ], [ 2904962.956796478945762, 1624284.316533272154629 ], [ 2904922.999058614019305, 1624260.694638716988266 ], [ 2904894.545722409151495, 1624241.822801899397746 ], [ 2904869.401020498480648, 1624218.318510563811287 ], [ 2904843.039365692529827, 1624204.371915557887405 ], [ 2904802.446698795072734, 1624185.407554973382503 ], [ 2904766.137260735966265, 1624167.946106916759163 ], [ 2904726.381586627103388, 1624163.21906770998612 ], [ 2904668.286989522632211, 1624144.115266857203096 ], [ 2904598.952363432850689, 1624121.980990688083693 ], [ 2904544.326245030853897, 1624090.391249558189884 ], [ 2904505.774411121383309, 1624058.440237029455602 ], [ 2904487.186792933847755, 1624033.75920050824061 ], [ 2904451.852391101885587, 1624005.269286369206384 ], [ 2904406.110593228600919, 1623961.483584170229733 ], [ 2904376.662964226678014, 1623909.977133168606088 ], [ 2904360.902297760359943, 1623868.634303541854024 ], [ 2904360.982670130673796, 1623816.622887896373868 ], [ 2904373.20011624507606, 1623782.373317260993645 ], [ 2904397.110654992982745, 1623754.101776133291423 ], [ 2904425.424318197183311, 1623736.903268645750359 ], [ 2904457.157303820829839, 1623742.060467296745628 ], [ 2904469.130254504270852, 1623741.173275429056957 ], [ 2904489.678965435363352, 1623717.291570188477635 ], [ 2904508.877998198382556, 1623667.148867393610999 ], [ 2904501.706381665542722, 1623620.478053173748776 ], [ 2904481.200642085634172, 1623592.102869571186602 ], [ 2904460.377077900804579, 1623570.347420274512842 ], [ 2904443.079550517722964, 1623562.851233033463359 ], [ 2904419.791040142998099, 1623560.216741331620142 ], [ 2904384.960377428680658, 1623561.168655935674906 ], [ 2904350.022936256136745, 1623570.217007285216823 ], [ 2904331.590514007024467, 1623581.603068145457655 ], [ 2904313.038254058919847, 1623583.419062009081244 ], [ 2904290.866504915058613, 1623596.738560920581222 ], [ 2904242.290449214167893, 1623648.368843375472352 ], [ 2904201.019964946433902, 1623686.319652355276048 ], [ 2904184.776985130272806, 1623711.952721406240016 ], [ 2904158.561666599474847, 1623751.491857159649953 ], [ 2904146.01108758058399, 1623792.364022222580388 ], [ 2904127.840611583087593, 1623831.721088911173865 ], [ 2904118.743214991874993, 1623860.110061377985403 ], [ 2904112.87867919774726, 1623891.957265853881836 ], [ 2904109.023723423480988, 1623919.405036351410672 ], [ 2904100.492664436809719, 1623951.478555465815589 ], [ 2904078.72742494661361, 1623984.918378269532695 ], [ 2904058.474265389144421, 1624001.932318323291838 ], [ 2904051.859705600887537, 1624003.119787867413834 ], [ 2904041.946347245480865, 1624003.88992570573464 ], [ 2903969.303586366120726, 1623986.389490477275103 ], [ 2903904.758977245539427, 1623960.367735921870917 ], [ 2903883.247142870910466, 1623943.027125995606184 ], [ 2903868.407806761562824, 1623898.99482716456987 ], [ 2903847.675381441600621, 1623869.146045302506536 ], [ 2903801.933774156495929, 1623825.361247503664345 ], [ 2903785.780046778731048, 1623781.565003375755623 ], [ 2903785.788512998260558, 1623781.515525237424299 ], [ 2903789.317314222455025, 1623760.736936143832281 ], [ 2903783.353260580450296, 1623721.92646938865073 ], [ 2903789.928332063369453, 1623685.913087185705081 ], [ 2903789.38021341431886, 1623647.392384886275977 ], [ 2903774.034786541946232, 1623608.751844932092354 ], [ 2903753.204776311758906, 1623569.581512526841834 ], [ 2903732.192634295206517, 1623546.598196133738384 ], [ 2903712.077504826709628, 1623538.346293368376791 ], [ 2903672.299971713684499, 1623533.372043725568801 ], [ 2903636.956796502694488, 1623522.301095442846417 ], [ 2903613.837496885098517, 1623494.395538714714348 ], [ 2903586.348711715545505, 1623420.57830764609389 ], [ 2903570.235409509390593, 1623350.776693747378886 ], [ 2903570.340568385086954, 1623281.344681781949475 ], [ 2903597.178192739374936, 1623210.899280916200951 ], [ 2903614.547077507246286, 1623183.801843041321263 ], [ 2903636.114851225633174, 1623166.551800850080326 ], [ 2903665.979746656026691, 1623194.50829293532297 ], [ 2903654.547282583080232, 1623155.165377900470048 ], [ 2903664.142213423736393, 1623138.802924202056602 ], [ 2903690.855036100372672, 1623111.289987256284803 ], [ 2903718.989206800237298, 1623075.444814337417483 ], [ 2903742.62914499361068, 1623036.620392175624147 ], [ 2903746.990869375877082, 1623003.781272014603019 ], [ 2903745.634763605892658, 1622968.687255019787699 ], [ 2903720.370767719112337, 1622935.613800381077453 ], [ 2903686.781916292384267, 1622909.588021619478241 ], [ 2903644.126525566447526, 1622911.094322158023715 ], [ 2903640.391018165275455, 1622925.489143564132974 ], [ 2903603.250152225606143, 1622930.642737569985911 ], [ 2903566.562220440246165, 1622938.744072142057121 ], [ 2903535.541833113878965, 1622928.916419932153076 ], [ 2903507.258752063382417, 1622918.597254248335958 ], [ 2903479.332891492173076, 1622901.398933368269354 ], [ 2903447.293515427038074, 1622884.939265713095665 ], [ 2903422.162821493577212, 1622876.830705798929557 ], [ 2903380.339741282165051, 1622860.613194945268333 ], [ 2903320.205968181602657, 1622835.062795172445476 ], [ 2903269.041054368950427, 1622803.863572326255962 ], [ 2903223.481441713869572, 1622763.328541576396674 ], [ 2903168.542059364262968, 1622707.566178879700601 ], [ 2903100.478154660202563, 1622648.607399750500917 ], [ 2903050.047978349030018, 1622612.985678496304899 ], [ 2903006.433559214696288, 1622594.313795738387853 ], [ 2902967.443499460350722, 1622587.432097054785118 ], [ 2902935.761920334771276, 1622591.606219691922888 ], [ 2902896.978608964942396, 1622604.375470724422485 ], [ 2902857.607324901036918, 1622640.724580576177686 ], [ 2902818.633855859283358, 1622688.865566740278155 ], [ 2902785.210339200682938, 1622736.514825009508058 ], [ 2902750.217718299943954, 1622801.357547482242808 ], [ 2902687.053612056188285, 1622865.70597940380685 ], [ 2902633.503970056772232, 1622910.406895557651296 ], [ 2902601.403415669687092, 1622930.053875701967627 ], [ 2902568.776469625532627, 1622937.17471096967347 ], [ 2902529.125541167333722, 1622944.294913025572896 ], [ 2902502.541227735579014, 1622945.0301469322294 ], [ 2902471.709921108558774, 1622936.431624210672453 ], [ 2902444.730072377249599, 1622916.287782074185088 ], [ 2902426.907301757950336, 1622891.723005954409018 ], [ 2902418.319703730288893, 1622854.141320005059242 ], [ 2902405.86027214396745, 1622818.769480601884425 ], [ 2902399.064094623085111, 1622783.642649178160354 ], [ 2902393.44008949585259, 1622747.043295362498611 ], [ 2902375.995011237449944, 1622724.934957365971059 ], [ 2902338.727441598661244, 1622692.755978778703138 ], [ 2902308.79946201806888, 1622671.627223631599918 ], [ 2902280.444730894640088, 1622615.13085903506726 ], [ 2902262.223661933094263, 1622642.886819866020232 ], [ 2902260.727964078076184, 1622669.658619879279286 ], [ 2902259.085951935499907, 1622704.786224910058081 ], [ 2902261.384340729564428, 1622737.944096071412787 ], [ 2902264.271215462125838, 1622775.034962825244293 ], [ 2902257.527527309022844, 1622804.263678700663149 ], [ 2902250.315500751137733, 1622830.547588657122105 ], [ 2902234.299390931613743, 1622872.547596061835065 ], [ 2902212.56297891959548, 1622932.2340713290032 ], [ 2902208.503484752960503, 1622960.728430561954156 ], [ 2902216.564841981511563, 1622985.784001322928816 ], [ 2902234.198806652333587, 1623009.12044850224629 ], [ 2902270.862431048415601, 1623037.369272279785946 ], [ 2902301.201629002578557, 1623079.374398211482912 ], [ 2902323.555956358090043, 1623124.32791853393428 ], [ 2902335.80446987785399, 1623158.223362590651959 ], [ 2902344.146604740992188, 1623212.508384763030335 ], [ 2902348.317142605315894, 1623257.951027429895476 ], [ 2902341.520555323455483, 1623286.936987633351237 ], [ 2902331.813556027598679, 1623315.183545146370307 ], [ 2902313.929836153052747, 1623326.724731882335618 ], [ 2902289.537071696482599, 1623332.619698993396014 ], [ 2902260.404649355914444, 1623335.074831488775089 ], [ 2902232.648332896642387, 1623337.282871071016416 ], [ 2902206.157181490212679, 1623329.419678845908493 ], [ 2902179.781360452063382, 1623313.206109724473208 ], [ 2902153.935791882220656, 1623291.34428220638074 ], [ 2902131.184610703960061, 1623262.111563834827393 ], [ 2902104.055595327168703, 1623231.898173795081675 ], [ 2902068.653142189607024, 1623211.752786131342873 ], [ 2902028.513887330889702, 1623206.593145421007648 ], [ 2901986.86091578239575, 1623209.7825703821145 ], [ 2901945.719005684833974, 1623225.501056645764038 ], [ 2901925.724419670179486, 1623241.712657051626593 ], [ 2901917.508965130429715, 1623261.361818195320666 ], [ 2901918.639574078842998, 1623277.818054165923968 ], [ 2901927.531524268910289, 1623308.277560890186578 ], [ 2901951.151080925948918, 1623343.159690095111728 ], [ 2901975.201204574666917, 1623380.741053805686533 ], [ 2901995.761057328432798, 1623404.814175430452451 ], [ 2902006.429329505190253, 1623437.731366749154404 ], [ 2902013.109075288288295, 1623490.295793016441166 ], [ 2902023.169542038347572, 1623537.457274804823101 ], [ 2902031.400812214240432, 1623581.918434049235657 ], [ 2902033.873037960380316, 1623616.307508838362992 ], [ 2902033.623521482106298, 1623651.185492252698168 ], [ 2902018.538563248701394, 1623690.242353114299476 ], [ 2901998.294951149728149, 1623741.331969344522804 ], [ 2901970.989671157673001, 1623792.175373884150758 ], [ 2901941.477723885327578, 1623837.861947568133473 ], [ 2901919.046488005667925, 1623865.617629264947027 ], [ 2901893.2896240176633, 1623889.931885711848736 ], [ 2901862.231713531073183, 1623916.460392326815054 ], [ 2901832.850555853918195, 1623953.794021693989635 ], [ 2901762.760249791666865, 1624073.659211813239381 ], [ 2901679.528759595938027, 1624199.419119106605649 ], [ 2901666.04730633739382, 1624239.702996629755944 ], [ 2901658.190963699482381, 1624279.986266419291496 ], [ 2901653.109786945860833, 1624320.023540831403807 ], [ 2901654.978519829921424, 1624350.482783486833796 ], [ 2901662.095192835200578, 1624378.484883750788867 ], [ 2901663.852357572875917, 1624399.11997795291245 ], [ 2901646.25428279209882, 1624421.716899579623714 ], [ 2901612.664264800958335, 1624449.962986403610557 ], [ 2901590.365766902919859, 1624460.278571229195222 ], [ 2901568.824316302314401, 1624475.001688580494374 ], [ 2901561.627127608284354, 1624501.788683254038915 ], [ 2901561.217967161908746, 1624559.918271476170048 ], [ 2901540.575015269219875, 1624593.411377093056217 ], [ 2901503.699219145346433, 1624645.97508577327244 ], [ 2901489.461560872383416, 1624690.433902858523652 ], [ 2901473.621091363020241, 1624733.666142189642414 ], [ 2901471.807570877484977, 1624767.563617237377912 ], [ 2901481.773133111186326, 1624804.898386770859361 ], [ 2901501.484203758649528, 1624841.744830456096679 ], [ 2901542.342116554267704, 1624879.084042044123635 ], [ 2901602.229423234239221, 1624921.334987709065899 ], [ 2901661.816268229391426, 1624952.533555965870619 ], [ 2901737.357170173898339, 1624977.837668132968247 ], [ 2901830.815786545164883, 1625010.020453043514863 ], [ 2901862.950979658402503, 1625036.305859896820039 ], [ 2901898.238526123575866, 1625064.801623068982735 ], [ 2901926.521129910834134, 1625075.119384164456278 ], [ 2901987.391351412981749, 1625078.069741700543091 ], [ 2902029.117437253240496, 1625084.458656168775633 ], [ 2902062.441826113499701, 1625100.181577600538731 ], [ 2902076.167193720117211, 1625125.482456032419577 ], [ 2902091.895221578422934, 1625154.714873027754948 ], [ 2902105.41322233248502, 1625196.965193808311597 ], [ 2902124.29364269413054, 1625228.40808170940727 ], [ 2902129.290836079977453, 1625232.932337956503034 ], [ 2902161.530861859209836, 1625260.592888404382393 ], [ 2902184.341503305826336, 1625277.699320457875729 ], [ 2902196.199519218411297, 1625302.326079470571131 ], [ 2902213.534357792697847, 1625310.066724055446684 ], [ 2902231.541878269985318, 1625313.395568049978465 ], [ 2902245.326434751506895, 1625324.298112560994923 ], [ 2902258.613144292030483, 1625323.173917097272351 ], [ 2902270.101681766100228, 1625327.925955322803929 ], [ 2902291.318470325320959, 1625352.133990468690172 ], [ 2902308.591990582644939, 1625377.050316267181188 ], [ 2902552.067648721393198, 1625289.150923250243068 ], [ 2902757.383446130901575, 1625390.842751960037276 ], [ 2902962.743223854340613, 1625492.557492018910125 ], [ 2903023.670522848609835, 1625477.577806431800127 ], [ 2903077.738060591742396, 1625662.988789808470756 ], [ 2903090.24055933766067, 1625805.632512375712395 ], [ 2903051.32687784684822, 1625887.251237529329956 ], [ 2903037.331199839245528, 1625916.606537378625944 ], [ 2903032.210340637713671, 1625933.633337300969288 ], [ 2903017.750318637583405, 1625981.713293674169108 ], [ 2903006.607730882707983, 1626014.257187847746536 ], [ 2902913.363822308368981, 1626304.213761318475008 ], [ 2902893.372943161986768, 1626366.379683705978096 ], [ 2902857.313946259208024, 1626478.51356724370271 ], [ 2902838.201605589129031, 1626564.235554287210107 ], [ 2902836.606156032532454, 1626650.09333251719363 ], [ 2902838.316351501271129, 1626694.905516971601173 ], [ 2902838.825831615831703, 1626708.256777045084164 ], [ 2902837.467281403951347, 1626738.229535398539156 ], [ 2902837.291466645896435, 1626742.104579662904143 ], [ 2902836.208211921621114, 1626744.325148083269596 ], [ 2902830.138503029476851, 1626756.767562126740813 ], [ 2902818.211277073249221, 1626766.734644508222118 ], [ 2902825.066475819796324, 1626788.587031526723877 ], [ 2902847.222265338525176, 1626859.212427021935582 ], [ 2902847.43390433350578, 1626860.989434935385361 ], [ 2902851.814222520682961, 1626897.7658215619158 ], [ 2902874.179023672826588, 1626947.010777183808386 ], [ 2902875.644729043822736, 1626950.527131212176755 ], [ 2902893.364119679667056, 1626993.040449690073729 ], [ 2902895.651609465479851, 1627002.16193284932524 ], [ 2902914.24177954858169, 1627076.291925232624635 ], [ 2902917.715108441188931, 1627090.141685140086338 ], [ 2902916.068029464222491, 1627095.032164584146813 ], [ 2902911.349515791516751, 1627109.042369999457151 ], [ 2910942.276069999206811, 1627109.042369999457151 ], [ 2910942.276069999206811, 1613965.654930000659078 ], [ 2901044.086194918025285, 1613965.654930000659078 ], [ 2900941.41215797746554, 1614167.772344026248902 ] ] ] } },
{ "type": "Feature", "properties": { "SITE_NAME": "Los Alcornocales", "ODESIGNATE": "Zona de Importancia Comunitaria ZIC (ZEPA/ZEC)", "NUT2": 61, "SITE_CODE_": "ES0000049", "DESIG_ABBR": "ES49", "SITE_CDDA": "555588808_CDDA", "Sup_ha": 173619.519852 }, "geometry": { "type": "Polygon", "coordinates": [ [ [ 2900941.41215797746554, 1614167.772344026248902 ], [ 2900890.750448003411293, 1614240.975904860766605 ], [ 2900880.83973409421742, 1614256.289455741178244 ], [ 2900855.587239130400121, 1614295.30873066582717 ], [ 2900852.677693496458232, 1614299.804347542813048 ], [ 2900851.184760702308267, 1614306.028424509800971 ], [ 2900829.712230388075113, 1614395.544806578895077 ], [ 2900788.737470176070929, 1614523.039317839313298 ], [ 2900706.838760225102305, 1614760.857791426591575 ], [ 2900652.160257020965219, 1614911.521149926586077 ], [ 2900634.038007196038961, 1614961.456545176915824 ], [ 2900589.671099360100925, 1615066.846546064363793 ], [ 2900550.143193735741079, 1615186.258684182772413 ], [ 2900532.39043035171926, 1615252.820873164571822 ], [ 2900479.429785449057817, 1615451.393890114501119 ], [ 2900473.291495946235955, 1615474.409106297418475 ], [ 2900450.992517873179168, 1615574.574899847386405 ], [ 2900446.231447402387857, 1615676.21133013558574 ], [ 2900440.929360866546631, 1615789.400647094473243 ], [ 2900430.721820878796279, 1615976.994581647682935 ], [ 2900429.104809653479606, 1616194.342797874705866 ], [ 2900427.686656789854169, 1616304.798609340563416 ], [ 2900426.93558372464031, 1616363.30218807188794 ], [ 2900424.89069686550647, 1616412.158025249838829 ], [ 2900427.606949222274125, 1616464.925285699544474 ], [ 2900428.74006845895201, 1616476.749593711923808 ], [ 2900436.546995484270155, 1616558.219791889889166 ], [ 2900449.011699214577675, 1616610.492856042459607 ], [ 2900455.476788955740631, 1616637.605401184642687 ], [ 2900455.983941275626421, 1616639.411101384088397 ], [ 2900464.384188627824187, 1616669.321630545658991 ], [ 2900472.343871799297631, 1616756.230203830171376 ], [ 2900478.651251226663589, 1616832.904445166001096 ], [ 2900489.833022264298052, 1616968.83080549701117 ], [ 2900492.042400444857776, 1616995.68811143678613 ], [ 2900504.070528535172343, 1616993.895769045921043 ], [ 2900539.325459487270564, 1616988.642297455808148 ], [ 2900560.038151425309479, 1616985.555877731181681 ], [ 2900883.744562051258981, 1616920.605102542089298 ], [ 2901140.726363710127771, 1616867.892734697088599 ], [ 2901184.766527297440916, 1616859.558975850697607 ], [ 2901271.468291070312262, 1616843.152435777708888 ], [ 2901312.442351477686316, 1616838.318412919528782 ], [ 2901389.043762037530541, 1616838.714534666622058 ], [ 2901406.708997642621398, 1616838.805871807271615 ], [ 2901419.413383828476071, 1616841.427664875518531 ], [ 2901429.967974372208118, 1616843.605727914720774 ], [ 2901439.942770775407553, 1616845.664184972876683 ], [ 2901425.556373720057309, 1616857.940382126253098 ], [ 2901423.391722600907087, 1616859.787607687292621 ], [ 2901420.379323239903897, 1616862.605721655068919 ], [ 2901398.685322931967676, 1616882.901325274026021 ], [ 2901378.484396755695343, 1616926.659527204930782 ], [ 2901362.415721887722611, 1616970.937712308717892 ], [ 2901339.078774395398796, 1617020.559493725188076 ], [ 2901319.885093248449266, 1617053.284043367952108 ], [ 2901312.098982541821897, 1617081.436108420137316 ], [ 2901315.21323421690613, 1617110.407015241216868 ], [ 2901319.58898356417194, 1617138.899109776131809 ], [ 2901318.156088721007109, 1617164.648377969861031 ], [ 2901312.061575111933053, 1617195.020659052534029 ], [ 2901292.868144946172833, 1617227.745166374836117 ], [ 2901285.454623341094702, 1617235.054438337916508 ], [ 2901269.332331118173897, 1617250.949788663769141 ], [ 2901257.810974456835538, 1617262.309050974203274 ], [ 2901241.75354550499469, 1617289.170205412665382 ], [ 2901230.497835236601532, 1617329.808075576787814 ], [ 2901214.257658680900931, 1617364.273922973312438 ], [ 2901207.026643015444279, 1617413.527703142026439 ], [ 2901199.348167099524289, 1617433.583987130783498 ], [ 2901167.966999999713153, 1617483.388847223250195 ], [ 2901151.710555157158524, 1617526.439262196188793 ], [ 2901143.35394244408235, 1617577.157282592263073 ], [ 2901146.027470849454403, 1617620.84663249226287 ], [ 2901147.671770353335887, 1617675.321442326763645 ], [ 2901159.441845252178609, 1617751.955575782572851 ], [ 2901172.279855865985155, 1617853.132999053690583 ], [ 2901169.818365507759154, 1617889.667868873802945 ], [ 2901159.559546968434006, 1617908.740944626508281 ], [ 2901153.562243237160146, 1617932.718464557779953 ], [ 2901156.269843912683427, 1617978.243666963884607 ], [ 2901157.81002474296838, 1618004.141492429655045 ], [ 2901158.610540189780295, 1618022.517374815884978 ], [ 2901162.07558751385659, 1618102.063040165230632 ], [ 2901174.084783856756985, 1618241.501881011063233 ], [ 2901177.999228885397315, 1618319.547362917801365 ], [ 2901192.620730393566191, 1618379.768850649241358 ], [ 2901209.669003590941429, 1618451.841598895844072 ], [ 2901215.643519381992519, 1618477.098710711114109 ], [ 2901221.438074333127588, 1618486.621963229961693 ], [ 2901237.241592067293823, 1618512.594326291000471 ], [ 2901268.538749924860895, 1618549.881651555188 ], [ 2901291.052638617344201, 1618573.854843897279352 ], [ 2901298.672229248099029, 1618588.387583811767399 ], [ 2901309.47287385025993, 1618641.218692230060697 ], [ 2901320.477735648863018, 1618695.275152186164632 ], [ 2901355.450918268412352, 1618747.803673250367865 ], [ 2901444.935978590510786, 1618874.844536899123341 ], [ 2901628.290439411066473, 1619139.750118902884424 ], [ 2901643.343385100364685, 1619124.174837278435007 ], [ 2901651.624936040956527, 1619108.04842888051644 ], [ 2901655.390025921165943, 1619088.694570934632793 ], [ 2901672.131450538523495, 1619075.08740325178951 ], [ 2901682.627129848115146, 1619055.787030407926068 ], [ 2901697.025158086791635, 1619053.201455012662336 ], [ 2901728.890962234698236, 1619032.839946371503174 ], [ 2901753.758803128264844, 1619028.374338214984164 ], [ 2901761.011489703319967, 1619023.033496181713417 ], [ 2901770.98488796595484, 1619009.127337084850296 ], [ 2901789.030692108441144, 1619012.701655735028908 ], [ 2901801.714695348404348, 1619007.647530720336363 ], [ 2901835.328120182733983, 1619016.250807262025774 ], [ 2901847.71625065151602, 1619018.064599270932376 ], [ 2901866.979638165794313, 1619012.081468399381265 ], [ 2901884.890915820375085, 1619006.088844248559326 ], [ 2901915.420601182617247, 1619008.37150285532698 ], [ 2901932.525085310917348, 1619009.650408455869183 ], [ 2901976.14391350466758, 1618995.760341544402763 ], [ 2902008.657317854464054, 1618988.407711182022467 ], [ 2902030.830332950688899, 1618975.087376510025933 ], [ 2902215.772328068967909, 1618935.316701001022011 ], [ 2902542.94980005081743, 1619068.142679053591564 ], [ 2902654.573763549793512, 1619120.287477499106899 ], [ 2902767.134835510514677, 1619126.075229196343571 ], [ 2902999.201990097761154, 1619089.188841847935691 ], [ 2903084.505115343257785, 1619019.878426973475143 ], [ 2903190.015168757177889, 1619013.503824775340036 ], [ 2903202.613836216274649, 1619012.742653368972242 ], [ 2903203.84118303982541, 1619078.464912813855335 ], [ 2903220.832137389108539, 1619110.24576341570355 ], [ 2903305.073842819780111, 1619203.149295597337186 ], [ 2903346.749058499932289, 1619251.186515854205936 ], [ 2903557.292720785364509, 1619045.5538950196933 ], [ 2903815.359166365116835, 1618797.815063408343121 ], [ 2903898.594634454697371, 1618845.198170100105926 ], [ 2904100.944931814447045, 1618960.390191399259493 ], [ 2904127.499314054846764, 1618975.506820400711149 ], [ 2904274.568675313144922, 1619072.100776325911283 ], [ 2904287.458285156171769, 1619080.566532063530758 ], [ 2904357.492970023304224, 1619114.184998666169122 ], [ 2904374.714950068853796, 1619118.410828031366691 ], [ 2904423.435172657482326, 1619130.365487420465797 ], [ 2904456.718859632965177, 1619163.513290719594806 ], [ 2904461.840433905832469, 1619179.146444555372 ], [ 2904477.960634239483625, 1619228.353028462035581 ], [ 2904491.22142079193145, 1619259.541970161255449 ], [ 2904504.99118691124022, 1619267.641874257707968 ], [ 2904523.768899857997894, 1619278.687677289824933 ], [ 2904567.680849322117865, 1619288.987922882195562 ], [ 2904574.974502055905759, 1619290.698759163729846 ], [ 2904587.302214113529772, 1619291.819478048710153 ], [ 2904642.183021236211061, 1619296.808838128112257 ], [ 2904655.158066304400563, 1619300.201481738360599 ], [ 2904686.257764264941216, 1619308.33312977803871 ], [ 2904795.559197927825153, 1619349.796572865685448 ], [ 2904830.423481225036085, 1619383.923104526009411 ], [ 2904892.26324049802497, 1619556.805580765241757 ], [ 2904901.228688506409526, 1619547.137525114696473 ], [ 2904913.897752841934562, 1619542.087371219415218 ], [ 2904934.999043889343739, 1619530.475976512534544 ], [ 2904946.783852178603411, 1619528.360902367625386 ], [ 2904967.832098547834903, 1619516.506657453952357 ], [ 2904979.886921613011509, 1619524.943921138998121 ], [ 2905001.968938900157809, 1619519.718899361090735 ], [ 2905021.540093413554132, 1619489.45229715318419 ], [ 2905049.172934785485268, 1619450.419243954587728 ], [ 2905077.311782067641616, 1619414.576693405397236 ], [ 2905095.099157434888184, 1619390.183038944611326 ], [ 2905114.762390559073538, 1619351.823251798516139 ], [ 2905132.134791531134397, 1619324.727756127249449 ], [ 2905150.903111123014241, 1619306.720438736025244 ], [ 2905191.259373609442264, 1619297.963747378205881 ], [ 2905235.235986454878002, 1619295.69215949322097 ], [ 2905239.317546483594924, 1619295.481356761185452 ], [ 2905245.001239644363523, 1619332.48882590746507 ], [ 2905245.260273471008986, 1619360.45853895903565 ], [ 2905254.232171840500087, 1619375.001960969762877 ], [ 2905262.854723966680467, 1619396.170387458289042 ], [ 2905278.923930522054434, 1619430.64158829418011 ], [ 2905292.104736862704158, 1619437.614913782803342 ], [ 2905309.106438763439655, 1619451.979263729183003 ], [ 2905311.483125024475157, 1619467.453848833683878 ], [ 2905306.956450250465423, 1619470.948647929355502 ], [ 2905291.038376129232347, 1619483.237978618824854 ], [ 2905283.706303783226758, 1619504.405968013918027 ], [ 2905282.648675349541008, 1619507.459357481682673 ], [ 2905257.526865438558161, 1619527.868796784430742 ], [ 2905232.265031820163131, 1619529.878314580302685 ], [ 2905219.639343643561006, 1619544.00693724420853 ], [ 2905204.276010878849775, 1619551.403862003935501 ], [ 2905202.089169025421143, 1619552.456880634650588 ], [ 2905201.88876143284142, 1619554.630850154208019 ], [ 2905201.109926240518689, 1619563.080437846016139 ], [ 2905200.575166616588831, 1619568.88209297740832 ], [ 2905202.670337818562984, 1619571.293874873779714 ], [ 2905213.663961310870945, 1619583.948611070169136 ], [ 2905222.457268674392253, 1619600.799820342799649 ], [ 2905225.104629173409194, 1619605.873331168433651 ], [ 2905227.450848578009754, 1619605.962733622407541 ], [ 2905249.466834630817175, 1619606.80171119957231 ], [ 2905265.072716542519629, 1619612.077850553207099 ], [ 2905273.991486358456314, 1619626.378348578233272 ], [ 2905263.321874763816595, 1619644.446696785511449 ], [ 2905265.698523436672986, 1619659.921322436304763 ], [ 2905253.795549924951047, 1619687.549721193732694 ], [ 2905248.1269950424321, 1619703.206133613362908 ], [ 2905247.758685833774507, 1619706.517959638498724 ], [ 2905247.064897076226771, 1619712.756238455418497 ], [ 2905245.864319490734488, 1619723.551689122803509 ], [ 2905238.089029370807111, 1619734.285831616260111 ], [ 2905227.845003421418369, 1619737.638686719816178 ], [ 2905202.879065552726388, 1619732.78031878080219 ], [ 2905188.254120192490518, 1619733.89061027392745 ], [ 2905176.361786526627839, 1619744.101625918643549 ], [ 2905158.908345223870128, 1619761.872986216563731 ], [ 2905136.27574116922915, 1619763.410771596478298 ], [ 2905121.553950655274093, 1619755.199659244855866 ], [ 2905111.45904747908935, 1619747.061787985032424 ], [ 2905110.798125681467354, 1619746.529212028486654 ], [ 2905110.028343630488962, 1619746.508347926661372 ], [ 2905093.370671524200588, 1619746.057082356419414 ], [ 2905085.136979655362666, 1619745.834065135801211 ], [ 2905082.039661831222475, 1619747.560639866627753 ], [ 2905069.902055928483605, 1619754.326775504276156 ], [ 2905067.775440934114158, 1619755.512261202558875 ], [ 2905067.035493544302881, 1619757.418098700465634 ], [ 2905061.034097385592759, 1619772.875749081838876 ], [ 2905050.12282884772867, 1619789.4731059812475 ], [ 2905042.066931560635567, 1619807.072421782417223 ], [ 2905026.812306560575962, 1619821.672997951041907 ], [ 2905009.248828914947808, 1619832.222114795120433 ], [ 2905004.638338376767933, 1619834.991289195604622 ], [ 2904967.620097978971899, 1619891.86247873888351 ], [ 2904955.776392973959446, 1619928.566823247354478 ], [ 2904954.425210316665471, 1619963.640513338148594 ], [ 2904941.48273927019909, 1620019.471998711349443 ], [ 2904920.360861142165959, 1620065.918439160799608 ], [ 2904931.586852150037885, 1620104.035347009310499 ], [ 2904930.224194224923849, 1620121.443139253882691 ], [ 2904910.373197249602526, 1620158.575096807675436 ], [ 2904903.471566647756845, 1620183.791770523879677 ], [ 2904905.886340709868819, 1620199.512044586008415 ], [ 2904896.763799565844238, 1620227.651419734116644 ], [ 2904896.646160192787647, 1620253.16498032421805 ], [ 2904915.972306346520782, 1620326.426162724616006 ], [ 2904903.369339613243937, 1620340.803434129804373 ], [ 2904874.23875373788178, 1620352.594081999035552 ], [ 2904860.418059985153377, 1620376.528726055286825 ], [ 2904865.306595519185066, 1620417.045059410156682 ], [ 2904862.926817439030856, 1620462.904492896748707 ], [ 2904850.158359154593199, 1620519.967275818344206 ], [ 2904847.722938584163785, 1620539.082105277571827 ], [ 2904855.235647505614907, 1620561.711803199956194 ], [ 2904849.875292327255011, 1620588.166513176634908 ], [ 2904854.666956711560488, 1620619.361507153138518 ], [ 2904858.429898063186556, 1620661.342077572131529 ], [ 2904847.85603163484484, 1620741.484530201647431 ], [ 2904834.708726247772574, 1620761.007545772241428 ], [ 2904805.46098804846406, 1620798.312126355711371 ], [ 2904800.893200161866844, 1620829.925111658405513 ], [ 2904802.457630514167249, 1620875.076792602660134 ], [ 2904799.10741769336164, 1620897.132319604745135 ], [ 2904761.506856844760478, 1620923.820905334083363 ], [ 2904733.143396044149995, 1620958.190427069552243 ], [ 2904726.043510506395251, 1620999.596836743876338 ], [ 2904713.031261467374861, 1621028.687128803227097 ], [ 2904711.037086611613631, 1621048.299999449169263 ], [ 2904709.208043255843222, 1621066.288357786135748 ], [ 2904706.60059865610674, 1621091.932566639501601 ], [ 2904699.844561660662293, 1621109.299015462165698 ], [ 2904695.076164908707142, 1621122.017879375489429 ], [ 2904693.112185334786773, 1621170.579557228134945 ], [ 2904699.489130186848342, 1621212.091134354704991 ], [ 2904700.057298048399389, 1621250.859378107590601 ], [ 2904696.496445911936462, 1621271.438421147642657 ], [ 2904697.278877647127956, 1621294.014346691779792 ], [ 2904701.016782558523118, 1621353.4156659161672 ], [ 2904712.539514969103038, 1621384.664818655699492 ], [ 2904720.882680085953325, 1621412.698620964540169 ], [ 2904743.494639152660966, 1621445.995903482660651 ], [ 2904749.089288326911628, 1621464.931716489838436 ], [ 2904795.185141519643366, 1621510.924987435108051 ], [ 2904824.349124337080866, 1621525.630426022456959 ], [ 2904856.108831606805325, 1621541.884287686087191 ], [ 2904860.862745133694261, 1621544.31714017293416 ], [ 2904863.850188419222832, 1621551.379810355836526 ], [ 2904869.297508552204818, 1621564.25765993213281 ], [ 2904871.891206182539463, 1621598.624041455099359 ], [ 2904872.755430276505649, 1621630.524302910082042 ], [ 2904874.274136518128216, 1621632.070443827658892 ], [ 2904931.774067858234048, 1621690.60476765781641 ], [ 2904970.002062917686999, 1621711.7603632544633 ], [ 2905029.682281458750367, 1621741.181307461345568 ], [ 2905131.641009520739317, 1621782.954159167129546 ], [ 2905366.254575598053634, 1621891.280375933274627 ], [ 2905509.244282586500049, 1621954.969631513347849 ], [ 2905659.002224918920547, 1622018.95923705259338 ], [ 2905729.939190480858088, 1622042.827622273704037 ], [ 2905940.350681557320058, 1622098.710121765499935 ], [ 2906116.695404131896794, 1622143.038958518067375 ], [ 2906212.953533698339015, 1622173.975089436164126 ], [ 2906315.388549427501857, 1622218.947489719139412 ], [ 2906430.045198549516499, 1622273.337831327226013 ], [ 2906511.744852705858648, 1622314.711873671738431 ], [ 2906604.722476543858647, 1622359.363426827825606 ], [ 2906634.528395823203027, 1622378.246314408024773 ], [ 2906665.692710195668042, 1622405.972153197973967 ], [ 2906680.684868517331779, 1622424.736628884915262 ], [ 2906697.828191835433245, 1622457.502189568243921 ], [ 2906707.297311136499047, 1622484.072583526140079 ], [ 2906738.434389098547399, 1622599.135718350997195 ], [ 2906773.753343617543578, 1622627.630579984746873 ], [ 2906798.340620968490839, 1622691.368661597371101 ], [ 2906819.014004036318511, 1622817.143736257916316 ], [ 2906796.267400214914232, 1622879.278410009341314 ], [ 2906797.681776041164994, 1622881.744860832346603 ], [ 2906816.477398738730699, 1622914.522899718955159 ], [ 2906842.332839746959507, 1622933.862440983764827 ], [ 2906883.200251234695315, 1622937.13100448413752 ], [ 2906915.833867711946368, 1622939.352785222465172 ], [ 2906938.585527963005006, 1622947.386221626540646 ], [ 2906967.054632971994579, 1622966.256915429141372 ], [ 2906982.235793415922672, 1622986.249725969042629 ], [ 2906988.5316206458956, 1623018.437794917263091 ], [ 2906985.597017697989941, 1623043.195387026295066 ], [ 2906963.684482725337148, 1623084.483137131668627 ], [ 2906843.274925057310611, 1623217.612990727182478 ], [ 2906838.328315584920347, 1623223.082125549437478 ], [ 2906836.675273607484996, 1623225.940147160552442 ], [ 2906820.246988771017641, 1623254.343639578903094 ], [ 2906698.888763189315796, 1623451.6635029790923 ], [ 2906680.301552588585764, 1623481.885409099049866 ], [ 2906678.444046607706696, 1623488.825021763565019 ], [ 2906663.198532386682928, 1623545.784821990411729 ], [ 2906663.064463932067156, 1623546.628093200502917 ], [ 2906656.087923647370189, 1623590.527061161352322 ], [ 2906647.466530692763627, 1623644.775726401247084 ], [ 2906632.474102511070669, 1623687.346598083153367 ], [ 2906613.509338316041976, 1623721.543585114879534 ], [ 2906580.677801532670856, 1623735.512062809430063 ], [ 2906569.154303574934602, 1623765.597367208916694 ], [ 2906565.927734711207449, 1623840.889714990276843 ], [ 2906566.410340113099664, 1623852.663100593956187 ], [ 2906567.396580225788057, 1623876.720714547438547 ], [ 2906495.25215464644134, 1623906.325854023220018 ], [ 2906484.650287206284702, 1623880.351613532053307 ], [ 2906477.973074119538069, 1623863.992722530849278 ], [ 2906430.457440428901464, 1623869.995183774968609 ], [ 2906390.489914051722735, 1623863.789557340089232 ], [ 2906331.152150038164109, 1623871.661292724311352 ], [ 2906276.868440432474017, 1623877.364155545830727 ], [ 2906249.264456666074693, 1623890.394974309485406 ], [ 2906200.280673301778734, 1623921.902303705457598 ], [ 2906155.655752531718463, 1623955.404128709575161 ], [ 2906110.455675078555942, 1623994.057353074895218 ], [ 2906082.238770709373057, 1624020.576176601229236 ], [ 2906058.849401380401105, 1624043.452093397732824 ], [ 2906040.227723176125437, 1624053.609065810218453 ], [ 2905996.307579459622502, 1624065.529782415833324 ], [ 2905973.817532119806856, 1624085.467884773155674 ], [ 2905934.203014637343585, 1624099.140015738783404 ], [ 2905888.002521256450564, 1624104.907373207621276 ], [ 2905840.946965946815908, 1624122.691646241117269 ], [ 2905703.151551217772067, 1624162.819286360638216 ], [ 2905591.245922239497304, 1624178.865117934299633 ], [ 2905541.306428679265082, 1624186.566232655663043 ], [ 2905510.070306285750121, 1624193.434620765037835 ], [ 2905417.912208961322904, 1624197.859645090531558 ], [ 2905365.123875200748444, 1624213.392289974726737 ], [ 2905312.382226821966469, 1624220.334571192972362 ], [ 2905239.154248050879687, 1624225.401093953289092 ], [ 2905184.34982780739665, 1624236.500112568726763 ], [ 2905152.818622256629169, 1624250.236958496039733 ], [ 2905117.041664872318506, 1624271.298614108236507 ], [ 2905084.195944903418422, 1624285.271486765472218 ], [ 2905034.445645960513502, 1624294.201571616344154 ], [ 2905002.228262378368527, 1624294.683833033544943 ], [ 2904962.956796478945762, 1624284.316533272154629 ], [ 2904922.999058614019305, 1624260.694638716988266 ], [ 2904894.545722409151495, 1624241.822801899397746 ], [ 2904869.401020498480648, 1624218.318510563811287 ], [ 2904843.039365692529827, 1624204.371915557887405 ], [ 2904802.446698795072734, 1624185.407554973382503 ], [ 2904766.137260735966265, 1624167.946106916759163 ], [ 2904726.381586627103388, 1624163.21906770998612 ], [ 2904668.286989522632211, 1624144.115266857203096 ], [ 2904598.952363432850689, 1624121.980990688083693 ], [ 2904544.326245030853897, 1624090.391249558189884 ], [ 2904505.774411121383309, 1624058.440237029455602 ], [ 2904487.186792933847755, 1624033.75920050824061 ], [ 2904451.852391101885587, 1624005.269286369206384 ], [ 2904406.110593228600919, 1623961.483584170229733 ], [ 2904376.662964226678014, 1623909.977133168606088 ], [ 2904360.902297760359943, 1623868.634303541854024 ], [ 2904360.982670130673796, 1623816.622887896373868 ], [ 2904373.20011624507606, 1623782.373317260993645 ], [ 2904397.110654992982745, 1623754.101776133291423 ], [ 2904425.424318197183311, 1623736.903268645750359 ], [ 2904457.157303820829839, 1623742.060467296745628 ], [ 2904469.130254504270852, 1623741.173275429056957 ], [ 2904489.678965435363352, 1623717.291570188477635 ], [ 2904508.877998198382556, 1623667.148867393610999 ], [ 2904501.706381665542722, 1623620.478053173748776 ], [ 2904481.200642085634172, 1623592.102869571186602 ], [ 2904460.377077900804579, 1623570.347420274512842 ], [ 2904443.079550517722964, 1623562.851233033463359 ], [ 2904419.791040142998099, 1623560.216741331620142 ], [ 2904384.960377428680658, 1623561.168655935674906 ], [ 2904350.022936256136745, 1623570.217007285216823 ], [ 2904331.590514007024467, 1623581.603068145457655 ], [ 2904313.038254058919847, 1623583.419062009081244 ], [ 2904290.866504915058613, 1623596.738560920581222 ], [ 2904242.290449214167893, 1623648.368843375472352 ], [ 2904201.019964946433902, 1623686.319652355276048 ], [ 2904184.776985130272806, 1623711.952721406240016 ], [ 2904158.561666599474847, 1623751.491857159649953 ], [ 2904146.01108758058399, 1623792.364022222580388 ], [ 2904127.840611583087593, 1623831.721088911173865 ], [ 2904118.743214991874993, 1623860.110061377985403 ], [ 2904112.87867919774726, 1623891.957265853881836 ], [ 2904109.023723423480988, 1623919.405036351410672 ], [ 2904100.492664436809719, 1623951.478555465815589 ], [ 2904078.72742494661361, 1623984.918378269532695 ], [ 2904058.474265389144421, 1624001.932318323291838 ], [ 2904051.859705600887537, 1624003.119787867413834 ], [ 2904041.946347245480865, 1624003.88992570573464 ], [ 2903969.303586366120726, 1623986.389490477275103 ], [ 2903904.758977245539427, 1623960.367735921870917 ], [ 2903883.247142870910466, 1623943.027125995606184 ], [ 2903868.407806761562824, 1623898.99482716456987 ], [ 2903847.675381441600621, 1623869.146045302506536 ], [ 2903801.933774156495929, 1623825.361247503664345 ], [ 2903785.780046778731048, 1623781.565003375755623 ], [ 2903785.788512998260558, 1623781.515525237424299 ], [ 2903789.317314222455025, 1623760.736936143832281 ], [ 2903783.353260580450296, 1623721.92646938865073 ], [ 2903789.928332063369453, 1623685.913087185705081 ], [ 2903789.38021341431886, 1623647.392384886275977 ], [ 2903774.034786541946232, 1623608.751844932092354 ], [ 2903753.204776311758906, 1623569.581512526841834 ], [ 2903732.192634295206517, 1623546.598196133738384 ], [ 2903712.077504826709628, 1623538.346293368376791 ], [ 2903672.299971713684499, 1623533.372043725568801 ], [ 2903636.956796502694488, 1623522.301095442846417 ], [ 2903613.837496885098517, 1623494.395538714714348 ], [ 2903586.348711715545505, 1623420.57830764609389 ], [ 2903570.235409509390593, 1623350.776693747378886 ], [ 2903570.340568385086954, 1623281.344681781949475 ], [ 2903597.178192739374936, 1623210.899280916200951 ], [ 2903614.547077507246286, 1623183.801843041321263 ], [ 2903636.114851225633174, 1623166.551800850080326 ], [ 2903665.979746656026691, 1623194.50829293532297 ], [ 2903654.547282583080232, 1623155.165377900470048 ], [ 2903664.142213423736393, 1623138.802924202056602 ], [ 2903690.855036100372672, 1623111.289987256284803 ], [ 2903718.989206800237298, 1623075.444814337417483 ], [ 2903742.62914499361068, 1623036.620392175624147 ], [ 2903746.990869375877082, 1623003.781272014603019 ], [ 2903745.634763605892658, 1622968.687255019787699 ], [ 2903720.370767719112337, 1622935.613800381077453 ], [ 2903686.781916292384267, 1622909.588021619478241 ], [ 2903644.126525566447526, 1622911.094322158023715 ], [ 2903640.391018165275455, 1622925.489143564132974 ], [ 2903603.250152225606143, 1622930.642737569985911 ], [ 2903566.562220440246165, 1622938.744072142057121 ], [ 2903535.541833113878965, 1622928.916419932153076 ], [ 2903507.258752063382417, 1622918.597254248335958 ], [ 2903479.332891492173076, 1622901.398933368269354 ], [ 2903447.293515427038074, 1622884.939265713095665 ], [ 2903422.162821493577212, 1622876.830705798929557 ], [ 2903380.339741282165051, 1622860.613194945268333 ], [ 2903320.205968181602657, 1622835.062795172445476 ], [ 2903269.041054368950427, 1622803.863572326255962 ], [ 2903223.481441713869572, 1622763.328541576396674 ], [ 2903168.542059364262968, 1622707.566178879700601 ], [ 2903100.478154660202563, 1622648.607399750500917 ], [ 2903050.047978349030018, 1622612.985678496304899 ], [ 2903006.433559214696288, 1622594.313795738387853 ], [ 2902967.443499460350722, 1622587.432097054785118 ], [ 2902935.761920334771276, 1622591.606219691922888 ], [ 2902896.978608964942396, 1622604.375470724422485 ], [ 2902857.607324901036918, 1622640.724580576177686 ], [ 2902818.633855859283358, 1622688.865566740278155 ], [ 2902785.210339200682938, 1622736.514825009508058 ], [ 2902750.217718299943954, 1622801.357547482242808 ], [ 2902687.053612056188285, 1622865.70597940380685 ], [ 2902633.503970056772232, 1622910.406895557651296 ], [ 2902601.403415669687092, 1622930.053875701967627 ], [ 2902568.776469625532627, 1622937.17471096967347 ], [ 2902529.125541167333722, 1622944.294913025572896 ], [ 2902502.541227735579014, 1622945.0301469322294 ], [ 2902471.709921108558774, 1622936.431624210672453 ], [ 2902444.730072377249599, 1622916.287782074185088 ], [ 2902426.907301757950336, 1622891.723005954409018 ], [ 2902418.319703730288893, 1622854.141320005059242 ], [ 2902405.86027214396745, 1622818.769480601884425 ], [ 2902399.064094623085111, 1622783.642649178160354 ], [ 2902393.44008949585259, 1622747.043295362498611 ], [ 2902375.995011237449944, 1622724.934957365971059 ], [ 2902338.727441598661244, 1622692.755978778703138 ], [ 2902308.79946201806888, 1622671.627223631599918 ], [ 2902280.444730894640088, 1622615.13085903506726 ], [ 2902262.223661933094263, 1622642.886819866020232 ], [ 2902260.727964078076184, 1622669.658619879279286 ], [ 2902259.085951935499907, 1622704.786224910058081 ], [ 2902261.384340729564428, 1622737.944096071412787 ], [ 2902264.271215462125838, 1622775.034962825244293 ], [ 2902257.527527309022844, 1622804.263678700663149 ], [ 2902250.315500751137733, 1622830.547588657122105 ], [ 2902234.299390931613743, 1622872.547596061835065 ], [ 2902212.56297891959548, 1622932.2340713290032 ], [ 2902208.503484752960503, 1622960.728430561954156 ], [ 2902216.564841981511563, 1622985.784001322928816 ], [ 2902234.198806652333587, 1623009.12044850224629 ], [ 2902270.862431048415601, 1623037.369272279785946 ], [ 2902301.201629002578557, 1623079.374398211482912 ], [ 2902323.555956358090043, 1623124.32791853393428 ], [ 2902335.80446987785399, 1623158.223362590651959 ], [ 2902344.146604740992188, 1623212.508384763030335 ], [ 2902348.317142605315894, 1623257.951027429895476 ], [ 2902341.520555323455483, 1623286.936987633351237 ], [ 2902331.813556027598679, 1623315.183545146370307 ], [ 2902313.929836153052747, 1623326.724731882335618 ], [ 2902289.537071696482599, 1623332.619698993396014 ], [ 2902260.404649355914444, 1623335.074831488775089 ], [ 2902232.648332896642387, 1623337.282871071016416 ], [ 2902206.157181490212679, 1623329.419678845908493 ], [ 2902179.781360452063382, 1623313.206109724473208 ], [ 2902153.935791882220656, 1623291.34428220638074 ], [ 2902131.184610703960061, 1623262.111563834827393 ], [ 2902104.055595327168703, 1623231.898173795081675 ], [ 2902068.653142189607024, 1623211.752786131342873 ], [ 2902028.513887330889702, 1623206.593145421007648 ], [ 2901986.86091578239575, 1623209.7825703821145 ], [ 2901945.719005684833974, 1623225.501056645764038 ], [ 2901925.724419670179486, 1623241.712657051626593 ], [ 2901917.508965130429715, 1623261.361818195320666 ], [ 2901918.639574078842998, 1623277.818054165923968 ], [ 2901927.531524268910289, 1623308.277560890186578 ], [ 2901951.151080925948918, 1623343.159690095111728 ], [ 2901975.201204574666917, 1623380.741053805686533 ], [ 2901995.761057328432798, 1623404.814175430452451 ], [ 2902006.429329505190253, 1623437.731366749154404 ], [ 2902013.109075288288295, 1623490.295793016441166 ], [ 2902023.169542038347572, 1623537.457274804823101 ], [ 2902031.400812214240432, 1623581.918434049235657 ], [ 2902033.873037960380316, 1623616.307508838362992 ], [ 2902033.623521482106298, 1623651.185492252698168 ], [ 2902018.538563248701394, 1623690.242353114299476 ], [ 2901998.294951149728149, 1623741.331969344522804 ], [ 2901970.989671157673001, 1623792.175373884150758 ], [ 2901941.477723885327578, 1623837.861947568133473 ], [ 2901919.046488005667925, 1623865.617629264947027 ], [ 2901893.2896240176633, 1623889.931885711848736 ], [ 2901862.231713531073183, 1623916.460392326815054 ], [ 2901832.850555853918195, 1623953.794021693989635 ], [ 2901762.760249791666865, 1624073.659211813239381 ], [ 2901679.528759595938027, 1624199.419119106605649 ], [ 2901666.04730633739382, 1624239.702996629755944 ], [ 2901658.190963699482381, 1624279.986266419291496 ], [ 2901653.109786945860833, 1624320.023540831403807 ], [ 2901654.978519829921424, 1624350.482783486833796 ], [ 2901662.095192835200578, 1624378.484883750788867 ], [ 2901663.852357572875917, 1624399.11997795291245 ], [ 2901646.25428279209882, 1624421.716899579623714 ], [ 2901612.664264800958335, 1624449.962986403610557 ], [ 2901590.365766902919859, 1624460.278571229195222 ], [ 2901568.824316302314401, 1624475.001688580494374 ], [ 2901561.627127608284354, 1624501.788683254038915 ], [ 2901561.217967161908746, 1624559.918271476170048 ], [ 2901540.575015269219875, 1624593.411377093056217 ], [ 2901503.699219145346433, 1624645.97508577327244 ], [ 2901489.461560872383416, 1624690.433902858523652 ], [ 2901473.621091363020241, 1624733.666142189642414 ], [ 2901471.807570877484977, 1624767.563617237377912 ], [ 2901481.773133111186326, 1624804.898386770859361 ], [ 2901501.484203758649528, 1624841.744830456096679 ], [ 2901542.342116554267704, 1624879.084042044123635 ], [ 2901602.229423234239221, 1624921.334987709065899 ], [ 2901661.816268229391426, 1624952.533555965870619 ], [ 2901737.357170173898339, 1624977.837668132968247 ], [ 2901830.815786545164883, 1625010.020453043514863 ], [ 2901862.950979658402503, 1625036.305859896820039 ], [ 2901898.238526123575866, 1625064.801623068982735 ], [ 2901926.521129910834134, 1625075.119384164456278 ], [ 2901987.391351412981749, 1625078.069741700543091 ], [ 2902029.117437253240496, 1625084.458656168775633 ], [ 2902062.441826113499701, 1625100.181577600538731 ], [ 2902076.167193720117211, 1625125.482456032419577 ], [ 2902091.895221578422934, 1625154.714873027754948 ], [ 2902105.41322233248502, 1625196.965193808311597 ], [ 2902124.29364269413054, 1625228.40808170940727 ], [ 2902129.290836079977453, 1625232.932337956503034 ], [ 2902161.530861859209836, 1625260.592888404382393 ], [ 2902184.341503305826336, 1625277.699320457875729 ], [ 2902196.199519218411297, 1625302.326079470571131 ], [ 2902213.534357792697847, 1625310.066724055446684 ], [ 2902231.541878269985318, 1625313.395568049978465 ], [ 2902245.326434751506895, 1625324.298112560994923 ], [ 2902258.613144292030483, 1625323.173917097272351 ], [ 2902270.101681766100228, 1625327.925955322803929 ], [ 2902291.318470325320959, 1625352.133990468690172 ], [ 2902308.591990582644939, 1625377.050316267181188 ], [ 2902552.067648721393198, 1625289.150923250243068 ], [ 2902757.383446130901575, 1625390.842751960037276 ], [ 2902962.743223854340613, 1625492.557492018910125 ], [ 2903023.670522848609835, 1625477.577806431800127 ], [ 2903077.738060591742396, 1625662.988789808470756 ], [ 2903090.24055933766067, 1625805.632512375712395 ], [ 2903051.32687784684822, 1625887.251237529329956 ], [ 2903037.331199839245528, 1625916.606537378625944 ], [ 2903032.210340637713671, 1625933.633337300969288 ], [ 2903017.750318637583405, 1625981.713293674169108 ], [ 2903006.607730882707983, 1626014.257187847746536 ], [ 2902913.363822308368981, 1626304.213761318475008 ], [ 2902893.372943161986768, 1626366.379683705978096 ], [ 2902857.313946259208024, 1626478.51356724370271 ], [ 2902838.201605589129031, 1626564.235554287210107 ], [ 2902836.606156032532454, 1626650.09333251719363 ], [ 2902838.316351501271129, 1626694.905516971601173 ], [ 2902838.825831615831703, 1626708.256777045084164 ], [ 2902837.467281403951347, 1626738.229535398539156 ], [ 2902837.291466645896435, 1626742.104579662904143 ], [ 2902836.208211921621114, 1626744.325148083269596 ], [ 2902830.138503029476851, 1626756.767562126740813 ], [ 2902818.211277073249221, 1626766.734644508222118 ], [ 2902825.066475819796324, 1626788.587031526723877 ], [ 2902847.222265338525176, 1626859.212427021935582 ], [ 2902847.43390433350578, 1626860.989434935385361 ], [ 2902851.814222520682961, 1626897.7658215619158 ], [ 2902874.179023672826588, 1626947.010777183808386 ], [ 2902875.644729043822736, 1626950.527131212176755 ], [ 2902893.364119679667056, 1626993.040449690073729 ], [ 2902895.651609465479851, 1627002.16193284932524 ], [ 2902914.24177954858169, 1627076.291925232624635 ], [ 2902917.715108441188931, 1627090.141685140086338 ], [ 2902916.068029464222491, 1627095.032164584146813 ], [ 2902911.349515791516751, 1627109.042369999457151 ], [ 2910942.276069999206811, 1627109.042369999457151 ], [ 2910942.276069999206811, 1613965.654930000659078 ], [ 2901044.086194918025285, 1613965.654930000659078 ], [ 2900941.41215797746554, 1614167.772344026248902 ] ] ] } }
]
}
