{
"type": "FeatureCollection",
"name": "Cañaveral_de_León",
"crs": { "type": "name", "properties": { "name": "urn:ogc:def:crs:EPSG::3035" } },
"features": [
{ "type": "Feature", "properties": { "SITE_NAME": "Cuevas de Fuentes de León", "ODESIGNATE": "Monumento Natural", "NUT2": 43, "SITE_CODE_": "ES431006", "DESIG_ABBR": "ES19", "SITE_CDDA": "349253_CDDA", "Sup_ha": 992.46785592599997 }, "geometry": { "type": "Polygon", "coordinates": [ [ [ 2877673.297073606401682, 1817923.313119607744738 ], [ 2877672.622602838091552, 1817922.349137178389356 ], [ 2877658.838960085995495, 1817870.892844839254394 ], [ 2877613.085510459728539, 1817742.882680754875764 ], [ 2877588.824658052995801, 1817679.128744988236576 ], [ 2877549.686250490136445, 1817629.433730413671583 ], [ 2877515.321846942417324, 1817610.110838702181354 ], [ 2877456.307009464595467, 1817615.138546414440498 ], [ 2877342.946010624524206, 1817618.669056684477255 ], [ 2877303.643080397509038, 1817586.04266722034663 ], [ 2877292.690544939599931, 1817576.158776798285544 ], [ 2877259.847550586797297, 1817555.062181381043047 ], [ 2877173.228784318082035, 1817430.116546245990321 ], [ 2877152.905711237806827, 1817396.825818065786734 ], [ 2877072.498195064719766, 1817299.98522986471653 ], [ 2876984.62453314429149, 1817216.536699346965179 ], [ 2876899.668592625763267, 1817129.010362694039941 ], [ 2876867.303943373262882, 1817081.635743803577498 ], [ 2876825.12224427703768, 1816979.372236400144175 ], [ 2876808.487009474076331, 1816969.070421585347503 ], [ 2876778.811860613524914, 1816948.144042014377192 ], [ 2876752.428333501797169, 1816909.418077554786578 ], [ 2876697.320360923651606, 1816242.420666538877413 ], [ 2876703.587713316082954, 1816196.845186823746189 ], [ 2876703.373388722538948, 1816154.725450737169012 ], [ 2876705.618914724327624, 1816147.047821917803958 ], [ 2876692.069807537831366, 1816021.755873905494809 ], [ 2876713.86547845043242, 1815940.892526283394545 ], [ 2876740.396093293093145, 1815896.612829520367086 ], [ 2876848.213009797036648, 1815781.925713611533865 ], [ 2876895.133328741416335, 1815751.148820301750675 ], [ 2876952.016841132659465, 1815725.647635405883193 ], [ 2877088.360136264935136, 1815682.693354496266693 ], [ 2877222.034934628754854, 1815627.899623787496239 ], [ 2877247.635041466914117, 1815607.81501708808355 ], [ 2877224.065848502330482, 1815514.474585409741849 ], [ 2877197.784970086999238, 1815403.877732921391726 ], [ 2877182.352818954735994, 1815362.307065590284765 ], [ 2876833.580851104110479, 1815549.830718723125756 ], [ 2876723.677712176926434, 1815303.545430430676788 ], [ 2876556.156989368610084, 1815298.325032542925328 ], [ 2876432.325995687395334, 1815331.181786658242345 ], [ 2876374.842296062968671, 1815294.24817593023181 ], [ 2876372.269016779027879, 1815292.594879751093686 ], [ 2876348.047546699177474, 1815291.840187769383192 ], [ 2876314.586678246501833, 1815255.533685269067064 ], [ 2876167.0516866017133, 1815160.742016421630979 ], [ 2876152.743228095583618, 1815177.045430409954861 ], [ 2876143.812208430841565, 1815187.222156888106838 ], [ 2876090.294258800335228, 1815221.220811759354547 ], [ 2876050.625039758626372, 1815229.658440796658397 ], [ 2876017.779005257878453, 1815286.058485026238486 ], [ 2876023.227424858137965, 1815298.156587392324582 ], [ 2876012.910779633559287, 1815329.375061950646341 ], [ 2875981.96941625745967, 1815371.420177718391642 ], [ 2875977.369318262673914, 1815374.660240472527221 ], [ 2875958.395935226231813, 1815388.027253697626293 ], [ 2875954.759260794147849, 1815394.271626734174788 ], [ 2875949.232495698146522, 1815394.482908073579893 ], [ 2875949.076988518238068, 1815394.59248821483925 ], [ 2875947.990261685103178, 1815395.046323987655342 ], [ 2875906.221885566599667, 1815412.489319241372868 ], [ 2875842.299928354099393, 1815419.030705871991813 ], [ 2875689.578074782155454, 1815388.314692814368755 ], [ 2875675.673812295310199, 1815385.518364791292697 ], [ 2875650.943397185765207, 1815375.315986187197268 ], [ 2875529.171794603578746, 1815325.080283281393349 ], [ 2875499.261506911832839, 1815328.484820254379883 ], [ 2875419.472046087961644, 1815363.205173263093457 ], [ 2875348.136080488562584, 1815406.510850001592189 ], [ 2875302.645322912372649, 1815459.292523945914581 ], [ 2875172.668113434687257, 1815523.36209386959672 ], [ 2875088.100335476920009, 1815559.962758090347052 ], [ 2874960.945379818324, 1815602.973250764654949 ], [ 2874918.040208282880485, 1815617.486243869177997 ], [ 2874903.10204878076911, 1815669.259972670581192 ], [ 2874938.400260602589697, 1815847.206024433718994 ], [ 2874953.098187598865479, 1815889.063808341510594 ], [ 2874949.747882315889001, 1815912.946986966533586 ], [ 2874750.622041299939156, 1816202.080301278969273 ], [ 2874682.220407292246819, 1816315.692295926390216 ], [ 2874842.555236563552171, 1816354.389471191214398 ], [ 2874917.675092033110559, 1816360.992701967479661 ], [ 2874938.133754678070545, 1816374.038993400055915 ], [ 2874943.616275203414261, 1816377.535290277795866 ], [ 2874945.935910926200449, 1816392.293593182926998 ], [ 2874934.040296141523868, 1816429.652054714504629 ], [ 2874944.943173688836396, 1816429.489015346392989 ], [ 2874892.119465041905642, 1816561.306251096539199 ], [ 2874844.023371236398816, 1816712.356344874249771 ], [ 2874821.289722002111375, 1816731.747363611357287 ], [ 2874815.388551289215684, 1816736.78102745488286 ], [ 2874788.807350233197212, 1816750.355705219088122 ], [ 2874781.569899909663945, 1816754.051839782856405 ], [ 2874568.364521787501872, 1816754.024122965987772 ], [ 2874557.085248810239136, 1816754.022661608178169 ], [ 2874485.40321756247431, 1816774.766108912881464 ], [ 2874270.618326776660979, 1816904.541338954586536 ], [ 2874232.439698866568506, 1816927.609522672370076 ], [ 2874112.628546359017491, 1816959.479972060536966 ], [ 2873912.401644951663911, 1817031.048090458847582 ], [ 2873146.056552974041551, 1817304.980213554110378 ], [ 2873115.780629442539066, 1817312.501514794072136 ], [ 2873063.297344700433314, 1817307.863560546189547 ], [ 2872766.955878470093012, 1817449.715926727978513 ], [ 2872712.005173999816179, 1817468.177982237422839 ], [ 2872697.727006263099611, 1817591.80823158682324 ], [ 2872601.233465930446982, 1817685.595964464126155 ], [ 2872522.497936168219894, 1817803.892880651634187 ], [ 2872460.862014217302203, 1817898.285520993405953 ], [ 2872342.630557355936617, 1818030.688734941650182 ], [ 2872317.97199125494808, 1818139.166159286862239 ], [ 2872307.893576653208584, 1818251.92864672280848 ], [ 2872213.521203276701272, 1818359.200536681571975 ], [ 2872088.534247169271111, 1818492.83350372989662 ], [ 2872012.321587477810681, 1818582.939812322380021 ], [ 2871928.690327886492014, 1818625.862363384803757 ], [ 2871858.577086647972465, 1818666.329594759037718 ], [ 2871799.725730308331549, 1818822.619318084092811 ], [ 2871760.490903338417411, 1818926.811351855052635 ], [ 2871807.007305897772312, 1819001.56382403918542 ], [ 2871878.441330253146589, 1819057.923237246461213 ], [ 2871860.944313980638981, 1819123.500702594639733 ], [ 2871781.953336663078517, 1819151.714762039016932 ], [ 2871720.721274442970753, 1819204.436036136932671 ], [ 2871736.222292474005371, 1819347.222574958112091 ], [ 2871781.280207679606974, 1819456.905939765740186 ], [ 2871776.954195585101843, 1819556.493233678163961 ], [ 2871668.770398738328367, 1819697.477106684818864 ], [ 2871552.138704652898014, 1819839.996033942094073 ], [ 2871516.021995374932885, 1819941.890673272777349 ], [ 2871477.255164078902453, 1820026.933194271521643 ], [ 2871493.654990029521286, 1820075.955034701852128 ], [ 2871508.271058997604996, 1820114.252952519105747 ], [ 2871553.565778131131083, 1820119.339100951096043 ], [ 2871570.785497620236129, 1819974.21404048288241 ], [ 2871660.614132504910231, 1819838.088033168343827 ], [ 2871733.306351331062615, 1819762.762658722233027 ], [ 2871824.660646141506732, 1819692.920624230057001 ], [ 2871883.866986752487719, 1819673.293112735031173 ], [ 2871933.063550614751875, 1819646.608392296591774 ], [ 2872013.388476116582751, 1819676.393063361523673 ], [ 2872067.590147849172354, 1819653.237431963905692 ], [ 2872123.404409429058433, 1819612.039002404548228 ], [ 2872154.196454368997365, 1819553.198707996867597 ], [ 2872136.046943605877459, 1819494.371260658372194 ], [ 2872163.445971037261188, 1819413.959903564536944 ], [ 2872198.564863661769778, 1819354.334039733745158 ], [ 2872180.66992702987045, 1819268.836145842913538 ], [ 2872136.987238489091396, 1819245.706989836646244 ], [ 2872126.811156660318375, 1819180.995240373304114 ], [ 2872123.930670376867056, 1819106.083827697904781 ], [ 2872139.710684084799141, 1819036.657131318002939 ], [ 2872204.855292926542461, 1818998.202634858433157 ], [ 2872259.057574753649533, 1818975.045859432080761 ], [ 2872315.80611384799704, 1818911.492313790367916 ], [ 2872340.239279984496534, 1818840.495557974325493 ], [ 2872367.639733904507011, 1818760.084757325937971 ], [ 2872408.186576209031045, 1818734.970948100090027 ], [ 2872493.350450136698782, 1818710.630871249362826 ], [ 2872597.852618962526321, 1818696.091249970952049 ], [ 2872658.417328383307904, 1818685.093011282850057 ], [ 2872735.607314196880907, 1818666.637873891741037 ], [ 2872769.793181556276977, 1818629.369259951403365 ], [ 2872836.974560290575027, 1818603.857275974703953 ], [ 2872897.795185568742454, 1818566.189474690472707 ], [ 2872970.237706299871206, 1818517.535330849234015 ], [ 2873045.64903854764998, 1818459.46921953978017 ], [ 2873134.884012637659907, 1818461.015152688836679 ], [ 2873210.717336028814316, 1818433.934021488530561 ], [ 2873283.160380794666708, 1818385.280590032925829 ], [ 2873316.41202072519809, 1818370.36884977389127 ], [ 2873382.07245219592005, 1818278.575180494459346 ], [ 2873469.36317491158843, 1818182.85445455298759 ], [ 2873520.854582495987415, 1818142.444195839576423 ], [ 2873589.650329048745334, 1818098.891703919973224 ], [ 2873703.19683177350089, 1818102.237496816553175 ], [ 2873755.991155911237001, 1818121.051517656305805 ], [ 2873822.628511290531605, 1818137.350768393836915 ], [ 2873879.425173707306385, 1818158.986996538005769 ], [ 2873932.966803418006748, 1818159.916439779335633 ], [ 2873975.245294776745141, 1818134.491492800880224 ], [ 2874001.5827865768224, 1818030.314496089704335 ], [ 2874044.273260877467692, 1817962.217167149065062 ], [ 2874114.855120934545994, 1817867.756437748903409 ], [ 2874168.470693110488355, 1817801.225764059927315 ], [ 2874264.159800852648914, 1817730.60724587412551 ], [ 2874380.410476600751281, 1817677.555104144150391 ], [ 2874430.360047052614391, 1817632.989291802514344 ], [ 2874483.770867711864412, 1817587.794179953634739 ], [ 2874530.596393718384206, 1817568.644618950318545 ], [ 2874618.205613448750228, 1817559.841167641337961 ], [ 2874691.972159117460251, 1817553.549191291444004 ], [ 2874740.425560611765832, 1817544.753568362444639 ], [ 2874754.269126022234559, 1817542.240565520012751 ], [ 2874809.908075898420066, 1817624.435400974238291 ], [ 2874860.796238968614489, 1817721.692642613314092 ], [ 2874904.218461722135544, 1817816.754050706280395 ], [ 2874944.38488390808925, 1817891.108764267060906 ], [ 2874939.016904121730477, 1817970.179384584538639 ], [ 2874893.408071526326239, 1818042.355464439140633 ], [ 2874886.075742098502815, 1818086.284647032152861 ], [ 2874912.604765726719052, 1818141.816221734741703 ], [ 2874920.201122167054564, 1818190.134352145949379 ], [ 2874929.968016003258526, 1818252.25855316943489 ], [ 2874954.285778081044555, 1818298.251820077421144 ], [ 2875063.67571054212749, 1818323.833164354786277 ], [ 2875221.332026089541614, 1818312.253948814235628 ], [ 2875268.566191063262522, 1818286.64189619384706 ], [ 2875297.719865181483328, 1818272.829991286620498 ], [ 2875360.100331323686987, 1818252.987473509740084 ], [ 2875425.144391544163227, 1818195.743813576409593 ], [ 2875488.991315147839487, 1818167.116268920945004 ], [ 2875536.494379214011133, 1818161.333457032684237 ], [ 2875571.456535269506276, 1818166.347142720827833 ], [ 2875593.278421473689377, 1818196.464941660640761 ], [ 2875604.892552927136421, 1818234.115214831894264 ], [ 2875599.026569481939077, 1818269.257854682160541 ], [ 2875586.754861415829509, 1818299.88356158672832 ], [ 2875575.022042070515454, 1818370.169679421931505 ], [ 2875593.042569621931762, 1818412.336436592042446 ], [ 2875637.284331602510065, 1818458.264152084942907 ], [ 2875666.380148095078766, 1818498.420803661923856 ], [ 2875693.739219603128731, 1818527.533594097942114 ], [ 2875729.346498896367848, 1818609.106760092079639 ], [ 2875798.34338060207665, 1818667.57990934420377 ], [ 2875891.990071716718376, 1818701.701636775629595 ], [ 2875956.811012483667582, 1818715.495319178095087 ], [ 2876022.769090751651675, 1818754.642327500507236 ], [ 2876072.180495549924672, 1818789.975930466549471 ], [ 2876123.861979369074106, 1818828.874838192248717 ], [ 2876233.405482144095004, 1818982.225168492877856 ], [ 2876318.686788345687091, 1819071.822760258568451 ], [ 2876370.098535655066371, 1819090.891778885619715 ], [ 2876452.564189708791673, 1819090.124502810649574 ], [ 2876496.865135376341641, 1819082.084735869430006 ], [ 2876529.118046858347952, 1819033.633030777331442 ], [ 2876520.43618122395128, 1818978.41124138282612 ], [ 2876520.494079194031656, 1818924.443333237431943 ], [ 2876532.33283021626994, 1818891.056559217395261 ], [ 2876591.240899710915983, 1818849.127238088753074 ], [ 2876621.756965004839003, 1818789.631951165618375 ], [ 2876632.187131059356034, 1818711.06228199461475 ], [ 2876659.500467228703201, 1818649.308489036280662 ], [ 2876675.464273445308208, 1818558.37564912927337 ], [ 2876671.12371960747987, 1818530.765617028344423 ], [ 2876674.790660655591637, 1818508.800875062821433 ], [ 2876701.935766770504415, 1818500.324996429961175 ], [ 2876735.667151137720793, 1818465.804456129902974 ], [ 2876745.171554668806493, 1818435.68145633675158 ], [ 2876757.051237685605884, 1818398.027925792848691 ], [ 2876814.938138909637928, 1818390.362662080675364 ], [ 2876850.664696547668427, 1818364.001314573688433 ], [ 2876902.569386538583785, 1818331.862409105990082 ], [ 2876954.040272569749504, 1818296.963926471071318 ], [ 2876984.662202704697847, 1818274.368004022398964 ], [ 2876986.024622646160424, 1818228.682876892620698 ], [ 2876996.396343814209104, 1818204.08238751674071 ], [ 2877015.50926794949919, 1818180.735530835809186 ], [ 2877062.146096909418702, 1818169.43346644891426 ], [ 2877102.916140697896481, 1818193.272804830688983 ], [ 2877169.039910172112286, 1818215.35200234525837 ], [ 2877208.507032427936792, 1818230.909372991882265 ], [ 2877272.7902313452214, 1818205.046067682793364 ], [ 2877303.413838426582515, 1818182.449572666781023 ], [ 2877328.229528940748423, 1818141.029102600179613 ], [ 2877398.319609669037163, 1818133.99139044014737 ], [ 2877454.565500147175044, 1818129.464838832151145 ], [ 2877493.43409021012485, 1818159.330926385940984 ], [ 2877520.360679500736296, 1818185.68262084084563 ], [ 2877541.313595406711102, 1818210.279473752947524 ], [ 2877567.102401478216052, 1818211.279434785945341 ], [ 2877604.729051127564162, 1818178.894064106512815 ], [ 2877619.936074157245457, 1818130.69755869708024 ], [ 2877625.370488273911178, 1818092.793925320962444 ], [ 2877646.818234364036471, 1818066.18349132523872 ], [ 2877658.492141960654408, 1818049.865517582278699 ], [ 2877680.973824148997664, 1818011.708665008889511 ], [ 2877716.699866930488497, 1817985.348129445919767 ], [ 2877686.51757793687284, 1817942.208740309579298 ], [ 2877673.432493103668094, 1817939.450932396575809 ], [ 2877673.297073606401682, 1817923.313119607744738 ] ] ] } },
{ "type": "Feature", "properties": { "SITE_NAME": "Sierra de Aracena y Picos de Aroche", "ODESIGNATE": "Parque Natural", "NUT2": 61, "SITE_CODE_": "ES615011", "DESIG_ABBR": "ES10", "SITE_CDDA": "20938_CDDA", "Sup_ha": 186616.11062699999 }, "geometry": { "type": "MultiPolygon", "coordinates": [ [ [ [ 2867505.471028785221279, 1820247.92347395978868 ], [ 2867502.975785943679512, 1820216.491759999655187 ], [ 2867502.06695210840553, 1820210.582874122075737 ], [ 2867496.161992557812482, 1820172.189706125529483 ], [ 2867485.562706242315471, 1820103.27511290833354 ], [ 2867472.526476785540581, 1820069.679753904230893 ], [ 2867470.048754952847958, 1820063.29436691547744 ], [ 2867461.352129655890167, 1820040.882637290051207 ], [ 2867448.432886593043804, 1820014.605220599565655 ], [ 2867431.635808718390763, 1819980.436488495673984 ], [ 2867431.207188618369401, 1819979.568756069988012 ], [ 2867356.640192040242255, 1819877.752445345744491 ], [ 2867306.541710474062711, 1819813.893151310971007 ], [ 2867246.612400783225894, 1819737.502972095040604 ], [ 2867232.261097358539701, 1819719.209699019091204 ], [ 2867203.98776879068464, 1819681.146749009611085 ], [ 2867193.276537349447608, 1819666.726866876706481 ], [ 2867191.685307920910418, 1819664.584600311936811 ], [ 2867186.561938753351569, 1819657.687415549065918 ], [ 2867176.957548120059073, 1819635.374326900346205 ], [ 2867171.276618553325534, 1819622.176256980979815 ], [ 2867164.780718148685992, 1819607.084971366915852 ], [ 2867162.549626125954092, 1819601.901609945809469 ], [ 2867141.314048851374537, 1819552.566862790379673 ], [ 2867105.054508504923433, 1819475.033451691735536 ], [ 2867080.660602327436209, 1819422.872152887284756 ], [ 2867067.159951107576489, 1819394.004062068415806 ], [ 2866967.07252, 1819262.544598360778764 ], [ 2866967.07252, 1820386.545479999156669 ], [ 2867516.47598682064563, 1820386.545479999156669 ], [ 2867505.471028785221279, 1820247.92347395978868 ] ] ], [ [ [ 2866977.032825307454914, 1819015.526288122171536 ], [ 2866979.000078921671957, 1819001.5811583166942 ], [ 2866982.428504499606788, 1818977.278982443735003 ], [ 2867012.340637173503637, 1818877.221560415811837 ], [ 2867014.490159459412098, 1818870.031384479952976 ], [ 2867019.859512390568852, 1818852.070824231253937 ], [ 2867024.034109886270016, 1818848.24599341629073 ], [ 2867230.678320367820561, 1818658.915643860818818 ], [ 2867356.740263658575714, 1818566.175141302403063 ], [ 2867645.818322078324854, 1818661.401694620493799 ], [ 2867651.528159554116428, 1818657.938148897374049 ], [ 2867641.924281069543213, 1818631.235294340411201 ], [ 2867637.507918958552182, 1818618.956099695758894 ], [ 2867618.17815053416416, 1818565.210503545822576 ], [ 2867587.8217843323946, 1818508.99589143297635 ], [ 2867722.355540154967457, 1818480.496958156814799 ], [ 2867880.638865485787392, 1818417.028915585717186 ], [ 2867885.76806809194386, 1818414.972274638013914 ], [ 2867888.53192425146699, 1818413.864026453346014 ], [ 2867933.239447269588709, 1818414.245886471820995 ], [ 2868197.724904560018331, 1818322.25363747542724 ], [ 2868320.208554113283753, 1818352.618376257829368 ], [ 2868465.940697303041816, 1818543.714810071745887 ], [ 2868310.687615248840302, 1818627.588009342784062 ], [ 2868335.600735089741647, 1818734.380058305570856 ], [ 2868592.908065356314182, 1818860.673659534193575 ], [ 2868798.511941628530622, 1818884.031527651241049 ], [ 2868937.650448676198721, 1818923.51654813461937 ], [ 2869170.182221730239689, 1818911.624236854491755 ], [ 2869170.84067964181304, 1818877.096854551928118 ], [ 2869465.120587578043342, 1818793.267304772976786 ], [ 2869659.392612940166146, 1818783.270080761052668 ], [ 2869769.016647797077894, 1818699.597661970881745 ], [ 2869946.403039478696883, 1818653.202367036836222 ], [ 2870140.580053401645273, 1818636.141179505502805 ], [ 2870159.361912908963859, 1818697.496766164898872 ], [ 2870644.787012503482401, 1818674.080272496212274 ], [ 2870758.282268350943923, 1818615.007864071987569 ], [ 2870873.152151782996953, 1818532.409712196560577 ], [ 2870947.806409975513816, 1818432.830162676051259 ], [ 2871525.433436227031052, 1818072.891858097398654 ], [ 2871647.602125325705856, 1818085.105653339298442 ], [ 2871686.7654211637564, 1818050.512885871110484 ], [ 2871688.781480651814491, 1818048.732194791547954 ], [ 2871698.064071852713823, 1818040.532937915064394 ], [ 2871702.400712430477142, 1818036.70231997827068 ], [ 2871711.656470897141844, 1818029.077184933936223 ], [ 2871725.496368568390608, 1818017.67556577315554 ], [ 2871775.36883639683947, 1817976.58909625816159 ], [ 2872022.094858646858484, 1817701.357866757782176 ], [ 2872301.348857574164867, 1817560.578309549717233 ], [ 2872629.389165159314871, 1817484.815959216328338 ], [ 2872668.640908344648778, 1817482.747536355629563 ], [ 2872712.005173999816179, 1817468.177982237422839 ], [ 2872766.955878470093012, 1817449.715926727978513 ], [ 2873063.297344700433314, 1817307.863560546189547 ], [ 2873115.780629442539066, 1817312.501514794072136 ], [ 2873146.056552974041551, 1817304.980213554110378 ], [ 2873912.401644951663911, 1817031.048090458847582 ], [ 2873935.370703047141433, 1817021.007319065276533 ], [ 2874012.630212998017669, 1816992.813631437253207 ], [ 2874173.022360123228282, 1816939.312146333046257 ], [ 2874205.674733030609787, 1816928.420511633390561 ], [ 2874270.618326776660979, 1816904.541338954586536 ], [ 2874485.40321756247431, 1816774.766108912881464 ], [ 2874519.742910592351109, 1816754.018004229292274 ], [ 2874557.085248810239136, 1816754.022661608178169 ], [ 2874568.364521787501872, 1816754.024122965987772 ], [ 2874598.524200875777751, 1816745.788836928550154 ], [ 2874656.244715641252697, 1816737.334890237776563 ], [ 2874699.32263861130923, 1816737.610942193306983 ], [ 2874801.433656990528107, 1816733.242769542615861 ], [ 2874821.289722002111375, 1816731.747363611357287 ], [ 2874844.023371236398816, 1816712.356344874249771 ], [ 2874892.119465041905642, 1816561.306251096539199 ], [ 2874934.040296141523868, 1816429.652054714504629 ], [ 2874945.935910926200449, 1816392.293593182926998 ], [ 2874943.616275203414261, 1816377.535290277795866 ], [ 2874938.133754678070545, 1816374.038993400055915 ], [ 2874879.258221501484513, 1816371.002105128252879 ], [ 2874873.776066910475492, 1816369.895802749320865 ], [ 2874868.124354933854192, 1816368.755409968784079 ], [ 2874857.840878716669977, 1816366.68021986936219 ], [ 2874848.925471064634621, 1816364.881220765644684 ], [ 2874843.443417293950915, 1816363.77490489766933 ], [ 2874824.361914031207561, 1816359.924355195602402 ], [ 2874816.889371388591826, 1816358.416411487618461 ], [ 2874797.189614119939506, 1816354.441092348890379 ], [ 2874790.335448746569455, 1816353.058017297182232 ], [ 2874769.097877551335841, 1816348.772471785079688 ], [ 2874755.177300834096968, 1816345.96339561813511 ], [ 2874676.304609076119959, 1816325.874032433144748 ], [ 2874657.183367932215333, 1816324.371860085288063 ], [ 2874653.717953820712864, 1816324.099516464164481 ], [ 2874646.832167445681989, 1816323.558595814974979 ], [ 2874600.024637605063617, 1816319.881326348520815 ], [ 2874589.523338354192674, 1816319.056363724404946 ], [ 2874586.815119651146233, 1816318.843615101650357 ], [ 2874586.79069579904899, 1816317.235487082740292 ], [ 2874585.95524175465107, 1816262.329945850884542 ], [ 2874593.806646240875125, 1816188.739862980088219 ], [ 2874593.998458947986364, 1816186.997262137942016 ], [ 2874612.86318423692137, 1816129.322314894990996 ], [ 2874614.766938745044172, 1816123.521792857674882 ], [ 2874623.046263063326478, 1816107.676499816356227 ], [ 2874625.863533106632531, 1816102.284453991567716 ], [ 2874643.372385919094086, 1816068.775565933436155 ], [ 2874648.898955791257322, 1816058.198698831954971 ], [ 2874651.306992805562913, 1816053.590119355358183 ], [ 2874657.846063384320587, 1816041.07555026281625 ], [ 2874658.97128904890269, 1816038.922076203627512 ], [ 2874660.331892797723413, 1816036.318160743219778 ], [ 2874699.451257039792836, 1815986.682008265983313 ], [ 2874703.488081557676196, 1815981.559924610424787 ], [ 2874720.826706862542778, 1815959.560058333678171 ], [ 2874740.615860691294074, 1815922.847329228185117 ], [ 2874742.593296898528934, 1815919.178704553749412 ], [ 2874820.260792365763336, 1815736.084709619870409 ], [ 2874867.626048462465405, 1815638.435516749043018 ], [ 2874894.456790418364108, 1815625.678444216726348 ], [ 2874894.416435533203185, 1815625.477205014554784 ], [ 2874896.022877309005708, 1815624.933861049124971 ], [ 2874898.609745683148503, 1815623.704062717733905 ], [ 2874960.945379818324, 1815602.973250764654949 ], [ 2875088.100335476920009, 1815559.962758090347052 ], [ 2875172.668113434687257, 1815523.36209386959672 ], [ 2875302.645322912372649, 1815459.292523945914581 ], [ 2875348.136080488562584, 1815406.510850001592189 ], [ 2875419.472046087961644, 1815363.205173263093457 ], [ 2875499.261506911832839, 1815328.484820254379883 ], [ 2875529.171794603578746, 1815325.080283281393349 ], [ 2875650.943397185765207, 1815375.315986187197268 ], [ 2875676.489263526629657, 1815382.334837407339364 ], [ 2875689.578074782155454, 1815388.314692814368755 ], [ 2875842.299928354099393, 1815419.030705871991813 ], [ 2875906.221885566599667, 1815412.489319241372868 ], [ 2875947.990261685103178, 1815395.046323987655342 ], [ 2875949.076988518238068, 1815394.59248821483925 ], [ 2875949.232495698146522, 1815394.482908073579893 ], [ 2875958.395935226231813, 1815388.027253697626293 ], [ 2875977.369318262673914, 1815374.660240472527221 ], [ 2876011.455645880196244, 1815272.018253403017297 ], [ 2875992.05072320625186, 1815228.930840449873358 ], [ 2876025.480696000158787, 1815235.006912818411365 ], [ 2876028.101884767413139, 1815234.44909006706439 ], [ 2876034.32274413947016, 1815224.975920708617195 ], [ 2876048.194711270742118, 1815203.852616170421243 ], [ 2876056.578360830433667, 1815191.086649934528396 ], [ 2876058.777753617614508, 1815187.737516930792481 ], [ 2876069.764606965705752, 1815171.007554847747087 ], [ 2876078.066157791763544, 1815158.366799843264744 ], [ 2876093.591112611815333, 1815134.726407585199922 ], [ 2876095.188624972011894, 1815132.293827712768689 ], [ 2876152.743228095583618, 1815177.045430409954861 ], [ 2876167.0516866017133, 1815160.742016421630979 ], [ 2876314.586678246501833, 1815255.533685269067064 ], [ 2876372.269016779027879, 1815292.594879751093686 ], [ 2876374.842296062968671, 1815294.24817593023181 ], [ 2876595.762346527539194, 1815286.470000091940165 ], [ 2876681.147636042907834, 1815283.464656156720594 ], [ 2876681.156094625592232, 1815283.464234531857073 ], [ 2876729.790391081944108, 1815280.239517075242475 ], [ 2876730.990754119120538, 1815281.709946244722232 ], [ 2876754.044478818308562, 1815280.898197900969535 ], [ 2876817.708922103978693, 1815373.106771167833358 ], [ 2876891.607585328165442, 1815480.138335180701688 ], [ 2876926.323682907037437, 1815461.604038227815181 ], [ 2876929.287933096755296, 1815459.513782938709483 ], [ 2877145.323215106967837, 1815276.688633946934715 ], [ 2877150.57333280518651, 1815278.709493567235768 ], [ 2877174.861766687594354, 1815254.815537636168301 ], [ 2877176.979193058796227, 1815252.72564177098684 ], [ 2877406.885670071467757, 1815494.244266849709675 ], [ 2877411.085555074736476, 1815498.656280140625313 ], [ 2877403.356622576247901, 1815506.083312915405259 ], [ 2876755.056936080101877, 1816128.724529147380963 ], [ 2876752.882511600852013, 1816131.816434233449399 ], [ 2876744.558301779441535, 1816143.652712936978787 ], [ 2876740.372489206958562, 1816149.60435038828291 ], [ 2876727.760557883419096, 1816184.275288458215073 ], [ 2876727.709927894175053, 1816184.878492371179163 ], [ 2876724.401297078002244, 1816222.326835284009576 ], [ 2876724.709464588668197, 1816225.323480485938489 ], [ 2876725.373714845161885, 1816231.783088659634814 ], [ 2876727.306971384678036, 1816250.583145867567509 ], [ 2876727.87758731469512, 1816256.131175482645631 ], [ 2876729.202639262191951, 1816269.017425195081159 ], [ 2876734.410143639426678, 1816323.283106877235696 ], [ 2876735.268443207256496, 1816332.226877104723826 ], [ 2876735.93602237990126, 1816339.182859986787662 ], [ 2876736.69892181828618, 1816347.13279536110349 ], [ 2876741.800708479713649, 1816400.29594924300909 ], [ 2876773.110964123159647, 1816726.548412380274385 ], [ 2876778.4842040957883, 1816748.290329413721338 ], [ 2876796.807812919840217, 1816822.432027694769204 ], [ 2876813.9844831507653, 1816889.140169261256233 ], [ 2876820.69090569159016, 1816903.149983176030219 ], [ 2876857.56434097699821, 1816980.179705528076738 ], [ 2876870.684447309467942, 1817007.58793441997841 ], [ 2876981.625203968025744, 1817076.291223991196603 ], [ 2877007.544826867058873, 1817112.066489855526015 ], [ 2877043.284021593630314, 1817215.413737800205126 ], [ 2877067.598932642489672, 1817237.782700207084417 ], [ 2877072.706860784906894, 1817242.492952607804909 ], [ 2877145.572205734439194, 1817309.651716308435425 ], [ 2877276.055042911320925, 1817399.315166681772098 ], [ 2877325.224519607611001, 1817431.883619598578662 ], [ 2877334.520267587155104, 1817429.306913686916232 ], [ 2877341.871444188058376, 1817427.269226167118177 ], [ 2877347.249555332586169, 1817425.778457790613174 ], [ 2877589.447958521079272, 1817358.642740978626534 ], [ 2877625.462219689041376, 1817536.990999074652791 ], [ 2877707.970730729401112, 1817945.576230742037296 ], [ 2877708.214157067704946, 1817946.781445410102606 ], [ 2877735.359848632477224, 1817952.502632210031152 ], [ 2877820.657881424762309, 1817959.289289806038141 ], [ 2877872.228720664512366, 1817947.17403454054147 ], [ 2877936.211992404423654, 1817910.43002479756251 ], [ 2877939.911304919514805, 1817908.305607401765883 ], [ 2877951.870968922041357, 1817910.239629873074591 ], [ 2877959.299632713664323, 1817911.440876275068149 ], [ 2877962.042451178189367, 1817911.884307138621807 ], [ 2877963.630471848882735, 1817912.141155576799065 ], [ 2878028.491163502912968, 1817922.62969117728062 ], [ 2878051.236310757696629, 1817915.430801208131015 ], [ 2878086.102448273450136, 1817891.901961538707837 ], [ 2878090.921025005169213, 1817890.52505295467563 ], [ 2878114.177654345054179, 1817874.158592496532947 ], [ 2878117.083958094008267, 1817872.113496227422729 ], [ 2878121.167899024672806, 1817874.993637527571991 ], [ 2878126.21489483024925, 1817878.552764449035749 ], [ 2878147.458114287350327, 1817902.010773846879601 ], [ 2878234.047658889554441, 1817997.628379786852747 ], [ 2878273.502745632082224, 1818019.206592307891697 ], [ 2878304.273022517561913, 1818026.089299356564879 ], [ 2878349.410902135074139, 1818032.357189866481349 ], [ 2878472.150206710211933, 1818047.532781337155029 ], [ 2878517.689254442229867, 1818048.654104511020705 ], [ 2878524.840221932623535, 1818048.830224818084389 ], [ 2878538.298567624762654, 1818049.161541478009894 ], [ 2878548.70032353606075, 1818049.417687623994425 ], [ 2878559.300542837474495, 1818049.678718908457085 ], [ 2878570.93292170483619, 1818049.965234259376302 ], [ 2878598.572587439790368, 1818050.643193396739662 ], [ 2878633.246587384492159, 1818051.495706044137478 ], [ 2878727.470843269024044, 1818053.836547181475908 ], [ 2878913.680837933905423, 1818164.288716757437214 ], [ 2878913.906029099598527, 1818164.422332484973595 ], [ 2878949.728437707293779, 1818185.670846015447751 ], [ 2878965.869176534935832, 1818195.244942249264568 ], [ 2878975.704959361348301, 1818201.079037134069949 ], [ 2879094.185649242252111, 1818349.143101521534845 ], [ 2879189.258565619587898, 1818467.954719043569639 ], [ 2879339.906210128683597, 1818481.106813275720924 ], [ 2879388.689878959208727, 1818478.329675008542836 ], [ 2879476.182183734606951, 1818507.139676571357995 ], [ 2879503.624230341985822, 1818516.176028591347858 ], [ 2879551.305379998870194, 1818550.105457413708791 ], [ 2879551.305379998870194, 1807445.387119999853894 ], [ 2866967.07252, 1807445.387119999853894 ], [ 2866967.07252, 1819086.13142901728861 ], [ 2866977.032825307454914, 1819015.526288122171536 ] ] ], [ [ [ 2879510.047252293210477, 1819422.750487490789965 ], [ 2879471.419921363703907, 1819496.494989811675623 ], [ 2879436.831697479821742, 1819562.528554908698425 ], [ 2879417.123760162852705, 1819604.09115977329202 ], [ 2879411.637587815523148, 1819615.66108214110136 ], [ 2879375.93061116617173, 1819690.965220263460651 ], [ 2879361.654219635762274, 1819725.969321756390855 ], [ 2879358.508287324570119, 1819733.682841205969453 ], [ 2879344.73101822566241, 1819767.463416685350239 ], [ 2879315.304727110080421, 1819843.057765738572925 ], [ 2879281.925444003194571, 1819928.807540231849998 ], [ 2879551.305379998870194, 1820012.600306364241987 ], [ 2879551.305379998870194, 1819342.1769648140762 ], [ 2879510.047252293210477, 1819422.750487490789965 ] ] ] ] } },
{ "type": "Feature", "properties": { "SITE_NAME": "Sierra de Aracena y Picos deAroche", "ODESIGNATE": "Zona de Importancia Comunitaria ZIC (ZEPA/ZEC)", "NUT2": 61, "SITE_CODE_": "ES0000051", "DESIG_ABBR": "ES49", "SITE_CDDA": "555588810_CDDA", "Sup_ha": 186773.78016200001 }, "geometry": { "type": "MultiPolygon", "coordinates": [ [ [ [ 2867544.841303353197873, 1820383.9612671143841 ], [ 2867490.750277362763882, 1820065.899315288756043 ], [ 2867358.882915559224784, 1819814.600230556214228 ], [ 2867098.401566187851131, 1819384.27712380583398 ], [ 2867044.530511309858412, 1819319.180884249741212 ], [ 2867250.321217595599592, 1819253.439196469960734 ], [ 2867070.67866368452087, 1818969.334008892299607 ], [ 2867236.333305776584893, 1818654.851955316727981 ], [ 2867334.675081132911146, 1818583.341586659895256 ], [ 2867605.365360046736896, 1818665.702769768657163 ], [ 2867643.471978593617678, 1818662.825030216481537 ], [ 2867645.818322078324854, 1818661.401694620493799 ], [ 2867651.528159554116428, 1818657.938148897374049 ], [ 2867660.14575349772349, 1818652.711016696412116 ], [ 2867625.69578945543617, 1818582.05978513462469 ], [ 2867850.409526447765529, 1818443.055998107418418 ], [ 2867933.239447269588709, 1818414.245886471820995 ], [ 2868197.724904560018331, 1818322.25363747542724 ], [ 2868320.208554113283753, 1818352.618376257829368 ], [ 2868465.940697303041816, 1818543.714810071745887 ], [ 2868310.687615248840302, 1818627.588009342784062 ], [ 2868335.600735089741647, 1818734.380058305570856 ], [ 2868592.908065356314182, 1818860.673659534193575 ], [ 2868798.511941628530622, 1818884.031527651241049 ], [ 2868937.650448676198721, 1818923.51654813461937 ], [ 2869170.182221730239689, 1818911.624236854491755 ], [ 2869170.84067964181304, 1818877.096854551928118 ], [ 2869465.120587578043342, 1818793.267304772976786 ], [ 2869659.392612940166146, 1818783.270080761052668 ], [ 2869769.016647797077894, 1818699.597661970881745 ], [ 2869946.403039478696883, 1818653.202367036836222 ], [ 2870140.580053401645273, 1818636.141179505502805 ], [ 2870159.361912908963859, 1818697.496766164898872 ], [ 2870644.787012503482401, 1818674.080272496212274 ], [ 2870758.282268350943923, 1818615.007864071987569 ], [ 2870873.152151782996953, 1818532.409712196560577 ], [ 2870947.806409975513816, 1818432.830162676051259 ], [ 2871525.433436227031052, 1818072.891858097398654 ], [ 2871647.602125325705856, 1818085.105653339298442 ], [ 2871651.211896651424468, 1818085.466525314841419 ], [ 2871703.521544774062932, 1818056.738233910640702 ], [ 2871775.36883639683947, 1817976.58909625816159 ], [ 2872022.094858646858484, 1817701.357866757782176 ], [ 2872301.348857574164867, 1817560.578309549717233 ], [ 2872629.389165159314871, 1817484.815959216328338 ], [ 2872668.640908344648778, 1817482.747536355629563 ], [ 2872712.005173999816179, 1817468.177982237422839 ], [ 2872766.955878470093012, 1817449.715926727978513 ], [ 2873063.297344700433314, 1817307.863560546189547 ], [ 2873115.780629442539066, 1817312.501514794072136 ], [ 2873146.056552974041551, 1817304.980213554110378 ], [ 2873912.401644951663911, 1817031.048090458847582 ], [ 2874112.628546359017491, 1816959.479972060536966 ], [ 2874232.439698866568506, 1816927.609522672370076 ], [ 2874270.618326776660979, 1816904.541338954586536 ], [ 2874485.40321756247431, 1816774.766108912881464 ], [ 2874519.742910592351109, 1816754.018004229292274 ], [ 2874557.085248810239136, 1816754.022661608178169 ], [ 2874568.364521787501872, 1816754.024122965987772 ], [ 2874781.569899909663945, 1816754.051839782856405 ], [ 2874788.807350233197212, 1816750.355705219088122 ], [ 2874815.388551289215684, 1816736.78102745488286 ], [ 2874821.289722002111375, 1816731.747363611357287 ], [ 2874844.023371236398816, 1816712.356344874249771 ], [ 2874892.119465041905642, 1816561.306251096539199 ], [ 2874934.040296141523868, 1816429.652054714504629 ], [ 2874945.935910926200449, 1816392.293593182926998 ], [ 2874943.616275203414261, 1816377.535290277795866 ], [ 2874938.133754678070545, 1816374.038993400055915 ], [ 2874917.675092033110559, 1816360.992701967479661 ], [ 2874842.555236563552171, 1816354.389471191214398 ], [ 2874682.220407292246819, 1816315.692295926390216 ], [ 2874750.622041299939156, 1816202.080301278969273 ], [ 2874949.747882315889001, 1815912.946986966533586 ], [ 2874953.098187598865479, 1815889.063808341510594 ], [ 2874938.400260602589697, 1815847.206024433718994 ], [ 2874903.10204878076911, 1815669.259972670581192 ], [ 2874894.456790418364108, 1815625.678444216726348 ], [ 2874894.416435533203185, 1815625.477205014554784 ], [ 2874896.022877309005708, 1815624.933861049124971 ], [ 2874918.040208282880485, 1815617.486243869177997 ], [ 2874960.945379818324, 1815602.973250764654949 ], [ 2875088.100335476920009, 1815559.962758090347052 ], [ 2875172.668113434687257, 1815523.36209386959672 ], [ 2875302.645322912372649, 1815459.292523945914581 ], [ 2875348.136080488562584, 1815406.510850001592189 ], [ 2875419.472046087961644, 1815363.205173263093457 ], [ 2875499.261506911832839, 1815328.484820254379883 ], [ 2875529.171794603578746, 1815325.080283281393349 ], [ 2875650.943397185765207, 1815375.315986187197268 ], [ 2875675.673812295310199, 1815385.518364791292697 ], [ 2875689.578074782155454, 1815388.314692814368755 ], [ 2875842.299928354099393, 1815419.030705871991813 ], [ 2875906.221885566599667, 1815412.489319241372868 ], [ 2875947.990261685103178, 1815395.046323987655342 ], [ 2875949.076988518238068, 1815394.59248821483925 ], [ 2875949.232495698146522, 1815394.482908073579893 ], [ 2875958.395935226231813, 1815388.027253697626293 ], [ 2875977.369318262673914, 1815374.660240472527221 ], [ 2875981.96941625745967, 1815371.420177718391642 ], [ 2876012.910779633559287, 1815329.375061950646341 ], [ 2876023.227424858137965, 1815298.156587392324582 ], [ 2876017.779005257878453, 1815286.058485026238486 ], [ 2876011.455645880196244, 1815272.018253403017297 ], [ 2875992.05072320625186, 1815228.930840449873358 ], [ 2876025.480696000158787, 1815235.006912818411365 ], [ 2876028.101884767413139, 1815234.44909006706439 ], [ 2876050.625039758626372, 1815229.658440796658397 ], [ 2876090.294258800335228, 1815221.220811759354547 ], [ 2876143.812208430841565, 1815187.222156888106838 ], [ 2876152.743228095583618, 1815177.045430409954861 ], [ 2876167.0516866017133, 1815160.742016421630979 ], [ 2876314.586678246501833, 1815255.533685269067064 ], [ 2876372.269016779027879, 1815292.594879751093686 ], [ 2876374.842296062968671, 1815294.24817593023181 ], [ 2876432.325995687395334, 1815331.181786658242345 ], [ 2876556.156989368610084, 1815298.325032542925328 ], [ 2876589.176578902173787, 1815289.563887590542436 ], [ 2876681.147636042907834, 1815283.464656156720594 ], [ 2876681.156094625592232, 1815283.464234531857073 ], [ 2876729.790391081944108, 1815280.239517075242475 ], [ 2876730.990754119120538, 1815281.709946244722232 ], [ 2876859.253799096681178, 1815438.896947097964585 ], [ 2876884.591217005625367, 1815483.884580059442669 ], [ 2876891.607585328165442, 1815480.138335180701688 ], [ 2876926.323682907037437, 1815461.604038227815181 ], [ 2876927.660987831652164, 1815460.890541196335107 ], [ 2876929.287933096755296, 1815459.513782938709483 ], [ 2877145.323215106967837, 1815276.688633946934715 ], [ 2877150.57333280518651, 1815278.709493567235768 ], [ 2877191.772102158050984, 1815294.570711547508836 ], [ 2877207.014386241324246, 1815314.067766136722639 ], [ 2877312.78051122603938, 1815580.245132624404505 ], [ 2877300.976455299183726, 1815595.54171263682656 ], [ 2877222.034934628754854, 1815627.899623787496239 ], [ 2877088.360136264935136, 1815682.693354496266693 ], [ 2876952.016841132659465, 1815725.647635405883193 ], [ 2876895.133328741416335, 1815751.148820301750675 ], [ 2876848.213009797036648, 1815781.925713611533865 ], [ 2876740.396093293093145, 1815896.612829520367086 ], [ 2876713.86547845043242, 1815940.892526283394545 ], [ 2876692.069807537831366, 1816021.755873905494809 ], [ 2876705.618914724327624, 1816147.047821917803958 ], [ 2876707.73953931638971, 1816166.657328814500943 ], [ 2876703.587713316082954, 1816196.845186823746189 ], [ 2876697.320360923651606, 1816242.420666538877413 ], [ 2876752.428333501797169, 1816909.418077554786578 ], [ 2876778.811860613524914, 1816948.144042014377192 ], [ 2876808.487009474076331, 1816969.070421585347503 ], [ 2876825.12224427703768, 1816979.372236400144175 ], [ 2876870.684447309467942, 1817007.58793441997841 ], [ 2876981.625203968025744, 1817076.291223991196603 ], [ 2877007.544826867058873, 1817112.066489855526015 ], [ 2877043.284021593630314, 1817215.413737800205126 ], [ 2877044.754446812905371, 1817219.665664291242138 ], [ 2877152.905711237806827, 1817396.825818065786734 ], [ 2877173.228784318082035, 1817430.116546245990321 ], [ 2877259.847550586797297, 1817555.062181381043047 ], [ 2877292.690544939599931, 1817576.158776798285544 ], [ 2877301.613842202816159, 1817581.890690336469561 ], [ 2877358.916423453483731, 1817597.80396083323285 ], [ 2877443.654587564989924, 1817594.571944069582969 ], [ 2877520.057171371765435, 1817570.589802096830681 ], [ 2877542.38295232411474, 1817570.58648918219842 ], [ 2877614.464713737368584, 1817603.046473559690639 ], [ 2877622.395326040685177, 1817614.76270571234636 ], [ 2877627.861346365883946, 1817694.728018003050238 ], [ 2877663.076150056906044, 1817821.917920866049826 ], [ 2877672.974547221325338, 1817884.887929567601532 ], [ 2877673.297073606401682, 1817923.313119607744738 ], [ 2877673.432493103668094, 1817939.450932396575809 ], [ 2877686.51757793687284, 1817942.208740309579298 ], [ 2877708.214157067704946, 1817946.781445410102606 ], [ 2877735.359848632477224, 1817952.502632210031152 ], [ 2877820.657881424762309, 1817959.289289806038141 ], [ 2877872.228720664512366, 1817947.17403454054147 ], [ 2877877.422858870588243, 1817945.953919022576883 ], [ 2877929.158176003955305, 1817926.447849072283134 ], [ 2877989.133093740791082, 1817920.626492175739259 ], [ 2878021.267315029166639, 1817924.915860793320462 ], [ 2878028.491163502912968, 1817922.62969117728062 ], [ 2878051.236310757696629, 1817915.430801208131015 ], [ 2878086.102448273450136, 1817891.901961538707837 ], [ 2878090.921025005169213, 1817890.52505295467563 ], [ 2878105.52713414747268, 1817886.35349037614651 ], [ 2878126.903387300670147, 1817899.678799024783075 ], [ 2878165.320016426034272, 1817950.391026434255764 ], [ 2878232.54258638061583, 1818010.04505167901516 ], [ 2878273.502745632082224, 1818019.206592307891697 ], [ 2878304.273022517561913, 1818026.089299356564879 ], [ 2878312.481110299006104, 1818027.925204698229209 ], [ 2878346.780549425631762, 1818045.989658228354529 ], [ 2878432.841118518263102, 1818160.920604816405103 ], [ 2878456.868324821814895, 1818171.740684018703178 ], [ 2878521.291900431737304, 1818181.305044695269316 ], [ 2878557.07952748099342, 1818215.290779510047287 ], [ 2878589.250716890208423, 1818232.729886451736093 ], [ 2878620.361591315828264, 1818224.050323596457019 ], [ 2878655.087925856932998, 1818231.918146854033694 ], [ 2878687.20125442976132, 1818255.439260246232152 ], [ 2878783.437827746383846, 1818370.548911975929514 ], [ 2878813.849411443807185, 1818383.247562061529607 ], [ 2878868.833011787384748, 1818384.404602841706946 ], [ 2878891.351129784714431, 1818398.535249761072919 ], [ 2878997.204881239216775, 1818503.804894690634683 ], [ 2879018.949739259667695, 1818513.015827388036996 ], [ 2879055.708477952517569, 1818514.443553936202079 ], [ 2879194.525750280357897, 1818487.238769836490974 ], [ 2879421.463906799443066, 1818497.684055241988972 ], [ 2879532.044335165061057, 1818555.547366691753268 ], [ 2879551.305379998870194, 1818567.283085476839915 ], [ 2879551.305379998870194, 1807445.387119999853894 ], [ 2866967.07252, 1807445.387119999853894 ], [ 2866967.07252, 1820386.545479999156669 ], [ 2867545.197214969899505, 1820386.545479999156669 ], [ 2867544.841303353197873, 1820383.9612671143841 ] ] ], [ [ [ 2879388.976331020239741, 1819601.568416917696595 ], [ 2879267.178241786547005, 1819924.220604053232819 ], [ 2879281.925444003194571, 1819928.807540231849998 ], [ 2879551.305379998870194, 1820012.600306364241987 ], [ 2879551.305379998870194, 1819316.894800025038421 ], [ 2879388.976331020239741, 1819601.568416917696595 ] ] ] ] } },
{ "type": "Feature", "properties": { "SITE_NAME": "Cueva del Agua", "ODESIGNATE": "Zonas Especiales de Conservación", "NUT2": 43, "SITE_CODE_": "ES4310069", "DESIG_ABBR": "ES56", "SITE_CDDA": "555774225_CDDA", "Sup_ha": 3.1345751963000001 }, "geometry": { "type": "Polygon", "coordinates": [ [ [ 2875138.707470029592514, 1816910.939452346647158 ], [ 2875148.884886233601719, 1816910.528241755440831 ], [ 2875164.261090150102973, 1816906.980024524964392 ], [ 2875181.826005513779819, 1816899.155903164064512 ], [ 2875196.555600957013667, 1816889.509157947730273 ], [ 2875211.617785734124482, 1816870.579503996064886 ], [ 2875215.547643871977925, 1816854.026045797392726 ], [ 2875221.586405315436423, 1816828.60450132843107 ], [ 2875231.204728881828487, 1816789.220381538383663 ], [ 2875232.04407908488065, 1816785.782192314509302 ], [ 2875235.576425858773291, 1816763.132265622029081 ], [ 2875241.034821533598006, 1816747.190622210968286 ], [ 2875243.351312822196633, 1816741.92814168590121 ], [ 2875243.335332085378468, 1816741.840673679253086 ], [ 2875243.447773730382323, 1816741.708949949592352 ], [ 2875244.853657765779644, 1816738.515144849196076 ], [ 2875264.64186058845371, 1816705.829511771909893 ], [ 2875259.522589066531509, 1816703.409232571721077 ], [ 2875259.473866215907037, 1816703.387210600310937 ], [ 2875259.512114012613893, 1816703.324509610421956 ], [ 2875233.870013264939189, 1816692.265350991860032 ], [ 2875198.064186910632998, 1816676.822857371065766 ], [ 2875192.922914651688188, 1816685.797248620074242 ], [ 2875191.918235301505774, 1816687.550871130777523 ], [ 2875173.418815385550261, 1816705.928334970958531 ], [ 2875150.812632946763188, 1816730.758664009394124 ], [ 2875108.634800823871046, 1816772.929887577425689 ], [ 2875099.788648503366858, 1816781.774656067835167 ], [ 2875078.262330411933362, 1816805.808264252729714 ], [ 2875069.28404325293377, 1816816.12950251926668 ], [ 2875043.818910718895495, 1816845.403759759617969 ], [ 2875021.680224661715329, 1816870.688048125011846 ], [ 2875013.172061830759048, 1816880.405147553421557 ], [ 2875018.904830386862159, 1816886.139751551672816 ], [ 2875050.996316615026444, 1816918.241467440966517 ], [ 2875066.607529563829303, 1816933.857582690892741 ], [ 2875069.731509844772518, 1816931.923509440617636 ], [ 2875072.665622365660965, 1816930.106980281649157 ], [ 2875075.31682425364852, 1816928.465563633013517 ], [ 2875082.060951731167734, 1816924.290196610614657 ], [ 2875108.964001948479563, 1816916.960139999166131 ], [ 2875125.595998923759907, 1816912.518710780190304 ], [ 2875138.707470029592514, 1816910.939452346647158 ] ] ] } }
]
}
