{
"type": "FeatureCollection",
"name": "Chauchina",
"crs": { "type": "name", "properties": { "name": "urn:ogc:def:crs:EPSG::3035" } },
"features": [
{ "type": "Feature", "properties": { "SITE_NAME": "Dehesas de Santa Fé", "ODESIGNATE": "Parque Periurbano", "NUT2": 61, "SITE_CODE_": "ES614011", "DESIG_ABBR": "ES09", "SITE_CDDA": "349261_CDDA", "Sup_ha": 241.541533133 }, "geometry": { "type": "Polygon", "coordinates": [ [ [ 3096088.727281162515283, 1674886.663333833916113 ], [ 3096128.939616162329912, 1674852.175119431689382 ], [ 3096177.802305323071778, 1674811.642518969019875 ], [ 3096202.838809661567211, 1674791.901958020403981 ], [ 3096235.609844389837235, 1674763.248334002448246 ], [ 3096274.746874227654189, 1674726.928776051150635 ], [ 3096308.321310827508569, 1674696.874391590710729 ], [ 3096331.256106127519161, 1674672.95761459460482 ], [ 3096373.999162000138313, 1674631.722842417424545 ], [ 3096409.052972571924329, 1674596.365543217398226 ], [ 3096417.553162840195, 1674585.805915113771334 ], [ 3096452.748658985830843, 1674591.296041473513469 ], [ 3096494.196525202598423, 1674598.979823099682108 ], [ 3096572.263417333364487, 1674569.268548804800957 ], [ 3096578.675735383294523, 1674566.892744765151292 ], [ 3096580.588164792861789, 1674565.046584319788963 ], [ 3096636.929679966066033, 1674510.600875337375328 ], [ 3096680.686914623714983, 1674471.20888078561984 ], [ 3096685.372976902872324, 1674467.114758543903008 ], [ 3096690.886376975104213, 1674487.349557115230709 ], [ 3096758.350644391030073, 1674486.476593367755413 ], [ 3096805.184522355906665, 1674504.830529860919341 ], [ 3096966.243324284441769, 1674646.642912118928507 ], [ 3097013.677517187781632, 1674660.603656071703881 ], [ 3097073.264455747790635, 1674664.379549310309812 ], [ 3097162.38380337273702, 1674683.208494690712541 ], [ 3097242.660879852250218, 1674685.408770163543522 ], [ 3097275.253198484890163, 1674694.88399161119014 ], [ 3097283.017766556236893, 1674693.03049336746335 ], [ 3097292.12805107422173, 1674691.447804284049198 ], [ 3097297.785472872667015, 1674689.960172918159515 ], [ 3097312.589277921710163, 1674686.64340258599259 ], [ 3097409.574608811177313, 1674685.424637219170108 ], [ 3097466.215243305079639, 1674555.996775802457705 ], [ 3097534.08911003312096, 1674558.838608544087037 ], [ 3097611.940069986507297, 1674642.700056986883283 ], [ 3097692.312814010307193, 1674680.458135938737541 ], [ 3097710.703204153105617, 1674587.950995092280209 ], [ 3097732.89737506583333, 1674467.28342483821325 ], [ 3097699.394042264670134, 1674412.552993424935266 ], [ 3097702.461557103320956, 1674396.629969601519406 ], [ 3097718.034921073354781, 1674359.108203278155997 ], [ 3097726.436124417930841, 1674344.781830811407417 ], [ 3097738.575387440621853, 1674334.095033102203161 ], [ 3097753.698170552961528, 1674324.403848253889009 ], [ 3097760.710493379738182, 1674321.167300681117922 ], [ 3097767.824475298635662, 1674319.427062503993511 ], [ 3097803.510168553330004, 1674389.672939323354512 ], [ 3097811.56242320407182, 1674389.283083366462961 ], [ 3097822.033424638677388, 1674446.500970928696916 ], [ 3097824.564523619133979, 1674455.143900831928477 ], [ 3097831.375482073053718, 1674469.098256271565333 ], [ 3097850.813750758767128, 1674498.015194871462882 ], [ 3097863.971462139859796, 1674522.472839438356459 ], [ 3097869.828827961813658, 1674533.313123426632956 ], [ 3097902.827377682551742, 1674499.071717054117471 ], [ 3097924.410175099037588, 1674478.166776146041229 ], [ 3097955.796292239800096, 1674451.269692600239068 ], [ 3097981.898147263564169, 1674434.120734909083694 ], [ 3098037.174788079224527, 1674394.748358472716063 ], [ 3098054.431700711138546, 1674382.16378117329441 ], [ 3098086.319049848709255, 1674350.638448619050905 ], [ 3098116.942102102562785, 1674323.117380822310224 ], [ 3098148.726864442229271, 1674297.160733153112233 ], [ 3098172.615611162036657, 1674279.891828323947266 ], [ 3098179.973313052207232, 1674275.586319346912205 ], [ 3098173.358588277362287, 1674267.905097045004368 ], [ 3098151.072187470272183, 1674252.602040969766676 ], [ 3098130.140745389275253, 1674250.939672948559746 ], [ 3098114.048986533656716, 1674255.753087641205639 ], [ 3098099.075060442090034, 1674261.634016214404255 ], [ 3098075.598386703059077, 1674273.280641548801214 ], [ 3098030.146612737327814, 1674296.817925312789157 ], [ 3098001.376011738553643, 1674308.375196966808289 ], [ 3097980.397024356760085, 1674315.551565808709711 ], [ 3097946.635953970253468, 1674323.1820606184192 ], [ 3097866.096254161559045, 1674324.053169695660472 ], [ 3097857.344517738558352, 1674325.068897595396265 ], [ 3097854.660417549777776, 1674321.246140835108235 ], [ 3097847.301412704400718, 1674317.226463190279901 ], [ 3097829.785118994303048, 1674299.833523044595495 ], [ 3097759.764899281784892, 1674201.239950909279287 ], [ 3097761.06318452116102, 1674191.427471049595624 ], [ 3097733.629322780761868, 1674152.041619850555435 ], [ 3097737.046406634151936, 1674137.572002642322332 ], [ 3097779.092713830992579, 1674040.199494266184047 ], [ 3097779.929848921019584, 1674036.522076674504206 ], [ 3097776.904653982259333, 1674032.758581863017753 ], [ 3097765.204302818514407, 1674019.905687558930367 ], [ 3097755.617871296592057, 1674006.937993476400152 ], [ 3097745.891519799828529, 1673995.760658987564966 ], [ 3097730.759241514839232, 1673976.692308291327208 ], [ 3097715.144223062321544, 1673958.212001845939085 ], [ 3097680.751005474012345, 1673924.072117506759241 ], [ 3097664.701403193175793, 1673912.731931174872443 ], [ 3097634.945379560813308, 1673893.932925899745896 ], [ 3097590.492895589675754, 1673872.641485314816236 ], [ 3097576.937741493806243, 1673862.633978251833469 ], [ 3097562.078725893516093, 1673851.591200990835205 ], [ 3097540.726885532028973, 1673831.58508135820739 ], [ 3097525.003235799260437, 1673814.889977882150561 ], [ 3097518.554671799764037, 1673806.422926119528711 ], [ 3097510.043462273664773, 1673795.286865389440209 ], [ 3097494.702950572129339, 1673777.768443224951625 ], [ 3097478.105020885355771, 1673760.973040984477848 ], [ 3097465.563798097893596, 1673749.275584985734895 ], [ 3097428.836974795907736, 1673721.09154743514955 ], [ 3097396.371445328462869, 1673705.791215582052246 ], [ 3097361.760560146532953, 1673694.143395814113319 ], [ 3097358.558170632459223, 1673691.924575161887333 ], [ 3097326.817539833020419, 1673684.066859751706943 ], [ 3097287.638800018467009, 1673669.176127804676071 ], [ 3097261.682782221119851, 1673654.006466801278293 ], [ 3097246.392665325198323, 1673640.768265667371452 ], [ 3097234.670553078874946, 1673625.900974323507398 ], [ 3097218.997647237032652, 1673609.95406033960171 ], [ 3097203.143346979748458, 1673593.029594357591122 ], [ 3097192.030051681678742, 1673578.813636037055403 ], [ 3097125.507937402464449, 1673561.104229889577255 ], [ 3097096.055054028518498, 1673610.624567394843325 ], [ 3097018.875254225451499, 1673614.950391958234832 ], [ 3097005.006541031878442, 1673614.332201430574059 ], [ 3096969.540333248209208, 1673610.401929169427603 ], [ 3096953.296844764612615, 1673609.43963973550126 ], [ 3096937.772146778181195, 1673612.136784482980147 ], [ 3096920.974475404713303, 1673617.325828160624951 ], [ 3096910.221734883263707, 1673619.193970479536802 ], [ 3096893.671924307011068, 1673624.339667156105861 ], [ 3096872.908213476650417, 1673626.685741847380996 ], [ 3096843.921708792448044, 1673631.216947490116581 ], [ 3096822.626146250404418, 1673638.196638079127297 ], [ 3096810.844528780318797, 1673639.991268735378981 ], [ 3096803.298879155889153, 1673643.068133667111397 ], [ 3096748.496485103853047, 1673627.107772502116859 ], [ 3096713.925478898920119, 1673616.967491095187142 ], [ 3096623.030860252678394, 1673612.323936647502705 ], [ 3096605.559303306043148, 1673660.519911614479497 ], [ 3096598.533534745685756, 1673682.176375004230067 ], [ 3096596.333748358301818, 1673697.948406724026427 ], [ 3096595.442877556197345, 1673706.681088414043188 ], [ 3096597.683822839986533, 1673735.053303489927202 ], [ 3096593.25848725438118, 1673758.528749800985679 ], [ 3096584.438321261666715, 1673793.616019257577136 ], [ 3096577.985999894328415, 1673816.939167264848948 ], [ 3096574.098104358185083, 1673862.018218024866655 ], [ 3096568.680608578957617, 1673892.730449027381837 ], [ 3096565.92252652393654, 1673912.131457393290475 ], [ 3096564.843836645595729, 1673938.557753609260544 ], [ 3096564.590935709886253, 1673962.065036237007007 ], [ 3096564.045226934831589, 1673969.728601862909272 ], [ 3096562.308440519496799, 1673984.158782855141908 ], [ 3096560.801942739170045, 1673995.521614984609187 ], [ 3096530.040631146170199, 1673998.847783902660012 ], [ 3096529.649219209328294, 1673998.159003751119599 ], [ 3096522.163372421637177, 1673999.964204889489338 ], [ 3096512.363254081457853, 1673996.621301484294236 ], [ 3096502.892277404665947, 1673978.587883816333488 ], [ 3096495.624985277187079, 1673969.758613689336926 ], [ 3096492.874992760829628, 1673959.892501994967461 ], [ 3096485.79418845847249, 1673943.966667845845222 ], [ 3096476.790631318464875, 1673923.581495815655217 ], [ 3096472.114705141168088, 1673915.058885340113193 ], [ 3096463.225324733182788, 1673903.736305554630235 ], [ 3096446.215477886609733, 1673889.031204621307552 ], [ 3096432.934879353269935, 1673876.453522538300604 ], [ 3096407.411317127756774, 1673852.883450015680864 ], [ 3096389.831053827889264, 1673834.240659974049777 ], [ 3096374.924120489507914, 1673816.64727049251087 ], [ 3096362.390027325600386, 1673798.137026704614982 ], [ 3096350.037528951652348, 1673780.604215146042407 ], [ 3096339.382164946757257, 1673766.056574015878141 ], [ 3096332.497234568465501, 1673759.936252330662683 ], [ 3096325.688564490061253, 1673781.555227665463462 ], [ 3096315.227722268551588, 1673806.33151620044373 ], [ 3096308.630966519005597, 1673832.455006167991087 ], [ 3096308.89038201700896, 1673847.043055543676019 ], [ 3096313.024105730466545, 1673888.205545557662845 ], [ 3096312.773115602321923, 1673897.583982491865754 ], [ 3096311.229882914572954, 1673920.558805825421587 ], [ 3096297.220332065131515, 1673970.172118242131546 ], [ 3096293.548410729505122, 1673987.966117959469557 ], [ 3096291.765725180972368, 1673997.106209465768188 ], [ 3096288.941364931408316, 1673998.606124669779092 ], [ 3096283.892823620233685, 1674016.134830750990659 ], [ 3096022.50781689863652, 1674142.792452610097826 ], [ 3095785.721921386197209, 1674257.861701634712517 ], [ 3095701.592171201482415, 1674298.467933926032856 ], [ 3095563.375542361289263, 1674365.629957565106452 ], [ 3095362.059722086414695, 1674463.437935083871707 ], [ 3095336.777935233898461, 1674477.418848132248968 ], [ 3095250.455048797652125, 1674525.724391381256282 ], [ 3095186.100102505646646, 1674561.886356730246916 ], [ 3095068.909387296997011, 1674627.163047076901421 ], [ 3095053.610345161519945, 1674634.86802503047511 ], [ 3095032.233535789884627, 1674644.638596987584606 ], [ 3094916.660023758653551, 1674698.029141552979127 ], [ 3094884.442280529998243, 1674712.206883358070627 ], [ 3094852.903694482054561, 1674728.537332467734814 ], [ 3094798.230813601985574, 1674759.990262075792998 ], [ 3094758.407635086216033, 1674782.049736088141799 ], [ 3094724.611770494841039, 1674797.763471172889695 ], [ 3094698.815395293291658, 1674807.54566613631323 ], [ 3094669.371017722412944, 1674819.475541626336053 ], [ 3094647.631793455220759, 1674827.291115689557046 ], [ 3094623.506270349025726, 1674835.521265654591843 ], [ 3094500.279999657534063, 1674890.243803204968572 ], [ 3094516.749870433006436, 1674908.069565157638863 ], [ 3094521.043085243552923, 1674913.883296363288537 ], [ 3094534.119579594582319, 1674934.06519541144371 ], [ 3094545.32085468666628, 1674959.871075246250257 ], [ 3094550.82597517548129, 1674978.593666375381872 ], [ 3094555.480827034916729, 1675004.023901832289994 ], [ 3094559.141741965897381, 1675028.365493788383901 ], [ 3094559.467054995242506, 1675030.075065013952553 ], [ 3094585.207011004909873, 1675031.151581573998556 ], [ 3094685.134167960379273, 1675030.182304562302306 ], [ 3094811.589246340095997, 1675030.657562300097197 ], [ 3094899.453878721222281, 1675030.271643304033205 ], [ 3094949.127952638082206, 1675038.289495749864727 ], [ 3094961.11252748221159, 1675039.486485586967319 ], [ 3095095.61135930288583, 1675090.034150040242821 ], [ 3095101.919183496851474, 1675088.433166484814137 ], [ 3095163.905303311999887, 1675104.15146877290681 ], [ 3095223.724534932989627, 1675117.975551994750276 ], [ 3095294.145512449555099, 1675132.480453176423907 ], [ 3095352.229851542040706, 1675143.074341496219859 ], [ 3095368.159685356076807, 1675156.957675601122901 ], [ 3095384.159149673767388, 1675164.016786427469924 ], [ 3095396.58383947564289, 1675168.921644509071484 ], [ 3095444.617030530236661, 1675189.083679533097893 ], [ 3095492.53522559069097, 1675207.247451769886538 ], [ 3095538.428367617540061, 1675248.974799634655938 ], [ 3095571.705905663780868, 1675264.384873126400635 ], [ 3095597.768691654317081, 1675276.507257365155965 ], [ 3095637.973792040720582, 1675290.20869095204398 ], [ 3095689.844207146205008, 1675291.790922296000645 ], [ 3095729.106065309606493, 1675260.242222979431972 ], [ 3095738.601923287846148, 1675252.032326326472685 ], [ 3095772.611011037603021, 1675230.227052891394123 ], [ 3095789.733885515946895, 1675219.682575196959078 ], [ 3095806.144071906339377, 1675209.261554638156667 ], [ 3095808.193764156661928, 1675207.896367221605033 ], [ 3095829.685994593426585, 1675193.060121797723696 ], [ 3095834.462930008769035, 1675187.688703928375617 ], [ 3095839.918451334815472, 1675162.015243618981913 ], [ 3095856.534927421249449, 1675122.796404524706304 ], [ 3095870.092543113976717, 1675085.623150794999674 ], [ 3095879.669391267001629, 1675062.765663252212107 ], [ 3095884.672770705539733, 1675048.27202366781421 ], [ 3095906.400625542737544, 1675025.826054313220084 ], [ 3095947.978641307912767, 1674985.297275191172957 ], [ 3095962.565710503607988, 1674970.652216916438192 ], [ 3096013.83913752483204, 1674944.838170810369775 ], [ 3096028.004979711957276, 1674937.835229249438271 ], [ 3096049.546547722071409, 1674918.953879987122491 ], [ 3096088.727281162515283, 1674886.663333833916113 ] ] ] } },
{ "type": "Feature", "properties": { "SITE_NAME": "La Malahá", "ODESIGNATE": "Zona de Importancia Comunitaria ZIC (ZEPA/ZEC)", "NUT2": 61, "SITE_CODE_": "ES6140012", "DESIG_ABBR": "ES49", "SITE_CDDA": "555700936_CDDA", "Sup_ha": 693.35743344499997 }, "geometry": { "type": "Polygon", "coordinates": [ [ [ 3098666.599877000320703, 1672686.039301539305598 ], [ 3098673.095113813877106, 1672686.828191098989919 ], [ 3098679.638138998299837, 1672687.191398669267073 ], [ 3098686.200720728840679, 1672687.127368611749262 ], [ 3098692.754897803999484, 1672686.636314762989059 ], [ 3098699.272712236270308, 1672685.720468663144857 ], [ 3098705.726049937307835, 1672684.383703587576747 ], [ 3098706.488340008538216, 1672684.19692893489264 ], [ 3098706.965564999263734, 1672684.318278239341453 ], [ 3098706.965564999263734, 1672478.351130758645013 ], [ 3098701.868008509743959, 1672478.732971743447706 ], [ 3098695.350291450507939, 1672479.64888924639672 ], [ 3098688.896936287172139, 1672480.985646504443139 ], [ 3098682.535489258822054, 1672482.737652505049482 ], [ 3098682.4881591796875, 1672482.752330468269065 ], [ 3098680.257475974969566, 1672482.136522410670295 ], [ 3098675.45246912073344, 1672480.938346164766699 ], [ 3098669.032707314938307, 1672479.727132513886318 ], [ 3098662.537461542524397, 1672478.938237655675039 ], [ 3098655.994510223157704, 1672478.574910772964358 ], [ 3098649.431817956268787, 1672478.638955910224468 ], [ 3098642.877628607209772, 1672479.130009388783947 ], [ 3098640.76145922485739, 1672479.427374004153535 ], [ 3098636.095294096507132, 1672466.356599165825173 ], [ 3098630.337085178121924, 1672449.782199711538851 ], [ 3098629.238008192740381, 1672446.702526153298095 ], [ 3098624.374794988892972, 1672434.684911093441769 ], [ 3098618.724625076632947, 1672423.027589891804382 ], [ 3098615.569617575034499, 1672417.275802782736719 ], [ 3098615.901691005099565, 1672415.950646302197129 ], [ 3098618.631696308497339, 1672403.115717287175357 ], [ 3098620.516205660067499, 1672390.149804435670376 ], [ 3098621.348026014864445, 1672380.714244737289846 ], [ 3098621.889023328665644, 1672379.563718223012984 ], [ 3098627.07148299831897, 1672367.448075847234577 ], [ 3098627.328677077777684, 1672366.719835000578314 ], [ 3098201.074616333469748, 1672366.719835000578314 ], [ 3098200.551470346748829, 1672370.319504921790212 ], [ 3098199.520699930377305, 1672383.360830456251279 ], [ 3098199.348019916564226, 1672396.421757490141317 ], [ 3098199.358743524178863, 1672396.935166485374793 ], [ 3098199.842661288566887, 1672418.660951358964667 ], [ 3098196.530823062174022, 1672440.830117968143895 ], [ 3098195.57888257317245, 1672448.113483769120649 ], [ 3098194.548135002143681, 1672461.154819275252521 ], [ 3098194.375492241233587, 1672474.215854115085676 ], [ 3098195.061618517152965, 1672487.24036394385621 ], [ 3098196.603623205795884, 1672500.172842745203525 ], [ 3098198.99484140984714, 1672512.957733656046912 ], [ 3098202.225197662599385, 1672525.540475826477632 ], [ 3098206.280634958762676, 1672537.867099055554718 ], [ 3098211.143914137035608, 1672549.884791332762688 ], [ 3098216.794232273474336, 1672561.54206603532657 ], [ 3098222.372518201358616, 1672571.419802518794313 ], [ 3098222.381848212331533, 1672571.445530100492761 ], [ 3098227.245118219405413, 1672583.463127886177972 ], [ 3098231.669876212254167, 1672592.753969337558374 ], [ 3098231.283073090016842, 1672593.578112324001268 ], [ 3098226.100745118223131, 1672605.69386997888796 ], [ 3098221.718400460667908, 1672618.102911842055619 ], [ 3098218.154562194831669, 1672630.751966589130461 ], [ 3098217.582374162971973, 1672633.130814753007144 ], [ 3098214.520963679067791, 1672646.205564482137561 ], [ 3098212.363275204785168, 1672656.661735854344442 ], [ 3098210.478899912908673, 1672669.627733297878876 ], [ 3098209.448198545258492, 1672682.668995954096317 ], [ 3098209.275615441612899, 1672695.730055595748127 ], [ 3098209.961814570240676, 1672708.754687760258093 ], [ 3098211.503859957680106, 1672721.68709142296575 ], [ 3098213.895245768595487, 1672734.472085611429065 ], [ 3098217.125538680702448, 1672747.054767839144915 ], [ 3098221.181039098650217, 1672759.381509354570881 ], [ 3098221.997497044503689, 1672761.568934902781621 ], [ 3098222.467796147800982, 1672768.46161403413862 ], [ 3098224.009870676323771, 1672781.394122004276142 ], [ 3098226.401155844330788, 1672794.179041059454903 ], [ 3098229.631575899198651, 1672806.761810248019174 ], [ 3098231.621160147711635, 1672813.154483183519915 ], [ 3098233.161923750769347, 1672828.473067308310419 ], [ 3098236.827780722174793, 1672851.320514695020393 ], [ 3098240.05811414308846, 1672863.903306693537161 ], [ 3098244.113722843118012, 1672876.229943914571777 ], [ 3098248.977069866843522, 1672888.247665879316628 ], [ 3098254.627451159991324, 1672899.904968621674925 ], [ 3098256.770141330547631, 1672903.860992983682081 ], [ 3098256.632882075384259, 1672904.292026021750644 ], [ 3098253.456658122129738, 1672915.398320558713749 ], [ 3098243.961405877023935, 1672952.586167801171541 ], [ 3098243.573973088525236, 1672954.128943478688598 ], [ 3098240.844086239114404, 1672966.964016558369622 ], [ 3098240.510348688345402, 1672968.884478096384555 ], [ 3098234.16450409591198, 1672976.165686821565032 ], [ 3098226.037651856429875, 1672986.605677782325074 ], [ 3098218.60218398552388, 1672997.536738106282428 ], [ 3098211.890128239057958, 1673008.912030321313068 ], [ 3098205.930275761988014, 1673020.682857101783156 ], [ 3098200.748081924859434, 1673032.798678469611332 ], [ 3098196.365870739333332, 1673045.207782735815272 ], [ 3098192.802164709195495, 1673057.856898303842172 ], [ 3098190.07230093004182, 1673070.691894009942189 ], [ 3098188.400299140252173, 1673081.839717103168368 ], [ 3098186.534540521912277, 1673097.215456155361608 ], [ 3098186.322291514836252, 1673099.033685659524053 ], [ 3098185.291730847675353, 1673112.075101330410689 ], [ 3098185.119254920631647, 1673125.136114826658741 ], [ 3098185.805572285316885, 1673138.160796372918412 ], [ 3098186.282661340199411, 1673143.013727822806686 ], [ 3098191.828645266592503, 1673193.059117554686964 ], [ 3098195.285130308941007, 1673213.92369901551865 ], [ 3098198.515552898868918, 1673226.506524204509333 ], [ 3098202.571146439760923, 1673238.83320833160542 ], [ 3098203.338919217232615, 1673240.892560618696734 ], [ 3098193.787647107150406, 1673264.394423227058724 ], [ 3098192.719482534565032, 1673267.077011958695948 ], [ 3098188.337343648076057, 1673279.48614931688644 ], [ 3098184.773709268309176, 1673292.135297239059582 ], [ 3098182.044030381366611, 1673304.970405501313508 ], [ 3098181.062920035794377, 1673310.980720962630585 ], [ 3098175.67638978920877, 1673347.45519384695217 ], [ 3098174.773225017357618, 1673354.410981147782877 ], [ 3098173.742723676376045, 1673367.452330762753263 ], [ 3098173.570335112512112, 1673380.513473353115842 ], [ 3098174.256722462363541, 1673393.538184117292985 ], [ 3098175.798948944546282, 1673406.470661680912599 ], [ 3098178.190408789552748, 1673419.255741989472881 ], [ 3098178.902801577467471, 1673422.351236107293516 ], [ 3098177.319656767882407, 1673444.848765431204811 ], [ 3098177.039247149601579, 1673449.66465090517886 ], [ 3098176.866881002672017, 1673462.725802871631458 ], [ 3098177.553275030106306, 1673475.750424357829615 ], [ 3098179.095537471584976, 1673488.683008884312585 ], [ 3098181.487116517499089, 1673501.468080210033804 ], [ 3098184.717593057081103, 1673514.050833818269894 ], [ 3098188.773350834846497, 1673526.37752513634041 ], [ 3098193.636837217956781, 1673538.395295144058764 ], [ 3098199.28734755795449, 1673550.052639666944742 ], [ 3098205.700574500951916, 1673561.299790408462286 ], [ 3098212.849257009103894, 1673572.088299443479627 ], [ 3098220.702453325036913, 1673582.372275587636977 ], [ 3098224.511527109891176, 1673586.885683537693694 ], [ 3098240.049068736378103, 1673604.735219193855301 ], [ 3098240.057923727668822, 1673604.755176393315196 ], [ 3098245.708459149114788, 1673616.412628401070833 ], [ 3098249.901848141103983, 1673623.960955025628209 ], [ 3098258.903143542818725, 1673639.344956358894706 ], [ 3098264.603672190569341, 1673657.394557304214686 ], [ 3098267.448343448340893, 1673665.73924544127658 ], [ 3098272.311853339895606, 1673677.757032093359157 ], [ 3098273.179550772532821, 1673679.682278045685962 ], [ 3098297.263995105400681, 1673732.361462050583214 ], [ 3098302.046837515197694, 1673742.093583220848814 ], [ 3098302.924358167219907, 1673743.740310513880104 ], [ 3098305.070956599898636, 1673747.722227758262306 ], [ 3098315.370476952753961, 1673774.917390329530463 ], [ 3098319.497717211954296, 1673784.958658464252949 ], [ 3098325.148267670534551, 1673796.616032671649009 ], [ 3098331.561532153282315, 1673807.863214144483209 ], [ 3098333.863435271196067, 1673811.511475019156933 ], [ 3098352.093565900344402, 1673839.703092744108289 ], [ 3098356.940382610075176, 1673846.843375341966748 ], [ 3098364.793728572316468, 1673857.12746932101436 ], [ 3098373.318131341598928, 1673866.862686439184472 ], [ 3098382.477126554585993, 1673876.007626672741026 ], [ 3098392.231416492722929, 1673884.522996792336926 ], [ 3098402.539402076974511, 1673892.372426240239292 ], [ 3098413.356825226917863, 1673899.522125527262688 ], [ 3098417.649820126593113, 1673902.08283586287871 ], [ 3098434.308930101804435, 1673911.732562051387504 ], [ 3098441.29648047639057, 1673915.591217346023768 ], [ 3098452.991803785786033, 1673921.253021697048098 ], [ 3098465.051839476451278, 1673926.132757289567962 ], [ 3098472.489361990708858, 1673928.691972986096516 ], [ 3098487.114765831734985, 1673944.340720829553902 ], [ 3098487.256398684345186, 1673944.492019531317055 ], [ 3098496.415287354961038, 1673953.636904617073014 ], [ 3098506.169698946177959, 1673962.152383371721953 ], [ 3098513.097195724025369, 1673967.546332248020917 ], [ 3098513.014208787120879, 1673978.400809477316216 ], [ 3098513.70070240041241, 1673991.425470890011638 ], [ 3098514.067374446429312, 1673995.256666354369372 ], [ 3098519.701584449503571, 1674048.632157308515161 ], [ 3098523.268853335641325, 1674070.518641661852598 ], [ 3098526.499433259479702, 1674083.101455908501521 ], [ 3098530.555305252783, 1674095.428310677176341 ], [ 3098535.418970309197903, 1674107.446034546243027 ], [ 3098537.573437790386379, 1674112.128785039531067 ], [ 3098565.530981910880655, 1674170.825363759184256 ], [ 3098569.027020875364542, 1674177.800052507547662 ], [ 3098572.022042854689062, 1674183.270905294688419 ], [ 3098584.284322047606111, 1674204.836971225915477 ], [ 3098591.538146140053868, 1674221.451019105967134 ], [ 3098605.980859394185245, 1674265.118151812348515 ], [ 3098608.016216985881329, 1674270.959336277795956 ], [ 3098609.321724459528923, 1674274.420302621088922 ], [ 3098622.540065375156701, 1674308.478160816244781 ], [ 3098639.915588266216218, 1674353.376681690802798 ], [ 3098643.541848407592624, 1674362.109551340341568 ], [ 3098649.192506059072912, 1674373.76709607988596 ], [ 3098655.6059410860762, 1674385.014237377326936 ], [ 3098662.754555427934974, 1674395.802988979499787 ], [ 3098670.60805584769696, 1674406.087043760344386 ], [ 3098679.132636691443622, 1674415.822420264594257 ], [ 3098688.052803108468652, 1674424.74402270000428 ], [ 3098706.965564999263734, 1674442.46370108355768 ], [ 3098706.965564999263734, 1673596.990253666881472 ], [ 3098689.431238777004182, 1673584.765403489815071 ], [ 3098679.97505609318614, 1673578.573464528424665 ], [ 3098670.141043960116804, 1673572.922158197965473 ], [ 3098666.553668681997806, 1673565.755174647783861 ], [ 3098665.676056435331702, 1673564.108460665680468 ], [ 3098660.448135293088853, 1673554.410434860736132 ], [ 3098643.978682172484696, 1673518.386680016294122 ], [ 3098635.316593008115888, 1673490.959750044625252 ], [ 3098632.471853376831859, 1673482.614978633122519 ], [ 3098627.608424509875476, 1673470.597280616173521 ], [ 3098621.957940234337002, 1673458.939803141634911 ], [ 3098617.764583825133741, 1673451.391455441713333 ], [ 3098607.351177591830492, 1673433.593735276022926 ], [ 3098606.050241129472852, 1673429.849540148628876 ], [ 3098604.951079907827079, 1673426.76964945322834 ], [ 3098600.087660741992295, 1673414.751957818865776 ], [ 3098594.437185613438487, 1673403.094486979069188 ], [ 3098588.02402108348906, 1673391.847398854792118 ], [ 3098585.639608196914196, 1673388.071480700513348 ], [ 3098584.959746044129133, 1673375.364662656793371 ], [ 3098583.417457519099116, 1673362.432118938770145 ], [ 3098583.364278465509415, 1673362.086433714954183 ], [ 3098586.986892129760236, 1673353.173002382274717 ], [ 3098588.055064536631107, 1673350.490428811637685 ], [ 3098592.437243616208434, 1673338.081358725903556 ], [ 3098596.000925150699914, 1673325.432274245889857 ], [ 3098598.389447243884206, 1673314.45480226026848 ], [ 3098608.169270977377892, 1673262.583849012851715 ], [ 3098608.510483730584383, 1673260.726272539701313 ], [ 3098610.394642351195216, 1673247.760267746634781 ], [ 3098611.425235125236213, 1673234.718976982403547 ], [ 3098611.597718424163759, 1673221.657885342603549 ], [ 3098610.911428056191653, 1673208.633217016700655 ], [ 3098609.369398846291006, 1673195.700755639234558 ], [ 3098607.224811570718884, 1673184.045279223937541 ], [ 3098601.407716041430831, 1673157.042685605585575 ], [ 3098601.386270741000772, 1673156.943072485271841 ], [ 3098603.117714565247297, 1673154.259553487645462 ], [ 3098609.829790784046054, 1673142.884339777519926 ], [ 3098615.789572378154844, 1673131.113607533974573 ], [ 3098620.971802113112062, 1673118.997861208627 ], [ 3098625.354155654553324, 1673106.588811416877434 ], [ 3098628.917911726981401, 1673093.939763172296807 ], [ 3098631.647732662968338, 1673081.104846682865173 ], [ 3098633.532046031206846, 1673068.138850159710273 ], [ 3098634.171716977842152, 1673061.403267394052818 ], [ 3098636.955517072230577, 1673025.672383253462613 ], [ 3098637.937136583961546, 1673021.828083197353408 ], [ 3098646.68207997456193, 1673002.125026335474104 ], [ 3098650.278039617463946, 1672993.49470984027721 ], [ 3098654.660336592234671, 1672981.085699815070257 ], [ 3098658.224134790711105, 1672968.436673178570345 ], [ 3098660.954081331845373, 1672955.601661738008261 ], [ 3098662.576088008470833, 1672944.863235131604597 ], [ 3098667.850413870532066, 1672902.137077142251655 ], [ 3098668.11276345141232, 1672899.909527684794739 ], [ 3098669.143363872077316, 1672886.868302344577387 ], [ 3098669.316050068475306, 1672873.80723868845962 ], [ 3098668.629859919659793, 1672860.782612395007163 ], [ 3098667.902100185863674, 1672853.775914023630321 ], [ 3098661.2606305135414, 1672799.32196161756292 ], [ 3098658.05510722193867, 1672780.611241386970505 ], [ 3098654.824846033006907, 1672768.028546733781695 ], [ 3098650.769279351457953, 1672755.701801866292953 ], [ 3098645.906003261916339, 1672743.684160609263927 ], [ 3098640.255660682916641, 1672732.026733953505754 ], [ 3098633.842518442310393, 1672720.779700855957344 ], [ 3098627.92440037894994, 1672711.739690960152075 ], [ 3098628.026785814203322, 1672700.358581679873168 ], [ 3098628.022459472063929, 1672700.276380914263427 ], [ 3098629.314097333233804, 1672699.832073400495574 ], [ 3098650.703645243309438, 1672691.740572680952027 ], [ 3098651.048047450836748, 1672691.609617138281465 ], [ 3098657.144142891280353, 1672689.051244399510324 ], [ 3098663.068298078142107, 1672686.105449754511937 ], [ 3098663.99579384829849, 1672685.600458839675412 ], [ 3098666.599877000320703, 1672686.039301539305598 ] ] ] } }
]
}
