{
"type": "FeatureCollection",
"name": "Hornos",
"crs": { "type": "name", "properties": { "name": "urn:ogc:def:crs:EPSG::3035" } },
"features": [
{ "type": "Feature", "properties": { "SITE_NAME": "Sierras de Cazorla, Segura y las Villas", "ODESIGNATE": "Parque Natural", "NUT2": 61, "SITE_CODE_": "ES616001", "DESIG_ABBR": "ES10", "SITE_CDDA": "349404_CDDA", "Sup_ha": 209674.3063 }, "geometry": { "type": "Polygon", "coordinates": [ [ [ 3190882.417931095696986, 1777194.553968485444784 ], [ 3190898.914183194283396, 1777181.447953496361151 ], [ 3190915.951318550854921, 1777166.108511971775442 ], [ 3190941.764863827265799, 1777157.408211475703865 ], [ 3190964.731206495314837, 1777158.153749236138538 ], [ 3190983.228944600559771, 1777157.961478232173249 ], [ 3191016.459420743398368, 1777152.691067059291527 ], [ 3191057.672291358932853, 1777140.464148513972759 ], [ 3191085.711502883117646, 1777132.209225358441472 ], [ 3191107.85344593366608, 1777121.999794077128172 ], [ 3191133.80948299728334, 1777105.974814624991268 ], [ 3191152.567266467027366, 1777093.348552686395124 ], [ 3191178.430000367574394, 1777079.490285709965974 ], [ 3191204.515223941765726, 1777066.876242451136932 ], [ 3191227.609036036767066, 1777062.905009034322575 ], [ 3191256.414982833433896, 1777065.231514538172632 ], [ 3191269.195286111906171, 1777069.859483398729935 ], [ 3191287.703713847789913, 1777083.791520605329424 ], [ 3191303.298257464542985, 1777098.224708490539342 ], [ 3191320.686770257540047, 1777113.207697308855131 ], [ 3191334.474185853730887, 1777121.529766075545922 ], [ 3191355.971023651771247, 1777126.799477289896458 ], [ 3191386.780441388487816, 1777125.358599846251309 ], [ 3191424.213558143004775, 1777124.909346583299339 ], [ 3191457.115950074978173, 1777128.662041819654405 ], [ 3191479.603912999853492, 1777129.076269591925666 ], [ 3191503.520319296512753, 1777124.963761107530445 ], [ 3191530.020363921299577, 1777112.268439978826791 ], [ 3191550.058033754583448, 1777096.857649205485359 ], [ 3191569.439881085418165, 1777077.258213852299377 ], [ 3191582.957032169215381, 1777058.687480385880917 ], [ 3191599.731686596758664, 1777030.559921006439254 ], [ 3191648.142307584173977, 1776955.937279511941597 ], [ 3191657.656528105027974, 1776933.773663016036153 ], [ 3191699.806002383120358, 1776857.673285459866747 ], [ 3191719.282674041111022, 1776835.917036871658638 ], [ 3191734.39822606742382, 1776815.817166127031669 ], [ 3191734.400156913325191, 1776815.814511795761064 ], [ 3191740.940576415508986, 1776807.117490894859657 ], [ 3191741.817652151919901, 1776805.951115033123642 ], [ 3191786.006969380192459, 1776746.655858640326187 ], [ 3191786.154236827045679, 1776746.458179562585428 ], [ 3191787.880250113084912, 1776744.142186084762216 ], [ 3191807.151613168884069, 1776718.150340265594423 ], [ 3191820.411277536768466, 1776697.907601853599772 ], [ 3191836.389363873749971, 1776672.926292155869305 ], [ 3191836.220236063934863, 1776678.279105644673109 ], [ 3191835.576125320512801, 1776698.669117512647063 ], [ 3191835.564230221323669, 1776699.045969870639965 ], [ 3191835.288967865053564, 1776707.758795080939308 ], [ 3191839.294241087511182, 1776736.574024114292115 ], [ 3191856.157303621526808, 1776750.789264488965273 ], [ 3191885.824985476210713, 1776767.084013400133699 ], [ 3191914.253526588436216, 1776781.017044760519639 ], [ 3191939.524559950921685, 1776796.775402973638847 ], [ 3191965.252761472016573, 1776809.890490872319788 ], [ 3191999.288220263551921, 1776823.69755271403119 ], [ 3192025.303846433758736, 1776830.361647232435644 ], [ 3192063.334657249040902, 1776831.082418479491025 ], [ 3192102.123179136775434, 1776828.270313488552347 ], [ 3192130.119470797013491, 1776833.725593728478998 ], [ 3192155.094176175072789, 1776836.277433567913249 ], [ 3192187.190660455729812, 1776832.031160809798166 ], [ 3192225.305682028178126, 1776810.927855222020298 ], [ 3192242.829287920147181, 1776801.513387914747 ], [ 3192271.118385880254209, 1776800.486445629736409 ], [ 3192294.134987812489271, 1776807.23223112965934 ], [ 3192314.857714625541121, 1776818.63318395242095 ], [ 3192333.335151080507785, 1776835.135723574087024 ], [ 3192346.669787259306759, 1776851.674248395022005 ], [ 3192355.798957536928356, 1776868.915678242687136 ], [ 3192366.365844621323049, 1776898.319246709812433 ], [ 3192382.974929159507155, 1776930.551174206193537 ], [ 3192397.545510668773204, 1776946.857043812749907 ], [ 3192406.065480902791023, 1776951.578036229126155 ], [ 3192428.183028527069837, 1776963.833573252428323 ], [ 3192442.832697950303555, 1776969.357845075428486 ], [ 3192464.781490228604525, 1776977.634546080604196 ], [ 3192465.001180766150355, 1776977.743590495083481 ], [ 3192475.667168637737632, 1776983.036918637575582 ], [ 3192475.726552905514836, 1776983.06639138655737 ], [ 3192509.600126101635396, 1776999.877204885706306 ], [ 3192531.406455512158573, 1777018.372014912776649 ], [ 3192550.762041025795043, 1777043.275969462003559 ], [ 3192561.089520466513932, 1777065.450894700363278 ], [ 3192570.237558925524354, 1777091.26152190961875 ], [ 3192589.588683273177594, 1777146.952427196316421 ], [ 3192600.062436147592962, 1777178.522788571193814 ], [ 3192609.795265121385455, 1777208.059840314323083 ], [ 3192619.796656686346978, 1777253.393001861171797 ], [ 3192630.635406663641334, 1777309.699431979795918 ], [ 3192641.562723758630455, 1777349.75428442354314 ], [ 3192655.019128400366753, 1777397.896396476775408 ], [ 3192792.485585826914757, 1777277.612404701532796 ], [ 3192841.094683796167374, 1777235.026190354954451 ], [ 3192923.389739309437573, 1777162.274286481551826 ], [ 3193058.348399940878153, 1777042.413168866187334 ], [ 3193115.129486043937504, 1776994.161790698766708 ], [ 3193143.299679005518556, 1776986.754349967464805 ], [ 3193161.164584887214005, 1776982.390807630959898 ], [ 3193188.907071530353278, 1776969.503626988502219 ], [ 3193201.679998022504151, 1776960.027818677946925 ], [ 3193221.736411891877651, 1776942.030124250333756 ], [ 3193235.088671228382736, 1776930.76853880379349 ], [ 3193264.595163975842297, 1776912.428709778934717 ], [ 3193295.609876744449139, 1776901.099463065387681 ], [ 3193325.996592774987221, 1776905.296431332360953 ], [ 3193354.442019746173173, 1776913.663998894626275 ], [ 3193380.039975934661925, 1776920.390652754111215 ], [ 3193414.362960721366107, 1776927.747871218714863 ], [ 3193439.049913815688342, 1776943.35905995988287 ], [ 3193439.062519612722099, 1776943.362951428396627 ], [ 3193470.166863915510476, 1776963.763636380666867 ], [ 3193515.393320225179195, 1776994.459053670521826 ], [ 3193570.479263606481254, 1777024.762237753020599 ], [ 3193602.58430711273104, 1777033.439856149256229 ], [ 3193554.242782116867602, 1777034.176928736967966 ], [ 3193528.361152164638042, 1777049.227846960304305 ], [ 3193527.552368530072272, 1777065.017337552038953 ], [ 3193534.144318004138768, 1777085.088038441725075 ], [ 3193561.025647271424532, 1777169.321447212481871 ], [ 3193604.501124534755945, 1777185.071416214341298 ], [ 3193752.217937773093581, 1777154.126050646416843 ], [ 3193791.080343856476247, 1777165.115525683853775 ], [ 3193900.228239513933659, 1777264.488902797224 ], [ 3193973.751577937509865, 1777259.423426993191242 ], [ 3193974.036547793075442, 1777286.636428337544203 ], [ 3194065.923346958123147, 1777274.880616978975013 ], [ 3194067.949387597385794, 1777299.774946328951046 ], [ 3194117.531877984758466, 1777351.834318602690473 ], [ 3194096.786682677455246, 1777372.565177256474271 ], [ 3194306.163530777208507, 1777411.79859579494223 ], [ 3194446.731138725765049, 1777511.830493487184867 ], [ 3194484.581855402328074, 1777519.030635842122138 ], [ 3194486.143060105852783, 1777517.115895263152197 ], [ 3194487.793271169997752, 1777519.641485781176016 ], [ 3194530.822883381508291, 1777585.498684291029349 ], [ 3194706.461138037964702, 1777540.887209494831041 ], [ 3194721.600671761203557, 1777594.566365398000926 ], [ 3194740.266856150701642, 1777660.749574881745502 ], [ 3194756.735535172279924, 1777719.140756086446345 ], [ 3194840.430264754220843, 1777809.455381415551528 ], [ 3195000.565071837976575, 1777884.419419013196602 ], [ 3195018.675252591259778, 1777909.594435090897605 ], [ 3194941.174002197571099, 1777894.06088793836534 ], [ 3194962.85158596932888, 1778024.178789815865457 ], [ 3195037.941598699428141, 1778102.640217685839161 ], [ 3195048.813659241423011, 1778052.684385869652033 ], [ 3194989.794188850559294, 1777996.924958725925535 ], [ 3195030.618698525708169, 1777955.629263799870387 ], [ 3195067.178647487889975, 1777941.331802541157231 ], [ 3195100.945238163229078, 1777954.682774628978223 ], [ 3195106.739753820002079, 1777956.973875439725816 ], [ 3195208.200212441384792, 1777951.559795214794576 ], [ 3195242.358353080227971, 1777914.700268374290317 ], [ 3195316.430918149650097, 1778037.818003070773557 ], [ 3195365.586861905641854, 1778101.100617051823065 ], [ 3195400.510757355950773, 1778105.822198162088171 ], [ 3195472.815820114687085, 1778192.547045209445059 ], [ 3195501.875102918129414, 1778103.61567530920729 ], [ 3195587.791573882102966, 1778030.75621810532175 ], [ 3195527.877830456476659, 1777992.98342598346062 ], [ 3195464.954833649098873, 1778003.212528635980561 ], [ 3195467.236689198762178, 1778050.192764344625175 ], [ 3195416.702627533115447, 1778013.113753785612062 ], [ 3195340.452886967919767, 1777996.361773769836873 ], [ 3195287.688264687079936, 1777940.845329090254381 ], [ 3195321.11626260727644, 1777928.161802847869694 ], [ 3195325.9229731047526, 1777926.338007100624964 ], [ 3195327.835585318505764, 1777925.612320021959022 ], [ 3195332.904232899658382, 1777923.689190996810794 ], [ 3195359.039047268219292, 1777897.848120417678729 ], [ 3195369.591309746727347, 1777887.414452216820791 ], [ 3195373.782102242577821, 1777883.270697041414678 ], [ 3195376.183504763990641, 1777869.29238095972687 ], [ 3195378.713876677211374, 1777854.562799788545817 ], [ 3195382.294285258278251, 1777833.720784072065726 ], [ 3195380.23775717895478, 1777759.271979144541547 ], [ 3195380.538716778624803, 1777688.156844490207732 ], [ 3195380.551910360343754, 1777685.038542460417375 ], [ 3195357.660350123886019, 1777650.603951914003119 ], [ 3195357.901639598421752, 1777650.315919920569286 ], [ 3195393.915894808713347, 1777607.332683389773592 ], [ 3195393.979574870318174, 1777607.256716057192534 ], [ 3195394.056303213816136, 1777607.230405033566058 ], [ 3195434.486270785797387, 1777593.360688056098297 ], [ 3195443.259784854948521, 1777590.350838286103681 ], [ 3195443.448509897105396, 1777590.286097886273637 ], [ 3195443.588462726213038, 1777590.439553672680631 ], [ 3195595.072167915292084, 1777756.579626711318269 ], [ 3195639.822761119809002, 1777766.759885683190078 ], [ 3195648.432385410182178, 1777764.74936033017002 ], [ 3195704.783614939078689, 1777751.590185574954376 ], [ 3195715.587677492294461, 1777736.687602560734376 ], [ 3195724.228509505279362, 1777724.768825348932296 ], [ 3195742.352775438223034, 1777646.184833821840584 ], [ 3195825.76696019526571, 1777723.350557094207034 ], [ 3195831.067964708898216, 1777539.532772053265944 ], [ 3195868.059991675894707, 1777487.107714067678899 ], [ 3195889.826021207962185, 1777497.222390779294074 ], [ 3195915.905757056549191, 1777509.341641824459657 ], [ 3195930.871047541964799, 1777534.82084826589562 ], [ 3195968.503851625137031, 1777527.405066013336182 ], [ 3195996.218950664158911, 1777539.621501757763326 ], [ 3195990.529907718300819, 1777509.607795923249796 ], [ 3195986.692308861762285, 1777489.361898905364797 ], [ 3195969.478355683386326, 1777398.545799610670656 ], [ 3195968.593832426704466, 1777393.879531993996352 ], [ 3195972.546301199123263, 1777397.277650965144858 ], [ 3196087.227678474970162, 1777495.874768332578242 ], [ 3196088.179146504960954, 1777496.692809849511832 ], [ 3196092.464378920849413, 1777500.377059240825474 ], [ 3196173.791778900660574, 1777451.674418160924688 ], [ 3196223.576178340706974, 1777495.2144758424256 ], [ 3196297.582815977279097, 1777675.385123084299266 ], [ 3196322.596694064792246, 1777704.406921980902553 ], [ 3196333.738701748661697, 1777710.065162130864337 ], [ 3196333.792688023298979, 1777710.041145050199702 ], [ 3196405.770359574817121, 1777677.9999429800082 ], [ 3196423.119287807494402, 1777674.009819570695981 ], [ 3196440.509797398000956, 1777671.526794643141329 ], [ 3196448.91764163505286, 1777670.586987192276865 ], [ 3196448.952027952298522, 1777670.563207760918885 ], [ 3196496.523793382570148, 1777637.623459481168538 ], [ 3196499.636492820456624, 1777636.60008350154385 ], [ 3196536.324040702078491, 1777624.538325155153871 ], [ 3196569.632407270371914, 1777613.587564820889384 ], [ 3196591.835029820911586, 1777606.288091319380328 ], [ 3196620.197893712669611, 1777650.570291445357725 ], [ 3196680.63419918064028, 1777617.145409614080563 ], [ 3196728.452351952902973, 1777610.949529113713652 ], [ 3196759.029261926654726, 1777613.773786395089701 ], [ 3196822.830810190644115, 1777624.015829094918445 ], [ 3196841.001518753357232, 1777696.102390277199447 ], [ 3196841.004634076729417, 1777696.114678096026182 ], [ 3196746.725688635371625, 1777729.476652141194791 ], [ 3196730.724067319650203, 1777709.003126312978566 ], [ 3196685.472467932850122, 1777727.367207363247871 ], [ 3196685.421144727151841, 1777727.388040185905993 ], [ 3196673.063654971774668, 1777767.879010189790279 ], [ 3196683.939692998770624, 1777784.184776353882626 ], [ 3196685.247671359218657, 1777801.124589707469568 ], [ 3196682.452981331385672, 1777832.904931667260826 ], [ 3196678.2489327006042, 1777840.695043348707259 ], [ 3196666.323591968044639, 1777857.384298781631514 ], [ 3196659.35850210301578, 1777862.114860580069944 ], [ 3196655.420374849811196, 1777873.897957644192502 ], [ 3196755.681070934515446, 1777920.787456326652318 ], [ 3196859.841315316036344, 1777968.016815138515085 ], [ 3196945.920368639286608, 1778006.236658803885803 ], [ 3196963.373554944992065, 1778086.032159836031497 ], [ 3196959.68830572348088, 1778120.489751114044338 ], [ 3197031.982742893509567, 1778127.774768911767751 ], [ 3197055.738117096014321, 1778130.168594826944172 ], [ 3197054.02268604002893, 1778129.458356078714132 ], [ 3197255.756358551327139, 1778156.331785646732897 ], [ 3197262.930454358458519, 1778157.287431840086356 ], [ 3197293.136419990099967, 1778161.311316929757595 ], [ 3197314.264710849616677, 1778118.856302133994177 ], [ 3197286.664375980384648, 1778030.630507637513801 ], [ 3197298.052072837017477, 1778027.195934345712885 ], [ 3197319.590787924360484, 1778020.69978854781948 ], [ 3197362.951642024330795, 1778024.616346962749958 ], [ 3197363.794626386836171, 1778024.692452205577865 ], [ 3197380.74296781886369, 1778026.223361679585651 ], [ 3197380.949925604276359, 1777971.689867545384914 ], [ 3197473.928512990940362, 1777932.208616273477674 ], [ 3197543.500711570493877, 1777999.33261589333415 ], [ 3197645.933239527978003, 1777949.144886912312359 ], [ 3197684.748364173807204, 1777844.701929424423724 ], [ 3197638.687213741242886, 1777786.896393368486315 ], [ 3197696.478443349245936, 1777741.815254670102149 ], [ 3197697.382216485682875, 1777741.110237623332068 ], [ 3197715.103141475468874, 1777727.286675073439255 ], [ 3197734.458332709036767, 1777754.760437693679705 ], [ 3197754.388563508167863, 1777783.050406555412337 ], [ 3197851.554205778520554, 1777658.967812638962641 ], [ 3197822.191441738512367, 1777604.705377046717331 ], [ 3197884.980683756992221, 1777488.131028997944668 ], [ 3197945.104617795906961, 1777375.220596955390647 ], [ 3197841.585493777878582, 1777426.661707447376102 ], [ 3197776.553630733862519, 1777476.300932521000504 ], [ 3197710.599791884422302, 1777614.256391671486199 ], [ 3197701.063075812533498, 1777622.537430100608617 ], [ 3197590.940985694527626, 1777718.160182589897886 ], [ 3197587.638070974498987, 1777714.996373834321275 ], [ 3197533.056784990243614, 1777662.714156413683668 ], [ 3197512.125594512093812, 1777642.664681942667812 ], [ 3197530.73924943106249, 1777628.107929934049025 ], [ 3197541.525556321255863, 1777594.955783889861777 ], [ 3197547.204944079741836, 1777580.854448069818318 ], [ 3197578.082159694284201, 1777552.832751438720152 ], [ 3197596.796795608475804, 1777494.590817726450041 ], [ 3197595.7815259587951, 1777478.105620759306476 ], [ 3197598.647874128539115, 1777457.924727886915207 ], [ 3197607.043433294165879, 1777446.385801255702972 ], [ 3197615.587455697357655, 1777436.840834134025499 ], [ 3197615.61376991122961, 1777436.825409510405734 ], [ 3197642.385189648717642, 1777421.131230920320377 ], [ 3197642.391517519485205, 1777421.112878471845761 ], [ 3197647.713401992805302, 1777405.575767593691126 ], [ 3197620.612534354440868, 1777351.670112610794604 ], [ 3197620.670449930243194, 1777351.634619443211704 ], [ 3197637.781420459039509, 1777341.148488826816902 ], [ 3197637.775337583385408, 1777341.138730162987486 ], [ 3197618.053907814901322, 1777309.703507952159271 ], [ 3197595.72523001069203, 1777317.072945795953274 ], [ 3197588.641844401601702, 1777281.436701247468591 ], [ 3197588.703448657877743, 1777281.43833635863848 ], [ 3197639.748809085227549, 1777282.754576928447932 ], [ 3197639.746226789895445, 1777282.707464769948274 ], [ 3197633.092386523727328, 1777163.484022001503035 ], [ 3197629.741691892500967, 1777103.443496854277328 ], [ 3197693.565796703100204, 1777062.832235924201086 ], [ 3197745.249868261162192, 1777114.057060676859692 ], [ 3197806.655791947618127, 1777129.956744349794462 ], [ 3197812.079441785812378, 1777100.733730818843469 ], [ 3197812.087184825912118, 1777100.692215889226645 ], [ 3197812.113746648654342, 1777100.681696428917348 ], [ 3197952.349094284698367, 1777045.284870252478868 ], [ 3198008.252689968794584, 1777023.201549753546715 ], [ 3198054.414233384653926, 1777057.214282085653394 ], [ 3198022.46949674282223, 1777082.179304073099047 ], [ 3198017.174245335161686, 1777086.317635436076671 ], [ 3198019.997086715884507, 1777094.370354622136801 ], [ 3198024.27243223413825, 1777106.56676947651431 ], [ 3198090.335123151540756, 1777097.776643812889233 ], [ 3198206.549139740876853, 1777043.553462545620278 ], [ 3198208.552870032377541, 1777042.618558466434479 ], [ 3198321.330879584886134, 1776989.999022825388238 ], [ 3198258.296204633079469, 1777119.836907737422734 ], [ 3198216.888449660502374, 1777280.822805760893971 ], [ 3198249.624088207725435, 1777287.299577582627535 ], [ 3198239.787492765113711, 1777333.760191317414865 ], [ 3198216.523221277631819, 1777443.644417666597292 ], [ 3198216.516852882225066, 1777443.674388129031286 ], [ 3198213.708807096350938, 1777499.62702080165036 ], [ 3198213.705720173195004, 1777499.68883818294853 ], [ 3198253.98213776294142, 1777504.382104313233867 ], [ 3198264.573570836801082, 1777527.29984681494534 ], [ 3198313.932598293293267, 1777583.791475116973743 ], [ 3198352.873315793462098, 1777582.312401507981122 ], [ 3198333.226894156541675, 1777685.132103942800313 ], [ 3198325.58913785405457, 1777726.268956359708682 ], [ 3198324.12736330833286, 1777734.142065973719582 ], [ 3198309.525366059504449, 1777734.051669469568878 ], [ 3198282.092104403767735, 1777733.881874900311232 ], [ 3198242.937763152644038, 1777766.3127439559903 ], [ 3198210.476478264201432, 1777793.199965418083593 ], [ 3198179.062512336298823, 1777826.912997846491635 ], [ 3198162.877819081302732, 1777817.347996633499861 ], [ 3198076.797965474892408, 1777766.475356596987695 ], [ 3198083.387511148117483, 1777854.81231996580027 ], [ 3198084.367146347649395, 1777867.945563871413469 ], [ 3198090.61016805190593, 1777951.635322083020583 ], [ 3198091.681308045051992, 1777964.011656394228339 ], [ 3198092.61410428583622, 1777974.789703708374873 ], [ 3198100.663912006653845, 1778067.795819549821317 ], [ 3198101.637086769100279, 1778079.039575323229656 ], [ 3198080.012263595592231, 1778274.030379458097741 ], [ 3198031.292565369978547, 1778343.98200910165906 ], [ 3197945.010236289352179, 1778299.357149933930486 ], [ 3197992.829844791442156, 1778232.370782095240429 ], [ 3198057.438557329587638, 1778253.330441356170923 ], [ 3198088.395205808803439, 1778079.047869546106085 ], [ 3198088.567319694440812, 1778078.078797161579132 ], [ 3198084.179105305112898, 1778078.791052847867832 ], [ 3197869.945946848485619, 1778113.562858101446182 ], [ 3197862.707576241809875, 1778114.737767880316824 ], [ 3197856.232847840059549, 1778120.413228853140026 ], [ 3197677.730069496668875, 1778276.880324256140739 ], [ 3197689.644470588304102, 1778288.3813386419788 ], [ 3197701.406472919043154, 1778299.735272943275049 ], [ 3197710.621794032398611, 1778308.630795834586024 ], [ 3197725.889155218843371, 1778376.031031337799504 ], [ 3197737.746399473398924, 1778428.376214594114572 ], [ 3197750.60215768776834, 1778485.129345180466771 ], [ 3197752.321817079558969, 1778492.720927732298151 ], [ 3197754.200908608734608, 1778516.669864722760394 ], [ 3197761.167499782517552, 1778605.455023247050121 ], [ 3197762.083858530968428, 1778617.13310587964952 ], [ 3197767.503734978847206, 1778686.205892788711935 ], [ 3197665.125194613821805, 1778736.273276939755306 ], [ 3197575.161207287572324, 1778694.15333834849298 ], [ 3197483.863433700986207, 1778751.512647486058995 ], [ 3197476.117357978597283, 1778808.790591192897409 ], [ 3197467.217788346111774, 1778838.601769720669836 ], [ 3197478.4072978743352, 1778911.670871885959059 ], [ 3197462.160615955479443, 1778929.099133533425629 ], [ 3197405.619403345976025, 1778989.752737183356658 ], [ 3197329.459322869777679, 1778978.026941610034555 ], [ 3197337.530443901196122, 1779097.068146982695907 ], [ 3197337.885633125901222, 1779102.306741334497929 ], [ 3197335.194975252728909, 1779099.618830622639507 ], [ 3197285.559162138961256, 1779050.035180129110813 ], [ 3197231.578884474933147, 1779024.472778096329421 ], [ 3197203.307626723311841, 1779060.904109729221091 ], [ 3197249.547453941777349, 1779119.51899524172768 ], [ 3197277.226567428559065, 1779171.064331130124629 ], [ 3197243.108984311576933, 1779248.079987070988864 ], [ 3197202.520068644545972, 1779250.822791265556589 ], [ 3197184.837297519668937, 1779202.891659705201164 ], [ 3197175.309831431135535, 1779034.249914818443358 ], [ 3197147.119058084208518, 1779003.625527573982254 ], [ 3197109.137004856951535, 1779018.805679165292531 ], [ 3197053.446616381406784, 1779177.913692056201398 ], [ 3197015.670446471311152, 1779169.844754929887131 ], [ 3196977.276884488295764, 1779094.103218867676333 ], [ 3196945.013502857182175, 1779130.804661766858771 ], [ 3196937.601283920928836, 1779225.574628738220781 ], [ 3196952.709286611527205, 1779261.730182389263064 ], [ 3196984.828128408174962, 1779290.761291246395558 ], [ 3197031.7621890604496, 1779253.732186135835946 ], [ 3197133.563790271058679, 1779288.012178092263639 ], [ 3197234.044468877371401, 1779336.322912635514513 ], [ 3197377.765796440653503, 1779367.770660157548264 ], [ 3197415.76058612531051, 1779325.371405717683956 ], [ 3197413.854322109371424, 1779272.390954153146595 ], [ 3197369.867525385692716, 1779158.145636734319851 ], [ 3197368.016190044116229, 1779153.337240829365328 ], [ 3197382.324905361048877, 1779146.74348197504878 ], [ 3197418.437710274010897, 1779130.101783631602302 ], [ 3197437.229955447372049, 1779121.441944665741175 ], [ 3197444.116614751983434, 1779128.500715575646609 ], [ 3197482.193727287463844, 1779167.529789966531098 ], [ 3197629.518501682206988, 1779013.45005551353097 ], [ 3197665.680824021808803, 1778975.629988690838218 ], [ 3197673.135909324511886, 1778981.406660144217312 ], [ 3197680.35550440242514, 1778987.000846407841891 ], [ 3197673.213520667515695, 1779038.451791439438239 ], [ 3197692.647076663095504, 1779150.522045825375244 ], [ 3197718.322710613720119, 1779226.25615003076382 ], [ 3197747.196873760782182, 1779221.985991428839043 ], [ 3197846.5813536955975, 1779157.204540160950273 ], [ 3197870.055098221637309, 1779162.789452279452235 ], [ 3197874.70006319694221, 1779175.709359184838831 ], [ 3197888.02133805770427, 1779212.761891738744453 ], [ 3197905.877046387176961, 1779262.42700853315182 ], [ 3197894.057758533395827, 1779311.475704916054383 ], [ 3198007.28665435872972, 1779270.652781157754362 ], [ 3198013.704351803287864, 1779265.158252647379413 ], [ 3198057.912318242713809, 1779227.309698023833334 ], [ 3198087.33677508123219, 1779202.11799087934196 ], [ 3198090.042761001735926, 1779199.801275473786518 ], [ 3198095.076680123806, 1779212.533111455151811 ], [ 3198157.784800197929144, 1779371.132954563014209 ], [ 3198172.797694363631308, 1779409.10318479500711 ], [ 3198181.830488002859056, 1779431.948654896812513 ], [ 3198210.463213579729199, 1779443.059102828381583 ], [ 3198222.727617689408362, 1779445.845941936830059 ], [ 3198237.244499444961548, 1779449.144691159948707 ], [ 3198234.959782682359219, 1779462.613140039611608 ], [ 3198231.639638731256127, 1779482.18527053645812 ], [ 3198280.242432133760303, 1779494.811847768491134 ], [ 3198291.019515250343829, 1779497.61166267003864 ], [ 3198301.752168742008507, 1779541.68121278937906 ], [ 3198302.759922087192535, 1779545.819008990190923 ], [ 3198309.145303430967033, 1779551.846474768826738 ], [ 3198350.647887830622494, 1779591.022961483104154 ], [ 3198360.70278970617801, 1779587.274455952690914 ], [ 3198367.10934785567224, 1779580.369716581655666 ], [ 3198403.292331877630204, 1779541.373250008560717 ], [ 3198493.167426259256899, 1779446.858926155604422 ], [ 3198492.569722237531096, 1779428.520323595963418 ], [ 3198491.622050315141678, 1779399.444569343701005 ], [ 3198491.435730528552085, 1779393.726666504051536 ], [ 3198474.87008268199861, 1779306.015926582738757 ], [ 3198473.842545295134187, 1779300.575097764842212 ], [ 3198481.141410078853369, 1779283.60105713759549 ], [ 3198497.719302979297936, 1779245.047724110307172 ], [ 3198499.840613396372646, 1779203.810906423022971 ], [ 3198500.547840958926827, 1779190.063635009340942 ], [ 3198474.554647400975227, 1779157.661960723577067 ], [ 3198469.582066496834159, 1779144.516010756837204 ], [ 3198403.437056312803179, 1778969.650355391670018 ], [ 3198479.06906728586182, 1779027.186189755098894 ], [ 3198518.097306218929589, 1779050.264173449715599 ], [ 3198524.933263416402042, 1779080.218029329786077 ], [ 3198605.093796204775572, 1779125.221709760837257 ], [ 3198673.973224377259612, 1779152.928601912688464 ], [ 3198727.386694584041834, 1779150.165746219921857 ], [ 3198785.427856919821352, 1779126.146778599824756 ], [ 3198816.913804121315479, 1779113.117067276034504 ], [ 3198864.333776061423123, 1779094.590433782665059 ], [ 3198870.815038002096117, 1779092.058221448445693 ], [ 3198903.068982040509582, 1779113.667500333627686 ], [ 3198909.908320147544146, 1779075.092278592055663 ], [ 3198964.408336591441184, 1779026.995374306570739 ], [ 3198984.125949438661337, 1779028.838793967617676 ], [ 3199004.695733895525336, 1779030.761829169932753 ], [ 3199025.804960348643363, 1779077.556759762112051 ], [ 3199012.863307006657124, 1779083.428417132934555 ], [ 3198951.1773891299963, 1779111.415520281530917 ], [ 3198925.220768984872848, 1779095.83765644999221 ], [ 3198916.084821202792227, 1779157.960990802617744 ], [ 3198939.87390102352947, 1779172.575417550513521 ], [ 3198919.273444284684956, 1779204.831917314790189 ], [ 3198895.430694740265608, 1779194.233971738023683 ], [ 3198872.569636393804103, 1779216.192953845718876 ], [ 3198867.55612328229472, 1779266.609917961759493 ], [ 3198915.130546811968088, 1779239.070500910282135 ], [ 3198962.464995193295181, 1779221.323255021125078 ], [ 3199005.930173824541271, 1779199.432010502321646 ], [ 3199009.481280287727714, 1779149.132759181549773 ], [ 3199092.242939367890358, 1779125.565185316372663 ], [ 3199094.580342272296548, 1779124.899601995013654 ], [ 3199069.166933500207961, 1779214.671853448497131 ], [ 3199054.095318797975779, 1779267.912228477653116 ], [ 3198997.271732767112553, 1779279.460351468529552 ], [ 3199042.070587391965091, 1779302.661832568002865 ], [ 3199039.587103259749711, 1779309.838653438724577 ], [ 3199037.651699096895754, 1779315.43164571467787 ], [ 3199065.72150055039674, 1779361.177190779242665 ], [ 3199067.472567522898316, 1779364.030909662367776 ], [ 3199069.147951067425311, 1779366.761319497600198 ], [ 3199065.165439762175083, 1779388.708680263953283 ], [ 3199057.203882716130465, 1779398.789629217935726 ], [ 3199034.904727667104453, 1779427.024624907644466 ], [ 3199055.136787489056587, 1779454.722543358802795 ], [ 3199056.306643409188837, 1779456.324114237911999 ], [ 3199055.120669411495328, 1779461.773051660275087 ], [ 3199035.510485730133951, 1779551.87387671880424 ], [ 3199034.561909792013466, 1779556.232170910108835 ], [ 3199031.822135780006647, 1779556.345515907974914 ], [ 3199003.74698762409389, 1779557.506676165154204 ], [ 3199000.637031416408718, 1779558.259836308192462 ], [ 3198875.296111022122204, 1779588.61605764948763 ], [ 3198867.038985502906144, 1779590.615896840812638 ], [ 3198862.405008549336344, 1779593.900226389523596 ], [ 3198815.741830145008862, 1779626.973196156788617 ], [ 3198807.340654904488474, 1779632.927628219127655 ], [ 3198804.192510868422687, 1779643.006244838470593 ], [ 3198800.675137070938945, 1779654.266622071154416 ], [ 3198799.714595549739897, 1779657.341650649206713 ], [ 3198802.308335897978395, 1779664.857988486764953 ], [ 3198815.56440344825387, 1779703.272598492680117 ], [ 3198810.964237002655864, 1779711.582450419897214 ], [ 3198713.093448009341955, 1779888.378087055869401 ], [ 3198692.627767914906144, 1779925.348024381324649 ], [ 3198688.254116375930607, 1779933.24866504711099 ], [ 3198673.461936631239951, 1779930.639451279072091 ], [ 3198522.054426588118076, 1779903.93239971366711 ], [ 3198512.300870400853455, 1779906.191320684971288 ], [ 3198505.664209460839629, 1779907.728347659576684 ], [ 3198492.5801902692765, 1779910.758579540997744 ], [ 3198442.581511767581105, 1779948.351347594987601 ], [ 3198441.515980171505362, 1779949.152521184179932 ], [ 3198431.790678702294827, 1779956.464717562543228 ], [ 3198421.457289724610746, 1779960.485948507674038 ], [ 3198371.066472924314439, 1779980.095581506146118 ], [ 3198356.424714241176844, 1780056.902992953080684 ], [ 3198363.511487934738398, 1780123.809244876261801 ], [ 3198370.970294617582113, 1780141.629248691257089 ], [ 3198372.769609342329204, 1780149.486045595491305 ], [ 3198375.090907732024789, 1780159.62204447737895 ], [ 3198399.019786443561316, 1780175.054349132813513 ], [ 3198400.225445421412587, 1780175.216690857894719 ], [ 3198459.484367181546986, 1780183.193995503010228 ], [ 3198495.609639896079898, 1780207.977978078881279 ], [ 3198559.336252697743475, 1780217.003416423918679 ], [ 3198604.637405915185809, 1780243.684256503824145 ], [ 3198671.251379844732583, 1780330.019043967593461 ], [ 3198686.712278459221125, 1780367.436001280555502 ], [ 3198701.871334158815444, 1780380.097179150674492 ], [ 3198765.505263352300972, 1780433.245425120228902 ], [ 3198789.79542500525713, 1780438.626453897217289 ], [ 3198791.617836777120829, 1780439.030202744528651 ], [ 3198791.799240282271057, 1780440.939594120020047 ], [ 3198792.646013745106757, 1780449.851092649623752 ], [ 3198797.101734526455402, 1780496.743095439858735 ], [ 3198899.804609999060631, 1780647.054229909554124 ], [ 3198899.855612079612911, 1780647.128971907775849 ], [ 3198901.581715627573431, 1780648.112278875894845 ], [ 3199120.735498016700149, 1780772.955154638504609 ], [ 3199125.560022071935236, 1780774.40920495823957 ], [ 3199159.130392366088927, 1780784.526529117720202 ], [ 3199196.69742978643626, 1780770.826957148499787 ], [ 3199331.003753473050892, 1780732.942357592983171 ], [ 3199394.975472397170961, 1780714.897690723650157 ], [ 3199477.449441595934331, 1780668.275625382084399 ], [ 3199489.341363172512501, 1780661.553156171925366 ], [ 3199499.917210015933961, 1780655.57471167226322 ], [ 3199489.314550410956144, 1780635.37963857059367 ], [ 3199465.199385140091181, 1780599.448929740348831 ], [ 3199496.036880134604871, 1780550.836801583645865 ], [ 3199530.81540868896991, 1780496.012296458473429 ], [ 3199548.47329611517489, 1780530.54890896496363 ], [ 3199592.688985720276833, 1780539.247300355695188 ], [ 3199575.778124537318945, 1780567.633446499938145 ], [ 3199624.963261133059859, 1780656.161342073231936 ], [ 3199702.562958098016679, 1780625.201705494429916 ], [ 3199806.525990369729698, 1780618.566610924899578 ], [ 3199847.067392466589808, 1780619.61829661228694 ], [ 3199895.085508839227259, 1780599.535298512550071 ], [ 3199938.106422803364694, 1780581.542441097320989 ], [ 3199984.752779685426503, 1780618.518375161569566 ], [ 3199989.629040319472551, 1780622.383686190936714 ], [ 3200077.018638907931745, 1780602.652096339967102 ], [ 3200078.596371174789965, 1780602.295820530038327 ], [ 3200087.023638064973056, 1780607.288581157103181 ], [ 3200117.567756768316031, 1780625.38424967112951 ], [ 3200168.867525887675583, 1780655.776649491395801 ], [ 3200183.472632067278028, 1780664.429403401911259 ], [ 3200188.880381792783737, 1780664.156295873690397 ], [ 3200236.361430773511529, 1780661.75811830535531 ], [ 3200266.127368891611695, 1780680.937546006636694 ], [ 3200277.608666363172233, 1780688.335391030646861 ], [ 3200346.008472944609821, 1780660.560046538244933 ], [ 3200442.955537768080831, 1780650.322924803709611 ], [ 3200485.317658438812941, 1780605.87716161319986 ], [ 3200500.632154771126807, 1780563.479536376427859 ], [ 3200516.003972999751568, 1780528.102484457893297 ], [ 3200516.082017584703863, 1780528.013456403976306 ], [ 3200553.177963731810451, 1780485.875001106644049 ], [ 3200553.181131665594876, 1780485.869812524178997 ], [ 3200553.976504704914987, 1780484.378224210580811 ], [ 3200554.004763375036418, 1780484.38003549631685 ], [ 3200608.672408387996256, 1780381.864312238525599 ], [ 3200615.284588125534356, 1780341.856274964520708 ], [ 3200625.156143724452704, 1780274.532157792942598 ], [ 3200615.543701597489417, 1780191.36983120511286 ], [ 3200630.622455600649118, 1780158.03853323822841 ], [ 3200639.982244432903826, 1780152.08257896755822 ], [ 3200657.360686843283474, 1780147.466450484935194 ], [ 3200661.637890026904643, 1780153.745155572891235 ], [ 3200661.818899722769856, 1780153.82241240516305 ], [ 3200674.52769583882764, 1780173.668707670411095 ], [ 3200686.628704760223627, 1780232.3230519304052 ], [ 3200696.556842331308872, 1780280.445429790299386 ], [ 3200697.793837040662766, 1780289.992242754437029 ], [ 3200703.915479082148522, 1780337.238209644565359 ], [ 3200697.256674654781818, 1780374.368012738181278 ], [ 3200695.299082305282354, 1780385.283573507564142 ], [ 3200693.453171698376536, 1780395.576669863192365 ], [ 3200694.872541550546885, 1780447.36237406055443 ], [ 3200697.061762274708599, 1780527.224914997350425 ], [ 3200724.401619733311236, 1780564.320476335240528 ], [ 3200747.923977320082486, 1780596.236293129855767 ], [ 3200700.537207121029496, 1780591.913751462940127 ], [ 3200673.043587174266577, 1780589.405892172362655 ], [ 3200653.117528163827956, 1780595.856591594638303 ], [ 3200620.407704539597034, 1780609.957016073632985 ], [ 3200606.400829990394413, 1780615.995085634058341 ], [ 3200586.348828339017928, 1780628.020661476068199 ], [ 3200573.343155650421977, 1780642.615605160593987 ], [ 3200556.073443143628538, 1780661.995605352101848 ], [ 3200522.672975969035178, 1780695.497571122832596 ], [ 3200476.265025838278234, 1780712.665279594482854 ], [ 3200458.996480690315366, 1780719.05353551870212 ], [ 3200459.010618924628943, 1780719.180853242985904 ], [ 3200458.918138251174241, 1780719.1439278149046 ], [ 3200406.397854152135551, 1780748.861529586603865 ], [ 3200382.678403197787702, 1780780.196350460639223 ], [ 3200379.772376664914191, 1780788.772868263535202 ], [ 3200343.383586727548391, 1780832.380336075322703 ], [ 3200325.723585156258196, 1780871.257073784712702 ], [ 3200309.839024323970079, 1780867.421962510794401 ], [ 3200309.42428421555087, 1780846.794502253876999 ], [ 3200294.974962239619344, 1780829.586958516621962 ], [ 3200279.290459242183715, 1780840.862749746534973 ], [ 3200279.027251495048404, 1780875.237453312147409 ], [ 3200300.332176103256643, 1780932.160204045940191 ], [ 3200303.595724541693926, 1780962.395326763158664 ], [ 3200294.055429765488952, 1781042.496919999364763 ], [ 3214938.294320000801235, 1781042.496919999364763 ], [ 3214938.294320000801235, 1758611.979980000760406 ], [ 3190862.41028, 1758611.979980000760406 ], [ 3190862.41028, 1777213.281617353437468 ], [ 3190882.417931095696986, 1777194.553968485444784 ] ] ] } },
{ "type": "Feature", "properties": { "SITE_NAME": "Sierras de Cazorla, Segura y las Villas", "ODESIGNATE": "Zona de Importancia Comunitaria ZIC (ZEPA/ZEC)", "NUT2": 61, "SITE_CODE_": "ES0000035", "DESIG_ABBR": "ES49", "SITE_CDDA": "555588803_CDDA", "Sup_ha": 209929.92258300001 }, "geometry": { "type": "Polygon", "coordinates": [ [ [ 3190882.417931095696986, 1777194.553968485444784 ], [ 3190898.914183194283396, 1777181.447953496361151 ], [ 3190915.951318550854921, 1777166.108511971775442 ], [ 3190941.764863827265799, 1777157.408211475703865 ], [ 3190964.731206495314837, 1777158.153749236138538 ], [ 3190983.228944600559771, 1777157.961478232173249 ], [ 3191016.459420743398368, 1777152.691067059291527 ], [ 3191057.672291358932853, 1777140.464148513972759 ], [ 3191085.711502883117646, 1777132.209225358441472 ], [ 3191107.85344593366608, 1777121.999794077128172 ], [ 3191133.80948299728334, 1777105.974814624991268 ], [ 3191152.567266467027366, 1777093.348552686395124 ], [ 3191178.430000367574394, 1777079.490285709965974 ], [ 3191204.515223941765726, 1777066.876242451136932 ], [ 3191227.609036036767066, 1777062.905009034322575 ], [ 3191256.414982833433896, 1777065.231514538172632 ], [ 3191269.195286111906171, 1777069.859483398729935 ], [ 3191287.703713847789913, 1777083.791520605329424 ], [ 3191303.298257464542985, 1777098.224708490539342 ], [ 3191320.686770257540047, 1777113.207697308855131 ], [ 3191334.474185853730887, 1777121.529766075545922 ], [ 3191355.971023651771247, 1777126.799477289896458 ], [ 3191386.780441388487816, 1777125.358599846251309 ], [ 3191424.213558143004775, 1777124.909346583299339 ], [ 3191457.115950074978173, 1777128.662041819654405 ], [ 3191479.603912999853492, 1777129.076269591925666 ], [ 3191503.520319296512753, 1777124.963761107530445 ], [ 3191530.020363921299577, 1777112.268439978826791 ], [ 3191550.058033754583448, 1777096.857649205485359 ], [ 3191569.439881085418165, 1777077.258213852299377 ], [ 3191582.957032169215381, 1777058.687480385880917 ], [ 3191599.731686596758664, 1777030.559921006439254 ], [ 3191648.142307584173977, 1776955.937279511941597 ], [ 3191657.656528105027974, 1776933.773663016036153 ], [ 3191699.806002383120358, 1776857.673285459866747 ], [ 3191719.282674041111022, 1776835.917036871658638 ], [ 3191734.39822606742382, 1776815.817166127031669 ], [ 3191734.400156913325191, 1776815.814511795761064 ], [ 3191740.940576415508986, 1776807.117490894859657 ], [ 3191741.817652151919901, 1776805.951115033123642 ], [ 3191786.006969380192459, 1776746.655858640326187 ], [ 3191786.154236827045679, 1776746.458179562585428 ], [ 3191787.880250113084912, 1776744.142186084762216 ], [ 3191807.151613168884069, 1776718.150340265594423 ], [ 3191820.411277536768466, 1776697.907601853599772 ], [ 3191836.389363873749971, 1776672.926292155869305 ], [ 3191836.220236063934863, 1776678.279105644673109 ], [ 3191835.576125320512801, 1776698.669117512647063 ], [ 3191835.564230221323669, 1776699.045969870639965 ], [ 3191835.288967865053564, 1776707.758795080939308 ], [ 3191839.294241087511182, 1776736.574024114292115 ], [ 3191856.157303621526808, 1776750.789264488965273 ], [ 3191885.824985476210713, 1776767.084013400133699 ], [ 3191914.253526588436216, 1776781.017044760519639 ], [ 3191939.524559950921685, 1776796.775402973638847 ], [ 3191965.252761472016573, 1776809.890490872319788 ], [ 3191999.288220263551921, 1776823.69755271403119 ], [ 3192025.303846433758736, 1776830.361647232435644 ], [ 3192063.334657249040902, 1776831.082418479491025 ], [ 3192102.123179136775434, 1776828.270313488552347 ], [ 3192130.119470797013491, 1776833.725593728478998 ], [ 3192155.094176175072789, 1776836.277433567913249 ], [ 3192187.190660455729812, 1776832.031160809798166 ], [ 3192225.305682028178126, 1776810.927855222020298 ], [ 3192242.829287920147181, 1776801.513387914747 ], [ 3192271.118385880254209, 1776800.486445629736409 ], [ 3192294.134987812489271, 1776807.23223112965934 ], [ 3192314.857714625541121, 1776818.63318395242095 ], [ 3192333.335151080507785, 1776835.135723574087024 ], [ 3192346.669787259306759, 1776851.674248395022005 ], [ 3192355.798957536928356, 1776868.915678242687136 ], [ 3192366.365844621323049, 1776898.319246709812433 ], [ 3192382.974929159507155, 1776930.551174206193537 ], [ 3192397.545510668773204, 1776946.857043812749907 ], [ 3192406.065480902791023, 1776951.578036229126155 ], [ 3192428.183028527069837, 1776963.833573252428323 ], [ 3192442.832697950303555, 1776969.357845075428486 ], [ 3192464.781490228604525, 1776977.634546080604196 ], [ 3192465.001180766150355, 1776977.743590495083481 ], [ 3192475.667168637737632, 1776983.036918637575582 ], [ 3192475.726552905514836, 1776983.06639138655737 ], [ 3192509.600126101635396, 1776999.877204885706306 ], [ 3192531.406455512158573, 1777018.372014912776649 ], [ 3192550.762041025795043, 1777043.275969462003559 ], [ 3192561.089520466513932, 1777065.450894700363278 ], [ 3192570.237558925524354, 1777091.26152190961875 ], [ 3192589.588683273177594, 1777146.952427196316421 ], [ 3192600.062436147592962, 1777178.522788571193814 ], [ 3192609.795265121385455, 1777208.059840314323083 ], [ 3192619.796656686346978, 1777253.393001861171797 ], [ 3192630.635406663641334, 1777309.699431979795918 ], [ 3192641.562723758630455, 1777349.75428442354314 ], [ 3192655.019128400366753, 1777397.896396476775408 ], [ 3192792.485585826914757, 1777277.612404701532796 ], [ 3192841.094683796167374, 1777235.026190354954451 ], [ 3192923.389739309437573, 1777162.274286481551826 ], [ 3193058.348399940878153, 1777042.413168866187334 ], [ 3193115.129486043937504, 1776994.161790698766708 ], [ 3193143.299679005518556, 1776986.754349967464805 ], [ 3193161.164584887214005, 1776982.390807630959898 ], [ 3193188.907071530353278, 1776969.503626988502219 ], [ 3193201.679998022504151, 1776960.027818677946925 ], [ 3193221.736411891877651, 1776942.030124250333756 ], [ 3193235.088671228382736, 1776930.76853880379349 ], [ 3193264.595163975842297, 1776912.428709778934717 ], [ 3193295.609876744449139, 1776901.099463065387681 ], [ 3193325.996592774987221, 1776905.296431332360953 ], [ 3193354.442019746173173, 1776913.663998894626275 ], [ 3193380.039975934661925, 1776920.390652754111215 ], [ 3193414.362960721366107, 1776927.747871218714863 ], [ 3193439.049913815688342, 1776943.35905995988287 ], [ 3193439.062519612722099, 1776943.362951428396627 ], [ 3193470.166863915510476, 1776963.763636380666867 ], [ 3193515.393320225179195, 1776994.459053670521826 ], [ 3193570.479263606481254, 1777024.762237753020599 ], [ 3193602.58430711273104, 1777033.439856149256229 ], [ 3193554.242782116867602, 1777034.176928736967966 ], [ 3193528.361152164638042, 1777049.227846960304305 ], [ 3193527.552368530072272, 1777065.017337552038953 ], [ 3193534.144318004138768, 1777085.088038441725075 ], [ 3193561.025647271424532, 1777169.321447212481871 ], [ 3193604.501124534755945, 1777185.071416214341298 ], [ 3193752.217937773093581, 1777154.126050646416843 ], [ 3193791.080343856476247, 1777165.115525683853775 ], [ 3193900.228239513933659, 1777264.488902797224 ], [ 3193973.751577937509865, 1777259.423426993191242 ], [ 3193974.036547793075442, 1777286.636428337544203 ], [ 3194065.923346958123147, 1777274.880616978975013 ], [ 3194067.949387597385794, 1777299.774946328951046 ], [ 3194117.531877984758466, 1777351.834318602690473 ], [ 3194096.786682677455246, 1777372.565177256474271 ], [ 3194306.163530777208507, 1777411.79859579494223 ], [ 3194446.731138725765049, 1777511.830493487184867 ], [ 3194484.581855402328074, 1777519.030635842122138 ], [ 3194486.143060105852783, 1777517.115895263152197 ], [ 3194487.793271169997752, 1777519.641485781176016 ], [ 3194530.822883381508291, 1777585.498684291029349 ], [ 3194706.461138037964702, 1777540.887209494831041 ], [ 3194721.600671761203557, 1777594.566365398000926 ], [ 3194740.266856150701642, 1777660.749574881745502 ], [ 3194756.735535172279924, 1777719.140756086446345 ], [ 3194840.430264754220843, 1777809.455381415551528 ], [ 3195000.565071837976575, 1777884.419419013196602 ], [ 3195018.675252591259778, 1777909.594435090897605 ], [ 3194941.174002197571099, 1777894.06088793836534 ], [ 3194962.85158596932888, 1778024.178789815865457 ], [ 3195037.941598699428141, 1778102.640217685839161 ], [ 3195048.813659241423011, 1778052.684385869652033 ], [ 3194989.794188850559294, 1777996.924958725925535 ], [ 3195030.618698525708169, 1777955.629263799870387 ], [ 3195067.178647487889975, 1777941.331802541157231 ], [ 3195100.945238163229078, 1777954.682774628978223 ], [ 3195106.739753820002079, 1777956.973875439725816 ], [ 3195208.200212441384792, 1777951.559795214794576 ], [ 3195242.358353080227971, 1777914.700268374290317 ], [ 3195316.430918149650097, 1778037.818003070773557 ], [ 3195365.586861905641854, 1778101.100617051823065 ], [ 3195400.510757355950773, 1778105.822198162088171 ], [ 3195472.815820114687085, 1778192.547045209445059 ], [ 3195501.875102918129414, 1778103.61567530920729 ], [ 3195587.791573882102966, 1778030.75621810532175 ], [ 3195527.877830456476659, 1777992.98342598346062 ], [ 3195464.954833649098873, 1778003.212528635980561 ], [ 3195467.236689198762178, 1778050.192764344625175 ], [ 3195416.702627533115447, 1778013.113753785612062 ], [ 3195340.452886967919767, 1777996.361773769836873 ], [ 3195287.688264687079936, 1777940.845329090254381 ], [ 3195321.11626260727644, 1777928.161802847869694 ], [ 3195325.9229731047526, 1777926.338007100624964 ], [ 3195327.835585318505764, 1777925.612320021959022 ], [ 3195332.904232899658382, 1777923.689190996810794 ], [ 3195359.039047268219292, 1777897.848120417678729 ], [ 3195369.591309746727347, 1777887.414452216820791 ], [ 3195373.782102242577821, 1777883.270697041414678 ], [ 3195376.183504763990641, 1777869.29238095972687 ], [ 3195378.713876677211374, 1777854.562799788545817 ], [ 3195382.294285258278251, 1777833.720784072065726 ], [ 3195380.23775717895478, 1777759.271979144541547 ], [ 3195380.538716778624803, 1777688.156844490207732 ], [ 3195380.551910360343754, 1777685.038542460417375 ], [ 3195357.660350123886019, 1777650.603951914003119 ], [ 3195357.901639598421752, 1777650.315919920569286 ], [ 3195393.915894808713347, 1777607.332683389773592 ], [ 3195393.979574870318174, 1777607.256716057192534 ], [ 3195394.056303213816136, 1777607.230405033566058 ], [ 3195434.486270785797387, 1777593.360688056098297 ], [ 3195443.259784854948521, 1777590.350838286103681 ], [ 3195443.448509897105396, 1777590.286097886273637 ], [ 3195443.588462726213038, 1777590.439553672680631 ], [ 3195595.072167915292084, 1777756.579626711318269 ], [ 3195639.822761119809002, 1777766.759885683190078 ], [ 3195648.432385410182178, 1777764.74936033017002 ], [ 3195704.783614939078689, 1777751.590185574954376 ], [ 3195715.587677492294461, 1777736.687602560734376 ], [ 3195724.228509505279362, 1777724.768825348932296 ], [ 3195742.352775438223034, 1777646.184833821840584 ], [ 3195825.76696019526571, 1777723.350557094207034 ], [ 3195831.067964708898216, 1777539.532772053265944 ], [ 3195868.059991675894707, 1777487.107714067678899 ], [ 3195889.826021207962185, 1777497.222390779294074 ], [ 3195915.905757056549191, 1777509.341641824459657 ], [ 3195930.871047541964799, 1777534.82084826589562 ], [ 3195968.503851625137031, 1777527.405066013336182 ], [ 3195996.218950664158911, 1777539.621501757763326 ], [ 3195990.529907718300819, 1777509.607795923249796 ], [ 3195986.692308861762285, 1777489.361898905364797 ], [ 3195969.478355683386326, 1777398.545799610670656 ], [ 3195968.593832426704466, 1777393.879531993996352 ], [ 3195972.546301199123263, 1777397.277650965144858 ], [ 3196087.227678474970162, 1777495.874768332578242 ], [ 3196088.179146504960954, 1777496.692809849511832 ], [ 3196092.464378920849413, 1777500.377059240825474 ], [ 3196173.791778900660574, 1777451.674418160924688 ], [ 3196223.576178340706974, 1777495.2144758424256 ], [ 3196297.582815977279097, 1777675.385123084299266 ], [ 3196322.596694064792246, 1777704.406921980902553 ], [ 3196333.738701748661697, 1777710.065162130864337 ], [ 3196333.792688023298979, 1777710.041145050199702 ], [ 3196405.770359574817121, 1777677.9999429800082 ], [ 3196423.119287807494402, 1777674.009819570695981 ], [ 3196440.509797398000956, 1777671.526794643141329 ], [ 3196448.91764163505286, 1777670.586987192276865 ], [ 3196448.952027952298522, 1777670.563207760918885 ], [ 3196496.523793382570148, 1777637.623459481168538 ], [ 3196499.636492820456624, 1777636.60008350154385 ], [ 3196536.324040702078491, 1777624.538325155153871 ], [ 3196569.632407270371914, 1777613.587564820889384 ], [ 3196591.835029820911586, 1777606.288091319380328 ], [ 3196620.197893712669611, 1777650.570291445357725 ], [ 3196680.63419918064028, 1777617.145409614080563 ], [ 3196728.452351952902973, 1777610.949529113713652 ], [ 3196759.029261926654726, 1777613.773786395089701 ], [ 3196822.830810190644115, 1777624.015829094918445 ], [ 3196841.001518753357232, 1777696.102390277199447 ], [ 3196841.004634076729417, 1777696.114678096026182 ], [ 3196746.725688635371625, 1777729.476652141194791 ], [ 3196730.724067319650203, 1777709.003126312978566 ], [ 3196685.472467932850122, 1777727.367207363247871 ], [ 3196685.421144727151841, 1777727.388040185905993 ], [ 3196673.063654971774668, 1777767.879010189790279 ], [ 3196683.939692998770624, 1777784.184776353882626 ], [ 3196685.247671359218657, 1777801.124589707469568 ], [ 3196682.452981331385672, 1777832.904931667260826 ], [ 3196678.2489327006042, 1777840.695043348707259 ], [ 3196666.323591968044639, 1777857.384298781631514 ], [ 3196659.35850210301578, 1777862.114860580069944 ], [ 3196655.420374849811196, 1777873.897957644192502 ], [ 3196755.681070934515446, 1777920.787456326652318 ], [ 3196859.841315316036344, 1777968.016815138515085 ], [ 3196945.920368639286608, 1778006.236658803885803 ], [ 3196963.373554944992065, 1778086.032159836031497 ], [ 3196959.68830572348088, 1778120.489751114044338 ], [ 3197031.982742893509567, 1778127.774768911767751 ], [ 3197055.738117096014321, 1778130.168594826944172 ], [ 3197054.02268604002893, 1778129.458356078714132 ], [ 3197255.756358551327139, 1778156.331785646732897 ], [ 3197262.930454358458519, 1778157.287431840086356 ], [ 3197293.136419990099967, 1778161.311316929757595 ], [ 3197314.264710849616677, 1778118.856302133994177 ], [ 3197286.664375980384648, 1778030.630507637513801 ], [ 3197298.052072837017477, 1778027.195934345712885 ], [ 3197319.590787924360484, 1778020.69978854781948 ], [ 3197362.951642024330795, 1778024.616346962749958 ], [ 3197363.794626386836171, 1778024.692452205577865 ], [ 3197380.74296781886369, 1778026.223361679585651 ], [ 3197380.949925604276359, 1777971.689867545384914 ], [ 3197473.928512990940362, 1777932.208616273477674 ], [ 3197543.500711570493877, 1777999.33261589333415 ], [ 3197645.933239527978003, 1777949.144886912312359 ], [ 3197684.748364173807204, 1777844.701929424423724 ], [ 3197638.687213741242886, 1777786.896393368486315 ], [ 3197696.478443349245936, 1777741.815254670102149 ], [ 3197697.382216485682875, 1777741.110237623332068 ], [ 3197715.103141475468874, 1777727.286675073439255 ], [ 3197734.458332709036767, 1777754.760437693679705 ], [ 3197754.388563508167863, 1777783.050406555412337 ], [ 3197851.554205778520554, 1777658.967812638962641 ], [ 3197822.191441738512367, 1777604.705377046717331 ], [ 3197884.980683756992221, 1777488.131028997944668 ], [ 3197945.104617795906961, 1777375.220596955390647 ], [ 3197841.585493777878582, 1777426.661707447376102 ], [ 3197776.553630733862519, 1777476.300932521000504 ], [ 3197710.599791884422302, 1777614.256391671486199 ], [ 3197701.063075812533498, 1777622.537430100608617 ], [ 3197590.940985694527626, 1777718.160182589897886 ], [ 3197587.638070974498987, 1777714.996373834321275 ], [ 3197533.056784990243614, 1777662.714156413683668 ], [ 3197512.125594512093812, 1777642.664681942667812 ], [ 3197530.73924943106249, 1777628.107929934049025 ], [ 3197541.525556321255863, 1777594.955783889861777 ], [ 3197547.204944079741836, 1777580.854448069818318 ], [ 3197578.082159694284201, 1777552.832751438720152 ], [ 3197596.796795608475804, 1777494.590817726450041 ], [ 3197595.7815259587951, 1777478.105620759306476 ], [ 3197598.647874128539115, 1777457.924727886915207 ], [ 3197607.043433294165879, 1777446.385801255702972 ], [ 3197615.587455697357655, 1777436.840834134025499 ], [ 3197615.61376991122961, 1777436.825409510405734 ], [ 3197642.385189648717642, 1777421.131230920320377 ], [ 3197642.391517519485205, 1777421.112878471845761 ], [ 3197647.713401992805302, 1777405.575767593691126 ], [ 3197620.612534354440868, 1777351.670112610794604 ], [ 3197620.670449930243194, 1777351.634619443211704 ], [ 3197637.781420459039509, 1777341.148488826816902 ], [ 3197637.775337583385408, 1777341.138730162987486 ], [ 3197618.053907814901322, 1777309.703507952159271 ], [ 3197595.72523001069203, 1777317.072945795953274 ], [ 3197588.641844401601702, 1777281.436701247468591 ], [ 3197588.703448657877743, 1777281.43833635863848 ], [ 3197639.748809085227549, 1777282.754576928447932 ], [ 3197639.746226789895445, 1777282.707464769948274 ], [ 3197633.092386523727328, 1777163.484022001503035 ], [ 3197629.741691892500967, 1777103.443496854277328 ], [ 3197693.565796703100204, 1777062.832235924201086 ], [ 3197745.249868261162192, 1777114.057060676859692 ], [ 3197806.655791947618127, 1777129.956744349794462 ], [ 3197812.079441785812378, 1777100.733730818843469 ], [ 3197812.087184825912118, 1777100.692215889226645 ], [ 3197812.113746648654342, 1777100.681696428917348 ], [ 3197952.349094284698367, 1777045.284870252478868 ], [ 3198008.252689968794584, 1777023.201549753546715 ], [ 3198054.414233384653926, 1777057.214282085653394 ], [ 3198022.46949674282223, 1777082.179304073099047 ], [ 3198017.174245335161686, 1777086.317635436076671 ], [ 3198019.997086715884507, 1777094.370354622136801 ], [ 3198024.27243223413825, 1777106.56676947651431 ], [ 3198090.335123151540756, 1777097.776643812889233 ], [ 3198206.549139740876853, 1777043.553462545620278 ], [ 3198208.552870032377541, 1777042.618558466434479 ], [ 3198321.330879584886134, 1776989.999022825388238 ], [ 3198258.296204633079469, 1777119.836907737422734 ], [ 3198216.888449660502374, 1777280.822805760893971 ], [ 3198249.624088207725435, 1777287.299577582627535 ], [ 3198239.787492765113711, 1777333.760191317414865 ], [ 3198216.523221277631819, 1777443.644417666597292 ], [ 3198216.516852882225066, 1777443.674388129031286 ], [ 3198213.708807096350938, 1777499.62702080165036 ], [ 3198213.705720173195004, 1777499.68883818294853 ], [ 3198253.98213776294142, 1777504.382104313233867 ], [ 3198264.573570836801082, 1777527.29984681494534 ], [ 3198313.932598293293267, 1777583.791475116973743 ], [ 3198352.873315793462098, 1777582.312401507981122 ], [ 3198333.226894156541675, 1777685.132103942800313 ], [ 3198325.58913785405457, 1777726.268956359708682 ], [ 3198324.12736330833286, 1777734.142065973719582 ], [ 3198309.525366059504449, 1777734.051669469568878 ], [ 3198282.092104403767735, 1777733.881874900311232 ], [ 3198242.937763152644038, 1777766.3127439559903 ], [ 3198210.476478264201432, 1777793.199965418083593 ], [ 3198179.062512336298823, 1777826.912997846491635 ], [ 3198162.877819081302732, 1777817.347996633499861 ], [ 3198076.797965474892408, 1777766.475356596987695 ], [ 3198083.387511148117483, 1777854.81231996580027 ], [ 3198084.367146347649395, 1777867.945563871413469 ], [ 3198090.61016805190593, 1777951.635322083020583 ], [ 3198091.681308045051992, 1777964.011656394228339 ], [ 3198092.61410428583622, 1777974.789703708374873 ], [ 3198100.663912006653845, 1778067.795819549821317 ], [ 3198101.637086769100279, 1778079.039575323229656 ], [ 3198080.012263595592231, 1778274.030379458097741 ], [ 3198031.292565369978547, 1778343.98200910165906 ], [ 3197945.010236289352179, 1778299.357149933930486 ], [ 3197992.829844791442156, 1778232.370782095240429 ], [ 3198057.438557329587638, 1778253.330441356170923 ], [ 3198088.395205808803439, 1778079.047869546106085 ], [ 3198088.567319694440812, 1778078.078797161579132 ], [ 3198084.179105305112898, 1778078.791052847867832 ], [ 3197869.945946848485619, 1778113.562858101446182 ], [ 3197862.707576241809875, 1778114.737767880316824 ], [ 3197856.232847840059549, 1778120.413228853140026 ], [ 3197677.730069496668875, 1778276.880324256140739 ], [ 3197689.644470588304102, 1778288.3813386419788 ], [ 3197701.406472919043154, 1778299.735272943275049 ], [ 3197710.621794032398611, 1778308.630795834586024 ], [ 3197725.889155218843371, 1778376.031031337799504 ], [ 3197737.746399473398924, 1778428.376214594114572 ], [ 3197750.60215768776834, 1778485.129345180466771 ], [ 3197752.321817079558969, 1778492.720927732298151 ], [ 3197754.200908608734608, 1778516.669864722760394 ], [ 3197761.167499782517552, 1778605.455023247050121 ], [ 3197762.083858530968428, 1778617.13310587964952 ], [ 3197767.503734978847206, 1778686.205892788711935 ], [ 3197665.125194613821805, 1778736.273276939755306 ], [ 3197575.161207287572324, 1778694.15333834849298 ], [ 3197483.863433700986207, 1778751.512647486058995 ], [ 3197476.117357978597283, 1778808.790591192897409 ], [ 3197467.217788346111774, 1778838.601769720669836 ], [ 3197478.4072978743352, 1778911.670871885959059 ], [ 3197462.160615955479443, 1778929.099133533425629 ], [ 3197405.619403345976025, 1778989.752737183356658 ], [ 3197329.459322869777679, 1778978.026941610034555 ], [ 3197337.530443901196122, 1779097.068146982695907 ], [ 3197337.885633125901222, 1779102.306741334497929 ], [ 3197335.194975252728909, 1779099.618830622639507 ], [ 3197285.559162138961256, 1779050.035180129110813 ], [ 3197231.578884474933147, 1779024.472778096329421 ], [ 3197203.307626723311841, 1779060.904109729221091 ], [ 3197249.547453941777349, 1779119.51899524172768 ], [ 3197277.226567428559065, 1779171.064331130124629 ], [ 3197243.108984311576933, 1779248.079987070988864 ], [ 3197202.520068644545972, 1779250.822791265556589 ], [ 3197184.837297519668937, 1779202.891659705201164 ], [ 3197175.309831431135535, 1779034.249914818443358 ], [ 3197147.119058084208518, 1779003.625527573982254 ], [ 3197109.137004856951535, 1779018.805679165292531 ], [ 3197053.446616381406784, 1779177.913692056201398 ], [ 3197015.670446471311152, 1779169.844754929887131 ], [ 3196977.276884488295764, 1779094.103218867676333 ], [ 3196945.013502857182175, 1779130.804661766858771 ], [ 3196937.601283920928836, 1779225.574628738220781 ], [ 3196952.709286611527205, 1779261.730182389263064 ], [ 3196984.828128408174962, 1779290.761291246395558 ], [ 3197031.7621890604496, 1779253.732186135835946 ], [ 3197133.563790271058679, 1779288.012178092263639 ], [ 3197234.044468877371401, 1779336.322912635514513 ], [ 3197377.765796440653503, 1779367.770660157548264 ], [ 3197415.76058612531051, 1779325.371405717683956 ], [ 3197413.854322109371424, 1779272.390954153146595 ], [ 3197369.867525385692716, 1779158.145636734319851 ], [ 3197368.016190044116229, 1779153.337240829365328 ], [ 3197382.324905361048877, 1779146.74348197504878 ], [ 3197418.437710274010897, 1779130.101783631602302 ], [ 3197437.229955447372049, 1779121.441944665741175 ], [ 3197444.116614751983434, 1779128.500715575646609 ], [ 3197482.193727287463844, 1779167.529789966531098 ], [ 3197629.518501682206988, 1779013.45005551353097 ], [ 3197665.680824021808803, 1778975.629988690838218 ], [ 3197673.135909324511886, 1778981.406660144217312 ], [ 3197680.35550440242514, 1778987.000846407841891 ], [ 3197673.213520667515695, 1779038.451791439438239 ], [ 3197692.647076663095504, 1779150.522045825375244 ], [ 3197718.322710613720119, 1779226.25615003076382 ], [ 3197747.196873760782182, 1779221.985991428839043 ], [ 3197846.5813536955975, 1779157.204540160950273 ], [ 3197870.055098221637309, 1779162.789452279452235 ], [ 3197874.70006319694221, 1779175.709359184838831 ], [ 3197888.02133805770427, 1779212.761891738744453 ], [ 3197905.877046387176961, 1779262.42700853315182 ], [ 3197894.057758533395827, 1779311.475704916054383 ], [ 3198007.28665435872972, 1779270.652781157754362 ], [ 3198013.704351803287864, 1779265.158252647379413 ], [ 3198057.912318242713809, 1779227.309698023833334 ], [ 3198087.33677508123219, 1779202.11799087934196 ], [ 3198090.042761001735926, 1779199.801275473786518 ], [ 3198095.076680123806, 1779212.533111455151811 ], [ 3198157.784800197929144, 1779371.132954563014209 ], [ 3198172.797694363631308, 1779409.10318479500711 ], [ 3198181.830488002859056, 1779431.948654896812513 ], [ 3198210.463213579729199, 1779443.059102828381583 ], [ 3198222.727617689408362, 1779445.845941936830059 ], [ 3198237.244499444961548, 1779449.144691159948707 ], [ 3198234.959782682359219, 1779462.613140039611608 ], [ 3198231.639638731256127, 1779482.18527053645812 ], [ 3198280.242432133760303, 1779494.811847768491134 ], [ 3198291.019515250343829, 1779497.61166267003864 ], [ 3198301.752168742008507, 1779541.68121278937906 ], [ 3198302.759922087192535, 1779545.819008990190923 ], [ 3198309.145303430967033, 1779551.846474768826738 ], [ 3198350.647887830622494, 1779591.022961483104154 ], [ 3198360.70278970617801, 1779587.274455952690914 ], [ 3198367.10934785567224, 1779580.369716581655666 ], [ 3198403.292331877630204, 1779541.373250008560717 ], [ 3198493.167426259256899, 1779446.858926155604422 ], [ 3198492.569722237531096, 1779428.520323595963418 ], [ 3198491.622050315141678, 1779399.444569343701005 ], [ 3198491.435730528552085, 1779393.726666504051536 ], [ 3198474.87008268199861, 1779306.015926582738757 ], [ 3198473.842545295134187, 1779300.575097764842212 ], [ 3198481.141410078853369, 1779283.60105713759549 ], [ 3198497.719302979297936, 1779245.047724110307172 ], [ 3198499.840613396372646, 1779203.810906423022971 ], [ 3198500.547840958926827, 1779190.063635009340942 ], [ 3198474.554647400975227, 1779157.661960723577067 ], [ 3198469.582066496834159, 1779144.516010756837204 ], [ 3198403.437056312803179, 1778969.650355391670018 ], [ 3198479.06906728586182, 1779027.186189755098894 ], [ 3198518.097306218929589, 1779050.264173449715599 ], [ 3198524.933263416402042, 1779080.218029329786077 ], [ 3198605.093796204775572, 1779125.221709760837257 ], [ 3198673.973224377259612, 1779152.928601912688464 ], [ 3198727.386694584041834, 1779150.165746219921857 ], [ 3198785.427856919821352, 1779126.146778599824756 ], [ 3198816.913804121315479, 1779113.117067276034504 ], [ 3198864.333776061423123, 1779094.590433782665059 ], [ 3198870.815038002096117, 1779092.058221448445693 ], [ 3198903.068982040509582, 1779113.667500333627686 ], [ 3198909.908320147544146, 1779075.092278592055663 ], [ 3198964.408336591441184, 1779026.995374306570739 ], [ 3198984.125949438661337, 1779028.838793967617676 ], [ 3199004.695733895525336, 1779030.761829169932753 ], [ 3199025.804960348643363, 1779077.556759762112051 ], [ 3199012.863307006657124, 1779083.428417132934555 ], [ 3198951.1773891299963, 1779111.415520281530917 ], [ 3198925.220768984872848, 1779095.83765644999221 ], [ 3198916.084821202792227, 1779157.960990802617744 ], [ 3198939.87390102352947, 1779172.575417550513521 ], [ 3198919.273444284684956, 1779204.831917314790189 ], [ 3198895.430694740265608, 1779194.233971738023683 ], [ 3198872.569636393804103, 1779216.192953845718876 ], [ 3198867.55612328229472, 1779266.609917961759493 ], [ 3198915.130546811968088, 1779239.070500910282135 ], [ 3198962.464995193295181, 1779221.323255021125078 ], [ 3199005.930173824541271, 1779199.432010502321646 ], [ 3199009.481280287727714, 1779149.132759181549773 ], [ 3199092.242939367890358, 1779125.565185316372663 ], [ 3199094.580342272296548, 1779124.899601995013654 ], [ 3199069.166933500207961, 1779214.671853448497131 ], [ 3199054.095318797975779, 1779267.912228477653116 ], [ 3198997.271732767112553, 1779279.460351468529552 ], [ 3199042.070587391965091, 1779302.661832568002865 ], [ 3199039.587103259749711, 1779309.838653438724577 ], [ 3199037.651699096895754, 1779315.43164571467787 ], [ 3199065.72150055039674, 1779361.177190779242665 ], [ 3199067.472567522898316, 1779364.030909662367776 ], [ 3199069.147951067425311, 1779366.761319497600198 ], [ 3199065.165439762175083, 1779388.708680263953283 ], [ 3199057.203882716130465, 1779398.789629217935726 ], [ 3199034.904727667104453, 1779427.024624907644466 ], [ 3199055.136787489056587, 1779454.722543358802795 ], [ 3199056.306643409188837, 1779456.324114237911999 ], [ 3199055.120669411495328, 1779461.773051660275087 ], [ 3199035.510485730133951, 1779551.87387671880424 ], [ 3199034.561909792013466, 1779556.232170910108835 ], [ 3199031.822135780006647, 1779556.345515907974914 ], [ 3199003.74698762409389, 1779557.506676165154204 ], [ 3199000.637031416408718, 1779558.259836308192462 ], [ 3198875.296111022122204, 1779588.61605764948763 ], [ 3198867.038985502906144, 1779590.615896840812638 ], [ 3198862.405008549336344, 1779593.900226389523596 ], [ 3198815.741830145008862, 1779626.973196156788617 ], [ 3198807.340654904488474, 1779632.927628219127655 ], [ 3198804.192510868422687, 1779643.006244838470593 ], [ 3198800.675137070938945, 1779654.266622071154416 ], [ 3198799.714595549739897, 1779657.341650649206713 ], [ 3198802.308335897978395, 1779664.857988486764953 ], [ 3198815.56440344825387, 1779703.272598492680117 ], [ 3198810.964237002655864, 1779711.582450419897214 ], [ 3198713.093448009341955, 1779888.378087055869401 ], [ 3198692.627767914906144, 1779925.348024381324649 ], [ 3198688.254116375930607, 1779933.24866504711099 ], [ 3198673.461936631239951, 1779930.639451279072091 ], [ 3198522.054426588118076, 1779903.93239971366711 ], [ 3198512.300870400853455, 1779906.191320684971288 ], [ 3198505.664209460839629, 1779907.728347659576684 ], [ 3198492.5801902692765, 1779910.758579540997744 ], [ 3198442.581511767581105, 1779948.351347594987601 ], [ 3198441.515980171505362, 1779949.152521184179932 ], [ 3198431.790678702294827, 1779956.464717562543228 ], [ 3198421.457289724610746, 1779960.485948507674038 ], [ 3198371.066472924314439, 1779980.095581506146118 ], [ 3198356.424714241176844, 1780056.902992953080684 ], [ 3198363.511487934738398, 1780123.809244876261801 ], [ 3198370.970294617582113, 1780141.629248691257089 ], [ 3198372.769609342329204, 1780149.486045595491305 ], [ 3198375.090907732024789, 1780159.62204447737895 ], [ 3198399.019786443561316, 1780175.054349132813513 ], [ 3198400.225445421412587, 1780175.216690857894719 ], [ 3198459.484367181546986, 1780183.193995503010228 ], [ 3198495.609639896079898, 1780207.977978078881279 ], [ 3198559.336252697743475, 1780217.003416423918679 ], [ 3198604.637405915185809, 1780243.684256503824145 ], [ 3198671.251379844732583, 1780330.019043967593461 ], [ 3198686.712278459221125, 1780367.436001280555502 ], [ 3198701.871334158815444, 1780380.097179150674492 ], [ 3198765.505263352300972, 1780433.245425120228902 ], [ 3198789.79542500525713, 1780438.626453897217289 ], [ 3198791.617836777120829, 1780439.030202744528651 ], [ 3198791.799240282271057, 1780440.939594120020047 ], [ 3198792.646013745106757, 1780449.851092649623752 ], [ 3198797.101734526455402, 1780496.743095439858735 ], [ 3198899.804609999060631, 1780647.054229909554124 ], [ 3198899.855612079612911, 1780647.128971907775849 ], [ 3198901.581715627573431, 1780648.112278875894845 ], [ 3199120.735498016700149, 1780772.955154638504609 ], [ 3199125.560022071935236, 1780774.40920495823957 ], [ 3199159.130392366088927, 1780784.526529117720202 ], [ 3199196.69742978643626, 1780770.826957148499787 ], [ 3199331.003753473050892, 1780732.942357592983171 ], [ 3199394.975472397170961, 1780714.897690723650157 ], [ 3199477.449441595934331, 1780668.275625382084399 ], [ 3199489.341363172512501, 1780661.553156171925366 ], [ 3199499.917210015933961, 1780655.57471167226322 ], [ 3199489.314550410956144, 1780635.37963857059367 ], [ 3199465.199385140091181, 1780599.448929740348831 ], [ 3199496.036880134604871, 1780550.836801583645865 ], [ 3199530.81540868896991, 1780496.012296458473429 ], [ 3199548.47329611517489, 1780530.54890896496363 ], [ 3199592.688985720276833, 1780539.247300355695188 ], [ 3199575.778124537318945, 1780567.633446499938145 ], [ 3199624.963261133059859, 1780656.161342073231936 ], [ 3199702.562958098016679, 1780625.201705494429916 ], [ 3199806.525990369729698, 1780618.566610924899578 ], [ 3199847.067392466589808, 1780619.61829661228694 ], [ 3199895.085508839227259, 1780599.535298512550071 ], [ 3199938.106422803364694, 1780581.542441097320989 ], [ 3199984.752779685426503, 1780618.518375161569566 ], [ 3199989.629040319472551, 1780622.383686190936714 ], [ 3200077.018638907931745, 1780602.652096339967102 ], [ 3200078.596371174789965, 1780602.295820530038327 ], [ 3200087.023638064973056, 1780607.288581157103181 ], [ 3200117.567756768316031, 1780625.38424967112951 ], [ 3200168.867525887675583, 1780655.776649491395801 ], [ 3200183.472632067278028, 1780664.429403401911259 ], [ 3200188.880381792783737, 1780664.156295873690397 ], [ 3200236.361430773511529, 1780661.75811830535531 ], [ 3200266.127368891611695, 1780680.937546006636694 ], [ 3200277.608666363172233, 1780688.335391030646861 ], [ 3200346.008472944609821, 1780660.560046538244933 ], [ 3200442.955537768080831, 1780650.322924803709611 ], [ 3200485.317658438812941, 1780605.87716161319986 ], [ 3200500.632154771126807, 1780563.479536376427859 ], [ 3200516.003972999751568, 1780528.102484457893297 ], [ 3200516.082017584703863, 1780528.013456403976306 ], [ 3200553.177963731810451, 1780485.875001106644049 ], [ 3200553.181131665594876, 1780485.869812524178997 ], [ 3200553.976504704914987, 1780484.378224210580811 ], [ 3200554.004763375036418, 1780484.38003549631685 ], [ 3200608.672408387996256, 1780381.864312238525599 ], [ 3200615.284588125534356, 1780341.856274964520708 ], [ 3200625.156143724452704, 1780274.532157792942598 ], [ 3200615.543701597489417, 1780191.36983120511286 ], [ 3200630.622455600649118, 1780158.03853323822841 ], [ 3200639.982244432903826, 1780152.08257896755822 ], [ 3200657.360686843283474, 1780147.466450484935194 ], [ 3200661.637890026904643, 1780153.745155572891235 ], [ 3200661.818899722769856, 1780153.82241240516305 ], [ 3200674.52769583882764, 1780173.668707670411095 ], [ 3200686.628704760223627, 1780232.3230519304052 ], [ 3200696.556842331308872, 1780280.445429790299386 ], [ 3200697.793837040662766, 1780289.992242754437029 ], [ 3200703.915479082148522, 1780337.238209644565359 ], [ 3200697.256674654781818, 1780374.368012738181278 ], [ 3200695.299082305282354, 1780385.283573507564142 ], [ 3200693.453171698376536, 1780395.576669863192365 ], [ 3200694.872541550546885, 1780447.36237406055443 ], [ 3200697.061762274708599, 1780527.224914997350425 ], [ 3200724.401619733311236, 1780564.320476335240528 ], [ 3200747.923977320082486, 1780596.236293129855767 ], [ 3200700.537207121029496, 1780591.913751462940127 ], [ 3200673.043587174266577, 1780589.405892172362655 ], [ 3200653.117528163827956, 1780595.856591594638303 ], [ 3200620.407704539597034, 1780609.957016073632985 ], [ 3200606.400829990394413, 1780615.995085634058341 ], [ 3200586.348828339017928, 1780628.020661476068199 ], [ 3200573.343155650421977, 1780642.615605160593987 ], [ 3200556.073443143628538, 1780661.995605352101848 ], [ 3200522.672975969035178, 1780695.497571122832596 ], [ 3200476.265025838278234, 1780712.665279594482854 ], [ 3200458.996480690315366, 1780719.05353551870212 ], [ 3200459.010618924628943, 1780719.180853242985904 ], [ 3200458.918138251174241, 1780719.1439278149046 ], [ 3200406.397854152135551, 1780748.861529586603865 ], [ 3200382.678403197787702, 1780780.196350460639223 ], [ 3200379.772376664914191, 1780788.772868263535202 ], [ 3200343.383586727548391, 1780832.380336075322703 ], [ 3200325.723585156258196, 1780871.257073784712702 ], [ 3200309.839024323970079, 1780867.421962510794401 ], [ 3200309.42428421555087, 1780846.794502253876999 ], [ 3200294.974962239619344, 1780829.586958516621962 ], [ 3200279.290459242183715, 1780840.862749746534973 ], [ 3200279.027251495048404, 1780875.237453312147409 ], [ 3200300.332176103256643, 1780932.160204045940191 ], [ 3200303.595724541693926, 1780962.395326763158664 ], [ 3200294.055429765488952, 1781042.496919999364763 ], [ 3214938.294320000801235, 1781042.496919999364763 ], [ 3214938.294320000801235, 1758611.979980000760406 ], [ 3190862.41028, 1758611.979980000760406 ], [ 3190862.41028, 1777213.281617353437468 ], [ 3190882.417931095696986, 1777194.553968485444784 ] ] ] } }
]
}
