{
"type": "FeatureCollection",
"name": "Lopera",
"crs": { "type": "name", "properties": { "name": "urn:ogc:def:crs:EPSG::3035" } },
"features": [
{ "type": "Feature", "properties": { "SITE_NAME": "Río Guadalquivir -Tramo medio", "ODESIGNATE": "Zona de Importancia Comunitaria ZIC (ZEPA/ZEC)", "NUT2": 61, "SITE_CODE_": "ES6130015", "DESIG_ABBR": "ES49", "SITE_CDDA": "555588872_CDDA", "Sup_ha": 2548.91765816 }, "geometry": { "type": "Polygon", "coordinates": [ [ [ 3063528.48411563783884, 1776655.972776096081361 ], [ 3063529.272116603795439, 1776651.947279164101928 ], [ 3063556.560943190008402, 1776635.685292818583548 ], [ 3063570.87814340274781, 1776627.153413383523002 ], [ 3063570.936898089945316, 1776625.83216934860684 ], [ 3063571.189066281542182, 1776620.187014820985496 ], [ 3063577.935535059776157, 1776614.574803470633924 ], [ 3063595.462350402027369, 1776606.149079662049189 ], [ 3063601.745422771200538, 1776603.12792889517732 ], [ 3063610.268736053258181, 1776597.531608761521056 ], [ 3063615.555516386870295, 1776592.591767067089677 ], [ 3063621.681117905303836, 1776586.870312354760244 ], [ 3063637.16140793915838, 1776580.106996526010334 ], [ 3063655.745609937235713, 1776574.168787482427433 ], [ 3063663.554440848529339, 1776576.808493642369285 ], [ 3063667.283973653800786, 1776583.506397755583748 ], [ 3063675.896696472074836, 1776582.66226960811764 ], [ 3063681.285737168975174, 1776578.375152674503624 ], [ 3063684.20509045664221, 1776571.175914127146825 ], [ 3063689.996686882805079, 1776569.49017295264639 ], [ 3063700.878710769116879, 1776570.253036421258003 ], [ 3063710.699081177823246, 1776568.528267005691305 ], [ 3063717.497431029565632, 1776564.660065316595137 ], [ 3063726.463164230808616, 1776561.748303700005636 ], [ 3063747.96966231521219, 1776557.302551020868123 ], [ 3063762.778636776842177, 1776557.375742063391954 ], [ 3063775.976221327669919, 1776555.726401402615011 ], [ 3063782.119742454960942, 1776551.97322211926803 ], [ 3063793.351828619837761, 1776550.669088036753237 ], [ 3063802.369302964303643, 1776552.428001308813691 ], [ 3063813.431224789004773, 1776554.585440875263885 ], [ 3063821.624137741047889, 1776556.183957202360034 ], [ 3063829.217845919076353, 1776556.402655076701194 ], [ 3063839.230780265294015, 1776556.691085981437936 ], [ 3063851.382717248983681, 1776560.532270080875605 ], [ 3063868.863639589864761, 1776564.815067376941442 ], [ 3063884.427533688955009, 1776565.424373996211216 ], [ 3063893.687117041088641, 1776565.803691250970587 ], [ 3063904.673494070768356, 1776557.188813628861681 ], [ 3063925.321824247948825, 1776542.866678085410967 ], [ 3063934.688036798033863, 1776533.869830084731802 ], [ 3063942.223240314982831, 1776526.628877513110638 ], [ 3063945.260152121074498, 1776515.299508138559759 ], [ 3063947.436254682950675, 1776507.181479989783838 ], [ 3063948.177330487407744, 1776499.411692515714094 ], [ 3063952.507507558912039, 1776492.634380897507071 ], [ 3063960.413693627342582, 1776487.234580557094887 ], [ 3063973.408351705409586, 1776484.283866250421852 ], [ 3063981.618599586188793, 1776480.837325054220855 ], [ 3063987.107310845516622, 1776477.199191920692101 ], [ 3063995.337136172223836, 1776471.744686235673726 ], [ 3064003.82653141906485, 1776463.566264380700886 ], [ 3064012.286783485673368, 1776457.401637836592272 ], [ 3064018.027577456086874, 1776451.045052315108478 ], [ 3064020.745428834110498, 1776442.546285931719467 ], [ 3064024.550334352068603, 1776430.64323992212303 ], [ 3064031.871666154824197, 1776423.211173689225689 ], [ 3064045.218374319374561, 1776418.193026818567887 ], [ 3064058.161336067132652, 1776410.571605613920838 ], [ 3064071.80852809175849, 1776398.816347144776955 ], [ 3064080.187788253650069, 1776390.416764948982745 ], [ 3064092.209797504357994, 1776268.046758095733821 ], [ 3064091.162761710118502, 1776267.734406987670809 ], [ 3064086.326379105448723, 1776262.566854918142781 ], [ 3064087.831977389752865, 1776246.258570809848607 ], [ 3064090.298858905211091, 1776240.477991509018466 ], [ 3064094.15925151668489, 1776231.429833136731759 ], [ 3064093.014205185696483, 1776223.288714322028682 ], [ 3064093.666593769099563, 1776214.483159818453714 ], [ 3064106.250426886603236, 1776182.859475136268884 ], [ 3064123.569730956107378, 1776155.752540979068726 ], [ 3064137.064404878765345, 1776138.67580002383329 ], [ 3064141.845262166112661, 1776121.792362116277218 ], [ 3064146.955988695845008, 1776103.738376456545666 ], [ 3064148.232905595563352, 1776089.251357791014016 ], [ 3064143.744966332800686, 1776073.326015601865947 ], [ 3064144.747218076139688, 1776053.764465786051005 ], [ 3064148.973208057228476, 1776037.647034989437088 ], [ 3064151.164781094063073, 1776029.292399584315717 ], [ 3064150.984629375394434, 1776024.592590040294454 ], [ 3064141.766215337906033, 1776021.531673460965976 ], [ 3064137.130791341420263, 1776017.667030455544591 ], [ 3064135.265766257420182, 1776009.972138777608052 ], [ 3064139.895581961609423, 1775996.457868784666061 ], [ 3064143.946837323717773, 1775984.631719183409587 ], [ 3064139.938983269035816, 1775975.058084840187803 ], [ 3064140.7417619721964, 1775962.884446337819099 ], [ 3064143.508979849517345, 1775950.365826893830672 ], [ 3064142.54899344779551, 1775939.838843365199864 ], [ 3064140.380043786950409, 1775930.190692840609699 ], [ 3064140.075059100054204, 1775919.549694912740961 ], [ 3064142.788654467556626, 1775902.360804115654901 ], [ 3064149.129158147610724, 1775873.839321695035324 ], [ 3064155.465236913878471, 1775836.627788356738165 ], [ 3064156.418151741381735, 1775821.085097850300372 ], [ 3064155.357263712212443, 1775809.907307972200215 ], [ 3064157.766787115950137, 1775782.076292795361951 ], [ 3064158.525425281841308, 1775773.314690348692238 ], [ 3064173.879350021481514, 1775768.62051970558241 ], [ 3064181.028157089371234, 1775753.995095759863034 ], [ 3064178.80786472465843, 1775739.678012824850157 ], [ 3064176.282409992069006, 1775714.718476483598351 ], [ 3064180.20184167008847, 1775679.268195843556896 ], [ 3064167.504717787262052, 1775662.707161412574351 ], [ 3064167.0501399920322, 1775655.438201138284057 ], [ 3064165.561280807480216, 1775631.65000142226927 ], [ 3064164.436332599259913, 1775613.686409199610353 ], [ 3064165.977656657341868, 1775600.809691650327295 ], [ 3064160.182865118607879, 1775593.805950858164579 ], [ 3064159.173498396761715, 1775587.297808209666982 ], [ 3064160.88471850194037, 1775580.981554233003408 ], [ 3064162.533031387254596, 1775574.897678680717945 ], [ 3064159.722941896878183, 1775569.15287067159079 ], [ 3064157.455869230441749, 1775567.546383674023673 ], [ 3064158.108118776232004, 1775558.739816654473543 ], [ 3064159.819190367590636, 1775552.422580430982634 ], [ 3064158.809981354512274, 1775545.915423613740131 ], [ 3064156.441731216385961, 1775543.657154473708943 ], [ 3064154.676862783264369, 1775536.6142613356933 ], [ 3064157.293915105517954, 1775527.463669036747888 ], [ 3064157.845551372505724, 1775518.008257012581453 ], [ 3064154.871746910735965, 1775511.845094304764643 ], [ 3064156.230906125158072, 1775507.596289133885875 ], [ 3064155.32257462805137, 1775501.738948798272759 ], [ 3064150.433589321561158, 1775491.901988989673555 ], [ 3064159.347056368365884, 1775484.320857051527128 ], [ 3064161.358469428494573, 1775471.265394508605823 ], [ 3064163.244406463578343, 1775459.025726272258908 ], [ 3064163.165877093095332, 1775448.218790689716116 ], [ 3064163.088824870530516, 1775437.629895373014733 ], [ 3064164.72130842320621, 1775427.891607588157058 ], [ 3064162.604364504106343, 1775422.916064586024731 ], [ 3064161.594866608269513, 1775416.406946282368153 ], [ 3064165.470091746654361, 1775402.356766973389313 ], [ 3064173.022262750193477, 1775390.3349400437437 ], [ 3064176.848192530684173, 1775380.304652955150232 ], [ 3064177.702578153461218, 1775372.800697305006906 ], [ 3064173.620936516206712, 1775368.169162698322907 ], [ 3064178.10170655278489, 1775358.023782601347193 ], [ 3064180.752662220038474, 1775352.019546395400539 ], [ 3064181.87503972556442, 1775343.322972757043317 ], [ 3064182.842514792922884, 1775335.830188140971586 ], [ 3064182.274192993529141, 1775328.546160341938958 ], [ 3064181.812528923153877, 1775322.627978452946991 ], [ 3064180.982858532108366, 1775311.979850202798843 ], [ 3064181.004725659266114, 1775289.99603507691063 ], [ 3064183.518837557174265, 1775271.506154587492347 ], [ 3064188.146508040837944, 1775249.301427737344056 ], [ 3064193.783495697658509, 1775233.604733289219439 ], [ 3064199.42377867270261, 1775226.598543930798769 ], [ 3064204.792283909395337, 1775219.927709781564772 ], [ 3064207.729252504184842, 1775206.421025041723624 ], [ 3064210.188315597362816, 1775165.880247646011412 ], [ 3064211.283048195764422, 1775120.89932264550589 ], [ 3064214.299575658515096, 1775096.972974445205182 ], [ 3064218.976672968827188, 1775070.748413514345884 ], [ 3064227.181460909545422, 1775049.921102594351396 ], [ 3064233.624797382391989, 1775030.741299906512722 ], [ 3064238.151680677197874, 1775007.885819500079378 ], [ 3064242.421902800910175, 1774961.67882764688693 ], [ 3064245.568027076311409, 1774927.622124175541103 ], [ 3064250.012730521149933, 1774902.187620692420751 ], [ 3064251.367901394143701, 1774882.187927438877523 ], [ 3064251.41929083969444, 1774880.610299528110772 ], [ 3064251.723585917148739, 1774876.940010668942705 ], [ 3064254.231494285166264, 1774846.69180638412945 ], [ 3064272.952296631410718, 1774776.5551299280487 ], [ 3064273.980126066599041, 1774773.711122512118891 ], [ 3064284.995361884124577, 1774743.230647555086762 ], [ 3064286.633794247638434, 1774739.263533723074943 ], [ 3064290.42000032030046, 1774732.448581925826147 ], [ 3064292.332442452199757, 1774725.695250157266855 ], [ 3064297.667733098845929, 1774709.784261537482962 ], [ 3064306.727466409094632, 1774681.454014221206307 ], [ 3064309.002059508115053, 1774673.056671651080251 ], [ 3064323.639782491140068, 1774643.924325810745358 ], [ 3064325.455617581959814, 1774636.41079486743547 ], [ 3064325.693246679380536, 1774635.427564969751984 ], [ 3064326.331184636801481, 1774632.78806039900519 ], [ 3064330.026235424913466, 1774628.697013451717794 ], [ 3064330.976964022032917, 1774627.443843074608594 ], [ 3064340.292165966704488, 1774617.830612858524546 ], [ 3064346.313408423215151, 1774611.616664886940271 ], [ 3064346.80335629824549, 1774611.111018233234063 ], [ 3064363.318812699988484, 1774587.488615419249982 ], [ 3064376.32462683878839, 1774568.886020720936358 ], [ 3064389.053640987724066, 1774550.680810450576246 ], [ 3064398.515026434324682, 1774532.5091077524703 ], [ 3064403.899877903051674, 1774510.840225176420063 ], [ 3064411.098127838224173, 1774492.195579312741756 ], [ 3064413.934772797860205, 1774485.918308956315741 ], [ 3064415.441230053082108, 1774483.745517500676215 ], [ 3064422.429849100764841, 1774471.555276507977396 ], [ 3064426.235901900567114, 1774463.132618021918461 ], [ 3064428.187856689561158, 1774453.163745669648051 ], [ 3064428.44635188113898, 1774439.213947609066963 ], [ 3064428.22050906624645, 1774422.140458370326087 ], [ 3064429.265548433177173, 1774411.528603942366317 ], [ 3064432.285866275895387, 1774403.243822066579014 ], [ 3064436.152888898737729, 1774396.949660416226834 ], [ 3064442.86081885593012, 1774389.889145887689665 ], [ 3064455.008044810965657, 1774379.734446611255407 ], [ 3064459.245218162890524, 1774376.280036347918212 ], [ 3064460.024152056779712, 1774375.645023511489853 ], [ 3064460.302548298146576, 1774373.071899095550179 ], [ 3064458.42681070137769, 1774365.58710349095054 ], [ 3064457.809131901245564, 1774350.966197590343654 ], [ 3064464.303202777169645, 1774336.456430825404823 ], [ 3064464.535868278704584, 1774335.729058956261724 ], [ 3064466.117225960828364, 1774326.444491116795689 ], [ 3064468.823710633907467, 1774316.682520412141457 ], [ 3064467.620689643081278, 1774305.791335304034874 ], [ 3064470.640751358121634, 1774299.245396119309589 ], [ 3064477.996001633815467, 1774292.530062239384279 ], [ 3064482.971586172003299, 1774284.178482074290514 ], [ 3064490.162082059308887, 1774273.289804313797504 ], [ 3064492.561161330901086, 1774268.2768790719565 ], [ 3064492.745492709800601, 1774268.244512368692085 ], [ 3064510.185549321584404, 1774231.490944565739483 ], [ 3064503.220156114082783, 1774199.884079355280846 ], [ 3064507.6092982115224, 1774182.789097527740523 ], [ 3064513.83119302848354, 1774165.653162831673399 ], [ 3064522.652565576136112, 1774149.665160970762372 ], [ 3064528.3927072128281, 1774139.833312552422285 ], [ 3064534.735696806106716, 1774123.47826236509718 ], [ 3064537.348637275863439, 1774119.64448959659785 ], [ 3064537.793391775805503, 1774116.323511200491339 ], [ 3064541.843249614350498, 1774112.472101633669809 ], [ 3064552.448655422776937, 1774102.386499196756631 ], [ 3064562.009095747955143, 1774093.293993272818625 ], [ 3064573.199398778378963, 1774088.716169001301751 ], [ 3064580.251491383183748, 1774090.820654537295923 ], [ 3064588.916783213615417, 1774094.645242598140612 ], [ 3064594.154618842061609, 1774093.7256562365219 ], [ 3064597.075061609968543, 1774086.529729199595749 ], [ 3064599.592552233487368, 1774076.728328691329807 ], [ 3064605.432939955964684, 1774071.024273668648675 ], [ 3064610.609551216475666, 1774065.968659332720563 ], [ 3064614.749244302511215, 1774057.35510703548789 ], [ 3064617.011548654641956, 1774041.582898600026965 ], [ 3064618.655802296474576, 1774030.125922762323171 ], [ 3064618.064156137406826, 1774018.001901056151837 ], [ 3064620.176133959554136, 1774005.598723335890099 ], [ 3064621.798110243864357, 1773996.079789996147156 ], [ 3064626.166826485190541, 1773987.834831671323627 ], [ 3064633.217884929385036, 1773981.248681735480204 ], [ 3064634.59015692025423, 1773981.949429705040529 ], [ 3064660.123945461120456, 1773967.886165958363563 ], [ 3064705.961655276827514, 1773959.837906351778656 ], [ 3064739.312421296723187, 1773975.373641779646277 ], [ 3064743.109778261277825, 1773978.065897695487365 ], [ 3064743.684570033568889, 1773977.896860028384253 ], [ 3064754.063385548070073, 1773984.09583611227572 ], [ 3064771.845607848837972, 1773990.33298977301456 ], [ 3064779.402064657304436, 1773995.690470581641421 ], [ 3064785.495066510047764, 1774000.010301106376573 ], [ 3064793.205573989078403, 1773997.945629824651405 ], [ 3064809.300847750157118, 1773993.638786701951176 ], [ 3064820.052823424804956, 1773993.231937708798796 ], [ 3064832.745613953564316, 1773988.330381122883409 ], [ 3064843.978173149749637, 1773987.026824729051441 ], [ 3064844.552053484134376, 1773993.078308603726327 ], [ 3064847.608620109502226, 1774001.764352878089994 ], [ 3064854.814013339579105, 1774009.189059884985909 ], [ 3064863.629051467869431, 1774009.647927762940526 ], [ 3064873.886204902082682, 1774010.179723121225834 ], [ 3064883.853640247136354, 1774010.697102974867448 ], [ 3064896.775708164088428, 1774015.192270461469889 ], [ 3064906.396668042521924, 1774020.855721335392445 ], [ 3064916.272132624872029, 1774023.801604810636491 ], [ 3064929.420827620662749, 1774026.172692466527224 ], [ 3064941.056209018453956, 1774029.644154150038958 ], [ 3064943.82498459238559, 1774030.10002546175383 ], [ 3064949.482415658421814, 1774029.386363509111106 ], [ 3064992.103616550099105, 1774052.653497288236395 ], [ 3065014.071110161021352, 1774072.861959073925391 ], [ 3065034.32937139691785, 1774108.077258963370696 ], [ 3065053.883396056480706, 1774147.427066104952246 ], [ 3065069.70624513970688, 1774171.388393322005868 ], [ 3065074.850035818293691, 1774195.887722713174298 ], [ 3065091.377133952453732, 1774215.714469639351591 ], [ 3065092.540832667611539, 1774231.545768626965582 ], [ 3065099.375643414445221, 1774232.974190455162898 ], [ 3065105.872989907860756, 1774227.154775450471789 ], [ 3065109.799081276636571, 1774217.774740312248468 ], [ 3065117.450293978210539, 1774220.821339819347486 ], [ 3065120.229392841458321, 1774228.644446717342362 ], [ 3065123.55378604028374, 1774238.003765858244151 ], [ 3065126.178566884249449, 1774249.66016599512659 ], [ 3065135.397080551832914, 1774252.721341010881588 ], [ 3065140.436071964912117, 1774259.189308746019378 ], [ 3065137.717739738058299, 1774267.6888726670295 ], [ 3065137.517900360748172, 1774275.076626772293821 ], [ 3065141.096838914789259, 1774285.143666968680918 ], [ 3065147.496203216258436, 1774296.053484732517973 ], [ 3065150.674541807733476, 1774312.207490992732346 ], [ 3065158.282599073834717, 1774322.235665909014642 ], [ 3065164.431565598584712, 1774335.862544016214088 ], [ 3065168.618011692538857, 1774345.139851810643449 ], [ 3065171.432490296661854, 1774351.377561131725088 ], [ 3065179.347896825522184, 1774362.656694752397016 ], [ 3065184.900087864138186, 1774370.567277602851391 ], [ 3065192.449157264083624, 1774377.737068458227441 ], [ 3065194.516565388999879, 1774386.73244786541909 ], [ 3065195.274380540475249, 1774395.958663064753637 ], [ 3065197.442797558382154, 1774405.604836254846305 ], [ 3065198.050133597105742, 1774418.19909393414855 ], [ 3065200.721081024035811, 1774422.409839541651309 ], [ 3065208.528957646340132, 1774425.05016804439947 ], [ 3065212.006995992735028, 1774434.466312888544053 ], [ 3065213.067502619698644, 1774445.644058711128309 ], [ 3065217.249982418492436, 1774450.926378237782046 ], [ 3065222.135690013412386, 1774452.074275736697018 ], [ 3065223.144597607664764, 1774458.58129556151107 ], [ 3065224.058379720896482, 1774464.474792992230505 ], [ 3065225.871842981316149, 1774476.170175701379776 ], [ 3065229.545905315317214, 1774478.180632359581068 ], [ 3065234.187007514759898, 1774480.718736924231052 ], [ 3065239.977394233457744, 1774489.051186178578064 ], [ 3065245.325315398164093, 1774496.746102539123967 ], [ 3065245.571293581742793, 1774503.443060858407989 ], [ 3065244.365619496442378, 1774513.014015347929671 ], [ 3065248.345061288680881, 1774516.994023889768869 ], [ 3065251.872696029953659, 1774522.391420870786533 ], [ 3065253.083427594974637, 1774530.200065072393045 ], [ 3065258.927798867225647, 1774533.185133781982586 ], [ 3065264.469445355702192, 1774534.217771589756012 ], [ 3065268.751765855588019, 1774540.151197789702564 ], [ 3065269.105832302011549, 1774546.773294213693589 ], [ 3065268.050487163476646, 1774552.97522296058014 ], [ 3065271.173500248230994, 1774555.769553375896066 ], [ 3065278.630076713860035, 1774560.476142058381811 ], [ 3065281.805575388483703, 1774567.940948470961303 ], [ 3065278.683586061466485, 1774573.836179092293605 ], [ 3065277.728079112246633, 1774580.689209148520604 ], [ 3065280.248547655995935, 1774588.267908322392032 ], [ 3065285.639873317442834, 1774592.669576412066817 ], [ 3065292.811314664781094, 1774598.525281813228503 ], [ 3065295.968237072695047, 1774602.888717711903155 ], [ 3065299.547361664939672, 1774612.956672243308276 ], [ 3065305.947628130204976, 1774623.865468804724514 ], [ 3065306.200779054313898, 1774629.836659383727238 ], [ 3065311.592106862924993, 1774634.238331087399274 ], [ 3065311.040076580364257, 1774643.693524932488799 ], [ 3065316.983380297198892, 1774647.329760195687413 ], [ 3065320.612924013286829, 1774653.377802743576467 ], [ 3065323.032506059389561, 1774660.30579411610961 ], [ 3065330.238097664900124, 1774667.731478614965454 ], [ 3065332.354951882734895, 1774672.707037292653695 ], [ 3065337.038481752853841, 1774683.71956931380555 ], [ 3065342.786319317296147, 1774692.267398245865479 ], [ 3065354.574739256873727, 1774698.887579509289935 ], [ 3065366.162581699900329, 1774704.20693403785117 ], [ 3065370.344104410149157, 1774709.489545005606487 ], [ 3065374.719294167589396, 1774715.01445954432711 ], [ 3065374.528399308212101, 1774723.460410927422345 ], [ 3065374.362084086053073, 1774730.849583498435095 ], [ 3065382.642356810159981, 1774736.744490762008354 ], [ 3065387.528566955588758, 1774737.889082878828049 ], [ 3065395.740341676864773, 1774743.133655621670187 ], [ 3065393.576033243443817, 1774750.867446127813309 ], [ 3065392.77526724152267, 1774753.728635695762932 ], [ 3065399.924795418512076, 1774757.105509699089453 ], [ 3065406.726670340634882, 1774761.928078106604517 ], [ 3065413.677814139053226, 1774763.380789653630927 ], [ 3065420.681510646827519, 1774769.504983556922525 ], [ 3065421.791625651530921, 1774776.663894439814612 ], [ 3065426.628740818239748, 1774781.830300975590944 ], [ 3065432.353914034552872, 1774787.948237569071352 ], [ 3065442.095133434515446, 1774790.478892411338165 ], [ 3065449.450073536485434, 1774794.535840479657054 ], [ 3065455.144043629989028, 1774800.889984192326665 ], [ 3065459.445330424699932, 1774805.689016804099083 ], [ 3065465.625777521170676, 1774816.429364106152207 ], [ 3065469.665694603696465, 1774823.45157593395561 ], [ 3065473.180455225519836, 1774829.558091553393751 ], [ 3065478.67673646658659, 1774835.529861906310543 ], [ 3065485.174893247894943, 1774838.400181272998452 ], [ 3065490.566080027259886, 1774842.800893271109089 ], [ 3065493.99282643198967, 1774847.54750373470597 ], [ 3065495.946343422867358, 1774850.254297592444345 ], [ 3065497.421522532589734, 1774860.983531360281631 ], [ 3065503.215419315267354, 1774867.988668445264921 ], [ 3065511.731596385128796, 1774875.183286778395995 ], [ 3065527.029242652468383, 1774886.525141179328784 ], [ 3065535.041614554356784, 1774899.156545401550829 ], [ 3065536.300199188292027, 1774901.022726444760337 ], [ 3065535.864264599513263, 1774902.385686083696783 ], [ 3065534.05397514346987, 1774915.003629320999607 ], [ 3065537.521735268179327, 1774923.48609882267192 ], [ 3065545.623407541308552, 1774930.620297375600785 ], [ 3065552.47468426823616, 1774933.161018348298967 ], [ 3065559.568218384869397, 1774937.26347605092451 ], [ 3065560.73780142236501, 1774941.336421291111037 ], [ 3065559.006507758516818, 1774947.523024532943964 ], [ 3065562.271656516008079, 1774951.228064335417002 ], [ 3065566.905567515641451, 1774949.879794887267053 ], [ 3065576.535822830162942, 1774946.049981812248006 ], [ 3065584.202563434839249, 1774944.972405234817415 ], [ 3065590.767415450885892, 1774954.884390735765919 ], [ 3065609.359882582910359, 1774975.017138363327831 ], [ 3065622.258742418605834, 1774988.796165192499757 ], [ 3065631.496915072202682, 1774996.641226790379733 ], [ 3065631.540662487968802, 1774999.886448154458776 ], [ 3065629.582345725502819, 1775003.585128929000348 ], [ 3065623.29614521143958, 1775004.688749962253496 ], [ 3065619.026312776841223, 1775011.855748111382127 ], [ 3065618.78761688247323, 1775024.197784416144714 ], [ 3065622.94062652811408, 1775033.629507827106863 ], [ 3065627.341438826173544, 1775038.985731919994578 ], [ 3065630.236801045481116, 1775042.509510677773505 ], [ 3065635.355061057023704, 1775044.284952092682943 ], [ 3065638.639919766690582, 1775043.399002355523407 ], [ 3065641.036736922338605, 1775042.752639512298629 ], [ 3065649.095511071383953, 1775039.198731202865019 ], [ 3065654.413025219924748, 1775031.847801997326314 ], [ 3065655.216802768409252, 1775023.150121932150796 ], [ 3065655.568175560329109, 1775020.959146190667525 ], [ 3065673.954806269612163, 1775044.563082081731409 ], [ 3065685.931367143057287, 1775054.993641994893551 ], [ 3065687.270269967615604, 1775057.919518534094095 ], [ 3065691.45469335373491, 1775058.213410986121744 ], [ 3065699.918441423214972, 1775060.738683308241889 ], [ 3065708.331743812188506, 1775067.282877694815397 ], [ 3065720.473465409129858, 1775071.836564417462796 ], [ 3065723.547010788694024, 1775078.650794194545597 ], [ 3065729.140037203207612, 1775084.353164002532139 ], [ 3065738.965125784743577, 1775091.319051620084792 ], [ 3065744.003112957812846, 1775097.78739567915909 ], [ 3065752.920000636484474, 1775098.896067131776363 ], [ 3065754.382169277407229, 1775103.987604390829802 ], [ 3065754.283230463508517, 1775112.02621536119841 ], [ 3065761.386725170537829, 1775118.800471898401156 ], [ 3065769.195710954256356, 1775121.440708048408851 ], [ 3065775.795615003444254, 1775124.960628792876378 ], [ 3065785.568273263052106, 1775127.257239354308695 ], [ 3065788.340004278346896, 1775132.117761451518163 ], [ 3065789.550963948480785, 1775139.927520714234561 ], [ 3065789.048473788425326, 1775145.362861962988973 ], [ 3065790.360348913818598, 1775153.823435332160443 ], [ 3065793.232074263039976, 1775159.3360451660119 ], [ 3065800.386029222048819, 1775162.090171771124005 ], [ 3065803.453605187125504, 1775163.271618072642013 ], [ 3065806.533164750784636, 1775167.027756033232436 ], [ 3065811.171625111252069, 1775172.685590395936742 ], [ 3065817.617380674928427, 1775177.782881767721847 ], [ 3065824.367750776000321, 1775177.934858225751668 ], [ 3065830.022987149190158, 1775178.061810596846044 ], [ 3065833.384465005248785, 1775179.694550291402265 ], [ 3065838.120791953522712, 1775184.210176647640765 ], [ 3065841.153806170914322, 1775187.10211561084725 ], [ 3065846.68555892445147, 1775187.386273888405412 ], [ 3065851.51974528003484, 1775183.863578992662951 ], [ 3065855.096807922236621, 1775185.241188274230808 ], [ 3065856.458067669067532, 1775189.68191653653048 ], [ 3065856.509583842940629, 1775194.352478972170502 ], [ 3065858.5255560092628, 1775198.677257481496781 ], [ 3065866.53528446983546, 1775202.61932964855805 ], [ 3065873.724300120957196, 1775206.157017990248278 ], [ 3065877.97260323073715, 1775211.306792369345203 ], [ 3065878.981840780936182, 1775217.814911156659946 ], [ 3065883.919898865744472, 1775223.632187521317974 ], [ 3065895.304864273406565, 1775227.650249734986573 ], [ 3065901.500410532578826, 1775228.568272546632215 ], [ 3065910.367655669339001, 1775233.695758842164651 ], [ 3065920.409932337701321, 1775239.503889727173373 ], [ 3065928.555618634447455, 1775242.536291535012424 ], [ 3065940.845419000834227, 1775243.720388531917706 ], [ 3065950.910214288160205, 1775244.690745365107432 ], [ 3065958.828416474163532, 1775242.568972944281995 ], [ 3065963.46400149166584, 1775246.434881808701903 ], [ 3065971.574649053625762, 1775251.027787831844762 ], [ 3065976.310896893031895, 1775255.543545430060476 ], [ 3065984.774757197126746, 1775258.068857203470543 ], [ 3065986.890808051452041, 1775263.045613065361977 ], [ 3066002.40637820539996, 1775267.673498993506655 ], [ 3066012.597612183541059, 1775270.71518836193718 ], [ 3066019.736653453670442, 1775275.327483127359301 ], [ 3066025.963953443337232, 1775279.351671089651063 ], [ 3066035.604769485536963, 1775277.890025169355795 ], [ 3066042.960730724036694, 1775281.946903304429725 ], [ 3066052.784600322134793, 1775288.912071922561154 ], [ 3066059.336376971565187, 1775296.452676531625912 ], [ 3066068.201749837957323, 1775301.580526375211775 ], [ 3066078.630111133679748, 1775303.760986115317792 ], [ 3066088.461197895929217, 1775305.816585626453161 ], [ 3066095.69764663092792, 1775307.32998878438957 ], [ 3066098.328493686392903, 1775313.67238692031242 ], [ 3066104.070896433200687, 1775316.006949659669772 ], [ 3066113.599841257557273, 1775319.881060526706278 ], [ 3066133.288430948741734, 1775322.241683491272852 ], [ 3066138.529490028508008, 1775330.012397461570799 ], [ 3066147.044724054634571, 1775337.207320341840386 ], [ 3066155.859642632305622, 1775337.665552641497925 ], [ 3066163.969138661865145, 1775333.567816104739904 ], [ 3066169.465654390864074, 1775330.790853037498891 ], [ 3066175.051382231991738, 1775335.633513054344803 ], [ 3066189.50871639419347, 1775337.774239051155746 ], [ 3066209.054819257929921, 1775342.365202578017488 ], [ 3066221.966691619716585, 1775345.398172812769189 ], [ 3066230.403395829722285, 1775347.379736669128761 ], [ 3066240.992669303901494, 1775348.791102407965809 ], [ 3066256.731650052592158, 1775350.889990049181506 ], [ 3066274.996122809126973, 1775355.522847924847156 ], [ 3066286.38110133446753, 1775359.540919756516814 ], [ 3066299.463555173017085, 1775364.157334608724341 ], [ 3066306.089714279398322, 1775366.496162896044552 ], [ 3066312.526184285525233, 1775367.652306081028655 ], [ 3066325.977668480947614, 1775371.976153095951304 ], [ 3066334.137718073092401, 1775372.549285504966974 ], [ 3066337.463259281590581, 1775376.643085553543642 ], [ 3066346.229043025057763, 1775381.122072168625891 ], [ 3066357.866243823431432, 1775382.421873202547431 ], [ 3066369.502303226850927, 1775383.720867635915056 ], [ 3066375.495928126387298, 1775383.33725343644619 ], [ 3066381.037602744996548, 1775384.370035127270967 ], [ 3066391.515187957324088, 1775386.323542443336919 ], [ 3066398.870359224267304, 1775386.587847131304443 ], [ 3066410.288499451242387, 1775386.998870173469186 ], [ 3066419.423385497182608, 1775388.996572725940496 ], [ 3066426.022341266740113, 1775392.516868130071089 ], [ 3066429.296676499769092, 1775391.942084215348586 ], [ 3066430.010240639559925, 1775396.544024967588484 ], [ 3066431.516689660958946, 1775406.258800939423963 ], [ 3066439.527436189353466, 1775410.200809338362888 ], [ 3066448.997325310949236, 1775410.544034372782335 ], [ 3066457.178842552006245, 1775410.839140758384019 ], [ 3066463.405286688357592, 1775416.704602908110246 ], [ 3066489.600928322412074, 1775420.797069870866835 ], [ 3066509.145829849410802, 1775425.387385276844725 ], [ 3066526.085332673043013, 1775429.366122624604031 ], [ 3066539.311604158487171, 1775432.472257677465677 ], [ 3066556.095210577361286, 1775433.189496251288801 ], [ 3066566.725532953161746, 1775436.671693291282281 ], [ 3066576.90155814634636, 1775441.569585217628628 ], [ 3066582.991704735904932, 1775444.501294500427321 ], [ 3066587.077751792967319, 1775446.468561843736097 ], [ 3066591.343690749257803, 1775448.521080054342747 ], [ 3066601.284987824037671, 1775451.327358367154375 ], [ 3066607.531960313208401, 1775456.915965270716697 ], [ 3066618.817153988406062, 1775460.283221822232008 ], [ 3066627.602981154806912, 1775462.904254538705572 ], [ 3066632.710534138604999, 1775464.428239301778376 ], [ 3066638.871832338161767, 1775466.267109088599682 ], [ 3066645.390035202726722, 1775468.212003414984792 ], [ 3066651.865057063288987, 1775473.867207035887986 ], [ 3066657.708393176086247, 1775476.852661328390241 ], [ 3066663.350991692859679, 1775478.536296072183177 ], [ 3066674.836759333964437, 1775483.204306044615805 ], [ 3066676.054960589390248, 1775483.700331381522119 ], [ 3066682.594318206422031, 1775481.175060863606632 ], [ 3066691.308191118296236, 1775480.981514911167324 ], [ 3066701.132347183302045, 1775487.947799860266969 ], [ 3066707.328803415410221, 1775488.86569117824547 ], [ 3066716.751149853225797, 1775493.227488209493458 ], [ 3066724.380036210641265, 1775496.761488624615595 ], [ 3066728.186695511452854, 1775501.916510584997013 ], [ 3066736.548678609542549, 1775503.791238177800551 ], [ 3066745.869024438783526, 1775507.50241821911186 ], [ 3066757.226136161014438, 1775512.025372835574672 ], [ 3066766.472579912282526, 1775514.581146523822099 ], [ 3066778.865596820600331, 1775516.416932513937354 ], [ 3066788.185092452447861, 1775520.129181337542832 ], [ 3066799.167460398748517, 1775521.544060551328585 ], [ 3066810.75425008405, 1775526.862905632238835 ], [ 3066824.254093365743756, 1775527.167366368928924 ], [ 3066836.897357292473316, 1775526.285233350005001 ], [ 3066847.568790727294981, 1775525.540022938977927 ], [ 3066851.052172290161252, 1775526.474736307514831 ], [ 3066864.712328545283526, 1775530.136058142408729 ], [ 3066872.41251453384757, 1775534.08920945157297 ], [ 3066883.59571063099429, 1775536.805817044107243 ], [ 3066888.132369293831289, 1775548.71041983528994 ], [ 3066885.817682024091482, 1775559.811955260578543 ], [ 3066894.633622510824353, 1775560.27007808117196 ], [ 3066908.586615035310388, 1775559.157970644999295 ], [ 3066921.881412532180548, 1775558.099348912481219 ], [ 3066931.306010216474533, 1775562.522853899514303 ], [ 3066942.590123397298157, 1775565.890292263589799 ], [ 3066960.777042746543884, 1775574.730367108946666 ], [ 3066972.819004382006824, 1775587.323071551509202 ], [ 3066984.125156658701599, 1775599.146691761678085 ], [ 3066990.303886470384896, 1775608.988320361822844 ], [ 3066995.153353775851429, 1775616.711952934740111 ], [ 3067003.756407185923308, 1775622.001971779856831 ], [ 3067009.349461865611374, 1775627.704409864731133 ], [ 3067021.79301705956459, 1775634.210997609654441 ], [ 3067028.545510575175285, 1775643.052567342994735 ], [ 3067038.315095134545118, 1775655.845467751380056 ], [ 3067045.251931371632963, 1775664.928866614820436 ], [ 3067053.132944846525788, 1775662.802531053777784 ], [ 3067062.604843725450337, 1775671.835309147369117 ], [ 3067075.050476920325309, 1775687.031306304037571 ], [ 3067086.036897502373904, 1775705.824968007858843 ], [ 3067096.174830132164061, 1775723.168756526662037 ], [ 3067105.185708548408002, 1775738.583716509630904 ], [ 3067119.19438845757395, 1775754.820706808241084 ], [ 3067132.90121797984466, 1775773.805417311610654 ], [ 3067148.573964118026197, 1775801.136854366166517 ], [ 3067165.253575322218239, 1775826.28507556207478 ], [ 3067174.660998677834868, 1775840.469246634049341 ], [ 3067192.668534425087273, 1775872.945099721895531 ], [ 3067209.249571418389678, 1775902.850287545472383 ], [ 3067221.19050695002079, 1775918.07490040990524 ], [ 3067232.762698011472821, 1775932.829214984551072 ], [ 3067239.180869171861559, 1775942.992998729227111 ], [ 3067242.77850994374603, 1775948.693917255382985 ], [ 3067246.789163041859865, 1775953.022474653553218 ], [ 3067246.640971471555531, 1775965.080810284474865 ], [ 3067250.673111705109477, 1775973.73138483427465 ], [ 3067256.2663439149037, 1775979.434843806317076 ], [ 3067265.162248968146741, 1775988.506726917577907 ], [ 3067274.504837932996452, 1775992.945614740019664 ], [ 3067281.608499998226762, 1775999.720012773992494 ], [ 3067284.431823831051588, 1776009.251296133035794 ], [ 3067287.285957315936685, 1776018.886825765948743 ], [ 3067292.799103062599897, 1776028.505774571327493 ], [ 3067296.277299538254738, 1776037.922116291476414 ], [ 3067299.603179130703211, 1776042.01796214049682 ], [ 3067304.791771922260523, 1776045.118432211689651 ], [ 3067304.190563754644245, 1776058.593351427931339 ], [ 3067298.450296140275896, 1776064.949037462472916 ], [ 3067299.762058429419994, 1776073.408578830771148 ], [ 3067306.814239407423884, 1776075.513417694717646 ], [ 3067312.154102427884936, 1776075.244685061275959 ], [ 3067321.07096098549664, 1776076.353704452048987 ], [ 3067324.346490872558206, 1776084.469573474023491 ], [ 3067318.606073094531894, 1776090.824274013051763 ], [ 3067317.347977969795465, 1776095.724710369948298 ], [ 3067322.488034134730697, 1776102.843774329638109 ], [ 3067326.819825464393944, 1776104.757573446491733 ], [ 3067325.663486931473017, 1776110.30766974715516 ], [ 3067324.54600824881345, 1776115.665697572520003 ], [ 3067330.098464934621006, 1776121.562585923587903 ], [ 3067336.848980963230133, 1776121.714785926742479 ], [ 3067341.52922000316903, 1776121.819544553756714 ], [ 3067348.586004831828177, 1776123.664861297002062 ], [ 3067355.147808933164924, 1776125.380683296360075 ], [ 3067354.885675143450499, 1776133.924057511147112 ], [ 3067362.192160088568926, 1776141.999834056012332 ], [ 3067369.246377704665065, 1776152.794114753138274 ], [ 3067375.494643132202327, 1776158.383632669923827 ], [ 3067381.491089515388012, 1776166.687331074848771 ], [ 3067385.17040292173624, 1776177.406460937578231 ], [ 3067382.60348427016288, 1776182.536725166486576 ], [ 3067385.072666152380407, 1776185.445886868750677 ], [ 3067391.167324336245656, 1776185.713211190653965 ], [ 3067395.349764495622367, 1776190.994775155792013 ], [ 3067393.940313707105815, 1776199.264434502692893 ], [ 3067396.360979355871677, 1776206.192288932856172 ], [ 3067400.442654523998499, 1776210.824019828112796 ], [ 3067402.761580117512494, 1776217.102313115727156 ], [ 3067406.842113387770951, 1776221.733234666055068 ], [ 3067410.831561609171331, 1776226.260081224143505 ], [ 3067416.91851805197075, 1776225.981302469503134 ], [ 3067422.916549507528543, 1776225.706813829252496 ], [ 3067428.052226023748517, 1776232.716909463284537 ], [ 3067425.33413356076926, 1776241.216262865811586 ], [ 3067423.473586801439524, 1776250.901153304381296 ], [ 3067425.338482095859945, 1776258.596102801617235 ], [ 3067427.223838407080621, 1776266.369221530621871 ], [ 3067434.309042787179351, 1776273.065133025869727 ], [ 3067438.794247900135815, 1776280.299157195026055 ], [ 3067445.091718618758023, 1776281.867851797258481 ], [ 3067449.223978805355728, 1776291.170431518461555 ], [ 3067455.121895961929113, 1776307.514831070788205 ], [ 3067461.318446924909949, 1776308.432709532557055 ], [ 3067467.565496464259923, 1776314.02154843439348 ], [ 3067474.818246009293944, 1776320.507966301171109 ], [ 3067478.650797768495977, 1776323.936416802695021 ], [ 3067479.359520161524415, 1776338.021784478565678 ], [ 3067480.089215976186097, 1776352.538145230151713 ], [ 3067487.677390509285033, 1776361.29519583331421 ], [ 3067493.856818332336843, 1776368.428428707178682 ], [ 3067499.804026257712394, 1776375.293067678110674 ], [ 3067507.479079813696444, 1776380.548400704516098 ], [ 3067511.510279391892254, 1776389.199187536956742 ], [ 3067511.310657849535346, 1776396.587977322749794 ], [ 3067511.096204119734466, 1776404.545425371499732 ], [ 3067516.805167336948216, 1776410.330084286164492 ], [ 3067515.446076809428632, 1776414.57972263568081 ], [ 3067513.971346997655928, 1776419.19125142134726 ], [ 3067517.614690268877894, 1776424.225963577395305 ], [ 3067523.609314516652375, 1776423.842327632242814 ], [ 3067528.496146272867918, 1776424.990195314167067 ], [ 3067532.576691715978086, 1776429.621131550520658 ], [ 3067529.455833874642849, 1776435.517057426040992 ], [ 3067523.864894819445908, 1776438.50396831613034 ], [ 3067520.189202641136944, 1776445.165812439285219 ], [ 3067521.954036575276405, 1776452.208797053666785 ], [ 3067525.078110416885465, 1776455.00312618794851 ], [ 3067529.217681704089046, 1776458.705746475839987 ], [ 3067533.290591690689325, 1776460.245896456530318 ], [ 3067540.091527535580099, 1776465.067888012621552 ], [ 3067544.776668744627386, 1776464.915103016421199 ], [ 3067553.415121427271515, 1776464.631463677389547 ], [ 3067555.053835488390177, 1776470.465030955150723 ], [ 3067551.782669502310455, 1776479.7289919978939 ], [ 3067559.440163979306817, 1776485.736700037494302 ], [ 3067567.826955112162977, 1776492.317985342349857 ], [ 3067573.294583237264305, 1776492.665369197493419 ], [ 3067576.62048673722893, 1776496.761242128442973 ], [ 3067578.184471205808222, 1776502.502417926676571 ], [ 3067581.812150688841939, 1776508.550922709517181 ], [ 3067585.893706252798438, 1776513.181789712281898 ], [ 3067586.701066130306572, 1776518.388245190028101 ], [ 3067584.738802683539689, 1776527.42348280060105 ], [ 3067589.576132725924253, 1776532.590130776865408 ], [ 3067594.329928305000067, 1776537.667952470015734 ], [ 3067598.63305760640651, 1776542.263973881257698 ], [ 3067601.972737774252892, 1776551.807062090374529 ], [ 3067609.381040150299668, 1776560.532650329172611 ], [ 3067616.007898063864559, 1776568.341813135193661 ], [ 3067622.229531065560877, 1776578.332199785392731 ], [ 3067623.994377565570176, 1776585.375192289473489 ], [ 3067623.191603843122721, 1776597.549589697504416 ], [ 3067622.970000820234418, 1776600.915587507886812 ], [ 3067628.937228430993855, 1776608.573521446902305 ], [ 3067636.192083885893226, 1776611.978793355403468 ], [ 3067639.617941864766181, 1776616.725764544447884 ], [ 3067639.972388746682554, 1776623.348785906797275 ], [ 3067644.052846809849143, 1776627.979752791812643 ], [ 3067649.947632608003914, 1776626.945119927404448 ], [ 3067651.963810752145946, 1776631.270880124298856 ], [ 3067651.764331090264022, 1776638.659760009264573 ], [ 3067657.608684781938791, 1776641.645079300738871 ], [ 3067663.754764567129314, 1776646.582031406229362 ], [ 3067669.549738083034754, 1776653.586209832923487 ], [ 3067685.826092108152807, 1776676.1324107197579 ], [ 3067704.67242476483807, 1776702.237639941740781 ], [ 3067718.78217952279374, 1776723.825951765757054 ], [ 3067729.515556766651571, 1776740.247984126908705 ], [ 3067739.808941498864442, 1776755.994728291872889 ], [ 3067745.643828826025128, 1776771.253339246846735 ], [ 3067758.594283048994839, 1776789.703588080825284 ], [ 3067764.13808663841337, 1776799.425904344534501 ], [ 3067762.528791412711143, 1776806.392590473173186 ], [ 3067765.602554741781205, 1776813.206876552198082 ], [ 3067770.943394267000258, 1776812.938015587395057 ], [ 3067774.318886876106262, 1776812.767810632707551 ], [ 3067791.046822225674987, 1776834.143023825949058 ], [ 3067809.088087885640562, 1776863.732193599455059 ], [ 3067823.279264715965837, 1776887.006661257240921 ], [ 3067833.175692127086222, 1776897.608440171927214 ], [ 3067839.248583296313882, 1776904.114746134961024 ], [ 3067846.076865270733833, 1776920.078586508985609 ], [ 3067854.154549320228398, 1776938.961973124416545 ], [ 3067867.394577129743993, 1776957.781568808248267 ], [ 3067869.915405330248177, 1776965.361451008357108 ], [ 3067863.621298990212381, 1776972.482863876735792 ], [ 3067865.486121793277562, 1776980.176873989636078 ], [ 3067867.351935559418052, 1776987.870710782473907 ], [ 3067873.49917774181813, 1776992.808506129076704 ], [ 3067880.036608102731407, 1776998.059738527750596 ], [ 3067888.409750585444272, 1776993.534186333650723 ], [ 3067898.136244414374232, 1777008.539234832162037 ], [ 3067903.981866534799337, 1777020.214215071406215 ], [ 3067912.346023418009281, 1777030.778627911116928 ], [ 3067920.308622183278203, 1777038.740490948082879 ], [ 3067914.598157673608512, 1777044.421383579494432 ], [ 3067919.50576266925782, 1777050.913829241646454 ], [ 3067924.29058136139065, 1777051.411106950370595 ], [ 3067928.221923685166985, 1777059.410960192792118 ], [ 3067931.87811388913542, 1777066.851613443112001 ], [ 3067931.298939973115921, 1777074.914449049625546 ], [ 3067932.207285169512033, 1777080.771845200564712 ], [ 3067935.33220237493515, 1777083.564951910171658 ], [ 3067934.828886549919844, 1777089.001475114841014 ], [ 3067937.35081834718585, 1777096.5811747899279 ], [ 3067940.271916445344687, 1777098.07308409223333 ], [ 3067945.212677350267768, 1777112.582045423099771 ], [ 3067950.506643883883953, 1777133.71225558873266 ], [ 3067947.737936327233911, 1777137.540776426903903 ], [ 3067949.200323133729398, 1777142.63239917322062 ], [ 3067953.632891910616308, 1777145.195999434217811 ], [ 3067955.550440791994333, 1777157.560422047972679 ], [ 3067957.873956221155822, 1777172.543303495272994 ], [ 3067961.652993004769087, 1777183.898027534130961 ], [ 3067961.856019227299839, 1777193.889228411950171 ], [ 3067958.433557506650686, 1777197.832594727165997 ], [ 3067956.520587310194969, 1777202.847999494988471 ], [ 3067962.465831106062979, 1777206.48318101791665 ], [ 3067968.006538197398186, 1777207.516329744132236 ], [ 3067973.498928513377905, 1777212.569077983731404 ], [ 3067977.07821270916611, 1777222.636345715261996 ], [ 3067977.282082859426737, 1777232.626391432946548 ], [ 3067980.659916395321488, 1777241.393965859198943 ], [ 3067982.173685147427022, 1777251.155222341185436 ], [ 3067980.009672268293798, 1777258.888837619917467 ], [ 3067978.139570072293282, 1777265.57013532333076 ], [ 3067982.582010154612362, 1777271.138351277215406 ], [ 3067985.405594901181757, 1777280.669621176784858 ], [ 3067985.459428934380412, 1777294.029803932178766 ], [ 3067984.253060757182539, 1777303.600855603115633 ], [ 3067989.191370556596667, 1777309.418382792035118 ], [ 3067993.627393937669694, 1777320.672366907121614 ], [ 3067997.306930250953883, 1777330.008943642489612 ], [ 3067996.756127463188022, 1777340.846582920057699 ], [ 3067996.181390321813524, 1777352.154126822715625 ], [ 3068000.843512527644634, 1777362.858161006588489 ], [ 3068000.743878992740065, 1777370.896887630457059 ], [ 3067998.830942124128342, 1777375.912396210012957 ], [ 3068003.46760786511004, 1777379.778267092071474 ], [ 3068007.850011423230171, 1777386.361905302852392 ], [ 3068011.128892378881574, 1777403.167193508706987 ], [ 3068012.395928190089762, 1777409.657985315425321 ], [ 3068015.363154173828661, 1777413.119423118419945 ], [ 3068013.551152537111193, 1777418.785756096011028 ], [ 3068018.740761513821781, 1777421.886042831232771 ], [ 3068022.017286233603954, 1777430.000855879625306 ], [ 3068018.543576808646321, 1777437.964353390503675 ], [ 3068021.517309573013335, 1777444.126696687191725 ], [ 3068023.686877540778369, 1777448.622247713850811 ], [ 3068024.541695644147694, 1777454.959817034890875 ], [ 3068022.127569483593106, 1777465.411500375019386 ], [ 3068022.129873135127127, 1777474.100882750935853 ], [ 3068027.673939229920506, 1777483.82434393838048 ], [ 3068027.324095902964473, 1777494.581250950461254 ], [ 3068031.65698055550456, 1777496.49482839461416 ], [ 3068034.630718844942749, 1777502.657174439402297 ], [ 3068038.411998535506427, 1777514.025995732983574 ], [ 3068041.176638663746417, 1777522.338291800580919 ], [ 3068041.137085816822946, 1777531.597042558714747 ], [ 3068041.101994835305959, 1777539.770492561627179 ], [ 3068045.774998613167554, 1777544.152595192892477 ], [ 3068047.539113143924624, 1777551.196798114106059 ], [ 3068040.084450492635369, 1777555.178331064758822 ], [ 3068030.206726644188166, 1777560.456418760819361 ], [ 3068023.766743602696806, 1777562.721974136773497 ], [ 3068025.0835673478432, 1777566.660355348838493 ], [ 3068032.736316746100783, 1777568.501524993451312 ], [ 3068041.064147852361202, 1777570.505674184300005 ], [ 3068053.443806994706392, 1777573.484528749715537 ], [ 3068064.52309026569128, 1777578.2977299769409 ], [ 3068072.835671472363174, 1777584.191589225549251 ], [ 3068079.487594502978027, 1777592.383442454505712 ], [ 3068077.47707418911159, 1777605.4374459173996 ], [ 3068072.745174045208842, 1777618.300447053974494 ], [ 3068073.252320803701878, 1777630.244943849742413 ], [ 3068076.580545814242214, 1777643.030477316351607 ], [ 3068080.402472655288875, 1777657.716182630974799 ], [ 3068083.236082479357719, 1777668.60150749841705 ], [ 3068085.052710503339767, 1777680.315169516718015 ], [ 3068086.872262794524431, 1777692.047016601776704 ], [ 3068087.376618329901248, 1777703.973416676511988 ], [ 3068086.776769284158945, 1777717.448285644175485 ], [ 3068088.645089933183044, 1777733.832662297645584 ], [ 3068088.447983351536095, 1777749.910909647587687 ], [ 3068090.466598194092512, 1777762.926211274694651 ], [ 3068094.097741990815848, 1777777.664116328349337 ], [ 3068090.978418104350567, 1777792.249738272977993 ], [ 3068091.638076914474368, 1777809.514805244747549 ], [ 3068093.506426385138184, 1777825.899193142540753 ], [ 3068095.226078019943088, 1777840.974621623754501 ], [ 3068098.250081068836153, 1777856.484507952351123 ], [ 3068102.435378751717508, 1777870.458645604318008 ], [ 3068105.310602032579482, 1777884.659689232241362 ], [ 3068105.263734361622483, 1777897.368988259928301 ], [ 3068103.002170604653656, 1777913.141165169421583 ], [ 3068101.194903838913888, 1777936.186457079136744 ], [ 3068101.853606102988124, 1777953.451618385966867 ], [ 3068105.988076775334775, 1777962.753987162606791 ], [ 3068107.253350013401359, 1777983.922933119349182 ], [ 3068105.145765320397913, 1778013.706276115495712 ], [ 3068102.731761620379984, 1778024.158003838267177 ], [ 3068101.983245097100735, 1778049.691569660790265 ], [ 3068104.760202737525105, 1778071.933309428626671 ], [ 3068099.327773883938789, 1778097.620546537684277 ], [ 3068098.827983711846173, 1778111.74645893345587 ], [ 3068095.814610255882144, 1778144.36290297168307 ], [ 3068091.842263990081847, 1778166.452292448608205 ], [ 3068091.947968698106706, 1778184.482093304162845 ], [ 3068092.050323374103755, 1778201.859506054781377 ], [ 3068094.364811393432319, 1778243.475737259490415 ], [ 3068167.114407456014305, 1778252.29812060110271 ], [ 3068300.096552119590342, 1778242.328108482761309 ], [ 3068297.703105200082064, 1778086.886575835058466 ], [ 3068294.162869189865887, 1778078.799592591589317 ], [ 3068290.984646680764854, 1778062.645064532989636 ], [ 3068290.073918911628425, 1778048.09819757565856 ], [ 3068291.683897349983454, 1778041.130314266541973 ], [ 3068286.79478308185935, 1778031.292945255991071 ], [ 3068283.971072096377611, 1778021.761520058615133 ], [ 3068287.29462153185159, 1778017.167057149577886 ], [ 3068287.69590603839606, 1778011.079753904836252 ], [ 3068286.48474461492151, 1778003.271038636332378 ], [ 3068288.595964014530182, 1777990.866855544270948 ], [ 3068287.434143839403987, 1777979.038234320003539 ], [ 3068285.216061959043145, 1777973.411768045509234 ], [ 3068284.307647083885968, 1777967.554433044511825 ], [ 3068288.084228604100645, 1777961.544290318852291 ], [ 3068294.430972591973841, 1777959.0933998064138 ], [ 3068295.588061662390828, 1777953.541992033133283 ], [ 3068290.750487726181746, 1777948.374259755248204 ], [ 3068284.754819142166525, 1777948.758011238649487 ], [ 3068279.165965683758259, 1777951.744528430979699 ], [ 3068275.992559018544853, 1777953.439879852114245 ], [ 3068274.055512132123113, 1777949.725144915981218 ], [ 3068270.950869776774198, 1777937.811120846308768 ], [ 3068268.29378054337576, 1777927.615069225197658 ], [ 3068268.577895302325487, 1777918.173695118399337 ], [ 3068268.761684403754771, 1777912.08121402352117 ], [ 3068271.950601814314723, 1777909.559365554712713 ], [ 3068273.314895335119218, 1777909.5463040843606 ], [ 3068263.623140150681138, 1777877.042871368350461 ], [ 3068259.074062265455723, 1777821.687318077078089 ], [ 3068261.808541587088257, 1777792.08835605182685 ], [ 3068259.474027059972286, 1777790.084567611338571 ], [ 3068259.471685400698334, 1777781.395172700751573 ], [ 3068259.468555807135999, 1777770.639153751311824 ], [ 3068254.882990960031748, 1777764.819704110734165 ], [ 3068244.04697385430336, 1777742.655400030547753 ], [ 3068241.324357870034873, 1777733.77490033628419 ], [ 3068242.127079303842038, 1777721.601517510600388 ], [ 3068243.160741026513278, 1777705.908269153907895 ], [ 3068241.363305842969567, 1777694.996315798955038 ], [ 3068239.223055627197027, 1777682.002375293290243 ], [ 3068239.844504895620048, 1777667.854186735115945 ], [ 3068237.119412682019174, 1777650.28322271630168 ], [ 3068231.723308869637549, 1777628.501273593865335 ], [ 3068225.372978360392153, 1777613.57309982390143 ], [ 3068220.88749117590487, 1777606.33797508967109 ], [ 3068216.651078985538334, 1777587.69620414590463 ], [ 3068213.721984839998186, 1777574.805556002305821 ], [ 3068211.820134611334652, 1777566.437128186924383 ], [ 3068204.251064541749656, 1777559.79080172162503 ], [ 3068201.881364887580276, 1777548.841652495786548 ], [ 3068199.220617996528745, 1777536.560019778087735 ], [ 3068197.642403275705874, 1777521.509445485193282 ], [ 3068199.199978746008128, 1777509.872144851600751 ], [ 3068207.962028443813324, 1777496.970305829308927 ], [ 3068217.000186899211258, 1777483.660023680189624 ], [ 3068221.203765858430415, 1777473.922930914675817 ], [ 3068221.904631154611707, 1777461.098923266632482 ], [ 3068217.622011575847864, 1777455.165277770720422 ], [ 3068203.714953218586743, 1777443.566977736074477 ], [ 3068196.409463278483599, 1777435.491741512902081 ], [ 3068186.662044020369649, 1777424.716752933803946 ], [ 3068181.627588180825114, 1777419.152059564134106 ], [ 3068181.592020549811423, 1777409.34773151949048 ], [ 3068179.977054896764457, 1777398.934675088152289 ], [ 3068177.252129187807441, 1777381.363629431696609 ], [ 3068175.233617756515741, 1777368.348364963429049 ], [ 3068174.827626512851566, 1777357.055704046739265 ], [ 3068172.257456521037966, 1777353.495566058903933 ], [ 3068166.111433768644929, 1777348.558517750818282 ], [ 3068161.118905966170132, 1777329.378942113369703 ], [ 3068158.635497466661036, 1777319.838593608699739 ], [ 3068161.619087263941765, 1777315.254109606146812 ], [ 3068156.326367043890059, 1777302.813501307042316 ], [ 3068145.388603416737169, 1777279.998723960714415 ], [ 3068143.220966245979071, 1777270.35222618165426 ], [ 3068143.569797602016479, 1777259.595635439967737 ], [ 3068137.724126165732741, 1777247.920516825513914 ], [ 3068133.287987433373928, 1777236.665643023559824 ], [ 3068129.204083779361099, 1777223.344353217165917 ], [ 3068127.791159783490002, 1777214.233939308905974 ], [ 3068131.365852167829871, 1777206.921296274056658 ], [ 3068134.435085254255682, 1777196.355798786506057 ], [ 3068131.360299848020077, 1777189.541652631945908 ], [ 3068128.456554123200476, 1777183.105178927304223 ], [ 3068127.075542137492448, 1777174.91854896210134 ], [ 3068124.452833057381213, 1777166.689001196762547 ], [ 3068125.005619308911264, 1777157.233697846531868 ], [ 3068125.784391400404274, 1777143.877499114256352 ], [ 3068118.70027967216447, 1777129.594719217391685 ], [ 3068112.341298529878259, 1777116.772081278730184 ], [ 3068107.815424866974354, 1777111.451352881500497 ], [ 3068110.331561313942075, 1777101.650361195672303 ], [ 3068119.414743151515722, 1777097.7931866904255 ], [ 3068108.298024335876107, 1777037.623556831618771 ], [ 3068096.862003309652209, 1777027.807545278454199 ], [ 3068084.617962546646595, 1777013.912840199656785 ], [ 3068076.084552328567952, 1777004.230776538373902 ], [ 3068068.406440197490156, 1776995.518386605894193 ], [ 3068062.849289492238313, 1776986.314701199065894 ], [ 3068059.169141118880361, 1776975.5967217751313 ], [ 3068056.117110656574368, 1776966.706799028906971 ], [ 3068050.247782764025033, 1776957.107770057395101 ], [ 3068047.574483027681708, 1776944.207380856154487 ], [ 3068044.299031308852136, 1776936.092515586875379 ], [ 3068038.503880763426423, 1776929.087299779988825 ], [ 3068035.579517955891788, 1776918.90511394944042 ], [ 3068030.994335636496544, 1776911.020118860062212 ], [ 3068022.025778020266443, 1776905.240397707093507 ], [ 3068016.533388803247362, 1776900.18754982156679 ], [ 3068014.970368509646505, 1776894.446178364567459 ], [ 3068015.573645734228194, 1776889.660661878762767 ], [ 3068014.867075443733484, 1776885.104933293536305 ], [ 3068010.130745523609221, 1776880.589037846308202 ], [ 3068007.257741638459265, 1776875.076569641940296 ], [ 3068005.694723626598716, 1776869.335199303925037 ], [ 3068003.959756838157773, 1776862.961739865597337 ], [ 3068002.224928029812872, 1776856.589166208170354 ], [ 3068000.852743252646178, 1776846.787639555055648 ], [ 3068000.30617141071707, 1776842.873477233108133 ], [ 3067999.114695466589183, 1776834.371037304168567 ], [ 3068002.510119577869773, 1776827.110597314080223 ], [ 3067998.32763721421361, 1776821.828966403612867 ], [ 3067989.56202071160078, 1776817.35070246597752 ], [ 3067984.825580143835396, 1776812.83472960931249 ], [ 3067980.3917735228315, 1776810.270333321532235 ], [ 3067972.231684892438352, 1776809.69689763430506 ], [ 3067964.420513726770878, 1776798.366903098998591 ], [ 3067954.798085824586451, 1776792.701957781799138 ], [ 3067948.902177171781659, 1776785.046920455992222 ], [ 3067945.77585113607347, 1776773.562221031403169 ], [ 3067940.384545827284455, 1776769.161188587080687 ], [ 3067929.100387282203883, 1776765.793498463230208 ], [ 3067918.872422087006271, 1776756.223639610223472 ], [ 3067913.833078061696142, 1776749.754328829934821 ], [ 3067911.413523981813341, 1776742.827342204749584 ], [ 3067911.160083113238215, 1776736.85502492194064 ], [ 3067915.591706444509327, 1776730.730078781489283 ], [ 3067921.966982333455235, 1776721.915902539622039 ], [ 3067924.098480205051601, 1776711.85651586484164 ], [ 3067918.454594255425036, 1776701.482112019788474 ], [ 3067912.862452477216721, 1776695.779368344228715 ], [ 3067902.434016727842391, 1776693.598562194034457 ], [ 3067888.732218848541379, 1776691.992165658157319 ], [ 3067876.894269958138466, 1776689.391228014370427 ], [ 3067870.294004457071424, 1776685.86991319572553 ], [ 3067861.779740736819804, 1776678.67454191762954 ], [ 3067859.711873820982873, 1776669.67811550013721 ], [ 3067855.780579687096179, 1776661.678284848108888 ], [ 3067843.487368695437908, 1776651.803500113077462 ], [ 3067835.676052549853921, 1776640.472451812587678 ], [ 3067831.491246064193547, 1776626.500426094280556 ], [ 3067828.515424015000463, 1776611.648791286395863 ], [ 3067822.76963915862143, 1776600.623757037334144 ], [ 3067816.018028121441603, 1776591.781866120174527 ], [ 3067810.070570814888924, 1776579.456277690129355 ], [ 3067805.373340445104986, 1776569.719906019745395 ], [ 3067804.524573720991611, 1776561.043541003018618 ], [ 3067803.943666507955641, 1776555.101824203506112 ], [ 3067795.101929431781173, 1776547.99082809058018 ], [ 3067790.397807381115854, 1776544.207172203809023 ], [ 3067783.713693344034255, 1776535.283102714456618 ], [ 3067773.357211742550135, 1776521.452590260189027 ], [ 3067771.972122113220394, 1776515.952176320832223 ], [ 3067764.867425565607846, 1776509.177864213474095 ], [ 3067757.711988982744515, 1776497.731724683893844 ], [ 3067750.80913557857275, 1776492.259053309448063 ], [ 3067744.05557221127674, 1776483.417622490087524 ], [ 3067741.53564029186964, 1776475.836610451107845 ], [ 3067741.633560895454139, 1776467.799164917552844 ], [ 3067736.394478956237435, 1776460.02787797851488 ], [ 3067727.376589546911418, 1776458.26797370123677 ], [ 3067718.158116500359029, 1776455.207324763294309 ], [ 3067710.046297705732286, 1776450.614371242234483 ], [ 3067703.698484333232045, 1776444.375759778078645 ], [ 3067699.666042436845601, 1776435.724164658458903 ], [ 3067695.808641960378736, 1776427.448525747982785 ], [ 3067687.269780060276389, 1776416.509189069271088 ], [ 3067679.115752186626196, 1776406.063210456632078 ], [ 3067670.790678724646568, 1776392.661551774479449 ], [ 3067667.311468290165067, 1776383.245442956918851 ], [ 3067660.511354518122971, 1776378.422175956657156 ], [ 3067646.402851468883455, 1776365.52341104997322 ], [ 3067642.248186985962093, 1776361.724085598485544 ], [ 3067640.456420905888081, 1776353.197682028869167 ], [ 3067631.689891695976257, 1776348.720666359644383 ], [ 3067628.263076874427497, 1776343.973973833955824 ], [ 3067628.665528077632189, 1776337.88655647682026 ], [ 3067619.697160746436566, 1776332.107906534569338 ], [ 3067609.721761941444129, 1776328.510590960737318 ], [ 3067603.071100964210927, 1776320.319558459799737 ], [ 3067596.015636399388313, 1776309.524542451603338 ], [ 3067591.178320386447012, 1776304.35789807420224 ], [ 3067591.277042371686548, 1776296.318298884667456 ], [ 3067591.374981847591698, 1776288.280859058955684 ], [ 3067586.034899719059467, 1776279.858793655177578 ], [ 3067583.312313096597791, 1776270.977318102959543 ], [ 3067585.827756316401064, 1776261.177599882474169 ], [ 3067580.385768851265311, 1776252.104891990078613 ], [ 3067573.749314760789275, 1776241.043817011872306 ], [ 3067567.183402571827173, 1776236.374007048783824 ], [ 3067562.90087901474908, 1776230.440451758913696 ], [ 3067559.12691783439368, 1776225.214516737032682 ], [ 3067555.005108998157084, 1776219.504198927199468 ], [ 3067549.854118971619755, 1776212.368429073598236 ], [ 3067547.126232039183378, 1776202.459172076778486 ], [ 3067540.879104317165911, 1776196.870439635356888 ], [ 3067534.315541171003133, 1776190.999900155467913 ], [ 3067530.901580419391394, 1776184.583730393322185 ], [ 3067527.09536332404241, 1776177.430230675730854 ], [ 3067525.306305643636733, 1776170.190806586761028 ], [ 3067521.225775429513305, 1776165.559875735081732 ], [ 3067522.734082337468863, 1776157.941410969477147 ], [ 3067523.55631020758301, 1776157.34231404773891 ], [ 3067506.599391196854413, 1776128.01776217808947 ], [ 3067504.693093128502369, 1776128.352349186781794 ], [ 3067499.403843364212662, 1776124.602101939963177 ], [ 3067492.967946148477495, 1776120.038845672504976 ], [ 3067490.081032303161919, 1776112.199382187332958 ], [ 3067484.940977178048342, 1776105.080300678499043 ], [ 3067480.807826003059745, 1776095.779002371709794 ], [ 3067478.08625300694257, 1776086.897367148660123 ], [ 3067472.64344931486994, 1776077.825836174888536 ], [ 3067467.3703383365646, 1776069.036098700249568 ], [ 3067462.618585753720254, 1776061.117173912236467 ], [ 3067461.10072848200798, 1776051.107428426854312 ], [ 3067456.866599224507809, 1776041.154218086740002 ], [ 3067450.417801660485566, 1776034.264850688632578 ], [ 3067444.672270422801375, 1776023.240972637431696 ], [ 3067441.94971704762429, 1776014.35951657127589 ], [ 3067437.816677073948085, 1776005.058208792470396 ], [ 3067432.576705891173333, 1775997.288145676720887 ], [ 3067427.665529043413699, 1775990.006819970207289 ], [ 3067423.404372970573604, 1775981.517502962378785 ], [ 3067419.852577089332044, 1775974.440540773328394 ], [ 3067415.125630569644272, 1775965.022960219765082 ], [ 3067411.458026170730591, 1775952.195853305049241 ], [ 3067404.504505523480475, 1775942.051427826052532 ], [ 3067401.176637770608068, 1775929.266161006409675 ], [ 3067394.473407774232328, 1775916.404804083053023 ], [ 3067390.256118132267147, 1775908.312449812190607 ], [ 3067386.863200283609331, 1775897.686992740724236 ], [ 3067388.019416428171098, 1775892.135926742339507 ], [ 3067381.92176691442728, 1775883.179355926578864 ], [ 3067376.648869245313108, 1775875.431658916873857 ], [ 3067374.764457086101174, 1775863.04399191099219 ], [ 3067369.11985217500478, 1775852.67084988579154 ], [ 3067365.742451359517872, 1775843.904348005075008 ], [ 3067360.933140926994383, 1775831.417417482472956 ], [ 3067360.598228906746954, 1775819.405600738478824 ], [ 3067358.227885123342276, 1775808.457770897774026 ], [ 3067355.984173233620822, 1775798.091160004027188 ], [ 3067354.165270640514791, 1775789.691651948960498 ], [ 3067352.730415304191411, 1775777.335854826727882 ], [ 3067351.740829429123551, 1775768.824947510380298 ], [ 3067353.279194781556726, 1775759.190492982277647 ], [ 3067362.949741416610777, 1775752.145017929375172 ], [ 3067367.380483185872436, 1775746.020234683528543 ], [ 3067364.657870634458959, 1775737.138814732665196 ], [ 3067352.11642802413553, 1775738.670521738473326 ], [ 3067347.329665309283882, 1775738.174639829434454 ], [ 3067348.980972645804286, 1775725.078382861102 ], [ 3067360.018246490508318, 1775715.894065078115091 ], [ 3067368.148413182236254, 1775709.128259199438617 ], [ 3067370.644306173548102, 1775701.99571695830673 ], [ 3067368.677736727520823, 1775693.651140201603994 ], [ 3067365.351876315660775, 1775689.555295708123595 ], [ 3067356.183657128363848, 1775691.164375229272991 ], [ 3067348.174024045001715, 1775687.223099145572633 ], [ 3067343.738140273839235, 1775675.968386074760929 ], [ 3067339.051074900198728, 1775667.432779508642852 ], [ 3067335.774765485431999, 1775659.318088361993432 ], [ 3067331.592210307251662, 1775654.035557990660891 ], [ 3067326.503049006685615, 1775647.607136318227276 ], [ 3067321.767389129847288, 1775641.624810797628015 ], [ 3067318.541113104205579, 1775634.934605862945318 ], [ 3067311.336680379230529, 1775627.509475850267336 ], [ 3067305.492232878692448, 1775624.524121081223711 ], [ 3067302.115015997551382, 1775615.758618698455393 ], [ 3067298.385511685628444, 1775609.059520159149542 ], [ 3067292.692534759640694, 1775602.706058579031378 ], [ 3067287.599080607295036, 1775597.022518079262227 ], [ 3067281.059931691270322, 1775589.724690073635429 ], [ 3067272.790010740980506, 1775582.802198613528162 ], [ 3067269.917357117403299, 1775577.290774354478344 ], [ 3067261.350572196766734, 1775565.424985083285719 ], [ 3067257.208411774598062, 1775559.684131457470357 ], [ 3067251.582191432826221, 1775551.893982270266861 ], [ 3067243.865974210202694, 1775543.76070707035251 ], [ 3067230.984939808025956, 1775530.182099046185613 ], [ 3067222.374895059969276, 1775521.106661269441247 ], [ 3067213.482482292689383, 1775508.316017573699355 ], [ 3067213.277552117593586, 1775489.634561576182023 ], [ 3067209.547053746879101, 1775482.9355490419548 ], [ 3067201.285210409201682, 1775481.712674937676638 ], [ 3067192.317730134353042, 1775475.932961467886344 ], [ 3067186.220130897127092, 1775466.976432354887947 ], [ 3067179.787664237432182, 1775457.526072772685438 ], [ 3067171.50719456654042, 1775450.172808891162276 ], [ 3067164.231401968747377, 1775443.711229792796075 ], [ 3067149.6938535743393, 1775443.974729096982628 ], [ 3067142.590082512237132, 1775437.199379877420142 ], [ 3067134.328073982615024, 1775435.975436503067613 ], [ 3067130.246596780139953, 1775431.344726701732725 ], [ 3067122.337620167527348, 1775428.05324230901897 ], [ 3067114.075612654909492, 1775426.829302990343422 ], [ 3067106.772199437022209, 1775427.442689430434257 ], [ 3067093.17114492226392, 1775426.486341328592971 ], [ 3067077.857178589794785, 1775423.159681690391153 ], [ 3067067.025094654411077, 1775418.375702961580828 ], [ 3067053.072057566605508, 1775419.487740559270605 ], [ 3067041.536687012761831, 1775418.838371376274154 ], [ 3067030.353624323382974, 1775416.122699255589396 ], [ 3067025.691142213530838, 1775414.991388045251369 ], [ 3067020.12607229873538, 1775415.244792965240777 ], [ 3067013.328141510486603, 1775419.110994949238375 ], [ 3066998.267192394472659, 1775421.754574501654133 ], [ 3066991.012103524059057, 1775418.3483425907325 ], [ 3066985.973023132421076, 1775411.880149873904884 ], [ 3066980.784563425462693, 1775408.779800549615175 ], [ 3066973.026016152463853, 1775410.810054403496906 ], [ 3066965.319958471693099, 1775408.820037499535829 ], [ 3066957.158887713216245, 1775408.247043644078076 ], [ 3066954.891541579738259, 1775406.639443350955844 ], [ 3066948.696112462319434, 1775405.722338125342503 ], [ 3066944.161519440822303, 1775402.507121187867597 ], [ 3066937.662230187095702, 1775399.636863504769281 ], [ 3066930.912788480520248, 1775399.484521591570228 ], [ 3066920.239455570466816, 1775399.243662759428844 ], [ 3066912.081436856649816, 1775399.060243338812143 ], [ 3066905.27214533649385, 1775394.626802499173209 ], [ 3066903.608079471625388, 1775388.233725532190874 ], [ 3066900.533613307401538, 1775381.420697822002694 ], [ 3066890.7600560602732, 1775379.125073240604252 ], [ 3066884.153830662369728, 1775377.573356265202165 ], [ 3066875.79794396366924, 1775373.729132011765614 ], [ 3066871.868720384314656, 1775374.418824378401041 ], [ 3066868.191812159493566, 1775372.390121102100238 ], [ 3066860.12960856128484, 1775363.77848210115917 ], [ 3066854.083371255546808, 1775359.491660528117791 ], [ 3066844.613692323677242, 1775359.149298837408423 ], [ 3066838.316213881596923, 1775357.580586188472807 ], [ 3066834.237765220925212, 1775361.639110288815573 ], [ 3066828.595157715491951, 1775359.955449848202989 ], [ 3066819.80916238669306, 1775357.333386911079288 ], [ 3066814.137591989245266, 1775357.813502627424896 ], [ 3066810.813921432010829, 1775362.407969369320199 ], [ 3066805.13371254503727, 1775358.379799657734111 ], [ 3066793.382818405516446, 1775354.10392000945285 ], [ 3066783.612549786455929, 1775350.547296449309215 ], [ 3066775.749727101065218, 1775344.497167832450941 ], [ 3066773.531939127482474, 1775338.870727261062711 ], [ 3066766.681662543676794, 1775338.068698463030159 ], [ 3066758.874661829788238, 1775344.117653801338747 ], [ 3066750.26153043564409, 1775344.961008395534009 ], [ 3066740.085328187793493, 1775340.061990688554943 ], [ 3066734.290471818298101, 1775333.057963338680565 ], [ 3066726.429942715447396, 1775325.74699266278185 ], [ 3066719.242039789445698, 1775319.059954881668091 ], [ 3066707.438957873731852, 1775320.390798661857843 ], [ 3066707.979272926226258, 1775326.300167801789939 ], [ 3066712.730206315405667, 1775332.830327776027843 ], [ 3066711.572872973047197, 1775338.381594994803891 ], [ 3066707.494431809987873, 1775342.440134201664478 ], [ 3066700.241550241596997, 1775347.724321971414611 ], [ 3066697.15309187816456, 1775343.447091318201274 ], [ 3066692.533464934676886, 1775337.044971750350669 ], [ 3066683.967675850726664, 1775333.868969289353117 ], [ 3066672.986448775511235, 1775332.45492543745786 ], [ 3066663.247193825431168, 1775331.199635951081291 ], [ 3066655.656103875488043, 1775324.800665623042732 ], [ 3066646.234698205720633, 1775320.437706150813028 ], [ 3066628.50505296420306, 1775318.871306626591831 ], [ 3066608.403920068405569, 1775315.045975975692272 ], [ 3066598.76963849272579, 1775313.212390831671655 ], [ 3066589.504582975059748, 1775311.449520017253235 ], [ 3066569.86578144878149, 1775305.098759137559682 ], [ 3066557.533690276555717, 1775301.1112300157547 ], [ 3066540.094183413311839, 1775299.629466619109735 ], [ 3066522.160482667386532, 1775296.760769880376756 ], [ 3066510.876533436123282, 1775293.394329255679622 ], [ 3066503.822299666702747, 1775291.289983796188608 ], [ 3066492.590802833903581, 1775292.593024777481332 ], [ 3066485.48925215145573, 1775294.508155609713867 ], [ 3066473.448284212499857, 1775290.605074417777359 ], [ 3066464.42139542195946, 1775287.678734629182145 ], [ 3066461.457970554940403, 1775282.68304959544912 ], [ 3066454.756876850035042, 1775278.511240299791098 ], [ 3066445.186164036393166, 1775277.5171772709582 ], [ 3066437.428757986985147, 1775279.547446651849896 ], [ 3066432.493623632472008, 1775282.41924799233675 ], [ 3066428.815635568927974, 1775280.39077446796 ], [ 3066421.505252297967672, 1775276.358973472611979 ], [ 3066416.069445780012757, 1775271.932922452921048 ], [ 3066411.837616436183453, 1775270.670301636680961 ], [ 3066404.736124215647578, 1775272.586448546731845 ], [ 3066395.733354864642024, 1775275.013210562756285 ], [ 3066389.521834860090166, 1775269.908972173463553 ], [ 3066382.922729462850839, 1775266.38769843080081 ], [ 3066374.005899855867028, 1775265.278869391186163 ], [ 3066367.962215692736208, 1775264.527744859689847 ], [ 3066359.800760427489877, 1775260.419783342862502 ], [ 3066355.654619346372783, 1775258.333829237846658 ], [ 3066348.515582113992423, 1775257.052595126675442 ], [ 3066341.765181546565145, 1775256.900527644669637 ], [ 3066333.85624405182898, 1775253.6091946111992 ], [ 3066329.220921026542783, 1775249.744311680085957 ], [ 3066322.572324472945184, 1775250.242904644925147 ], [ 3066316.929835606832057, 1775248.559297915315256 ], [ 3066314.561584784183651, 1775246.300918059656397 ], [ 3066311.212144626304507, 1775243.107540317345411 ], [ 3066304.789057785645127, 1775244.005261552520096 ], [ 3066300.557117352262139, 1775242.742571298731491 ], [ 3066292.653421060647815, 1775240.384851036593318 ], [ 3066286.673496013972908, 1775238.600097722839564 ], [ 3066282.471185424365103, 1775234.553596582729369 ], [ 3066273.25263071525842, 1775231.492273633601144 ], [ 3066267.257914054207504, 1775231.876090715406463 ], [ 3066259.85690304543823, 1775232.350434191990644 ], [ 3066247.359899289440364, 1775229.353360419161618 ], [ 3066241.76769769564271, 1775223.649766982300207 ], [ 3066237.050340217538178, 1775218.840010218787938 ], [ 3066230.936827379278839, 1775218.866915696300566 ], [ 3066224.828531587962061, 1775218.894018090795726 ], [ 3066221.96838962379843, 1775213.087483367882669 ], [ 3066216.074686335865408, 1775214.122104234527797 ], [ 3066203.480873906053603, 1775210.984684532508254 ], [ 3066188.518965798430145, 1775205.589879630832002 ], [ 3066174.090914451517165, 1775200.3870665486902 ], [ 3066162.406209259293973, 1775196.175250411266461 ], [ 3066149.072826163843274, 1775189.785723237786442 ], [ 3066140.035614053718746, 1775185.456804842920974 ], [ 3066132.799244128633291, 1775181.989534580148757 ], [ 3066126.567392353899777, 1775179.003031572559848 ], [ 3066115.924082330428064, 1775175.551123947137967 ], [ 3066103.037145685404539, 1775171.369272476295009 ], [ 3066093.707399964798242, 1775166.751340287039056 ], [ 3066080.648115287534893, 1775160.282691759755835 ], [ 3066069.979833350516856, 1775156.877626575529575 ], [ 3066060.558461421635002, 1775152.514799999305978 ], [ 3066050.307897319551557, 1775147.767670611850917 ], [ 3066039.753268575295806, 1775144.134776030899957 ], [ 3066028.018200762569904, 1775140.095258777262643 ], [ 3066021.66719801351428, 1775135.944832400651649 ], [ 3066012.447805835865438, 1775132.884626930113882 ], [ 3066007.057436330709606, 1775128.482690322445706 ], [ 3065997.081961741205305, 1775124.884670662460849 ], [ 3065987.947434726171196, 1775121.593298784689978 ], [ 3065974.061099772341549, 1775119.568671516608447 ], [ 3065971.087380439043045, 1775113.405431864783168 ], [ 3065961.213140598963946, 1775110.460300007136539 ], [ 3065952.750367242842913, 1775107.934799271868542 ], [ 3065944.890004367101938, 1775100.624855345813558 ], [ 3065934.915523585863411, 1775097.026676801964641 ], [ 3065924.399855020921677, 1775093.235783712938428 ], [ 3065912.490909712389112, 1775088.941222858149558 ], [ 3065899.600501918233931, 1775081.835499483393505 ], [ 3065888.87056669453159, 1775077.70355011918582 ], [ 3065886.450802933424711, 1775070.774538128171116 ], [ 3065882.066595715936273, 1775064.191406032769009 ], [ 3065871.388012193143368, 1775064.729034451534972 ], [ 3065859.396751364693046, 1775056.807354436954483 ], [ 3065839.246182968840003, 1775048.311399993253872 ], [ 3065827.137802013196051, 1775043.20739831472747 ], [ 3065814.156567499041557, 1775033.998265514615923 ], [ 3065797.907406082842499, 1775022.470335906138644 ], [ 3065784.078454853501171, 1775009.198154729790986 ], [ 3065771.631870680488646, 1774994.001511775190011 ], [ 3065757.827320383861661, 1774983.055558071704581 ], [ 3065745.084087534807622, 1774972.95078807650134 ], [ 3065732.433926183730364, 1774958.100463627371937 ], [ 3065724.522179011255503, 1774946.119988128077239 ], [ 3065716.560921085998416, 1774938.159275303129107 ], [ 3065695.636904152110219, 1774917.233778442954645 ], [ 3065688.093038635328412, 1774906.390258383704349 ], [ 3065683.355591459199786, 1774893.183885139646009 ], [ 3065676.356420738622546, 1774873.678084624931216 ], [ 3065667.984965546056628, 1774867.80640142550692 ], [ 3065662.84484604280442, 1774860.686467210296541 ], [ 3065654.835130104329437, 1774856.744432732230052 ], [ 3065644.805594281759113, 1774851.810647305799648 ], [ 3065637.80582672636956, 1774842.35450630239211 ], [ 3065636.594902821816504, 1774834.544763521291316 ], [ 3065630.447953603230417, 1774829.608289049006999 ], [ 3065624.753981088288128, 1774823.254123331513256 ], [ 3065616.340680113527924, 1774816.709850036073476 ], [ 3065609.035252403933555, 1774808.633113831514493 ], [ 3065603.591570681426674, 1774799.561910150572658 ], [ 3065599.330943054519594, 1774792.459387033712119 ], [ 3065593.312502285465598, 1774785.322968817548826 ], [ 3065589.911117410287261, 1774781.290151493856683 ], [ 3065587.021139912772924, 1774775.192691329866648 ], [ 3065467.743019662797451, 1774662.677479450358078 ], [ 3065467.300589092075825, 1774662.385165398940444 ], [ 3065458.736089800484478, 1774659.210107761900872 ], [ 3065448.912010192405432, 1774652.244016501121223 ], [ 3065440.950896222144365, 1774644.283440713305026 ], [ 3065434.098572564311326, 1774634.791046600788832 ], [ 3065427.408117477782071, 1774625.522790214512497 ], [ 3065421.410194005817175, 1774617.215428840136155 ], [ 3065413.490023229736835, 1774610.332170458510518 ], [ 3065408.238095534965396, 1774605.76836574007757 ], [ 3065405.477320946753025, 1774597.700971591519192 ], [ 3065405.778121134266257, 1774590.963903538882732 ], [ 3065406.057954775169492, 1774584.69631295860745 ], [ 3065401.997342170216143, 1774579.595307672861964 ], [ 3065403.35649070283398, 1774575.345527639379725 ], [ 3065395.345700335688889, 1774571.403733188752085 ], [ 3065391.718313176184893, 1774565.356422785203904 ], [ 3065383.883756546769291, 1774552.295466897077858 ], [ 3065377.825069741345942, 1774542.199168124934658 ], [ 3065367.024375742301345, 1774518.887053029146045 ], [ 3065364.213543283287436, 1774512.820492002880201 ], [ 3065364.351526083424687, 1774505.986898951465264 ], [ 3065359.917791490443051, 1774503.422680922783911 ], [ 3065354.776714956387877, 1774496.302964601432905 ], [ 3065346.259567256085575, 1774471.727888552239165 ], [ 3065344.091262239497155, 1774462.081789977382869 ], [ 3065336.28039943613112, 1774450.752231700578704 ], [ 3065329.92960374429822, 1774435.823706893483177 ], [ 3065322.671641985885799, 1774415.037720354041085 ], [ 3065316.522651837207377, 1774401.410721593769267 ], [ 3065307.952960072085261, 1774382.419783005025238 ], [ 3065298.002085328102112, 1774360.363880784250796 ], [ 3065287.745266656391323, 1774341.620443239808083 ], [ 3065279.935511182062328, 1774330.290709158172831 ], [ 3065276.558398671448231, 1774321.525376808363944 ], [ 3065274.288943718187511, 1774311.227414985420182 ], [ 3065268.846425955183804, 1774302.156176655320451 ], [ 3065263.520014479756355, 1774293.277593717677519 ], [ 3065258.821876188740134, 1774285.447888650698587 ], [ 3065252.871541083324701, 1774272.873763987561688 ], [ 3065239.315366355702281, 1774250.520488662179559 ], [ 3065232.626855132170022, 1774239.491645281203091 ], [ 3065225.003168378956616, 1774226.917426660656929 ], [ 3065218.552611450664699, 1774212.050923906033859 ], [ 3065214.368278704117984, 1774198.079129194607958 ], [ 3065205.60094930883497, 1774184.911863120039925 ], [ 3065192.094244971871376, 1774158.538783445255831 ], [ 3065184.284418174996972, 1774147.20909166126512 ], [ 3065182.8204739484936, 1774133.428216946078464 ], [ 3065183.72465245751664, 1774121.905673421919346 ], [ 3065178.933928981423378, 1774104.029211295070127 ], [ 3065172.534735021181405, 1774093.120286479592323 ], [ 3065159.636424602009356, 1774079.341361373662949 ], [ 3065150.81652660202235, 1774069.919196053640917 ], [ 3065142.353728339076042, 1774058.978340064641088 ], [ 3065136.709337068721652, 1774048.605528162559494 ], [ 3065132.073807690292597, 1774044.739717738004401 ], [ 3065120.675302549265325, 1774035.234252217691392 ], [ 3065115.648045512847602, 1774025.564317353302613 ], [ 3065109.528625291772187, 1774013.792941825930029 ], [ 3065094.938936709426343, 1774000.455817161127925 ], [ 3065077.102310026064515, 1773980.85870777699165 ], [ 3065064.029063884634525, 1773966.495773467468098 ], [ 3065061.479814606253058, 1773949.508986195549369 ], [ 3065062.283122647088021, 1773937.335643417667598 ], [ 3065057.998933807946742, 1773922.712900121929124 ], [ 3065050.236621778458357, 1773907.363768343348056 ], [ 3065038.646976629272103, 1773893.355028263293207 ], [ 3065029.525320589076728, 1773873.563893564511091 ], [ 3065025.186859264038503, 1773864.151826070388779 ], [ 3065018.087454277090728, 1773856.18802241422236 ], [ 3064999.85112536791712, 1773851.367421793984249 ], [ 3064992.845587222836912, 1773836.553961358498782 ], [ 3064982.263980021234602, 1773820.362691017566249 ], [ 3064976.008979972917587, 1773810.793536125915125 ], [ 3064971.630118854343891, 1773799.50205358164385 ], [ 3064965.431795110926032, 1773789.895057708723471 ], [ 3064956.915705565363169, 1773774.009673760505393 ], [ 3064944.117261447943747, 1773760.881823298987001 ], [ 3064926.887974227778614, 1773753.878877327311784 ], [ 3064909.610478112008423, 1773750.896648514084518 ], [ 3064902.959075990598649, 1773742.706155371386558 ], [ 3064891.217128614429384, 1773723.376028598519042 ], [ 3064882.097627887502313, 1773712.27636300236918 ], [ 3064869.048845735844225, 1773701.865467668743804 ], [ 3064854.088015176355839, 1773696.470847602235153 ], [ 3064826.9853983996436, 1773695.213593626394868 ], [ 3064790.559130866080523, 1773693.521506826858968 ], [ 3064751.627511775586754, 1773695.07379937521182 ], [ 3064727.197602658998221, 1773698.024991242680699 ], [ 3064715.989844528026879, 1773699.381104347063228 ], [ 3064691.332789411768317, 1773700.98129291087389 ], [ 3064659.095745555590838, 1773709.981754382839426 ], [ 3064630.050095904618502, 1773718.093955727526918 ], [ 3064609.130488623399287, 1773726.109168568626046 ], [ 3064596.135128502734005, 1773729.059342748019844 ], [ 3064584.650317339692265, 1773733.081343179801479 ], [ 3064575.127021699212492, 1773736.41644107690081 ], [ 3064568.532825209200382, 1773741.926899639889598 ], [ 3064562.681027714628726, 1773746.818474617321044 ], [ 3064560.526985942386091, 1773755.364907041657716 ], [ 3064558.13106400705874, 1773764.875797787681222 ], [ 3064558.566293804906309, 1773773.089580384315923 ], [ 3064559.057934743352234, 1773782.338842431083322 ], [ 3064552.778321241959929, 1773792.154892222955823 ], [ 3064538.524801942985505, 1773800.00567852682434 ], [ 3064532.027751510962844, 1773805.827141348505393 ], [ 3064523.568714550696313, 1773820.680685288738459 ], [ 3064510.072821672074497, 1773837.756694586481899 ], [ 3064500.604934950824827, 1773846.103256831644103 ], [ 3064500.423396584577858, 1773846.197588714538142 ], [ 3064494.691869023256004, 1773846.355247118510306 ], [ 3064493.361784282140434, 1773846.722193435998634 ], [ 3064474.683410104364157, 1773845.990917089395225 ], [ 3064458.705106601119041, 1773845.320271264063194 ], [ 3064444.720037140883505, 1773838.417130947811529 ], [ 3064434.945499092340469, 1773829.170318503165618 ], [ 3064421.808059428818524, 1773827.733557801460847 ], [ 3064415.92620060686022, 1773834.916267891647294 ], [ 3064407.326225128024817, 1773850.598047089995816 ], [ 3064404.608093023300171, 1773859.097017078427598 ], [ 3064403.441746769472957, 1773868.927871497580782 ], [ 3064398.526972663588822, 1773875.406061453046277 ], [ 3064387.688248132355511, 1773881.854795959079638 ], [ 3064380.35436737164855, 1773883.142550230491906 ], [ 3064343.479539910331368, 1773874.375839787535369 ], [ 3064327.119027559645474, 1773876.446369682671502 ], [ 3064321.679490046575665, 1773879.540586265968159 ], [ 3064317.731685049831867, 1773885.314179564127699 ], [ 3064316.302638665772974, 1773891.715141905006021 ], [ 3064314.290420893579721, 1773903.031487704021856 ], [ 3064317.396414082031697, 1773916.123020380036905 ], [ 3064321.189505853224546, 1773937.115714670624584 ], [ 3064318.937589830718935, 1773957.298096935264766 ], [ 3064314.953551936894655, 1773980.191125846933573 ], [ 3064304.825885958969593, 1774010.3129830181133 ], [ 3064290.44469603151083, 1774032.090286193415523 ], [ 3064288.190370534546673, 1774041.844905147561803 ], [ 3064287.714481218717992, 1774063.63766559981741 ], [ 3064286.869197458960116, 1774065.326383479638025 ], [ 3064287.227860797196627, 1774071.364942013984546 ], [ 3064286.606625665910542, 1774075.012220009695739 ], [ 3064280.163161557167768, 1774092.454514591721818 ], [ 3064276.277222030796111, 1774103.832498602103442 ], [ 3064271.02063381113112, 1774113.312077265698463 ], [ 3064260.848447751253843, 1774125.794002469163388 ], [ 3064254.081345898099244, 1774137.678015765966848 ], [ 3064251.766100475564599, 1774145.304161067586392 ], [ 3064245.967651952058077, 1774163.435454624937847 ], [ 3064247.46099307667464, 1774173.066741476766765 ], [ 3064250.987950760405511, 1774176.72569975303486 ], [ 3064260.763313179835677, 1774189.448388179996982 ], [ 3064264.288553051650524, 1774195.740024484926835 ], [ 3064263.334499238058925, 1774198.607538325246423 ], [ 3064248.836032586172223, 1774235.246254695113748 ], [ 3064242.390532220713794, 1774245.737367208581418 ], [ 3064237.810547461733222, 1774255.231465177144855 ], [ 3064236.119967835489661, 1774258.733324205270037 ], [ 3064234.842139918357134, 1774275.138942354591563 ], [ 3064234.030397855211049, 1774285.571274226997048 ], [ 3064229.356052389368415, 1774296.156042640563101 ], [ 3064218.983511445578188, 1774307.336851567961276 ], [ 3064213.99792183469981, 1774314.228067616699263 ], [ 3064209.281699371524155, 1774320.747977905441076 ], [ 3064199.997827232349664, 1774328.050458224024624 ], [ 3064193.866807316429913, 1774332.87325121788308 ], [ 3064190.028931578155607, 1774341.834422797430307 ], [ 3064187.260279505047947, 1774354.353125119116157 ], [ 3064183.987950075417757, 1774363.617523778462783 ], [ 3064180.606213558930904, 1774373.196138192433864 ], [ 3064177.334056841209531, 1774382.461621635360643 ], [ 3064173.568631305359304, 1774393.124913508538157 ], [ 3064170.973709517624229, 1774400.471852522110566 ], [ 3064166.570727781392634, 1774407.454215782228857 ], [ 3064161.28242635820061, 1774412.393017228925601 ], [ 3064159.874862414784729, 1774420.661442253971472 ], [ 3064158.388829058967531, 1774429.384584775893018 ], [ 3064152.978555995970964, 1774441.259832123992965 ], [ 3064146.842522874474525, 1774454.726827351143584 ], [ 3064140.291316832881421, 1774463.541535924421623 ], [ 3064133.501290842425078, 1774472.676612909417599 ], [ 3064125.61522334208712, 1774483.285234028706327 ], [ 3064123.272621334996074, 1774492.601660159416497 ], [ 3064122.092951686121523, 1774497.289843065198511 ], [ 3064120.731896598357707, 1774502.702260409481823 ], [ 3064117.080438498873264, 1774509.064236275618896 ], [ 3064114.952920977026224, 1774512.770082567119971 ], [ 3064112.802268057130277, 1774520.510888873366639 ], [ 3064110.813458494842052, 1774527.669652940006927 ], [ 3064107.516254498623312, 1774534.140220940345898 ], [ 3064103.335915898904204, 1774537.548429428366944 ], [ 3064097.595906917005777, 1774543.905660530785099 ], [ 3064094.574775417335331, 1774550.450847250176594 ], [ 3064092.702109148725867, 1774554.511548133799806 ], [ 3064086.819688950665295, 1774561.172118860995397 ], [ 3064083.900633364915848, 1774568.369027439272031 ], [ 3064078.462233284953982, 1774576.677887972909957 ], [ 3064073.881342875771224, 1774586.172120910370722 ], [ 3064080.015641438309103, 1774589.013024667976424 ], [ 3064078.518907680176198, 1774598.727379266405478 ], [ 3064075.90166778024286, 1774607.877900474937633 ], [ 3064073.686004725284874, 1774610.941111548803747 ], [ 3064066.43415124155581, 1774616.224656852195039 ], [ 3064066.182956314180046, 1774618.942898311419412 ], [ 3064067.39393831603229, 1774626.752635074779391 ], [ 3064066.237630969844759, 1774632.3029394664336 ], [ 3064062.661792937666178, 1774639.6161020596046 ], [ 3064061.706328478641808, 1774646.468204219825566 ], [ 3064060.805308696813881, 1774652.932972106616944 ], [ 3064058.082388995215297, 1774657.802125083049759 ], [ 3064055.009571979753673, 1774663.295745744835585 ], [ 3064052.298520325683057, 1774668.14108741725795 ], [ 3064048.819951737765223, 1774674.361963356146589 ], [ 3064040.257230838760734, 1774681.653723244089633 ], [ 3064036.128471257165074, 1774689.732625963632017 ], [ 3064035.727106941863894, 1774695.819907884113491 ], [ 3064035.331671101041138, 1774701.798516839276999 ], [ 3064033.615242612082511, 1774708.22224397584796 ], [ 3064031.986589156091213, 1774714.312916078837588 ], [ 3064035.330822328105569, 1774719.286045318935066 ], [ 3064040.770400697365403, 1774719.66788525483571 ], [ 3064041.577816659584641, 1774724.874264544807374 ], [ 3064034.225085394456983, 1774729.507111951708794 ], [ 3064031.204210861120373, 1774736.054401525529101 ], [ 3064033.724767919629812, 1774743.633167196298018 ], [ 3064033.323395416140556, 1774749.720353580079973 ], [ 3064030.755391613580287, 1774754.850039515877143 ], [ 3064029.699182094540447, 1774761.052322152303532 ], [ 3064027.334156817290932, 1774767.484443231718615 ], [ 3064023.053030881099403, 1774770.241843308089301 ], [ 3064017.311930920928717, 1774776.598297112388536 ], [ 3064019.832478701137006, 1774784.176965962629765 ], [ 3064022.395622115582228, 1774791.882771701319143 ], [ 3064018.677424711640924, 1774798.418008855078369 ], [ 3064020.644192125182599, 1774806.763472500257194 ], [ 3064016.868496524635702, 1774812.773778967559338 ], [ 3064016.063378815539181, 1774816.257835908094421 ], [ 3064016.065452025271952, 1774824.947408110368997 ], [ 3064014.908319800160825, 1774830.498784643830732 ], [ 3064013.393979910295457, 1774837.762649602955207 ], [ 3064010.831113691907376, 1774843.247387483716011 ], [ 3064010.98375891149044, 1774848.569869070546702 ], [ 3064011.216524330433458, 1774856.732514903647825 ], [ 3064009.073776448145509, 1774862.273849885910749 ], [ 3064007.665485789999366, 1774870.543575468938798 ], [ 3064007.76848797686398, 1774879.883964464766905 ], [ 3064008.930004454217851, 1774891.712508486583829 ], [ 3064007.118043628521264, 1774897.378985288087279 ], [ 3064009.335851074196398, 1774903.005221514496952 ], [ 3064011.753297125920653, 1774909.139818197116256 ], [ 3064009.842688124626875, 1774914.949847960378975 ], [ 3064009.340282574761659, 1774920.385345708811656 ], [ 3064008.728562046773732, 1774927.010457288241014 ], [ 3064010.703494349494576, 1774933.514535306254402 ], [ 3064010.957167678046972, 1774939.487816257635131 ], [ 3064010.102724651806056, 1774946.991753483656794 ], [ 3064006.981888922397047, 1774952.886973811080679 ], [ 3064004.364731561392546, 1774962.037533475318924 ], [ 3064002.640199512243271, 1774968.06643840810284 ], [ 3064001.17159377457574, 1774973.20065812044777 ], [ 3064002.3038618741557, 1774979.112832651007921 ], [ 3064003.17894659563899, 1774983.6812544753775 ], [ 3064002.608656460884959, 1774989.753756743855774 ], [ 3064000.596011339686811, 1774994.119422916555777 ], [ 3064000.295204284600914, 1775000.85558466706425 ], [ 3064003.066115844994783, 1775005.717170111602172 ], [ 3064005.428574269637465, 1775009.858954063849524 ], [ 3064006.293152399361134, 1775017.851641356246546 ], [ 3064005.338723046239465, 1775024.703497109003365 ], [ 3064004.494501327164471, 1775030.755788509733975 ], [ 3064003.974811156746, 1775034.481603752356023 ], [ 3064000.759238999336958, 1775042.888630180153996 ], [ 3064000.811822823248804, 1775047.559149269014597 ], [ 3064002.826965772546828, 1775051.884921315358952 ], [ 3064003.584953159093857, 1775061.110307872062549 ], [ 3063999.505599673837423, 1775065.169367752503604 ], [ 3064000.413888960145414, 1775071.026689723134041 ], [ 3064004.64786337967962, 1775080.978629243792966 ], [ 3064006.715557936578989, 1775089.974019989836961 ], [ 3064007.574679505079985, 1775099.852207939373329 ], [ 3064005.260096308309585, 1775110.95313797541894 ], [ 3064005.564972621388733, 1775121.595074322074652 ], [ 3064005.815739589743316, 1775130.276174873812124 ], [ 3064002.498162541538477, 1775140.851661808788776 ], [ 3063996.857886517420411, 1775147.857879909453914 ], [ 3063994.392001017462462, 1775153.639214379712939 ], [ 3063995.098456071224064, 1775158.194912209641188 ], [ 3063996.313679990358651, 1775166.030833181925118 ], [ 3063995.506655162665993, 1775178.178231287747622 ], [ 3064000.948450731113553, 1775187.249636298511177 ], [ 3064000.547974528279155, 1775193.335688894148916 ], [ 3063999.038875844329596, 1775200.955626431619748 ], [ 3064000.350718901958317, 1775209.415227315854281 ], [ 3064001.264585201628506, 1775215.307759818155318 ], [ 3064004.535502944141626, 1775223.387043040478602 ], [ 3064005.241811171174049, 1775227.941759342560545 ], [ 3064004.941341905388981, 1775234.679901656229049 ], [ 3064005.849634699057788, 1775240.537132541183382 ], [ 3064006.663221834227443, 1775245.782984130783007 ], [ 3064007.77150105452165, 1775252.929841432487592 ], [ 3064008.781344666145742, 1775259.441921329824254 ], [ 3064014.619535316713154, 1775262.393732083961368 ], [ 3064016.534622430801392, 1775266.067636296153069 ], [ 3064014.520917261950672, 1775270.43350498448126 ], [ 3064011.651299875229597, 1775273.610585560556501 ], [ 3064008.076589327771217, 1775280.92372818896547 ], [ 3064014.324606290087104, 1775286.511778915068135 ], [ 3064018.926065400242805, 1775290.627744625788182 ], [ 3064019.766416270285845, 1775295.583191072801128 ], [ 3064018.71001458261162, 1775301.784439213806763 ], [ 3064016.596325586549938, 1775305.49831957067363 ], [ 3064013.754646889865398, 1775310.487726845778525 ], [ 3064015.842865295708179, 1775313.653094835346565 ], [ 3064019.621731610503048, 1775316.332170503912494 ], [ 3064023.702227689791471, 1775320.962880777427927 ], [ 3064027.079697668552399, 1775329.729190771235153 ], [ 3064029.484856982715428, 1775335.97249134676531 ], [ 3064031.859686166979373, 1775342.134304721606895 ], [ 3064034.033302594441921, 1775347.777623137226328 ], [ 3064036.206408223137259, 1775353.416989049175754 ], [ 3064036.85976427514106, 1775358.093797924928367 ], [ 3064037.685289034154266, 1775364.00084264529869 ], [ 3064036.711790242232382, 1775370.152365928050131 ], [ 3064035.530814049765468, 1775377.618482280522585 ], [ 3064034.515929767396301, 1775384.03296661679633 ], [ 3064030.520960544701666, 1775386.614930815529078 ], [ 3064027.096591626293957, 1775390.558986955089495 ], [ 3064027.450824710540473, 1775397.181055510183796 ], [ 3064031.734318126924336, 1775403.114208252634853 ], [ 3064034.154038746841252, 1775410.042191833723336 ], [ 3064034.609450799878687, 1775417.316042924998328 ], [ 3064036.374324534088373, 1775424.359026925638318 ], [ 3064036.073880983516574, 1775431.097178987693042 ], [ 3064032.548591196537018, 1775434.390421347692609 ], [ 3064031.088505618274212, 1775437.988415107596666 ], [ 3064031.996835327707231, 1775443.845753074390814 ], [ 3064034.416713417973369, 1775450.774722336325794 ], [ 3064037.022427626885474, 1775458.237117127282545 ], [ 3064035.782497736625373, 1775472.594547560671344 ], [ 3064037.700022326782346, 1775484.95894260564819 ], [ 3064036.796374502591789, 1775496.482806984335184 ], [ 3064037.958130506798625, 1775508.311388532165438 ], [ 3064038.870248014107347, 1775517.590503868181258 ], [ 3064039.700872888788581, 1775526.042470667744055 ], [ 3064040.346649199724197, 1775532.623759715352207 ], [ 3064043.860936221666634, 1775542.036722984164953 ], [ 3064045.022603152319789, 1775553.86532586091198 ], [ 3064048.252045325003564, 1775574.689351666485891 ], [ 3064052.892269628122449, 1775595.935180362081155 ], [ 3064052.089422165416181, 1775608.108886629575863 ], [ 3064047.105235691182315, 1775615.001042438670993 ], [ 3064047.713099115062505, 1775627.595450933789834 ], [ 3064048.063079268671572, 1775634.84761117445305 ], [ 3064050.588190880138427, 1775641.797325930092484 ], [ 3064053.093625938985497, 1775648.693597459932789 ], [ 3064052.254619820043445, 1775656.880001999204978 ], [ 3064051.335652568377554, 1775665.839948503766209 ], [ 3064049.236183452419937, 1775672.116767743369564 ], [ 3064050.447422802448273, 1775679.926547743147239 ], [ 3064054.730771768838167, 1775685.858628190588206 ], [ 3064057.25159146822989, 1775693.438327164156362 ], [ 3064059.52343948604539, 1775712.424826389877126 ], [ 3064059.476632613223046, 1775725.135228307452053 ], [ 3064059.429774746764451, 1775737.75872565060854 ], [ 3064059.400585001334548, 1775745.882460800232366 ], [ 3064059.355523255653679, 1775757.845391552662477 ], [ 3064059.315703713335097, 1775768.701151460874826 ], [ 3064057.829814434982836, 1775779.571745598921552 ], [ 3064055.868692082352936, 1775793.910854518413544 ], [ 3064054.135739638470113, 1775806.579017695039511 ], [ 3064048.925958291627467, 1775821.913017042446882 ], [ 3064043.181674099527299, 1775838.816633100388572 ], [ 3064044.299840330146253, 1775852.807510437676683 ], [ 3064040.82723624818027, 1775860.771220351802185 ], [ 3064036.853661560453475, 1775882.861292817862704 ], [ 3064033.805006856564432, 1775899.80887873028405 ], [ 3064030.801054425071925, 1775916.514855806482956 ], [ 3064025.886802534107119, 1775933.586334575433284 ], [ 3064018.536830335855484, 1775946.910791777539998 ], [ 3064015.264968789648265, 1775956.175338165136054 ], [ 3064016.32590145431459, 1775967.353143815649673 ], [ 3064020.912223957479, 1775975.238666910445318 ], [ 3064018.551026954315603, 1775999.050133194075897 ], [ 3064017.650950391311198, 1776019.263299579499289 ], [ 3064015.538612856995314, 1776031.666940887225792 ], [ 3064011.006397445686162, 1776037.142688271822408 ], [ 3064012.120012265164405, 1776052.990959079237655 ], [ 3064011.668423710390925, 1776063.09731557732448 ], [ 3064011.131852303165942, 1776075.153889310546219 ], [ 3064010.582182310521603, 1776087.468257241882384 ], [ 3064006.994329580105841, 1776098.011606631334871 ], [ 3064007.19848461728543, 1776108.0028078018222 ], [ 3064009.468256046995521, 1776118.300803389633074 ], [ 3064010.327356491237879, 1776128.176985746948048 ], [ 3064004.289532047696412, 1776149.961018112488091 ], [ 3063997.694271667394787, 1776163.820516943698749 ], [ 3063993.016389512456954, 1776181.354560559615493 ], [ 3063989.645114830229431, 1776198.659041356062517 ], [ 3063986.155597468372434, 1776216.577342345844954 ], [ 3063984.065038457512856, 1776236.405680192634463 ], [ 3063984.168539411388338, 1776245.747040594462305 ], [ 3063977.877212632447481, 1776261.558824434876442 ], [ 3063976.771721271798015, 1776271.780048017855734 ], [ 3063974.255713043734431, 1776281.580444182502106 ], [ 3063971.739859877154231, 1776291.381825364660472 ], [ 3063969.129770706407726, 1776301.555810668738559 ], [ 3063968.67342137452215, 1776310.638437658781186 ], [ 3063968.263234552461654, 1776318.809637774946168 ], [ 3063967.45783056365326, 1776334.865620367228985 ], [ 3063960.3240288766101, 1776352.214224816067144 ], [ 3063946.678348990157247, 1776372.660265172831714 ], [ 3063931.673374133184552, 1776388.665315710473806 ], [ 3063915.205146136693656, 1776399.580095925368369 ], [ 3063897.830932056996971, 1776413.327078540343791 ], [ 3063886.101196016184986, 1776422.607628193683922 ], [ 3063871.842898595146835, 1776427.918435947038233 ], [ 3063851.297533964272588, 1776442.890936746494845 ], [ 3063840.650130047462881, 1776450.650593604194 ], [ 3063830.799377435818315, 1776453.844989135395736 ], [ 3063823.095080389641225, 1776460.546457729535177 ], [ 3063814.683220690116286, 1776462.692360474029556 ], [ 3063807.331884012557566, 1776467.325189664028585 ], [ 3063798.566918144933879, 1776471.538756785681471 ], [ 3063783.757911840453744, 1776471.465447522699833 ], [ 3063768.798768077977002, 1776474.7612544586882 ], [ 3063747.595075962133706, 1776481.159543279092759 ], [ 3063734.062845262698829, 1776485.242802500957623 ], [ 3063722.865221545565873, 1776490.851242325967178 ], [ 3063706.495478188619018, 1776493.726275311782956 ], [ 3063692.076009974814951, 1776496.258887591771781 ], [ 3063673.744831757619977, 1776499.478427119553089 ], [ 3063652.653383992146701, 1776506.525515952147543 ], [ 3063636.837469405960292, 1776508.634865935426205 ], [ 3063627.619896006304771, 1776509.862555319443345 ], [ 3063617.691754196304828, 1776511.188163719838485 ], [ 3063605.405056702904403, 1776505.464421271113679 ], [ 3063598.606710180640221, 1776509.332641444401816 ], [ 3063596.391228070482612, 1776512.395953765138984 ], [ 3063586.973539129365236, 1776516.724224239122123 ], [ 3063579.87138282507658, 1776518.640160711947829 ], [ 3063562.243601327762008, 1776526.415058671496809 ], [ 3063550.074738378636539, 1776531.783316927729174 ], [ 3063535.277407069224864, 1776538.31069010659121 ], [ 3063526.061585000250489, 1776542.375367249595001 ], [ 3063526.061585000250489, 1776668.348712329752743 ], [ 3063528.48411563783884, 1776655.972776096081361 ] ] ] } }
]
}
