{
"type": "FeatureCollection",
"name": "Salar",
"crs": { "type": "name", "properties": { "name": "urn:ogc:def:crs:EPSG::3035" } },
"features": [
{ "type": "Feature", "properties": { "SITE_NAME": "Infiernos de Loja", "ODESIGNATE": "Monumento Natural", "NUT2": 61, "SITE_CODE_": "ES614010", "DESIG_ABBR": "ES19", "SITE_CDDA": "348790_CDDA", "Sup_ha": 2.5685940356699999 }, "geometry": { "type": "Polygon", "coordinates": [ [ [ 3064189.548802827484906, 1682601.39164566504769 ], [ 3064177.26933897472918, 1682599.500403532525524 ], [ 3064167.80319104064256, 1682600.398860936751589 ], [ 3064158.370429984293878, 1682601.291383427102119 ], [ 3064149.282279843464494, 1682594.298117462778464 ], [ 3064134.508423179388046, 1682586.53057923563756 ], [ 3064127.188329847529531, 1682590.841361115453765 ], [ 3064118.326197421178222, 1682585.321547073079273 ], [ 3064105.217772187665105, 1682578.02413863199763 ], [ 3064094.20449911756441, 1682579.193190284539014 ], [ 3064088.145181269384921, 1682586.56014589802362 ], [ 3064081.581490509677678, 1682575.092149365926161 ], [ 3064070.828543518669903, 1682567.378112966194749 ], [ 3064061.49246069137007, 1682564.977181099588051 ], [ 3064053.182472625747323, 1682569.706752639263868 ], [ 3064046.7601512898691, 1682566.791480207350105 ], [ 3064034.162274901755154, 1682568.237579506356269 ], [ 3064025.009497432038188, 1682576.150209539802745 ], [ 3064017.373051293194294, 1682577.986583004938439 ], [ 3064010.130992063321173, 1682577.233656506985426 ], [ 3064003.075996891129762, 1682572.916041032178327 ], [ 3063988.736951282247901, 1682566.08427810203284 ], [ 3063988.47964425990358, 1682562.346815248252824 ], [ 3063983.315331538207829, 1682558.956011169822887 ], [ 3063980.606695, 1682558.082410379778594 ], [ 3063980.606695, 1682613.624843752710149 ], [ 3063988.850102878175676, 1682616.796023571165279 ], [ 3064004.811255934648216, 1682615.518340165028349 ], [ 3064007.03151597129181, 1682620.68160074017942 ], [ 3064024.520292935427278, 1682620.654863830655813 ], [ 3064030.668255553580821, 1682623.617996192304417 ], [ 3064031.873135672882199, 1682633.753058366943151 ], [ 3064050.806798418052495, 1682629.686233797809109 ], [ 3064066.902386016212404, 1682625.35925928154029 ], [ 3064101.285449096001685, 1682646.096750954864547 ], [ 3064116.227145544718951, 1682649.796775898663327 ], [ 3064118.092929224483669, 1682638.1128523000516 ], [ 3064120.114999824669212, 1682633.465984835987911 ], [ 3064120.896779076196253, 1682631.310283638304099 ], [ 3064145.199742386583239, 1682635.898852292913944 ], [ 3064160.159985593520105, 1682639.084839920280501 ], [ 3064172.55216356460005, 1682641.712898443220183 ], [ 3064192.575111915357411, 1682644.524945474462584 ], [ 3064204.347902765497565, 1682621.770274984184653 ], [ 3064202.111986339092255, 1682610.297561888117343 ], [ 3064189.548802827484906, 1682601.39164566504769 ] ] ] } },
{ "type": "Feature", "properties": { "SITE_NAME": "Sierra de Loja", "ODESIGNATE": "Zona de Importancia Comunitaria ZIC (ZEPA/ZEC)", "NUT2": 61, "SITE_CODE_": "ES6140008", "DESIG_ABBR": "ES49", "SITE_CDDA": "555588882_CDDA", "Sup_ha": 26027.201933600001 }, "geometry": { "type": "MultiPolygon", "coordinates": [ [ [ [ 3063998.39578740671277, 1678332.651566840242594 ], [ 3064011.224306365475059, 1678319.725749544100836 ], [ 3064024.367079859599471, 1678300.067936608335003 ], [ 3064049.510516597423702, 1678279.647781253559515 ], [ 3064080.497405976057053, 1678262.212643536506221 ], [ 3064124.79611798375845, 1678243.786048860754818 ], [ 3064136.597403008490801, 1678241.72326391749084 ], [ 3064152.815933151636273, 1678250.907340650679544 ], [ 3064179.325025959871709, 1678256.957289741141722 ], [ 3064213.502303854562342, 1678260.331379451556131 ], [ 3064222.28234151750803, 1678256.125859114807099 ], [ 3064225.932102534454316, 1678244.804443524451926 ], [ 3064224.052918964996934, 1678223.766089538810775 ], [ 3064221.207113939337432, 1678178.858973853755742 ], [ 3064218.116973140276968, 1678162.424538783263415 ], [ 3064220.6288031777367, 1678162.667103706393391 ], [ 3064224.004777757450938, 1678159.073204562533647 ], [ 3064227.614835189655423, 1678146.756454562302679 ], [ 3064230.708111958578229, 1678136.20037927897647 ], [ 3064230.490334310568869, 1678127.085292031755671 ], [ 3064226.946525113657117, 1678124.839337652316317 ], [ 3064222.680008672177792, 1678122.134617685573176 ], [ 3064223.70916061475873, 1678111.846444319467992 ], [ 3064224.911515562795103, 1678099.820201136637479 ], [ 3064225.795895467046648, 1678090.98682570294477 ], [ 3064227.088452237192541, 1678078.079817365854979 ], [ 3064224.72979353601113, 1678066.468228368787095 ], [ 3064221.980452169664204, 1678052.927008921746165 ], [ 3064223.614298822358251, 1678045.406673557823524 ], [ 3064230.376410520169884, 1678037.436604843707755 ], [ 3064238.359592285007238, 1678028.029155965894461 ], [ 3064245.800957582890987, 1678010.70345285651274 ], [ 3064253.569521926343441, 1678008.678825052455068 ], [ 3064260.424275165423751, 1678009.483014618745074 ], [ 3064266.239782481454313, 1678014.65717424149625 ], [ 3064277.355778148397803, 1678014.53559847199358 ], [ 3064289.52585593983531, 1678014.40342256356962 ], [ 3064310.037688276730478, 1678008.154566564597189 ], [ 3064320.328396950382739, 1678005.022397584514692 ], [ 3064339.284398096613586, 1678005.714750955812633 ], [ 3064348.76197212189436, 1678006.061460421420634 ], [ 3064377.765820817090571, 1677997.653329588007182 ], [ 3064388.273200160823762, 1677995.798331530066207 ], [ 3064402.510182162281126, 1678005.905235212063417 ], [ 3064412.788389454130083, 1678013.201026299735531 ], [ 3064438.109462468884885, 1678031.176170684862882 ], [ 3064463.449032355099916, 1678049.163746068254113 ], [ 3064476.232510448433459, 1678055.894510585581884 ], [ 3064495.273246354423463, 1678065.921702962834388 ], [ 3064516.166239431127906, 1678074.469560138881207 ], [ 3064526.398616318590939, 1678084.518805357627571 ], [ 3064540.779362467117608, 1678098.642390659311786 ], [ 3064551.464829756412655, 1678111.728037075605243 ], [ 3064558.02269377745688, 1678106.367544957203791 ], [ 3064568.074851561337709, 1678098.152239503804594 ], [ 3064579.566584170795977, 1678092.813240074319765 ], [ 3064589.565935380756855, 1678088.16822460340336 ], [ 3064603.39169139880687, 1678081.745289341080934 ], [ 3064622.305651863571256, 1678077.771874180063605 ], [ 3064632.952711612451822, 1678072.573251569876447 ], [ 3064646.820707101374865, 1678070.817230927757919 ], [ 3064658.347138634882867, 1678074.25636356160976 ], [ 3064666.574338464997709, 1678076.712287683971226 ], [ 3064673.628813805989921, 1678078.819178411038592 ], [ 3064684.119548166636378, 1678076.985651462106034 ], [ 3064696.716161027085036, 1678066.392811581492424 ], [ 3064716.701341969426721, 1678065.008641917724162 ], [ 3064731.937723515555263, 1678063.953111291397363 ], [ 3064744.594981789123267, 1678063.076480132993311 ], [ 3064762.181333933956921, 1678068.014947688905522 ], [ 3064774.32055539265275, 1678069.232120219152421 ], [ 3064779.726395296864212, 1678068.28727797861211 ], [ 3064788.90591243095696, 1678066.683039360679686 ], [ 3064803.47182527417317, 1678069.479385634651408 ], [ 3064821.273785842582583, 1678067.035931368824095 ], [ 3064846.984247243031859, 1678067.884556697448716 ], [ 3064864.732073390856385, 1678070.953917548293248 ], [ 3064877.585454941727221, 1678069.880742402514443 ], [ 3064876.703485948033631, 1678055.345331844408065 ], [ 3064882.504849378019571, 1678053.663734515663236 ], [ 3064898.300881868228316, 1678054.701896233018488 ], [ 3064915.569486536085606, 1678058.568109015002847 ], [ 3064932.342881986871362, 1678062.323625082615763 ], [ 3064942.67769333999604, 1678068.52016188018024 ], [ 3064953.600084926001728, 1678075.068775265710428 ], [ 3064970.440472866408527, 1678078.35774217476137 ], [ 3064997.50552010955289, 1678083.644021289190277 ], [ 3065022.105899452231824, 1678086.021266038762406 ], [ 3065036.729224883019924, 1678084.801163882715628 ], [ 3065054.375219431705773, 1678086.818498738342896 ], [ 3065068.541193090379238, 1678085.919189974432811 ], [ 3065092.542575755622238, 1678084.395762804662809 ], [ 3065098.800231858156621, 1678081.298961820779368 ], [ 3065112.453619507141411, 1678086.925909056793898 ], [ 3065126.919704591855407, 1678089.070972312707454 ], [ 3065133.418965817894787, 1678091.941720499191433 ], [ 3065146.174979204311967, 1678091.715734848519787 ], [ 3065154.18402783293277, 1678095.657041094731539 ], [ 3065155.48011109419167, 1678104.111418726155534 ], [ 3065151.573943988420069, 1678118.148151564411819 ], [ 3065147.635977766942233, 1678149.550882931565866 ], [ 3065146.621909781359136, 1678182.445926288608462 ], [ 3065151.870857649017125, 1678194.991210661130026 ], [ 3065151.354959825053811, 1678204.814498886000365 ], [ 3065150.850284769199789, 1678214.424851715564728 ], [ 3065149.532327868975699, 1678239.504648808622733 ], [ 3065150.50146736158058, 1678269.237490659113973 ], [ 3065151.411283837631345, 1678297.1221052124165 ], [ 3065150.72508502472192, 1678314.602695822715759 ], [ 3065155.100155122578144, 1678321.183422892354429 ], [ 3065163.208906000480056, 1678325.775060149841011 ], [ 3065175.201344531495124, 1678324.885640223044902 ], [ 3065181.068352939561009, 1678319.31520025478676 ], [ 3065193.996914577670395, 1678307.040513887070119 ], [ 3065201.143122065346688, 1678291.581735002342612 ], [ 3065208.66510421782732, 1678285.209393903845921 ], [ 3065220.445741269737482, 1678275.229539183201268 ], [ 3065226.682935339398682, 1678269.946016057161614 ], [ 3065238.599176071584225, 1678259.851523528108373 ], [ 3065253.030803469009697, 1678252.648967929184437 ], [ 3065273.661668723449111, 1678247.046533013461158 ], [ 3065294.343361923471093, 1678241.429072971455753 ], [ 3065309.521689077839255, 1678239.444337293505669 ], [ 3065322.136785269714892, 1678233.901016154093668 ], [ 3065331.784667464904487, 1678236.22148332814686 ], [ 3065338.470375632867217, 1678235.053174422588199 ], [ 3065360.762519596610218, 1678231.157492917496711 ], [ 3065366.505523157306015, 1678233.492682595737278 ], [ 3065373.063909980002791, 1678240.575672297738492 ], [ 3065386.516291142441332, 1678236.673297729808837 ], [ 3065392.316518074832857, 1678234.990872002439573 ], [ 3065403.518042067065835, 1678231.742371695348993 ], [ 3065406.898907488211989, 1678229.104820674518123 ], [ 3065401.868076150305569, 1678222.63866745820269 ], [ 3065400.11589029058814, 1678215.600698319030926 ], [ 3065403.66627302300185, 1678203.627404357073829 ], [ 3065401.300755705684423, 1678201.371780203888193 ], [ 3065401.216243981383741, 1678192.038031337317079 ], [ 3065402.683779421262443, 1678188.442730551119894 ], [ 3065396.914023051038384, 1678172.758298526983708 ], [ 3065393.723767571151257, 1678151.948757965816185 ], [ 3065393.381793418899179, 1678131.69687982625328 ], [ 3065395.666997137945145, 1678107.541682419832796 ], [ 3065398.236153555102646, 1678080.383631210308522 ], [ 3065396.399634501896799, 1678064.012815760914236 ], [ 3065399.298084635287523, 1678052.185568666318431 ], [ 3065398.196956490632147, 1678045.002753273351118 ], [ 3065396.302793170325458, 1678032.647507187910378 ], [ 3065397.662341206334531, 1678024.187072847504169 ], [ 3065404.183177461847663, 1678017.796452745562419 ], [ 3065412.325833099894226, 1678009.816006445791572 ], [ 3065422.275096490979195, 1678000.064249420072883 ], [ 3065432.267721820622683, 1677994.980377642204985 ], [ 3065445.330663881264627, 1677991.861407604534179 ], [ 3065455.368436475284398, 1677991.443799243541434 ], [ 3065466.659205860458314, 1677990.972692398820072 ], [ 3065476.693871470168233, 1677990.554724974557757 ], [ 3065491.349363853223622, 1677986.192056253785267 ], [ 3065500.606351987458766, 1677985.80651962547563 ], [ 3065514.92000247258693, 1677985.210284007946029 ], [ 3065524.954658495262265, 1677984.792232345789671 ], [ 3065530.798369375057518, 1677987.777702254476026 ], [ 3065542.399305104278028, 1677984.414970308309421 ], [ 3065550.301370339468122, 1677978.665796609828249 ], [ 3065560.258929706178606, 1677977.955264683812857 ], [ 3065574.317580146715045, 1677976.952996955253184 ], [ 3065586.569849061779678, 1677982.706138552632183 ], [ 3065593.823343221098185, 1677986.111813974566758 ], [ 3065602.247581850737333, 1677983.9720404217951 ], [ 3065609.71620538039133, 1677979.996913081966341 ], [ 3065617.65621697390452, 1677965.922184290131554 ], [ 3065628.975584708154202, 1677951.925825878046453 ], [ 3065634.849027911201119, 1677937.545473616570234 ], [ 3065644.882610694505274, 1677937.127649215748534 ], [ 3065654.10450301412493, 1677940.190499059855938 ], [ 3065665.424325262196362, 1677938.461464322870597 ], [ 3065672.205685486085713, 1677939.69748043618165 ], [ 3065690.904073193669319, 1677943.107515292009339 ], [ 3065710.615851894021034, 1677944.33734469092451 ], [ 3065726.70798481721431, 1677939.522178339073434 ], [ 3065740.004096131771803, 1677929.086619313107803 ], [ 3065754.616888299584389, 1677923.962448333622888 ], [ 3065767.440493375062943, 1677919.465151434298605 ], [ 3065785.839832928031683, 1677917.674446128774434 ], [ 3065805.201623919419944, 1677915.791189800016582 ], [ 3065822.447658591903746, 1677914.112080902559683 ], [ 3065832.534141230862588, 1677905.710366650484502 ], [ 3065842.530491426587105, 1677904.594114674720913 ], [ 3065853.121278714388609, 1677903.411249380558729 ], [ 3065859.362622260581702, 1677908.997270436258987 ], [ 3065868.641947460360825, 1677908.043559053214267 ], [ 3065874.920774928759784, 1677902.650485631544143 ], [ 3065881.455610750708729, 1677903.801317906472832 ], [ 3065889.066040856763721, 1677905.143564600963145 ], [ 3065900.313356299884617, 1677903.844991876743734 ], [ 3065911.002626583911479, 1677906.731062098871917 ], [ 3065918.896659523248672, 1677915.287209593458101 ], [ 3065928.176088576670736, 1677925.347327906638384 ], [ 3065945.175764777697623, 1677937.404322151094675 ], [ 3065957.260689322836697, 1677945.975613899761811 ], [ 3065969.476226495578885, 1677937.831533050397411 ], [ 3065974.737218769267201, 1677928.232612228021026 ], [ 3065987.02329616015777, 1677919.936509974533692 ], [ 3066007.186495759058744, 1677901.016896498855203 ], [ 3066037.556288696825504, 1677872.520184529013932 ], [ 3066068.161016725003719, 1677843.802389245480299 ], [ 3066081.093989184591919, 1677829.243196193128824 ], [ 3066088.931772097013891, 1677816.805257900385186 ], [ 3066113.420483649708331, 1677796.500418373383582 ], [ 3066141.449335507117212, 1677768.267122357152402 ], [ 3066147.774757931940258, 1677757.112582130823284 ], [ 3066159.96362485922873, 1677735.619301819242537 ], [ 3066165.803496426902711, 1677713.614555856678635 ], [ 3066182.317180565092713, 1677696.99290025793016 ], [ 3066195.209659278392792, 1677684.018123687710613 ], [ 3066204.199934207834303, 1677668.465049470309168 ], [ 3066208.841695728711784, 1677660.434966570930555 ], [ 3066203.418025712482631, 1677654.579961391631514 ], [ 3066199.4292625002563, 1677650.275094160344452 ], [ 3066192.033742815256119, 1677650.878768347436562 ], [ 3066181.439908316824585, 1677651.742648467654362 ], [ 3066172.817298592999578, 1677652.446046968922019 ], [ 3066161.329417473170906, 1677647.912310346029699 ], [ 3066148.431399054825306, 1677642.820631521521136 ], [ 3066131.715869535692036, 1677643.202583822887391 ], [ 3066118.62791645899415, 1677646.023775764042512 ], [ 3066102.336506261490285, 1677649.53903192630969 ], [ 3066088.97297253087163, 1677647.69279327429831 ], [ 3066076.383309921715409, 1677642.72310851723887 ], [ 3066063.484457415528595, 1677637.632614653324708 ], [ 3066054.205975892022252, 1677638.586103545501828 ], [ 3066047.949019423220307, 1677641.681539201643318 ], [ 3066034.55397673882544, 1677643.824576891725883 ], [ 3066022.777841861359775, 1677648.750631865113974 ], [ 3066014.55299260141328, 1677652.190916422056034 ], [ 3066005.829524172469974, 1677652.379703632323071 ], [ 3065997.421793510671705, 1677645.836895980639383 ], [ 3065990.455138524062932, 1677622.349613637430593 ], [ 3065985.612650167196989, 1677595.151472201338038 ], [ 3065990.257565950043499, 1677580.996441768016666 ], [ 3065989.992048623971641, 1677571.017293453915045 ], [ 3065989.423888842575252, 1677549.749785436084494 ], [ 3065993.428455596789718, 1677507.21981241600588 ], [ 3065998.469699112698436, 1677481.398838356602937 ], [ 3065993.799821794033051, 1677465.375431830994785 ], [ 3065984.8872264996171, 1677449.548624052200466 ], [ 3065980.165868581738323, 1677430.932496097171679 ], [ 3065975.470874072052538, 1677412.4192707054317 ], [ 3065973.156159330159426, 1677385.204310985747725 ], [ 3065974.710174047853798, 1677371.124113336205482 ], [ 3065971.332886674441397, 1677355.142587477108464 ], [ 3065972.555099047720432, 1677332.833608865505084 ], [ 3065967.722696539014578, 1677313.424411689862609 ], [ 3065952.88869493547827, 1677289.31906654778868 ], [ 3065947.152861163485795, 1677270.066716599976644 ], [ 3065947.40318598318845, 1677244.993845980381593 ], [ 3065950.63822140917182, 1677226.187739937100559 ], [ 3065953.802138249389827, 1677207.788753853179514 ], [ 3065964.341671209782362, 1677182.36541287577711 ], [ 3065975.861529704649001, 1677154.574279808672145 ], [ 3065987.714344113599509, 1677135.012838376918808 ], [ 3065991.786140603013337, 1677113.125849589239806 ], [ 3065982.269051718525589, 1677094.600401782430708 ], [ 3065967.202465392649174, 1677075.782458835281432 ], [ 3065940.879837164189667, 1677042.90965079353191 ], [ 3065918.203071282245219, 1677014.58673038193956 ], [ 3065906.388576222583652, 1676999.831284895073622 ], [ 3065886.572321309708059, 1676983.540596035774797 ], [ 3065871.166844884864986, 1676970.875343271763995 ], [ 3065844.233290875330567, 1676962.477738191140816 ], [ 3065831.452694045379758, 1676961.375203500734642 ], [ 3065807.45798406098038, 1676959.305875639664009 ], [ 3065776.756427053362131, 1676956.657539519481361 ], [ 3065745.002670586109161, 1676951.522924284916371 ], [ 3065717.738105376716703, 1676944.936429985333234 ], [ 3065703.685096196830273, 1676936.7091099973768 ], [ 3065700.132538320496678, 1676924.289276831317693 ], [ 3065695.607404426671565, 1676914.750510633690283 ], [ 3065690.6345683503896, 1676904.268929738551378 ], [ 3065685.603871785104275, 1676897.802885541925207 ], [ 3065683.253667095676064, 1676886.862866937415674 ], [ 3065687.203502902761102, 1676877.493135532829911 ], [ 3065687.99012242583558, 1676860.663229742785916 ], [ 3065680.525933986064047, 1676844.011841790052131 ], [ 3065676.606676665134728, 1676825.928580612177029 ], [ 3065672.005855531897396, 1676804.698092421283945 ], [ 3065661.861725913826376, 1676782.4339539417997 ], [ 3065648.46529778977856, 1676769.182165717240423 ], [ 3065635.167627092916518, 1676766.399394320789725 ], [ 3065617.779647978954017, 1676762.761240414576605 ], [ 3065609.172369708307087, 1676754.91691630310379 ], [ 3065605.353523106314242, 1676747.572316634003073 ], [ 3065597.148161748424172, 1676743.803703426150605 ], [ 3065591.905563945882022, 1676735.2824549425859 ], [ 3065586.685349554754794, 1676726.797673833556473 ], [ 3065579.661707216408104, 1676715.38025897112675 ], [ 3065578.41520397271961, 1676702.875903702108189 ], [ 3065577.368629355914891, 1676692.369811415672302 ], [ 3065576.532613384071738, 1676683.977823579218239 ], [ 3065569.233502343762666, 1676674.427841197932139 ], [ 3065560.534815757535398, 1676663.048832755768672 ], [ 3065556.665024847257882, 1676653.922920076409355 ], [ 3065550.338583440054208, 1676639.003621752606705 ], [ 3065539.978600938804448, 1676626.196944560389966 ], [ 3065524.657934240065515, 1676620.788751621032134 ], [ 3065513.270698752719909, 1676616.768875207519159 ], [ 3065493.659031145274639, 1676616.200659994967282 ], [ 3065474.038901137653738, 1676619.969031965360045 ], [ 3065455.729755175299942, 1676623.485737978480756 ], [ 3065436.729128557257354, 1676627.134482088265941 ], [ 3065423.403404308483005, 1676627.798842401010916 ], [ 3065402.024321019649506, 1676628.863573138369247 ], [ 3065386.603179990313947, 1676624.880847315769643 ], [ 3065376.182924185879529, 1676615.365590642904863 ], [ 3065372.382141392678022, 1676597.987352302763611 ], [ 3065370.131749749649316, 1676587.697666641557589 ], [ 3065358.603953336365521, 1676578.36160471313633 ], [ 3065345.41258450364694, 1676574.606346397195011 ], [ 3065336.839906906709075, 1676568.14309795666486 ], [ 3065323.899800253100693, 1676558.384974866639823 ], [ 3065311.358638001605868, 1676551.22900782385841 ], [ 3065295.323878433555365, 1676552.02780437306501 ], [ 3065283.192995890043676, 1676549.241851596161723 ], [ 3065275.581357417162508, 1676546.104429481551051 ], [ 3065264.618048775475472, 1676541.586695027304813 ], [ 3065254.005367086268961, 1676537.214428335195407 ], [ 3065240.353055694140494, 1676531.587309911381453 ], [ 3065234.069911296945065, 1676521.335668097948655 ], [ 3065229.610718261450529, 1676505.421396354213357 ], [ 3065222.670746113173664, 1676495.283519741846249 ], [ 3065215.516796101350337, 1676492.527242647716776 ], [ 3065207.564326146617532, 1676484.56849283631891 ], [ 3065204.558394592255354, 1676473.743202898884192 ], [ 3065208.922655899077654, 1676458.291390046244487 ], [ 3065209.052566081285477, 1676441.57625988824293 ], [ 3065202.727240763604641, 1676426.656828545266762 ], [ 3065193.264096363447607, 1676417.627587510505691 ], [ 3065180.629659965634346, 1676411.950726331677288 ], [ 3065165.030584690626711, 1676408.295848365174606 ], [ 3065150.935210358351469, 1676404.99327029963024 ], [ 3065137.043023812584579, 1676401.7387739662081 ], [ 3065128.474598409608006, 1676390.223445168929175 ], [ 3065116.604649595916271, 1676374.269771624356508 ], [ 3065101.54028556868434, 1676368.221601986093447 ], [ 3065088.856348869856447, 1676355.748859312618151 ], [ 3065077.90614740550518, 1676339.927925421390682 ], [ 3065067.423595666885376, 1676330.115668443730101 ], [ 3065057.206186713650823, 1676320.550524754449725 ], [ 3065037.950617382768542, 1676317.90579743986018 ], [ 3065016.311433969065547, 1676311.357843362959102 ], [ 3065005.106332070194185, 1676301.087806413182989 ], [ 3064987.842406874522567, 1676285.265343377133831 ], [ 3064967.146914193406701, 1676266.29754472267814 ], [ 3064953.427817846182734, 1676245.208362220553681 ], [ 3064943.202032771892846, 1676229.489421064965427 ], [ 3064932.275792020838708, 1676216.108982028439641 ], [ 3064918.016515394672751, 1676198.648319096770138 ], [ 3064902.270156384911388, 1676179.366684306645766 ], [ 3064889.628212131559849, 1676171.559722753707319 ], [ 3064876.515323977451771, 1676173.851211527828127 ], [ 3064860.466363562270999, 1676169.192760221660137 ], [ 3064852.572769420687109, 1676156.315054729115218 ], [ 3064845.006955797318369, 1676143.970286676893011 ], [ 3064838.722663713619113, 1676133.71690740599297 ], [ 3064826.563224464189261, 1676129.32362287514843 ], [ 3064818.984535377472639, 1676119.139268160099164 ], [ 3064807.114551365375519, 1676103.185811537085101 ], [ 3064796.241478268057108, 1676093.735316833714023 ], [ 3064778.608975200913846, 1676086.040874904487282 ], [ 3064759.256947266869247, 1676080.835159254493192 ], [ 3064738.191531977150589, 1676075.168056992813945 ], [ 3064714.646321817301214, 1676075.277308241929859 ], [ 3064702.257195040583611, 1676072.717551171313971 ], [ 3064692.0859658671543, 1676059.85653051850386 ], [ 3064683.73489164467901, 1676049.297616347670555 ], [ 3064665.308108646888286, 1676034.489892680663615 ], [ 3064646.724023464135826, 1676023.048450248781592 ], [ 3064626.913329475093633, 1676021.168467056006193 ], [ 3064617.53434878680855, 1676021.472071351949126 ], [ 3064597.152175521478057, 1676029.040588800562546 ], [ 3064581.657833006232977, 1676037.757974878652021 ], [ 3064561.951869725715369, 1676041.843622032552958 ], [ 3064552.625495257787406, 1676032.815474566072226 ], [ 3064539.186260604299605, 1676019.80727325216867 ], [ 3064525.931841865181923, 1676016.782733582425863 ], [ 3064517.118298876099288, 1676008.353406653739512 ], [ 3064510.192589106969535, 1675996.785745026776567 ], [ 3064501.892040549777448, 1675982.92487993137911 ], [ 3064496.463840470183641, 1675973.858433779329062 ], [ 3064490.022159331478179, 1675966.97140006464906 ], [ 3064473.489299612585455, 1675964.519797117682174 ], [ 3064451.838148676790297, 1675956.907591175986454 ], [ 3064438.287953166291118, 1675941.292185060447082 ], [ 3064429.309612866025418, 1675930.944290278246626 ], [ 3064426.17810346186161, 1675919.978707532864064 ], [ 3064422.19533066265285, 1675906.036195312160999 ], [ 3064417.658832916989923, 1675890.146966066677123 ], [ 3064414.751856457442045, 1675879.972303245216608 ], [ 3064408.885798985138535, 1675873.978877539746463 ], [ 3064401.414083264768124, 1675870.161957261385396 ], [ 3064390.880151052959263, 1675864.780770934652537 ], [ 3064379.193845812231302, 1675858.810186179354787 ], [ 3064368.610433533787727, 1675850.263407078804448 ], [ 3064359.969881433062255, 1675838.801145474659279 ], [ 3064351.5201655770652, 1675827.591911067487672 ], [ 3064342.05703441798687, 1675818.561878517037258 ], [ 3064325.025730723980814, 1675812.858861440094188 ], [ 3064305.014739615377039, 1675809.678674534661695 ], [ 3064290.391318971756846, 1675810.899976139189675 ], [ 3064277.335993431974202, 1675809.175088962074369 ], [ 3064264.537878286093473, 1675804.734412034973502 ], [ 3064255.002088350709528, 1675796.719762377440929 ], [ 3064250.501668478362262, 1675787.825136128347367 ], [ 3064241.80968358553946, 1675770.648537304252386 ], [ 3064226.661313532851636, 1675755.268197271274403 ], [ 3064223.030141807161272, 1675743.646819839021191 ], [ 3064218.98154476005584, 1675735.910494546638802 ], [ 3064211.911440463736653, 1675722.401163669768721 ], [ 3064204.412120920140296, 1675712.170059393160045 ], [ 3064195.656795867718756, 1675700.224496276583523 ], [ 3064184.184371376410127, 1675684.571722975699231 ], [ 3064172.195235971361399, 1675668.214432649547234 ], [ 3064164.336018826346844, 1675660.68719747941941 ], [ 3064150.168755164369941, 1675647.116838423535228 ], [ 3064138.692371532320976, 1675636.12438730080612 ], [ 3064130.753441364504397, 1675631.381360212573782 ], [ 3064124.297821315471083, 1675627.524302728706971 ], [ 3064113.157827601768076, 1675620.868214793968946 ], [ 3064102.782027035485953, 1675614.668688444653526 ], [ 3064093.004488734528422, 1675612.373244958696887 ], [ 3064083.485552811063826, 1675607.358437481569126 ], [ 3064074.022610952146351, 1675598.329553211573511 ], [ 3064068.308444119058549, 1675586.493324859300628 ], [ 3064053.943411040585488, 1675577.133562614675611 ], [ 3064044.503692097961903, 1675570.983448178507388 ], [ 3064031.608872191980481, 1675566.803624679800123 ], [ 3064025.455266468692571, 1675564.808179676998407 ], [ 3064017.315641266293824, 1675562.169574695639312 ], [ 3064005.272801229264587, 1675558.264722405467182 ], [ 3063989.211762230843306, 1675545.714828978059813 ], [ 3063988.665429271757603, 1675537.410873681306839 ], [ 3063981.427534282207489, 1675528.653619928751141 ], [ 3063980.606695, 1675527.660221294499934 ], [ 3063980.606695, 1678344.396663467399776 ], [ 3063998.39578740671277, 1678332.651566840242594 ] ] ], [ [ [ 3063993.340836673974991, 1674711.718296032398939 ], [ 3064013.209247843828052, 1674709.581594243412837 ], [ 3064025.808287153486162, 1674712.722455712035298 ], [ 3064039.205364255234599, 1674721.062758911866695 ], [ 3064052.932671014685184, 1674726.247561667114496 ], [ 3064065.300069622695446, 1674733.19454186456278 ], [ 3064077.085736873559654, 1674739.814286301843822 ], [ 3064091.83619015943259, 1674752.593206348828971 ], [ 3064106.145332110114396, 1674758.105250243563205 ], [ 3064123.890250370837748, 1674759.678240350214764 ], [ 3064131.063626498915255, 1674761.418992033228278 ], [ 3064137.07197848893702, 1674776.093682911945507 ], [ 3064159.771980961319059, 1674831.53593843919225 ], [ 3064193.190263747237623, 1674913.152828665450215 ], [ 3064217.937390919774771, 1674973.593706027371809 ], [ 3064231.725645636674017, 1675015.251204157248139 ], [ 3064239.306449755560607, 1675033.957326376577839 ], [ 3064248.967756625264883, 1675044.286914127878845 ], [ 3064282.159658452495933, 1675063.190339096123353 ], [ 3064328.53362416382879, 1675097.817717186408117 ], [ 3064394.91710720025003, 1675143.353203063365072 ], [ 3064420.839273639023304, 1675159.80601202417165 ], [ 3064529.721117869950831, 1675228.91376463836059 ], [ 3064543.34077287837863, 1675236.741837499197572 ], [ 3064549.343695092014968, 1675251.524072992848232 ], [ 3064558.96771412435919, 1675275.224260135786608 ], [ 3064565.699226217344403, 1675296.73950086068362 ], [ 3064570.724126537330449, 1675312.803719592047855 ], [ 3064578.749149017035961, 1675329.178978708572686 ], [ 3064586.586784722283483, 1675345.16827895748429 ], [ 3064593.425109320320189, 1675354.657014525029808 ], [ 3064603.701174961868674, 1675360.205156758660451 ], [ 3064613.262936839833856, 1675369.885721215046942 ], [ 3064620.601410306524485, 1675382.624610402155668 ], [ 3064625.78447652189061, 1675401.366352430544794 ], [ 3064634.840504925232381, 1675411.228164813946933 ], [ 3064645.637508647050709, 1675422.984474054537714 ], [ 3064656.040776342153549, 1675434.313358669402078 ], [ 3064662.537694740109146, 1675445.402851444436237 ], [ 3064669.180146626662463, 1675456.741982141043991 ], [ 3064677.329231585375965, 1675462.848967290483415 ], [ 3064691.780904387123883, 1675473.67726183636114 ], [ 3064700.09143375698477, 1675484.802235881565139 ], [ 3064705.145506864413619, 1675499.384409445337951 ], [ 3064716.299571299925447, 1675531.571313382824883 ], [ 3064716.752887595444918, 1675548.768345917575061 ], [ 3064717.08103084936738, 1675561.176755408523604 ], [ 3064725.347399257589132, 1675576.984796556876972 ], [ 3064735.329682097304612, 1675596.072407619794831 ], [ 3064745.020216558128595, 1675614.603130557807162 ], [ 3064750.946707049384713, 1675625.935061517171562 ], [ 3064769.972631590440869, 1675645.630605100654066 ], [ 3064785.97592937387526, 1675662.197301837615669 ], [ 3064798.528198646381497, 1675680.611560872290283 ], [ 3064815.01875106850639, 1675689.17117964127101 ], [ 3064833.303835836239159, 1675698.66184596111998 ], [ 3064847.663634435739368, 1675710.455117449397221 ], [ 3064854.927196968812495, 1675724.105451045557857 ], [ 3064863.129188976250589, 1675739.520510297268629 ], [ 3064873.530236796475947, 1675759.068478142144158 ], [ 3064889.176772693637758, 1675777.700765185058117 ], [ 3064917.774874181486666, 1675823.096591939684004 ], [ 3064944.295514021068811, 1675856.203850314719602 ], [ 3064991.789189268369228, 1675915.495627370430157 ], [ 3065020.19449148979038, 1675943.865069768857211 ], [ 3065035.469773959368467, 1675959.121275567216799 ], [ 3065089.522569668479264, 1676013.105725050438195 ], [ 3065156.630834432784468, 1676068.816342398757115 ], [ 3065240.240822297520936, 1676144.344469564501196 ], [ 3065309.901438569650054, 1676212.864869917044416 ], [ 3065326.034181154798716, 1676212.147216304438189 ], [ 3065341.413241228088737, 1676211.463245803723112 ], [ 3065367.856885039247572, 1676215.834235438145697 ], [ 3065383.999310882296413, 1676221.381935339421034 ], [ 3065404.608312814496458, 1676228.463619014946744 ], [ 3065422.101267689839005, 1676239.021243664668873 ], [ 3065438.397421059198678, 1676251.270128809381276 ], [ 3065452.09381204424426, 1676261.562860717996955 ], [ 3065468.112769710365683, 1676269.446580283110961 ], [ 3065488.936804389115423, 1676269.146562696201727 ], [ 3065509.620976806618273, 1676271.89038822078146 ], [ 3065520.614786175545305, 1676275.41777291498147 ], [ 3065536.213250255212188, 1676280.421817626105621 ], [ 3065552.032120391726494, 1676285.495972952572629 ], [ 3065574.694261562079191, 1676292.768852997105569 ], [ 3065592.079674480482936, 1676305.207936978433281 ], [ 3065613.043118527159095, 1676320.205393934622407 ], [ 3065638.669141732156277, 1676332.454253704054281 ], [ 3065688.793285081163049, 1676356.413322331849486 ], [ 3065713.542131081223488, 1676363.620285150362179 ], [ 3065735.098665088415146, 1676373.028666872764006 ], [ 3065773.336054342798889, 1676389.715390716213733 ], [ 3065810.121553885750473, 1676401.315863746218383 ], [ 3065843.48691625893116, 1676408.172149104299024 ], [ 3065859.721134302671999, 1676408.674255595076829 ], [ 3065879.947201762348413, 1676404.472631947370246 ], [ 3065897.007190750911832, 1676396.327799611957744 ], [ 3065874.159289639443159, 1676352.104303760454059 ], [ 3065859.510430807247758, 1675989.277664570137858 ], [ 3065856.430923143401742, 1675913.01617247890681 ], [ 3065852.794635656289756, 1675790.360893455334008 ], [ 3065857.563702944666147, 1675761.20800197054632 ], [ 3065876.955809779465199, 1675642.697287408169359 ], [ 3065885.195101524703205, 1675617.968909013085067 ], [ 3065898.399644319433719, 1675584.318865071982145 ], [ 3065912.883695685304701, 1675556.984188756439835 ], [ 3065959.813391066156328, 1675490.401102928211913 ], [ 3066093.014832962304354, 1675318.880936238216236 ], [ 3066212.88132609706372, 1675164.534607566427439 ], [ 3066297.319445488508791, 1675055.808141625486314 ], [ 3066429.982351820915937, 1674884.986791881034151 ], [ 3066601.797552492469549, 1674663.755124461604282 ], [ 3066695.553909169044346, 1674543.036037017824128 ], [ 3066811.36615311075002, 1674393.919670446077362 ], [ 3066807.085924750193954, 1674381.588987342780456 ], [ 3066794.926881873048842, 1674352.984644023003057 ], [ 3066786.094992716331035, 1674344.889913584571332 ], [ 3066771.078214923385531, 1674331.127195322886109 ], [ 3066751.497560116462409, 1674313.181610571220517 ], [ 3066736.365688694640994, 1674289.118277529021725 ], [ 3066722.801529004238546, 1674262.110271674813703 ], [ 3066717.845215652137995, 1674242.945716522401199 ], [ 3066720.301095993258059, 1674223.82180879288353 ], [ 3066717.295822873711586, 1674212.996634995331988 ], [ 3066700.180567801464349, 1674197.959119186270982 ], [ 3066678.973458664491773, 1674186.974795358022675 ], [ 3066660.189467310439795, 1674181.465109792072326 ], [ 3066643.000751377083361, 1674171.892678369535133 ], [ 3066620.184445606544614, 1674159.187440541340038 ], [ 3066606.373488055542111, 1674156.926038624951616 ], [ 3066590.338083733804524, 1674157.723839292535558 ], [ 3066582.527141906321049, 1674155.082021907903254 ], [ 3066578.25229235785082, 1674149.152605784125626 ], [ 3066579.577764044515789, 1674141.409897834528238 ], [ 3066585.282134653069079, 1674137.908898730762303 ], [ 3066621.039412400685251, 1674115.963450117269531 ], [ 3066642.831212525255978, 1674100.482249001041055 ], [ 3066666.509620745666325, 1674083.660632744897157 ], [ 3066705.426064505707473, 1674060.838784882100299 ], [ 3066752.394584158435464, 1674046.625226141652092 ], [ 3066763.897660903632641, 1674042.612794714979827 ], [ 3066756.104102886281908, 1674031.288671150105074 ], [ 3066739.470992273651063, 1674028.185629602754489 ], [ 3066719.616919486783445, 1674021.637917864369228 ], [ 3066708.586495546624064, 1674015.553153202170506 ], [ 3066680.863945379853249, 1674010.381041312590241 ], [ 3066666.115641088224947, 1674011.382962995907292 ], [ 3066648.835681251715869, 1674016.642282512271777 ], [ 3066628.252072562463582, 1674022.908660615095869 ], [ 3066614.687561971601099, 1674023.391730230068788 ], [ 3066605.544880350120366, 1674028.356213778024539 ], [ 3066598.688447107560933, 1674032.079023499740288 ], [ 3066587.116266239434481, 1674038.361893713008612 ], [ 3066571.762307783588767, 1674036.08375309384428 ], [ 3066557.332989792339504, 1674025.365798954386264 ], [ 3066569.06722807418555, 1674009.318845465313643 ], [ 3066574.753470563329756, 1674001.543026247061789 ], [ 3066593.003159357234836, 1673985.751388983335346 ], [ 3066600.732075511477888, 1673979.062714650994167 ], [ 3066609.627018241677433, 1673966.823538809083402 ], [ 3066618.382381648756564, 1673949.271101351594552 ], [ 3066627.217815492302179, 1673931.554993910016492 ], [ 3066631.770003051497042, 1673922.431000391719863 ], [ 3066624.903531615622342, 1673919.157862282823771 ], [ 3066571.270011579152197, 1673905.421228604856879 ], [ 3066525.917908993549645, 1673890.643208314664662 ], [ 3066460.0998704014346, 1673874.098518113605678 ], [ 3066360.731818507425487, 1673840.713481104234233 ], [ 3066331.307372419163585, 1673830.827896808506921 ], [ 3066298.505616406910121, 1673816.864459607983008 ], [ 3066282.535036625340581, 1673810.065587588585913 ], [ 3066213.27988759521395, 1673770.326991552021354 ], [ 3066148.761161080561578, 1673733.305420604301617 ], [ 3066109.328863986767828, 1673707.030492616817355 ], [ 3066045.667063266038895, 1673669.41194497118704 ], [ 3066020.912718732841313, 1673654.784988485276699 ], [ 3065992.023355624638498, 1673640.058837901800871 ], [ 3065974.014144761487842, 1673630.879157863790169 ], [ 3065954.300950274802744, 1673617.938296779291704 ], [ 3065932.63664573058486, 1673608.370687840739265 ], [ 3065912.741085063666105, 1673597.157781925750896 ], [ 3065892.446980574168265, 1673583.343664491083473 ], [ 3065863.231961621902883, 1673568.417106601875275 ], [ 3065829.698236223775893, 1673542.895035939756781 ], [ 3065801.337099420838058, 1673521.310619540279731 ], [ 3065777.240982721559703, 1673499.314056643052027 ], [ 3065759.412084028124809, 1673488.406903822440654 ], [ 3065725.665022104047239, 1673470.267012250842527 ], [ 3065700.936365395784378, 1673453.889132172800601 ], [ 3065664.666073657572269, 1673436.85779850021936 ], [ 3065640.894860155880451, 1673422.314718762878329 ], [ 3065619.530604521278292, 1673414.698104075156152 ], [ 3065604.308508810587227, 1673412.015763418516144 ], [ 3065599.461201986297965, 1673415.53341409470886 ], [ 3065598.333920140750706, 1673425.745099293533713 ], [ 3065589.79331022920087, 1673435.917359159793705 ], [ 3065574.58248996315524, 1673454.034457609290257 ], [ 3065563.899937885813415, 1673477.829870789078996 ], [ 3065557.889017631299794, 1673491.220266157528386 ], [ 3065562.142330796457827, 1673501.505814354168251 ], [ 3065574.127665448468179, 1673509.427567826351151 ], [ 3065582.320566291920841, 1673523.351530347252265 ], [ 3065584.014335818588734, 1673534.405620677163824 ], [ 3065580.006006037816405, 1673547.792494714027271 ], [ 3065575.001038120593876, 1673554.675253316527233 ], [ 3065560.560135116800666, 1673565.878522203071043 ], [ 3065550.368366769980639, 1673569.662154400954023 ], [ 3065536.083744805306196, 1673577.498464966425672 ], [ 3065521.130201096646488, 1673585.703891848679632 ], [ 3065509.526545227505267, 1673597.494602378690615 ], [ 3065502.18270730599761, 1673615.469388317316771 ], [ 3065496.133114138618112, 1673641.898444631835446 ], [ 3065490.316029332578182, 1673652.261675026034936 ], [ 3065491.453674397431314, 1673664.080754037946463 ], [ 3065488.898169063031673, 1673682.554457159712911 ], [ 3065494.683791202493012, 1673689.555145732592791 ], [ 3065511.101528033614159, 1673700.041099860798568 ], [ 3065526.522716176696122, 1673704.023015903541818 ], [ 3065538.864756805822253, 1673709.879305100534111 ], [ 3065548.327520236838609, 1673718.908454910386354 ], [ 3065565.600107507780194, 1673730.579507078276947 ], [ 3065570.571511019952595, 1673741.061019636224955 ], [ 3065573.744783592876047, 1673770.55174250039272 ], [ 3065573.654655788559467, 1673791.933321678079665 ], [ 3065570.086694369092584, 1673812.587160398485139 ], [ 3065561.289893954526633, 1673825.474104682449251 ], [ 3065545.338117481209338, 1673835.604857608675957 ], [ 3065534.291499850340188, 1673838.202440960332751 ], [ 3065521.99123541591689, 1673837.012857651570812 ], [ 3065504.130358768161386, 1673843.471983198774979 ], [ 3065494.235854958649725, 1673849.207987201167271 ], [ 3065484.883851838763803, 1673862.858667699154466 ], [ 3065473.065941396635026, 1673873.603805563645437 ], [ 3065454.092680087778717, 1673881.59162619849667 ], [ 3065433.169665225315839, 1673881.241914432263002 ], [ 3065409.680401492863894, 1673877.333153755171224 ], [ 3065391.237827767618001, 1673871.208394702291116 ], [ 3065375.675221480429173, 1673861.909428988350555 ], [ 3065362.851200367324054, 1673844.1195340489503 ], [ 3065356.326197849586606, 1673827.900117966113612 ], [ 3065352.920544440858066, 1673819.433364708675072 ], [ 3065327.267906972207129, 1673809.609030287945643 ], [ 3065320.740862912498415, 1673807.108976577408612 ], [ 3065322.096037816721946, 1673797.826012975769117 ], [ 3065316.309313568286598, 1673790.825533616822213 ], [ 3065297.154082871973515, 1673788.830405680462718 ], [ 3065291.684461772907525, 1673775.097479221876711 ], [ 3065296.802883907221258, 1673760.182137427851558 ], [ 3065300.043616245500743, 1673750.744378734612837 ], [ 3065307.882683056406677, 1673740.219007278094068 ], [ 3065316.763988466002047, 1673736.665132580092177 ], [ 3065320.157314051408321, 1673728.059816792607307 ], [ 3065316.596954346634448, 1673717.99941808800213 ], [ 3065298.783312760759145, 1673698.410429937532172 ], [ 3065285.795043150894344, 1673684.126434777397662 ], [ 3065258.710709248669446, 1673665.352047079009935 ], [ 3065228.681462341919541, 1673653.906807802850381 ], [ 3065204.648221560288221, 1673644.747346876421943 ], [ 3065188.617146292701364, 1673642.879504961427301 ], [ 3065162.091488282196224, 1673645.51091149286367 ], [ 3065149.145226938650012, 1673666.468898033257574 ], [ 3065139.576971530914307, 1673687.502310850890353 ], [ 3065129.966108164284378, 1673703.870181858306751 ], [ 3065119.758323166053742, 1673716.336261674296111 ], [ 3065109.566739748232067, 1673720.120024512521923 ], [ 3065099.589442113414407, 1673716.521583351772279 ], [ 3065092.926203864626586, 1673714.117738177068532 ], [ 3065083.555328916758299, 1673717.32004133053124 ], [ 3065070.53207787219435, 1673721.770150668220595 ], [ 3065059.876645870506763, 1673725.410785348387435 ], [ 3065050.211817539297044, 1673728.713918570661917 ], [ 3065038.23917472595349, 1673732.804950383258983 ], [ 3065027.365807325113565, 1673728.473103019408882 ], [ 3065017.688618004787713, 1673726.825297084404156 ], [ 3065010.575232699979097, 1673728.735846947878599 ], [ 3065001.237801915034652, 1673733.706045205704868 ], [ 3064987.503240553662181, 1673741.016441019717604 ], [ 3064978.673050094395876, 1673748.99879055749625 ], [ 3064968.937023676000535, 1673751.367576624033973 ], [ 3064962.952995775733143, 1673743.066184750990942 ], [ 3064962.071326777338982, 1673728.531482988735661 ], [ 3064966.793311649933457, 1673711.014469588873908 ], [ 3064971.331190487369895, 1673694.180992094799876 ], [ 3064972.259906575083733, 1673672.001673751976341 ], [ 3064976.126986953895539, 1673653.299723871285096 ], [ 3064976.001775814220309, 1673639.300486230058596 ], [ 3064972.282781112007797, 1673632.605494614457712 ], [ 3064974.73757068766281, 1673613.481582830660045 ], [ 3064976.952040591277182, 1673596.244637069990858 ], [ 3064983.384502169676125, 1673573.246375013375655 ], [ 3064988.67753428965807, 1673546.281630805926397 ], [ 3064992.434916689991951, 1673527.14304090058431 ], [ 3064990.068628648295999, 1673502.64018217776902 ], [ 3064988.482004063669592, 1673486.197690327651799 ], [ 3064992.881427953485399, 1673481.451725385850295 ], [ 3065005.040248353499919, 1673477.324042070657015 ], [ 3065012.012058519758284, 1673470.096533956006169 ], [ 3065019.155755989719182, 1673450.821060816757381 ], [ 3065027.74381413217634, 1673427.654989242786542 ], [ 3065033.131924591958523, 1673419.001747114816681 ], [ 3065047.913538883440197, 1673414.415950211929157 ], [ 3065064.786567131988704, 1673409.181527676759288 ], [ 3065070.222225641366094, 1673401.838961775414646 ], [ 3065069.682279556058347, 1673393.920742664020509 ], [ 3065063.115743912756443, 1673373.035498533630744 ], [ 3065058.357981160283089, 1673357.900586143601686 ], [ 3065057.478248606901616, 1673340.636931954417378 ], [ 3065060.075654538348317, 1673326.829893068177626 ], [ 3065061.033091261051595, 1673321.73951271455735 ], [ 3065079.305757251568139, 1673316.124110419536009 ], [ 3065109.450543506070971, 1673306.862401495454833 ], [ 3065122.296486729755998, 1673302.91452824906446 ], [ 3065128.854306684806943, 1673296.785750528797507 ], [ 3065130.996186474338174, 1673284.393740369705483 ], [ 3065134.039611405227333, 1673247.139909015968442 ], [ 3065134.956663944292814, 1673235.914861749159172 ], [ 3065128.34330431651324, 1673218.757832482457161 ], [ 3065118.283769659698009, 1673205.826796756824479 ], [ 3065103.534497537650168, 1673193.047498812433332 ], [ 3065087.8144022654742, 1673187.114728469168767 ], [ 3065079.206432832404971, 1673179.270779119571671 ], [ 3065076.202336221933365, 1673168.445549657102674 ], [ 3065078.840438828337938, 1673159.305412287125364 ], [ 3065083.944910695776343, 1673153.071920563699678 ], [ 3065083.321600456256419, 1673135.821349740726873 ], [ 3065082.620748670771718, 1673116.425146782537922 ], [ 3065086.050151966512203, 1673105.299790176330134 ], [ 3065088.713705941103399, 1673096.658496825024486 ], [ 3065073.89834919758141, 1673078.713307275436819 ], [ 3065056.954864822328091, 1673058.19110485422425 ], [ 3065044.546483936719596, 1673043.160827150801197 ], [ 3065023.009741816669703, 1673032.187580160563812 ], [ 3065006.628217589110136, 1673023.842286273138598 ], [ 3064993.510226543061435, 1673006.629047591239214 ], [ 3064983.167824255302548, 1672983.064123369054869 ], [ 3064958.714951284695417, 1672955.28950285539031 ], [ 3064931.482452074065804, 1672931.337067486951128 ], [ 3064905.445722838398069, 1672915.189360588323325 ], [ 3064875.597571606747806, 1672913.728274814551696 ], [ 3064836.231670069042593, 1672907.253220507642254 ], [ 3064793.346322658006102, 1672895.383828837890178 ], [ 3064765.75030679255724, 1672887.746365450555459 ], [ 3064748.551537411753088, 1672879.841740338364616 ], [ 3064723.484542662277818, 1672856.847526563564315 ], [ 3064697.904276243411005, 1672839.284688254119828 ], [ 3064666.977855337783694, 1672818.052234112517908 ], [ 3064644.450856573879719, 1672789.201345349196345 ], [ 3064615.665109065361321, 1672759.513154692249373 ], [ 3064600.896413371898234, 1672744.280407762853429 ], [ 3064593.594048295170069, 1672725.312227939954028 ], [ 3064581.170188184827566, 1672693.038031995529309 ], [ 3064576.834081202745438, 1672655.465511572081596 ], [ 3064573.663420803844929, 1672627.996316853212193 ], [ 3064555.906801437027752, 1672602.370862849056721 ], [ 3064529.927906083874404, 1672582.205952326068655 ], [ 3064502.421983812004328, 1672569.652660848805681 ], [ 3064460.464875339530408, 1672546.271303344983608 ], [ 3064449.293168121948838, 1672534.870216467184946 ], [ 3064437.483121169731021, 1672522.818884056061506 ], [ 3064425.047440447844565, 1672503.780184883391485 ], [ 3064417.544050058815628, 1672499.022894491907209 ], [ 3064391.433018825482577, 1672495.572868008399382 ], [ 3064369.396686300635338, 1672496.753578517585993 ], [ 3064351.865928863175213, 1672487.798025864409283 ], [ 3064340.155537919141352, 1672468.479703263845295 ], [ 3064331.056497774086893, 1672453.47082216758281 ], [ 3064322.201986877247691, 1672443.574955752119422 ], [ 3064312.367128633428365, 1672445.29348273598589 ], [ 3064294.049389982130378, 1672453.167165504768491 ], [ 3064281.391544108744711, 1672458.608994366135448 ], [ 3064265.853776956908405, 1672465.287961870664731 ], [ 3064251.555437312461436, 1672474.613294347189367 ], [ 3064241.918762753717601, 1672477.632634693291038 ], [ 3064234.947832853067666, 1672484.860051971627399 ], [ 3064224.698102838359773, 1672492.659573684446514 ], [ 3064211.584679418243468, 1672494.951004322385415 ], [ 3064191.247078480198979, 1672498.504738313611597 ], [ 3064171.272487550508231, 1672508.672150445170701 ], [ 3064150.689904254861176, 1672514.939557593781501 ], [ 3064134.279704011045396, 1672519.936383915133774 ], [ 3064117.076219434849918, 1672532.831097561866045 ], [ 3064108.080102321691811, 1672544.417677195975557 ], [ 3064093.577511185780168, 1672563.096960145281628 ], [ 3064086.12371248845011, 1672569.4889463391155 ], [ 3064086.113853761460632, 1672571.173723083920777 ], [ 3064086.595898651983589, 1672583.107472324511036 ], [ 3064088.273472202941775, 1672602.844343104632571 ], [ 3064067.458716840483248, 1672625.176243010442704 ], [ 3064054.627950507216156, 1672638.101032034726813 ], [ 3064044.818356807809323, 1672653.168558274395764 ], [ 3064047.010262548457831, 1672667.47418704116717 ], [ 3064047.890759802423418, 1672682.009072645567358 ], [ 3064018.526772374287248, 1672692.481599432649091 ], [ 3063998.457970360293984, 1672693.317875783890486 ], [ 3063980.606695, 1672697.58438461762853 ], [ 3063980.606695, 1674715.294989879010245 ], [ 3063993.340836673974991, 1674711.718296032398939 ] ] ], [ [ [ 3064018.646340912207961, 1671585.935215426143259 ], [ 3064115.887060149107128, 1671592.107765919761732 ], [ 3064152.222363193053752, 1671595.868333015358075 ], [ 3064249.72769080940634, 1671608.114971554838121 ], [ 3064263.226142443716526, 1671627.982826532796025 ], [ 3064275.078522679861635, 1671652.617801418760791 ], [ 3064286.848842626437545, 1671667.920504854759201 ], [ 3064298.344887409359217, 1671682.867889274843037 ], [ 3064304.278227310627699, 1671690.582593576516956 ], [ 3064307.807081409730017, 1671703.650739984819666 ], [ 3064309.143741259351373, 1671716.770332634681836 ], [ 3064313.484328328631818, 1671759.375350296730176 ], [ 3064316.758283143863082, 1671791.515604636399075 ], [ 3064320.768817863427103, 1671830.870899025350809 ], [ 3064324.317403022199869, 1671865.701132833957672 ], [ 3064323.608367369044572, 1671907.863497624639422 ], [ 3064323.315715277567506, 1671925.232638958375901 ], [ 3064318.770907532423735, 1671933.412852086359635 ], [ 3064315.85792501270771, 1671953.950924713630229 ], [ 3064310.180844322778285, 1671969.631332418182865 ], [ 3064302.653598243370652, 1671977.623569631017745 ], [ 3064293.836415266618133, 1671986.984518345678225 ], [ 3064291.574265656061471, 1671997.586518539581448 ], [ 3064293.350991858169436, 1672017.972909564850852 ], [ 3064300.430623973254114, 1672033.427533933427185 ], [ 3064302.522536670789123, 1672047.081710024969652 ], [ 3064314.591850833967328, 1672064.33624695870094 ], [ 3064327.199960787780583, 1672089.507092905929312 ], [ 3064336.505130144301802, 1672101.903063270263374 ], [ 3064346.511008830741048, 1672115.232821801211685 ], [ 3064360.219980737194419, 1672133.495018584886566 ], [ 3064373.545469627715647, 1672151.246455690357834 ], [ 3064389.010452903341502, 1672171.84784092172049 ], [ 3064403.304837521165609, 1672186.373494895175099 ], [ 3064419.523274715989828, 1672195.558465995825827 ], [ 3064434.854610006324947, 1672204.239920140244067 ], [ 3064444.39084754884243, 1672217.2518495102413 ], [ 3064456.327716504223645, 1672233.539382324321195 ], [ 3064465.373708236962557, 1672245.88246265379712 ], [ 3064482.123654265422374, 1672261.401429239893332 ], [ 3064490.871598594356328, 1672274.561400931328535 ], [ 3064494.474415738135576, 1672289.288145109545439 ], [ 3064494.400110049173236, 1672301.986436973791569 ], [ 3064494.330889774486423, 1672313.941946284845471 ], [ 3064497.032991338521242, 1672323.558709454722703 ], [ 3064510.786041743122041, 1672329.835943871177733 ], [ 3064521.973801895044744, 1672332.554043448297307 ], [ 3064534.592929348815233, 1672335.620520236203447 ], [ 3064550.075569042935967, 1672339.383513282286003 ], [ 3064556.037028937600553, 1672343.961664025904611 ], [ 3064570.50372801721096, 1672346.10779164172709 ], [ 3064592.141697369515896, 1672342.327126634772867 ], [ 3064602.931052743457258, 1672342.444035356165841 ], [ 3064613.007033684290946, 1672346.693842671345919 ], [ 3064624.763962159864604, 1672351.649552329210564 ], [ 3064638.036556327249855, 1672357.246776631800458 ], [ 3064649.462635597214103, 1672362.063873400446028 ], [ 3064664.815442817285657, 1672359.673898441251367 ], [ 3064676.01072093565017, 1672357.930779061745852 ], [ 3064690.458450984209776, 1672355.68128429283388 ], [ 3064703.658376905601472, 1672353.627196518704295 ], [ 3064716.672608008608222, 1672346.606092316331342 ], [ 3064724.881057773251086, 1672351.849921358050779 ], [ 3064732.277004225179553, 1672360.57231918303296 ], [ 3064744.519245537929237, 1672365.777986657107249 ], [ 3064753.17610327899456, 1672369.458375931950286 ], [ 3064765.74239944294095, 1672368.078250659862533 ], [ 3064775.653085019439459, 1672366.990606453735381 ], [ 3064783.388103537261486, 1672369.001345677766949 ], [ 3064788.757835716940463, 1672382.083993793698028 ], [ 3064790.451345598325133, 1672393.138104095123708 ], [ 3064791.750453937798738, 1672401.61714891763404 ], [ 3064797.432633659802377, 1672407.943222397239879 ], [ 3064805.243268576450646, 1672410.583730194950476 ], [ 3064827.677318378351629, 1672412.005873525515199 ], [ 3064834.134993363171816, 1672410.209834834793583 ], [ 3064837.346849816385657, 1672409.316902518039569 ], [ 3064847.447778258472681, 1672409.219249013112858 ], [ 3064859.722780379932374, 1672397.059995453571901 ], [ 3064870.869150487706065, 1672395.112505592405796 ], [ 3064882.912126271054149, 1672399.016813981113955 ], [ 3064894.67550586303696, 1672402.831386469304562 ], [ 3064907.057106704916805, 1672402.810714276507497 ], [ 3064919.513935797382146, 1672400.63429136457853 ], [ 3064939.185783334542066, 1672397.197248142911121 ], [ 3064952.315702964551747, 1672394.903345037484542 ], [ 3064970.301870234776288, 1672393.762929070275277 ], [ 3064984.411685775965452, 1672397.974793052999303 ], [ 3064996.598187708295882, 1672401.61211607651785 ], [ 3065010.47753587551415, 1672405.754635527497157 ], [ 3065017.918912793509662, 1672410.147687437245622 ], [ 3065033.124469838105142, 1672421.511882224818692 ], [ 3065041.789350634906441, 1672425.339618820464239 ], [ 3065053.49282808881253, 1672422.627155134920031 ], [ 3065060.962112433277071, 1672418.651415762491524 ], [ 3065079.562208733521402, 1672421.410028531681746 ], [ 3065099.854157889727503, 1672424.420868763700128 ], [ 3065121.012404541485012, 1672419.508859918219969 ], [ 3065144.523202303797007, 1672414.053440022747964 ], [ 3065163.418249129317701, 1672409.668066497659311 ], [ 3065181.07852466031909, 1672411.686620231252164 ], [ 3065198.764914543833584, 1672417.275840929709375 ], [ 3065213.21571589820087, 1672421.842574138427153 ], [ 3065222.967845268547535, 1672424.924445070326328 ], [ 3065231.915123128332198, 1672431.514314627740532 ], [ 3065249.544521586969495, 1672441.119639726355672 ], [ 3065270.254301002714783, 1672448.851527793332934 ], [ 3065300.498241966590285, 1672452.915627550566569 ], [ 3065320.766935541294515, 1672453.380866195773706 ], [ 3065334.677381349727511, 1672456.291278326418251 ], [ 3065353.169699802994728, 1672460.161314179655164 ], [ 3065371.739330497570336, 1672464.047024466330186 ], [ 3065387.540415620896965, 1672471.759960982948542 ], [ 3065412.381802022922784, 1672480.105363758048043 ], [ 3065437.281197920441628, 1672484.434628934133798 ], [ 3065464.464520568028092, 1672489.16172908176668 ], [ 3065472.962013053242117, 1672490.638492354890332 ], [ 3065495.132695091422647, 1672501.701819909270853 ], [ 3065512.504791286308318, 1672514.02303053974174 ], [ 3065524.68420831952244, 1672522.661217104876414 ], [ 3065533.39663194399327, 1672531.738815297372639 ], [ 3065535.803959707729518, 1672538.663017365615815 ], [ 3065526.15173973608762, 1672550.363722017966211 ], [ 3065514.132870645262301, 1672559.807151855435222 ], [ 3065502.828715112991631, 1672568.690590492682531 ], [ 3065487.515975994057953, 1672580.723866856656969 ], [ 3065475.010713091585785, 1672590.549954704940319 ], [ 3065464.042404417414218, 1672599.170042113866657 ], [ 3065457.621685823425651, 1672608.404388518072665 ], [ 3065439.486778577324003, 1672626.261151388753206 ], [ 3065422.62155672442168, 1672639.222087807487696 ], [ 3065415.293673447798938, 1672648.514798224670812 ], [ 3065403.474938053637743, 1672659.257631965912879 ], [ 3065397.856180024333298, 1672670.923603972885758 ], [ 3065390.627671937923878, 1672680.865561240585521 ], [ 3065388.843584283255041, 1672691.192920153494924 ], [ 3065387.897864688187838, 1672711.387185936560854 ], [ 3065391.143868941813707, 1672728.179461186518893 ], [ 3065398.780517634004354, 1672742.86818435206078 ], [ 3065412.475667186081409, 1672753.161998237716034 ], [ 3065431.375026986934245, 1672757.872719108592719 ], [ 3065443.974016247317195, 1672761.0122641234193 ], [ 3065459.431713837198913, 1672764.86477863509208 ], [ 3065474.312983020208776, 1672768.574132225709036 ], [ 3065484.635315287858248, 1672775.9419136706274 ], [ 3065490.263273179531097, 1672786.308630337938666 ], [ 3065496.878500409424305, 1672798.493681663880125 ], [ 3065504.29730464797467, 1672812.161037014331669 ], [ 3065502.184015133883804, 1672828.959321990143508 ], [ 3065499.878081070724875, 1672847.281719028484076 ], [ 3065497.474359284155071, 1672866.388132894644514 ], [ 3065500.261257397942245, 1672886.713939750101417 ], [ 3065512.297018247656524, 1672921.333109413972124 ], [ 3065531.00608420278877, 1672946.773913946701214 ], [ 3065549.6307522514835, 1672962.882684051292017 ], [ 3065560.646928975358605, 1672977.649792146170512 ], [ 3065573.408331202343106, 1672994.760041532572359 ], [ 3065588.634763764217496, 1673002.137392934644595 ], [ 3065612.721803326159716, 1673009.947074766503647 ], [ 3065628.38409910723567, 1673019.896317157428712 ], [ 3065646.171070111915469, 1673026.136774662183598 ], [ 3065663.558492442127317, 1673029.775300996843725 ], [ 3065677.425028900615871, 1673032.676933986134827 ], [ 3065696.550237505231053, 1673036.679507107241079 ], [ 3065710.578884841874242, 1673042.258889538701624 ], [ 3065722.564943112432957, 1673050.179544004611671 ], [ 3065723.66096449829638, 1673057.332758128875867 ], [ 3065713.750705595128238, 1673071.74950956297107 ], [ 3065706.477520209737122, 1673082.330822489922866 ], [ 3065696.869915059767663, 1673096.308121820911765 ], [ 3065699.202627033926547, 1673113.016040541464463 ], [ 3065705.884879446588457, 1673125.869465265888721 ], [ 3065715.047813613899052, 1673132.947978262556717 ], [ 3065724.982371042948216, 1673131.880112957907841 ], [ 3065736.287298648618162, 1673126.566614610608667 ], [ 3065745.209323676303029, 1673127.678859057603404 ], [ 3065751.592681652400643, 1673138.581381290452555 ], [ 3065756.324647617060691, 1673146.664390496676788 ], [ 3065767.453991512302309, 1673149.830221900483593 ], [ 3065780.310502921231091, 1673150.256172152468935 ], [ 3065797.06164566334337, 1673150.809893896337599 ], [ 3065811.906161233782768, 1673151.299899401376024 ], [ 3065834.33436016831547, 1673138.146517990622669 ], [ 3065849.571877357549965, 1673132.148209209553897 ], [ 3065867.574437918141484, 1673131.005423112539575 ], [ 3065877.862381714396179, 1673130.353412277298048 ], [ 3065890.198302190750837, 1673129.57096671895124 ], [ 3065905.80386377684772, 1673125.661308748647571 ], [ 3065925.060145084280521, 1673128.307809266727418 ], [ 3065928.819624655880034, 1673139.668803389649838 ], [ 3065932.820876483805478, 1673151.757522792555392 ], [ 3065948.599302569404244, 1673158.914541897596791 ], [ 3065966.942345808260143, 1673164.389298590365797 ], [ 3065982.064861701801419, 1673166.42140201269649 ], [ 3065995.116484838072211, 1673168.174604515079409 ], [ 3066014.036050564609468, 1673164.17494103894569 ], [ 3066036.845339416526258, 1673159.352194119943306 ], [ 3066052.922668376006186, 1673158.718411288456991 ], [ 3066075.770326823461801, 1673154.058365336153656 ], [ 3066096.495204366743565, 1673153.106865635840222 ], [ 3066122.003296253271401, 1673151.939919356955215 ], [ 3066134.78802842553705, 1673151.353112260811031 ], [ 3066142.518481025006622, 1673159.089130629552528 ], [ 3066154.818874479271472, 1673160.278960557188839 ], [ 3066163.484699081163853, 1673164.106788135133684 ], [ 3066174.897433414123952, 1673181.475616612238809 ], [ 3066184.778109181206673, 1673196.511492567369714 ], [ 3066195.673272873274982, 1673207.223522088257596 ], [ 3066212.447939031757414, 1673215.644195256754756 ], [ 3066224.291620119474828, 1673218.248226294294 ], [ 3066236.73319710791111, 1673224.754162279656157 ], [ 3066249.316953374072909, 1673236.57671587378718 ], [ 3066261.620223046280444, 1673251.887132454430684 ], [ 3066275.464779021218419, 1673260.26479205256328 ], [ 3066281.845539281144738, 1673267.701220592949539 ], [ 3066298.04835559707135, 1673286.586763704428449 ], [ 3066313.79353535361588, 1673302.934317213483155 ], [ 3066320.595516547560692, 1673307.631397699238732 ], [ 3066333.978479121811688, 1673316.873189873527735 ], [ 3066360.968808854464442, 1673326.918316347524524 ], [ 3066382.183059390168637, 1673334.813818939728662 ], [ 3066388.360862854868174, 1673338.939815699588507 ], [ 3066400.037951881997287, 1673343.918299618875608 ], [ 3066410.371983002405614, 1673350.280764122493565 ], [ 3066416.798768273089081, 1673358.548377816565335 ], [ 3066424.78953692689538, 1673368.827144983923063 ], [ 3066429.365105387754738, 1673374.712161379866302 ], [ 3066435.418296174146235, 1673382.500372084556147 ], [ 3066440.321416150778532, 1673393.496216938365251 ], [ 3066444.480231962166727, 1673402.824662786908448 ], [ 3066452.58918198896572, 1673412.05120575404726 ], [ 3066456.258696805685759, 1673416.226825582562014 ], [ 3066461.639432186260819, 1673418.816684587160125 ], [ 3066468.253417882602662, 1673422.00035530817695 ], [ 3066478.427837099414319, 1673426.899152813944966 ], [ 3066485.484396014362574, 1673436.37886842363514 ], [ 3066488.670514126308262, 1673449.814219764433801 ], [ 3066492.472692522685975, 1673465.841663245577365 ], [ 3066492.798091941513121, 1673481.141082791844383 ], [ 3066504.384586055763066, 1673486.460947951069102 ], [ 3066519.050706673413515, 1673489.908597933826968 ], [ 3066528.869276283308864, 1673496.87258534738794 ], [ 3066549.179812302812934, 1673502.005074413260445 ], [ 3066559.14612409286201, 1673503.213094438426197 ], [ 3066568.676645094528794, 1673510.616118360310793 ], [ 3066579.262567059136927, 1673518.840550697408617 ], [ 3066582.670962885022163, 1673522.862338563194498 ], [ 3066579.691082703880966, 1673525.384937891270965 ], [ 3066572.3475516946055, 1673525.038668856024742 ], [ 3066570.511822819709778, 1673526.988254235358909 ], [ 3066564.706446887925267, 1673533.150727873668075 ], [ 3066558.095505117438734, 1673533.830026529962197 ], [ 3066548.814700039103627, 1673534.784489274257794 ], [ 3066545.280712837353349, 1673538.071585265453905 ], [ 3066545.721030341461301, 1673545.339357956312597 ], [ 3066549.839374027214944, 1673554.634719533845782 ], [ 3066537.861307177692652, 1673568.744641087250784 ], [ 3066529.994611173868179, 1673570.118809487204999 ], [ 3066514.891243592835963, 1673577.286215364001691 ], [ 3066503.608789467718452, 1673578.066248903283849 ], [ 3066490.415341690648347, 1673578.978607096010819 ], [ 3066476.310814743861556, 1673584.291040844051167 ], [ 3066460.375190414488316, 1673590.291142191272229 ], [ 3066443.103772425092757, 1673596.796507033752277 ], [ 3066440.231640924233943, 1673603.825480492087081 ], [ 3066437.293639877811074, 1673611.015753499930725 ], [ 3066444.888877674005926, 1673621.039113771636039 ], [ 3066441.452708332799375, 1673624.977860603714362 ], [ 3066443.901796267367899, 1673636.567820929689333 ], [ 3066451.355920518748462, 1673641.275070609990507 ], [ 3066460.13424966018647, 1673650.632814675569534 ], [ 3066467.043721919879317, 1673664.574386346153915 ], [ 3066471.916273701004684, 1673674.40451242798008 ], [ 3066482.300754986703396, 1673674.083116535563022 ], [ 3066491.628879676107317, 1673675.635143773630261 ], [ 3066503.373174399603158, 1673677.589908255729824 ], [ 3066513.86374174663797, 1673675.757412849925458 ], [ 3066522.986135995946825, 1673678.170152731705457 ], [ 3066542.405065436381847, 1673675.878985004266724 ], [ 3066559.664361852686852, 1673683.217786023626104 ], [ 3066569.507284460123628, 1673687.402429700130597 ], [ 3066581.749757090117782, 1673692.608747144462541 ], [ 3066593.908450065180659, 1673688.480772397248074 ], [ 3066607.362888691946864, 1673692.808707379736006 ], [ 3066624.452453905716538, 1673694.496464324882254 ], [ 3066636.296309878118336, 1673697.101692153373733 ], [ 3066639.160137542523444, 1673702.609843161888421 ], [ 3066645.203087467234582, 1673706.895907594123855 ], [ 3066647.054520899429917, 1673714.585026043932885 ], [ 3066644.415172951295972, 1673723.725234719691798 ], [ 3066644.299338031560183, 1673731.757971236249432 ], [ 3066647.519973857328296, 1673735.200574675807729 ], [ 3066653.919775517657399, 1673737.421386435395107 ], [ 3066659.4056461667642, 1673742.472465409664437 ], [ 3066666.560776533093303, 1673745.22885548020713 ], [ 3066675.99152987357229, 1673744.614122225204483 ], [ 3066686.92797294491902, 1673746.344147189520299 ], [ 3066705.79515870846808, 1673749.328897160943598 ], [ 3066718.427472407463938, 1673754.195238870568573 ], [ 3066729.159138372167945, 1673758.330071911448613 ], [ 3066741.865127411670983, 1673757.378980843117461 ], [ 3066748.515054280869663, 1673761.626269746571779 ], [ 3066756.723058290779591, 1673766.867593345465139 ], [ 3066773.456230045761913, 1673770.622912129852921 ], [ 3066778.969618183095008, 1673770.058835383504629 ], [ 3066784.645096844062209, 1673773.341478745918721 ], [ 3066789.076557763852179, 1673775.9048988269642 ], [ 3066796.868762549012899, 1673775.595065235160291 ], [ 3066803.088107193820179, 1673779.467990011675283 ], [ 3066809.785645272582769, 1673783.638739246409386 ], [ 3066814.883138980716467, 1673791.86264495132491 ], [ 3066812.376087079755962, 1673800.545697388472036 ], [ 3066809.736988949589431, 1673809.686859986977652 ], [ 3066803.836460500955582, 1673810.717461440945044 ], [ 3066802.666214163880795, 1673816.26251983596012 ], [ 3066804.965712061151862, 1673828.828463299432769 ], [ 3066801.064047846477479, 1673836.572613019961864 ], [ 3066795.903544756118208, 1673846.820979066425934 ], [ 3066790.6534359222278, 1673850.436675654025748 ], [ 3066788.125946146901697, 1673858.388374106958508 ], [ 3066786.391974846832454, 1673863.838602046016604 ], [ 3066783.983853545039892, 1673871.412836957490072 ], [ 3066784.15252589341253, 1673875.580809367122129 ], [ 3066784.393371957354248, 1673881.547116551315412 ], [ 3066781.654559621587396, 1673890.038000766653568 ], [ 3066774.266463256441057, 1673894.970910249045119 ], [ 3066766.97248469106853, 1673895.273474916350096 ], [ 3066757.164669129066169, 1673895.67909514834173 ], [ 3066751.534984290599823, 1673898.218979742145166 ], [ 3066735.540964513085783, 1673905.436624146765098 ], [ 3066721.058159848209471, 1673911.972635684302077 ], [ 3066710.467765841633081, 1673913.154811727115884 ], [ 3066700.590107777155936, 1673910.206240312661976 ], [ 3066693.776746485382318, 1673914.068158101057634 ], [ 3066679.808054843451828, 1673915.171702188439667 ], [ 3066668.718642004299909, 1673913.103513266192749 ], [ 3066658.984439418651164, 1673915.471577394986525 ], [ 3066651.713441064581275, 1673920.74684163578786 ], [ 3066668.090402613859624, 1673926.566339237615466 ], [ 3066696.550287093035877, 1673940.957706217188388 ], [ 3066727.434633169788867, 1673953.589192999526858 ], [ 3066751.978391079232097, 1673959.985394674586132 ], [ 3066789.460703344084322, 1673976.138365323888138 ], [ 3066817.505444180220366, 1673985.712354864925146 ], [ 3066844.050210551824421, 1673985.29903294169344 ], [ 3066860.841855496168137, 1673985.035787322325632 ], [ 3066881.079076027497649, 1673980.874686154071242 ], [ 3066896.504653067793697, 1673976.136826307978481 ], [ 3066926.723889941349626, 1673966.851244091521949 ], [ 3066948.67720166221261, 1673956.340596857713535 ], [ 3066965.707750671543181, 1673952.677552949171513 ], [ 3066979.038176091387868, 1673952.372997289756313 ], [ 3066994.565054562874138, 1673952.017613518284634 ], [ 3067005.833341816440225, 1673946.621947031002492 ], [ 3067022.072374287992716, 1673938.846958007197827 ], [ 3067052.806349944323301, 1673924.131957526318729 ], [ 3067078.09513867367059, 1673909.031697782222182 ], [ 3067096.88563565351069, 1673891.06107920082286 ], [ 3067114.961788484361023, 1673877.222700496204197 ], [ 3067134.067268417216837, 1673852.518919595517218 ], [ 3067154.011723894160241, 1673837.685455196071416 ], [ 3067166.94247743440792, 1673825.412477269070223 ], [ 3067176.079946191981435, 1673819.142555522033945 ], [ 3067192.586183479055762, 1673796.547686871606857 ], [ 3067213.410289264284074, 1673755.203858105931431 ], [ 3067231.477117494679987, 1673719.332718835445121 ], [ 3067238.014552012085915, 1673701.983124873833731 ], [ 3067249.914279805496335, 1673698.837036719545722 ], [ 3067258.293215060140938, 1673696.62219096114859 ], [ 3067273.174793820362538, 1673692.687550774775445 ], [ 3067289.625155293382704, 1673685.808214851655066 ], [ 3067308.457547700498253, 1673672.504539158893749 ], [ 3067318.865014091134071, 1673661.340058374684304 ], [ 3067318.796517114154994, 1673650.021727055311203 ], [ 3067313.510459254030138, 1673639.574244131566957 ], [ 3067304.820218697190285, 1673622.397327008191496 ], [ 3067300.719010904897004, 1673604.023081353399903 ], [ 3067288.193460242822766, 1673588.580483313649893 ], [ 3067281.554709954187274, 1673580.392148547107354 ], [ 3067265.393149897456169, 1673567.190899692010134 ], [ 3067258.968110335990787, 1673551.621505463728681 ], [ 3067261.44888832513243, 1673545.847620934480801 ], [ 3067256.278182301670313, 1673534.064281420316547 ], [ 3067267.068835138808936, 1673534.182749334955588 ], [ 3067275.724385024048388, 1673541.943453467683867 ], [ 3067286.706218148116022, 1673548.112369249109179 ], [ 3067298.492268261499703, 1673554.734047865029424 ], [ 3067312.838744060602039, 1673568.041343628196046 ], [ 3067314.081442481372505, 1673577.383134945761412 ], [ 3067315.098265893757343, 1673585.033995932666585 ], [ 3067321.676490757614374, 1673587.405556689947844 ], [ 3067331.652937784790993, 1673591.004760656738654 ], [ 3067345.04908939730376, 1673599.347362895030528 ], [ 3067352.958519506268203, 1673602.639860060764477 ], [ 3067370.662430142983794, 1673599.54788707755506 ], [ 3067376.595416099764407, 1673595.510141343111172 ], [ 3067380.299312178976834, 1673596.529363476438448 ], [ 3067393.653945196419954, 1673600.206312794238329 ], [ 3067403.18174555292353, 1673600.782067019725218 ], [ 3067415.490500104613602, 1673597.727937534684315 ], [ 3067424.571300744079053, 1673595.474347855895758 ], [ 3067435.350922982208431, 1673585.908995878417045 ], [ 3067455.247545911930501, 1673584.775186256272718 ], [ 3067477.93910700455308, 1673583.482944550924003 ], [ 3067483.641516934148967, 1673581.151569633977488 ], [ 3067501.031132888048887, 1673580.245862010167912 ], [ 3067508.0013961433433, 1673577.56488432129845 ], [ 3067520.716709781438112, 1673572.673386265989393 ], [ 3067529.282970111817122, 1673575.851213982328773 ], [ 3067549.687099263072014, 1673576.852088433224708 ], [ 3067564.931827852502465, 1673575.633606408722699 ], [ 3067575.036608052439988, 1673574.826032352168113 ], [ 3067577.636045369319618, 1673572.921801958233118 ], [ 3067580.106078041251749, 1673571.11163457040675 ], [ 3067582.178318737540394, 1673573.957042993744835 ], [ 3067585.594087877776474, 1673578.64623203757219 ], [ 3067594.222483489662409, 1673577.862823117291555 ], [ 3067610.15860490873456, 1673576.415111865149811 ], [ 3067614.349230729509145, 1673573.012467751512304 ], [ 3067620.549789007753134, 1673573.932639964157715 ], [ 3067627.148956172168255, 1673577.454014393035322 ], [ 3067628.045618008356541, 1673583.306854501599446 ], [ 3067630.808678182773292, 1673588.164842129917815 ], [ 3067636.253891819622368, 1673588.549324123654515 ], [ 3067643.828095905482769, 1673582.048096484038979 ], [ 3067643.141862712334841, 1673571.990184847498313 ], [ 3067659.077728566713631, 1673570.541432473808527 ], [ 3067667.859813725575805, 1673566.337880960432813 ], [ 3067687.074416418559849, 1673564.317675794707611 ], [ 3067693.132804875727743, 1673559.921067733550444 ], [ 3067701.06568509247154, 1673545.760353036690503 ], [ 3067708.923362875822932, 1673544.625856998143718 ], [ 3067726.091812195256352, 1673542.147426394745708 ], [ 3067733.175612291321158, 1673541.124258710537106 ], [ 3067734.017782397102565, 1673536.756988125387579 ], [ 3067735.976618524640799, 1673526.603981730062515 ], [ 3067745.753163188695908, 1673516.680577343795449 ], [ 3067763.23290875647217, 1673498.940558036556467 ], [ 3067765.914750633295625, 1673494.464907047105953 ], [ 3067775.292298934422433, 1673494.162711250362918 ], [ 3067776.105624848976731, 1673490.682071079034358 ], [ 3067780.2975132483989, 1673487.280246475245804 ], [ 3067788.464211335405707, 1673487.857206564862281 ], [ 3067799.952499328181148, 1673492.527933108853176 ], [ 3067808.575516676064581, 1673491.68869788874872 ], [ 3067814.178435329347849, 1673488.707063245587051 ], [ 3067821.05014375038445, 1673480.830962954554707 ], [ 3067818.673827867023647, 1673470.218616971047595 ], [ 3067826.428486967459321, 1673463.200230697868392 ], [ 3067836.479202167131007, 1673454.100284948945045 ], [ 3067842.081037042662501, 1673451.118847594130784 ], [ 3067856.980498735327274, 1673451.633240965660661 ], [ 3067863.606632529757917, 1673450.848096016328782 ], [ 3067884.744022136554122, 1673448.342262572376058 ], [ 3067896.645979252178222, 1673446.931475619552657 ], [ 3067904.72717743460089, 1673443.452995543368161 ], [ 3067906.970328950323164, 1673436.331588950008154 ], [ 3067902.920078087598085, 1673435.153657258721069 ], [ 3067890.971573586575687, 1673431.676400199532509 ], [ 3067886.04563096165657, 1673426.081853051437065 ], [ 3067890.793547105975449, 1673421.915252106497064 ], [ 3067900.37138579506427, 1673422.912411521887407 ], [ 3067906.771212527528405, 1673425.133243440184742 ], [ 3067914.352406551130116, 1673424.466682817321271 ], [ 3067917.320124017074704, 1673419.285847881808877 ], [ 3067927.943511704914272, 1673400.739246723707765 ], [ 3067931.69503450859338, 1673390.068537055281922 ], [ 3067944.468608910217881, 1673381.161876977421343 ], [ 3067944.232277662027627, 1673376.190298640402034 ], [ 3067952.59418157953769, 1673367.822475628694519 ], [ 3067958.370691627264023, 1673362.042663381434977 ], [ 3067968.87795134074986, 1673351.527661368949339 ], [ 3067969.392609347589314, 1673346.097303803544492 ], [ 3067973.185772685799748, 1673340.093235694570467 ], [ 3067972.148077870253474, 1673328.924557959660888 ], [ 3067968.429183544591069, 1673322.229265199275687 ], [ 3067964.453373200260103, 1673318.251854495378211 ], [ 3067956.11923889676109, 1673314.895808008266613 ], [ 3067952.467984695918858, 1673310.32827085070312 ], [ 3067944.972246869467199, 1673300.955015361774713 ], [ 3067932.771410977002233, 1673300.414964333642274 ], [ 3067928.040010068099946, 1673295.899581023026258 ], [ 3067920.42937146499753, 1673294.558888177154586 ], [ 3067910.237202417571098, 1673298.340870632091537 ], [ 3067895.156076455954462, 1673300.974598364206031 ], [ 3067880.772395990788937, 1673308.160339097725227 ], [ 3067869.881935775279999, 1673307.391386474249884 ], [ 3067856.054276828188449, 1673313.812345081940293 ], [ 3067790.983031360432506, 1673328.514621917158365 ], [ 3067787.762248682789505, 1673325.07085834024474 ], [ 3067791.114718321710825, 1673311.801240652333945 ], [ 3067799.655478604137897, 1673301.62847823696211 ], [ 3067837.66422707028687, 1673271.893173668999225 ], [ 3067837.735003699082881, 1673268.940210836241022 ], [ 3067814.842948087491095, 1673268.931764569599181 ], [ 3067804.209895235486329, 1673262.821805701358244 ], [ 3067819.806491130497307, 1673257.382714296458289 ], [ 3067838.979674990288913, 1673250.695982788456604 ], [ 3067846.706620957702398, 1673244.0059756974224 ], [ 3067869.017264860216528, 1673231.429793254006654 ], [ 3067867.18251273734495, 1673215.058718955842778 ], [ 3067874.526192932389677, 1673197.084771500900388 ], [ 3067884.337298172526062, 1673182.018555063288659 ], [ 3067894.018210274167359, 1673176.633847034769133 ], [ 3067907.586248144507408, 1673179.961543872719631 ], [ 3067925.073713996913284, 1673184.25232049333863 ], [ 3067932.071218812838197, 1673190.373974030138925 ], [ 3067944.570958758238703, 1673192.865135076688603 ], [ 3067964.248428545892239, 1673189.142467846395448 ], [ 3067985.566751493606716, 1673182.340562293305993 ], [ 3068008.490673481486738, 1673175.025745058199391 ], [ 3068031.5955261727795, 1673167.653512712800875 ], [ 3068061.177589612547308, 1673149.801385577069595 ], [ 3068078.500836504157633, 1673135.426497207954526 ], [ 3068087.936706359498203, 1673131.108954269206151 ], [ 3068099.955723886843771, 1673121.664455972379074 ], [ 3068111.492364485748112, 1673100.288778509944677 ], [ 3068120.474292744416744, 1673088.279896750114858 ], [ 3068131.404145426582545, 1673083.883489635773003 ], [ 3068150.867182476446033, 1673076.05383580038324 ], [ 3068174.330931519623846, 1673066.61496667470783 ], [ 3068187.345475861802697, 1673063.675667211646214 ], [ 3068193.904832673259079, 1673056.385494812624529 ], [ 3068199.795022815000266, 1673039.46875296998769 ], [ 3068204.003432956524193, 1673027.383989602793008 ], [ 3068216.021566794253886, 1673017.9407245866023 ], [ 3068224.00679505802691, 1673008.535072110360488 ], [ 3068238.133427006192505, 1673004.065015103667974 ], [ 3068266.071459499187768, 1673001.857423568610102 ], [ 3068288.165898634120822, 1672996.664938164642081 ], [ 3068337.049483557231724, 1672994.209562392672524 ], [ 3068353.678639277350157, 1672989.229320143582299 ], [ 3068370.314738821238279, 1672984.247875163098797 ], [ 3068375.815514805726707, 1672988.70234311837703 ], [ 3068387.344211639370769, 1672998.039970073848963 ], [ 3068396.747996697202325, 1673011.086290013510734 ], [ 3068406.783308838494122, 1673010.668345129583031 ], [ 3068428.122422624379396, 1673004.940144708147272 ], [ 3068444.263628261163831, 1672997.095380471786484 ], [ 3068468.442230419255793, 1672978.421824864577502 ], [ 3068488.356077537871897, 1672963.042991232592613 ], [ 3068509.061974041629583, 1672947.051381381694227 ], [ 3068516.368616964668036, 1672948.13622613879852 ], [ 3068522.569245751947165, 1672949.056566748535261 ], [ 3068530.39573014434427, 1672943.01619485556148 ], [ 3068549.650595497339964, 1672933.670672256499529 ], [ 3068549.868269049096853, 1672938.281691345153376 ], [ 3068550.250242291018367, 1672946.38851792505011 ], [ 3068554.28425818728283, 1672949.528133828658611 ], [ 3068561.056429804302752, 1672941.000978482887149 ], [ 3068563.69606295414269, 1672931.861090950667858 ], [ 3068557.570131047163159, 1672918.242432416183874 ], [ 3068547.792923026718199, 1672915.94347649696283 ], [ 3068539.583403251133859, 1672910.700029804836959 ], [ 3068540.654162542894483, 1672904.504843044793233 ], [ 3068549.037864829879254, 1672897.699397143209353 ], [ 3068538.960874764248729, 1672893.450714343925938 ], [ 3068506.312914221081883, 1672888.399049011524767 ], [ 3068488.761321876198053, 1672882.186333662131801 ], [ 3068472.95969778066501, 1672876.59315873356536 ], [ 3068465.089524767361581, 1672868.291963520227 ], [ 3068461.551235455088317, 1672871.627063863212243 ], [ 3068453.470189897343516, 1672871.330599726410583 ], [ 3068448.696730111725628, 1672871.154394936747849 ], [ 3068439.217430514283478, 1672870.807541735703126 ], [ 3068425.862814280204475, 1672867.131174555746838 ], [ 3068417.85351928928867, 1672863.188181238481775 ], [ 3068410.339200576767325, 1672850.426059518707916 ], [ 3068404.15925752883777, 1672847.872003251919523 ], [ 3068391.117900882847607, 1672842.485192742664367 ], [ 3068372.750433482695371, 1672834.899731782032177 ], [ 3068348.231342280749232, 1672830.612823328468949 ], [ 3068308.107966932468116, 1672823.598371208179742 ], [ 3068266.416585739701986, 1672819.527618275722489 ], [ 3068237.640202370472252, 1672811.867355290334672 ], [ 3068214.1392194586806, 1672812.4301055255346 ], [ 3068187.54050793685019, 1672801.254656453616917 ], [ 3068159.477922017686069, 1672789.463552559260279 ], [ 3068137.872180839534849, 1672775.877433058805764 ], [ 3068120.289722102694213, 1672767.851205988321453 ], [ 3068100.82826105132699, 1672766.990213247016072 ], [ 3068082.526223429944366, 1672766.179928957717493 ], [ 3068064.838536464609206, 1672760.589630074799061 ], [ 3068048.169055323116481, 1672757.603858186630532 ], [ 3068028.991036287508905, 1672759.504794868873432 ], [ 3067989.41948172217235, 1672763.427907433127984 ], [ 3067973.37146683037281, 1672761.206148190889508 ], [ 3067952.048020681831986, 1672758.252744337776676 ], [ 3067916.275156715884805, 1672744.469903219025582 ], [ 3067898.504258611239493, 1672729.546487648040056 ], [ 3067865.479447416029871, 1672714.32554117613472 ], [ 3067840.029070440679789, 1672695.025496250251308 ], [ 3067816.41470912611112, 1672677.117349744774401 ], [ 3067796.950522352010012, 1672651.139866983750835 ], [ 3067779.511723295785487, 1672620.802553575718775 ], [ 3067777.519487174227834, 1672607.797563086496666 ], [ 3067774.730341213289648, 1672589.590178494574502 ], [ 3067767.29395359242335, 1672576.200572205707431 ], [ 3067750.535826015286148, 1672559.097298138542101 ], [ 3067738.948067697230726, 1672553.777254949556664 ], [ 3067728.000587216578424, 1672557.024422098649666 ], [ 3067716.63685900811106, 1672566.35150933987461 ], [ 3067709.251183225307614, 1672568.274899811251089 ], [ 3067697.323469717055559, 1672567.722210750216618 ], [ 3067680.80636469181627, 1672566.957038894528523 ], [ 3067668.537966736592352, 1672558.533176013967022 ], [ 3067652.486348511651158, 1672547.511230001226068 ], [ 3067626.904545890167356, 1672529.945760025642812 ], [ 3067607.423997840844095, 1672512.6512660542503 ], [ 3067596.609196234960109, 1672499.183957054512575 ], [ 3067591.41465743817389, 1672486.51602536952123 ], [ 3067593.875364011153579, 1672478.888447282835841 ], [ 3067597.273103009909391, 1672468.356111391214654 ], [ 3067600.012178265489638, 1672459.865369373233989 ], [ 3067599.172796091996133, 1672449.997649763710797 ], [ 3067601.613201651722193, 1672439.557094832649454 ], [ 3067607.274340684525669, 1672432.560180314118043 ], [ 3067609.016169426962733, 1672417.565744927152991 ], [ 3067603.745321416296065, 1672405.134418955538422 ], [ 3067606.919752183370292, 1672389.980662749614567 ], [ 3067616.717028574086726, 1672373.128773583099246 ], [ 3067627.885810261592269, 1672353.920662171207368 ], [ 3067644.133200652897358, 1672325.975610234076157 ], [ 3067660.119121747091413, 1672298.480287639191374 ], [ 3067662.559571442194283, 1672288.03975585126318 ], [ 3067659.049759328830987, 1672266.365559806115925 ], [ 3067660.117229263298213, 1672245.736982407281175 ], [ 3067661.479430785868317, 1672219.460143717704341 ], [ 3067663.465411101002246, 1672208.447946833213791 ], [ 3067661.570939630270004, 1672198.080053956713527 ], [ 3067659.555753321386874, 1672187.061613826779649 ], [ 3067663.429232739843428, 1672175.055059519130737 ], [ 3067693.102533593308181, 1672083.079540773760527 ], [ 3067707.644233611412346, 1672072.527892797254026 ], [ 3067719.031239329371601, 1672055.995974083896726 ], [ 3067729.830164162442088, 1672045.95416959701106 ], [ 3067738.669546879827976, 1672037.73476465139538 ], [ 3067751.484600493684411, 1672033.49285008921288 ], [ 3067761.437230871990323, 1672023.743481008801609 ], [ 3067763.320477453991771, 1672014.066981052048504 ], [ 3067769.417290351353586, 1672006.273700912715867 ], [ 3067775.629693493247032, 1671984.544344400055707 ], [ 3067780.452499668113887, 1671967.678575095022097 ], [ 3067794.952852393500507, 1671952.460294835735112 ], [ 3067802.156889272853732, 1671929.16964297555387 ], [ 3067806.208007936365902, 1671920.452013665344566 ], [ 3067813.003572566900402, 1671914.729972013039514 ], [ 3067815.820947051048279, 1671906.001377691281959 ], [ 3067820.127606767229736, 1671892.651211465476081 ], [ 3067821.952603984624147, 1671886.989925669739023 ], [ 3067820.002194060012698, 1671878.652567740296945 ], [ 3067811.104828254319727, 1671868.911495085805655 ], [ 3067808.706041122786701, 1671853.251037693349645 ], [ 3067805.51890096347779, 1671832.44356489693746 ], [ 3067799.990489670075476, 1671822.724890111014247 ], [ 3067800.008440836332738, 1671814.043935496127233 ], [ 3067805.86779531929642, 1671808.346896591130644 ], [ 3067826.551157348323613, 1671802.732140109641477 ], [ 3067848.289615280460566, 1671799.602804442867637 ], [ 3067865.68087947415188, 1671793.813471849542111 ], [ 3067893.73324409686029, 1671793.003696224885061 ], [ 3067921.215094572864473, 1671792.210996943758801 ], [ 3067937.309116202406585, 1671787.397560872603208 ], [ 3067950.44012702954933, 1671776.425745773827657 ], [ 3067962.004473215900362, 1671770.76718820258975 ], [ 3067972.079169519245625, 1671772.64717988204211 ], [ 3067970.907447202131152, 1671778.1912460711319 ], [ 3067973.016912487801164, 1671783.165417862823233 ], [ 3067979.258052797988057, 1671788.752529207617044 ], [ 3067985.034448876045644, 1671790.808317398419604 ], [ 3067992.099177334923297, 1671797.859827007399872 ], [ 3068001.917516289744526, 1671807.6604644425679 ], [ 3068014.376152631826699, 1671802.648712306749076 ], [ 3068037.84155114647001, 1671793.21090972633101 ], [ 3068052.48912948789075, 1671781.65497971046716 ], [ 3068070.045440986286849, 1671774.901580570498481 ], [ 3068079.583238544873893, 1671771.234082667622715 ], [ 3068092.971481333952397, 1671757.545670948456973 ], [ 3068109.836906416807324, 1671744.587530168471858 ], [ 3068125.731708448380232, 1671738.472502128686756 ], [ 3068139.402092803269625, 1671735.417825797339901 ], [ 3068147.405445463955402, 1671727.632946253288537 ], [ 3068158.036535585299134, 1671720.814464505761862 ], [ 3068170.910022021271288, 1671712.557462719967589 ], [ 3068177.982481647282839, 1671705.982028777478263 ], [ 3068180.936847814358771, 1671690.110447748564184 ], [ 3068197.662202840670943, 1671671.834245910868049 ], [ 3068226.598705515265465, 1671645.930498928297311 ], [ 3068241.604306748136878, 1671622.578009016579017 ], [ 3068254.868138860911131, 1671601.938960765022784 ], [ 3068265.941767744719982, 1671584.706639711512253 ], [ 3068272.879498524125665, 1671573.909957829164341 ], [ 3068281.57895015925169, 1671560.37376702344045 ], [ 3068287.671116824727505, 1671538.612822336144745 ], [ 3068286.599421058315784, 1671518.27123003359884 ], [ 3068290.932014640420675, 1671501.57103255437687 ], [ 3068293.699181289877743, 1671490.90823209960945 ], [ 3068301.508202593773603, 1671460.805390609195456 ], [ 3068306.5822614999488, 1671441.243959637358785 ], [ 3068312.407264146953821, 1671418.792883430840448 ], [ 3068317.488869183696806, 1671399.211476805154234 ], [ 3068317.305515851825476, 1671389.229371912544593 ], [ 3068313.695021037012339, 1671377.973796672420576 ], [ 3068305.991863274015486, 1671372.510691789444536 ], [ 3068293.151916063390672, 1671363.402896570041776 ], [ 3068292.24393864441663, 1671355.236145864240825 ], [ 3068287.981721195857972, 1671351.61973471310921 ], [ 3068278.783793843351305, 1671343.821377720450982 ], [ 3068276.629630350507796, 1671336.276246958179399 ], [ 3068272.808558655902743, 1671322.890079207252711 ], [ 3068269.903570897877216, 1671312.715382197406143 ], [ 3068271.887767388485372, 1671303.690103681990877 ], [ 3068279.930518051609397, 1671290.267620771657676 ], [ 3068281.674109134823084, 1671275.275124362669885 ], [ 3068273.116442009806633, 1671253.760141438804567 ], [ 3068259.961237180046737, 1671239.008446316234767 ], [ 3068244.531182616949081, 1671221.707357173087075 ], [ 3068221.954978835303336, 1671206.254519321490079 ], [ 3068198.639452924020588, 1671190.296102681430057 ], [ 3068180.354092796333134, 1671180.803836914943531 ], [ 3068172.403110693208873, 1671172.844623536802828 ], [ 3068165.065645518712699, 1671160.105539047857746 ], [ 3068162.260289449244738, 1671150.581247632391751 ], [ 3068166.527344538830221, 1671134.480492318747565 ], [ 3068168.329082634299994, 1671115.471877003088593 ], [ 3068167.805585477966815, 1671098.872284061973915 ], [ 3068160.859774078708142, 1671066.703119406243786 ], [ 3068151.630122217815369, 1671041.609512008028105 ], [ 3068139.659796222578734, 1671025.005568603053689 ], [ 3068131.369806285947561, 1671010.429773877840489 ], [ 3068125.360760246403515, 1670988.779952836222947 ], [ 3068115.55807928275317, 1670973.132816356373951 ], [ 3068099.256748167332262, 1670954.61445558606647 ], [ 3068084.596970973536372, 1670944.180260031484067 ], [ 3068065.865373733919114, 1670934.407341853249818 ], [ 3068051.217819049488753, 1670926.764994999393821 ], [ 3063980.606695, 1670926.764994999393821 ], [ 3063980.606695, 1671594.563188729574904 ], [ 3064018.646340912207961, 1671585.935215426143259 ] ] ] ] } }
]
}
