{
"type": "FeatureCollection",
"name": "Ea",
"crs": { "type": "name", "properties": { "name": "urn:ogc:def:crs:EPSG::3035" } },
"features": [
{ "type": "Feature", "properties": { "ENP_GRAL": 6.0, "ENP_GRAL_NAME": "Otros Espacios Naturales Protegidos", "color": "#7F8F0D" }, "geometry": { "type": "Polygon", "coordinates": [ [ [ 3300570.735691253095865, 2340553.240419731475413 ], [ 3300636.841504883021116, 2340407.805873073637486 ], [ 3300690.738362040370703, 2340287.347881470806897 ], [ 3300748.48283439874649, 2340176.462656163610518 ], [ 3300837.578645137604326, 2340123.181844021193683 ], [ 3300995.153487435076386, 2340096.835303769912571 ], [ 3301008.874360867310315, 2340090.116024099756032 ], [ 3301040.05372609756887, 2340074.83874546084553 ], [ 3301115.432766365353018, 2340037.903444552328438 ], [ 3301109.575734850019217, 2340031.887354380451143 ], [ 3301089.178450205363333, 2340010.941198019776493 ], [ 3300991.673888553865254, 2339910.813143068458885 ], [ 3300957.22146387398243, 2339841.668929949402809 ], [ 3300934.482191648799926, 2339738.587074383161962 ], [ 3300913.614021710585803, 2339631.000767335295677 ], [ 3300890.376564149279147, 2339537.067304936237633 ], [ 3300903.615862608887255, 2339435.47533322032541 ], [ 3300887.571674464270473, 2339306.0638621840626 ], [ 3301041.808268215507269, 2339182.316218256019056 ], [ 3300980.300721106119454, 2339086.064108311198652 ], [ 3300963.887306068558246, 2338969.980733664240688 ], [ 3300918.943812477402389, 2338882.900424347724766 ], [ 3300837.540490753017366, 2338810.32119935657829 ], [ 3300724.440945141017437, 2338715.02473193500191 ], [ 3300648.43159027164802, 2338618.496532181277871 ], [ 3300587.003927658312023, 2338534.105555555783212 ], [ 3300513.978363659232855, 2338465.098368888255209 ], [ 3300474.827890328597277, 2338403.281379769090563 ], [ 3300430.468787737656385, 2338343.734836576040834 ], [ 3300367.861437492072582, 2338267.25220515485853 ], [ 3300415.619706913363189, 2338141.233522349502891 ], [ 3300421.133192277047783, 2338034.605856647714972 ], [ 3300424.283858655020595, 2337932.24488706048578 ], [ 3300510.628363367635757, 2337871.874569955281913 ], [ 3300542.028239336796105, 2337766.62005613418296 ], [ 3300528.361601839773357, 2337667.70471273874864 ], [ 3300496.540741441771388, 2337566.516705422662199 ], [ 3300540.026742644608021, 2337445.681455275975168 ], [ 3300597.348253204952925, 2337316.361503479536623 ], [ 3300555.277552378363907, 2337227.171102 ], [ 3300467.712772855069488, 2337194.560948652215302 ], [ 3300295.641678738873452, 2336903.575052570551634 ], [ 3300278.286985207814723, 2336825.600685840472579 ], [ 3300300.247592738829553, 2336744.376285549718887 ], [ 3300379.291972451843321, 2336636.780138278380036 ], [ 3300423.723470554687083, 2336520.684925173409283 ], [ 3300415.222155745141208, 2336437.19263685029 ], [ 3300365.338705626316369, 2336338.866421619430184 ], [ 3300273.871101452037692, 2336222.674446009099483 ], [ 3300218.033304374665022, 2336126.175802657846361 ], [ 3300223.451451284810901, 2336036.865058213938028 ], [ 3300278.285720737185329, 2335960.720870843157172 ], [ 3300340.420895271003246, 2335897.755027345381677 ], [ 3300415.131711757276207, 2335834.970848937518895 ], [ 3300489.838223940227181, 2335781.056970711797476 ], [ 3300588.1654929141514, 2335730.541880518663675 ], [ 3300715.765411305241287, 2335780.088643516413867 ], [ 3300781.943606025073677, 2335828.128346161916852 ], [ 3300848.120171563699841, 2335848.450287704356015 ], [ 3300953.348989194724709, 2335782.921443354338408 ], [ 3301022.429179884493351, 2335731.264623505063355 ], [ 3301082.63658678997308, 2335671.517647468950599 ], [ 3301262.986213064752519, 2335545.088779512792826 ], [ 3301428.414756482467055, 2335430.913455587811768 ], [ 3301569.623382306657732, 2335334.171751159243286 ], [ 3301637.460973707027733, 2335302.006078924052417 ], [ 3301721.485426056198776, 2335246.722483864985406 ], [ 3301800.386839628685266, 2335179.147448550909758 ], [ 3301855.995128609240055, 2335129.840770000591874 ], [ 3299668.035970000550151, 2335129.840770000591874 ], [ 3299668.035970000550151, 2340603.375029999762774 ], [ 3300548.70283973030746, 2340603.375029999762774 ], [ 3300570.735691253095865, 2340553.240419731475413 ] ] ] } }
]
}
