{
"type": "FeatureCollection",
"name": "Nabarniz",
"crs": { "type": "name", "properties": { "name": "urn:ogc:def:crs:EPSG::3035" } },
"features": [
{ "type": "Feature", "properties": { "ENP_GRAL": 6.0, "ENP_GRAL_NAME": "Otros Espacios Naturales Protegidos", "color": "#7F8F0D" }, "geometry": { "type": "Polygon", "coordinates": [ [ [ 3302373.323059500660747, 2334400.096772823017091 ], [ 3302410.014683298766613, 2334321.806602351833135 ], [ 3302479.060792338568717, 2334256.792932192794979 ], [ 3302613.541231017559767, 2334134.8501062002033 ], [ 3302684.852449967991561, 2334065.043679216876626 ], [ 3302754.445080328267068, 2334009.498464935459197 ], [ 3302847.126673827879131, 2333981.11129176709801 ], [ 3302937.762983524706215, 2333930.759393512271345 ], [ 3302977.094447609037161, 2333828.505618675146252 ], [ 3302945.199308178853244, 2333687.970744987018406 ], [ 3303014.380457758437842, 2333499.061735325492918 ], [ 3303091.62794338259846, 2333418.838106055278331 ], [ 3303190.132929529994726, 2333336.921193796209991 ], [ 3303236.016588035039604, 2333119.366701332852244 ], [ 3303280.317488167434931, 2332991.890639293007553 ], [ 3303350.437965909019113, 2332883.484999287407845 ], [ 3303391.293499989435077, 2332759.400483931414783 ], [ 3303423.383381036110222, 2332659.171327656134963 ], [ 3303493.573015492875129, 2332495.458539625164121 ], [ 3303543.947480736766011, 2332333.436451604124159 ], [ 3303576.209280282724649, 2332259.053942901082337 ], [ 3303629.688365350011736, 2332191.101785659790039 ], [ 3303691.422260085120797, 2332110.298106463626027 ], [ 3303747.67218730179593, 2331992.39660920901224 ], [ 3303803.346034161746502, 2331919.24441372603178 ], [ 3303879.449908366892487, 2331829.332929922733456 ], [ 3303984.817772555164993, 2331658.710990329738706 ], [ 3304053.059380909893662, 2331563.575414643622935 ], [ 3304104.499893005006015, 2331507.908915670122951 ], [ 3304093.931882343720645, 2331448.247786591295153 ], [ 3304021.595943036489189, 2331444.275972088798881 ], [ 3303912.982288153842092, 2331433.33570952527225 ], [ 3303824.704660355113447, 2331460.940275885164738 ], [ 3303714.681556621100754, 2331534.468855400569737 ], [ 3303605.735274847131222, 2331577.362410991918296 ], [ 3303468.962101726327091, 2331576.421885436400771 ], [ 3303370.588492720853537, 2331557.096714470069855 ], [ 3303240.267677088268101, 2331564.416966523043811 ], [ 3303081.293311262037605, 2331588.401594850700349 ], [ 3302946.823684168979526, 2331598.222657926380634 ], [ 3302855.89298135926947, 2331606.51858038129285 ], [ 3302723.215988108888268, 2331587.358287265524268 ], [ 3302674.901397708337754, 2331472.530902402941138 ], [ 3302628.508214491885155, 2331363.697049475740641 ], [ 3302517.263073714450002, 2331241.102187984623015 ], [ 3302429.57813124358654, 2331150.39939384534955 ], [ 3302355.14610917121172, 2331089.351399640087038 ], [ 3302252.35665288195014, 2331014.992641451768577 ], [ 3302112.555914953351021, 2330992.935567614622414 ], [ 3302001.228552806191146, 2331042.170885852538049 ], [ 3301896.908024459145963, 2331060.918287926819175 ], [ 3301785.034138193819672, 2331057.912530964240432 ], [ 3301697.524060430936515, 2331024.766110123135149 ], [ 3301636.84246026724577, 2330964.601333156693727 ], [ 3301556.358433330431581, 2330900.298582712188363 ], [ 3301435.591340148355812, 2330852.928521806374192 ], [ 3301392.193723083473742, 2330756.264012173283845 ], [ 3301427.801258542574942, 2330645.270693764090538 ], [ 3301393.01863697078079, 2330565.448549082037061 ], [ 3301371.62624729052186, 2330486.414004880934954 ], [ 3301418.612463666126132, 2330361.847952650394291 ], [ 3301445.719060427043587, 2330221.433391816914082 ], [ 3301481.651158792898059, 2330119.897108827251941 ], [ 3301515.733624912332743, 2330056.612231717910618 ], [ 3301568.661478081718087, 2329963.387376433238387 ], [ 3301595.618763216305524, 2329841.739231462590396 ], [ 3301591.575944190844893, 2329750.618953405413777 ], [ 3301573.043819962069392, 2329645.70815308811143 ], [ 3301591.181098895613104, 2329483.8348492924124 ], [ 3301588.513440393842757, 2329389.943412520457059 ], [ 3301570.263066994026303, 2329299.026714697945863 ], [ 3301576.037600831128657, 2329213.034914286341518 ], [ 3301605.860467664431781, 2329130.206278732512146 ], [ 3301597.204240767285228, 2329066.99595500016585 ], [ 3300279.187855000142008, 2329066.99595500016585 ], [ 3300279.187855000142008, 2334433.493545000907034 ], [ 3302364.088507728651166, 2334433.493545000907034 ], [ 3302373.323059500660747, 2334400.096772823017091 ] ] ] } }
]
}
