{
"type": "FeatureCollection",
"name": "Sopuerta",
"crs": { "type": "name", "properties": { "name": "urn:ogc:def:crs:EPSG::3035" } },
"features": [
{ "type": "Feature", "properties": { "ENP_GRAL": 3.0, "ENP_GRAL_NAME": "Monumentos Naturales", "color": "#AAFF00" }, "geometry": { "type": "Polygon", "coordinates": [ [ [ 3250936.010037302039564, 2332856.095952091738582 ], [ 3250935.715442221146077, 2332855.666668652091175 ], [ 3250935.35039175208658, 2332855.296035954263061 ], [ 3250934.925977765582502, 2332854.995315479114652 ], [ 3250934.455095867626369, 2332854.773644478991628 ], [ 3250933.952053565531969, 2332854.63775830809027 ], [ 3250933.432135543785989, 2332854.591785800177604 ], [ 3250932.911139250267297, 2332854.637123806867748 ], [ 3250932.404894893988967, 2332854.772394756786525 ], [ 3250931.928784457035363, 2332854.99348851852119 ], [ 3250931.497274310793728, 2332855.293687257915735 ], [ 3250931.123475678265095, 2332855.663869602140039 ], [ 3250930.818746238946915, 2332856.09278772957623 ], [ 3250930.592345046345145, 2332856.567409195005894 ], [ 3250930.451151184737682, 2332857.073312856722623 ], [ 3250930.39945475757122, 2332857.595127084292471 ], [ 3250930.438826533965766, 2332858.116996819619089 ], [ 3250930.568070223554969, 2332858.6230653161183 ], [ 3250930.783258819021285, 2332859.097955929581076 ], [ 3250931.077853923663497, 2332859.527239362709224 ], [ 3250931.442904412746429, 2332859.897872045636177 ], [ 3250931.86731841089204, 2332860.19859248958528 ], [ 3250932.338200314901769, 2332860.420263475272804 ], [ 3250932.841242612805218, 2332860.556149620562792 ], [ 3250933.36116062104702, 2332860.602122104726732 ], [ 3250933.882156895473599, 2332860.556784081738442 ], [ 3250934.388401226140559, 2332860.421513115987182 ], [ 3250934.864511639345437, 2332860.20041936263442 ], [ 3250935.29602175951004, 2332859.900220624636859 ], [ 3250935.669820373877883, 2332859.530038304626942 ], [ 3250935.974549799226224, 2332859.101120193954557 ], [ 3250936.200950987637043, 2332858.626498755998909 ], [ 3250936.342144855298102, 2332858.120595125947148 ], [ 3250936.393841295037419, 2332857.598780918866396 ], [ 3250936.354469537269324, 2332857.076911197975278 ], [ 3250936.225225871428847, 2332856.570842708460987 ], [ 3250936.010037302039564, 2332856.095952091738582 ] ] ] } }
]
}
