{
"type": "FeatureCollection",
"name": "Villabona",
"crs": { "type": "name", "properties": { "name": "urn:ogc:def:crs:EPSG::3035" } },
"features": [
{ "type": "Feature", "properties": { "ENP_GRAL": 2.0, "ENP_GRAL_NAME": "Reservas Naturales", "color": "#FFD37F" }, "geometry": { "type": "MultiPolygon", "coordinates": [ [ [ [ 3347756.499850064050406, 2308792.320526179857552 ], [ 3347739.469018743373454, 2308761.81689701648429 ], [ 3347724.566195353865623, 2308721.816419526934624 ], [ 3347714.639832817949355, 2308662.190480026416481 ], [ 3347723.779950174503028, 2308596.207254049368203 ], [ 3347748.371089178603142, 2308493.566426390781999 ], [ 3347774.892182787880301, 2308427.603851161897182 ], [ 3347890.544026393443346, 2308202.146957351826131 ], [ 3347902.886990988161415, 2308185.297213771380484 ], [ 3347928.974017752334476, 2308162.5085987043567 ], [ 3347929.904312935657799, 2308160.82577701844275 ], [ 3347946.828768751583993, 2308113.771357765421271 ], [ 3347990.756760083138943, 2308058.472971589770168 ], [ 3348005.138785866089165, 2308028.085730001796037 ], [ 3348028.253994906786829, 2307997.19442727137357 ], [ 3348046.636364318896085, 2307962.562523217871785 ], [ 3348052.23181253997609, 2307936.238045637961477 ], [ 3348054.603002232499421, 2307873.460294033400714 ], [ 3348060.392482500057667, 2307850.65146017074585 ], [ 3348080.598773854319006, 2307823.308018762618303 ], [ 3348109.928746539633721, 2307807.561691347509623 ], [ 3348137.101569419261068, 2307803.851822915486991 ], [ 3348195.722227850928903, 2307807.857852276880294 ], [ 3348253.730317400768399, 2307798.787642895709723 ], [ 3348255.623536115512252, 2307797.951531599275768 ], [ 3348321.5163384815678, 2307754.046505681239069 ], [ 3348407.071736821439117, 2307709.765839716419578 ], [ 3348408.471467364579439, 2307709.01541100256145 ], [ 3348409.339932119008154, 2307707.343462811782956 ], [ 3348409.715381962247193, 2307705.757005520164967 ], [ 3348409.393361756578088, 2307703.784949908033013 ], [ 3348408.53497325303033, 2307702.412952898535877 ], [ 3348407.183634169399738, 2307701.126841181889176 ], [ 3348405.622836024034768, 2307700.891201271209866 ], [ 3348403.877202576491982, 2307700.687587239779532 ], [ 3348402.397184856235981, 2307700.944938803091645 ], [ 3348317.021445645950735, 2307746.71537236077711 ], [ 3348392.298882651142776, 2307698.137094084639102 ], [ 3348393.53743113251403, 2307696.400515086948872 ], [ 3348396.038541998714209, 2307691.90952442958951 ], [ 3348396.66049974411726, 2307690.280321632046252 ], [ 3348398.041450716555119, 2307689.02632770454511 ], [ 3348409.063749759923667, 2307680.011726984754205 ], [ 3348410.13589720800519, 2307678.811104258522391 ], [ 3348443.409303991124034, 2307627.394110932014883 ], [ 3348474.960194298066199, 2307593.008623016066849 ], [ 3348475.58215638436377, 2307591.37942339386791 ], [ 3348475.649052044376731, 2307589.846600250806659 ], [ 3348469.189447806216776, 2307538.238507438916713 ], [ 3348468.559024673886597, 2307536.319755181670189 ], [ 3348449.418879273347557, 2307504.154776453971863 ], [ 3348488.61828886019066, 2307558.184358417987823 ], [ 3348489.992974460124969, 2307576.705578688532114 ], [ 3348479.482208868954331, 2307604.391291669104248 ], [ 3348452.653982535004616, 2307645.561292604077607 ], [ 3348436.638875481672585, 2307678.76737242937088 ], [ 3348423.526305784936994, 2307698.285828224383295 ], [ 3348410.520308925770223, 2307710.687318258453161 ], [ 3348409.632784252986312, 2307711.85585129680112 ], [ 3348409.010811042040586, 2307713.484955497551709 ], [ 3348408.944100976921618, 2307715.017647733911872 ], [ 3348409.493832837790251, 2307716.443294147029519 ], [ 3348410.598680838011205, 2307717.772249896544963 ], [ 3348412.13526632077992, 2307719.026365754194558 ], [ 3348413.819310129620135, 2307719.240583593025804 ], [ 3348415.54603252466768, 2307718.940452351234853 ], [ 3348417.2351302690804, 2307717.632796301040798 ], [ 3348431.579266955144703, 2307704.491482919082046 ], [ 3348445.437007071450353, 2307683.322207984514534 ], [ 3348461.452144934795797, 2307650.116328490898013 ], [ 3348488.631592119112611, 2307608.378253576345742 ], [ 3348499.702631328254938, 2307579.073965067509562 ], [ 3348500.059176896698773, 2307576.983766361139715 ], [ 3348498.44800434447825, 2307555.461565955076367 ], [ 3348497.632678711786866, 2307553.575053432490677 ], [ 3348434.672703314572573, 2307466.662693506572396 ], [ 3348420.000483683310449, 2307419.524174676276743 ], [ 3348424.228219470474869, 2307384.818276674486697 ], [ 3348457.664028459228575, 2307346.049052387475967 ], [ 3348486.055367691908032, 2307328.437666025012732 ], [ 3348534.724464269354939, 2307316.935409057419747 ], [ 3348548.452900048345327, 2307315.562935816124082 ], [ 3348564.450912964064628, 2307323.429458966478705 ], [ 3348569.894808764569461, 2307329.581679970026016 ], [ 3348575.16834376566112, 2307349.453419716097414 ], [ 3348574.232740863226354, 2307430.740650222636759 ], [ 3348574.61637136247009, 2307432.702295511960983 ], [ 3348588.25435748975724, 2307463.795477251056582 ], [ 3348589.050837952643633, 2307465.178030883427709 ], [ 3348605.074090418405831, 2307483.688208349980414 ], [ 3348623.930934836622328, 2307496.63517302647233 ], [ 3348625.325329874642193, 2307497.406773276627064 ], [ 3348654.263886275235564, 2307506.066397170070559 ], [ 3348664.190809640102088, 2307510.931996586732566 ], [ 3348665.080484999809414, 2307511.120652833487839 ], [ 3348665.080484999809414, 2307499.234621482901275 ], [ 3348657.582546886056662, 2307496.869765580631793 ], [ 3348629.338067630305886, 2307483.526533159427345 ], [ 3348608.11776011576876, 2307458.821631907019764 ], [ 3348595.108533278107643, 2307388.07061736099422 ], [ 3348596.41760331299156, 2307341.703166312538087 ], [ 3348596.095598419662565, 2307339.731115735601634 ], [ 3348595.360892053693533, 2307338.337825940456241 ], [ 3348572.965571787208319, 2307308.766661728732288 ], [ 3348571.552469230256975, 2307307.491283138282597 ], [ 3348558.428842240013182, 2307300.138818189967424 ], [ 3348556.745091969147325, 2307299.924540231004357 ], [ 3348504.972625074908137, 2307299.797747739590704 ], [ 3348503.492388208862394, 2307300.055027165450156 ], [ 3348456.601639854256064, 2307314.290693475864828 ], [ 3348455.017162963282317, 2307315.07312273234129 ], [ 3348428.065902752801776, 2307338.011150797829032 ], [ 3348427.301811045967042, 2307339.158222510945052 ], [ 3348412.191632831934839, 2307360.037953830789775 ], [ 3348411.427493559662253, 2307361.184730323962867 ], [ 3348397.748615708202124, 2307402.097136548254639 ], [ 3348397.681583993136883, 2307403.629778941161931 ], [ 3348407.111793667078018, 2307451.679729972034693 ], [ 3348407.742149874567986, 2307453.598087627440691 ], [ 3348459.421585602220148, 2307540.950451131444424 ], [ 3348465.440810404252261, 2307589.086175880394876 ], [ 3348435.313619240187109, 2307621.703114773612469 ], [ 3348402.206528249196708, 2307672.584272890351713 ], [ 3348391.227253385353833, 2307681.084160736296326 ], [ 3348389.969547948800027, 2307682.316732702311128 ], [ 3348388.731097617652267, 2307684.053294391836971 ], [ 3348388.047550121322274, 2307685.693101115059108 ], [ 3348385.31836491310969, 2307690.730767276138067 ], [ 3348246.6013592062518, 2307780.75982900056988 ], [ 3348190.641991887241602, 2307791.50185730215162 ], [ 3348142.433103714138269, 2307788.727936626411974 ], [ 3348108.598485448863357, 2307781.933981688227504 ], [ 3348106.976411653216928, 2307781.709000826813281 ], [ 3348056.293398475274444, 2307787.477645674254745 ], [ 3348043.91146032512188, 2307791.658452378120273 ], [ 3348042.388473435305059, 2307792.430216863751411 ], [ 3348041.316004802472889, 2307793.630705270916224 ], [ 3348021.340490304399282, 2307825.49725158745423 ], [ 3348021.027098693419248, 2307827.072830178774893 ], [ 3348018.205871750600636, 2307871.168310415931046 ], [ 3348027.594924902543426, 2307931.394216043874621 ], [ 3348023.210581801831722, 2307951.930894552730024 ], [ 3348006.948996427934617, 2307985.180090293288231 ], [ 3347980.760682813823223, 2308013.563678497914225 ], [ 3347958.593025441747159, 2308031.614313198253512 ], [ 3347926.707610562443733, 2308043.749148465692997 ], [ 3347925.369744870811701, 2308044.488742600660771 ], [ 3347917.862754782661796, 2308052.892373707145452 ], [ 3347916.975409278646111, 2308054.060691310558468 ], [ 3347897.680093825329095, 2308097.471031134948134 ], [ 3347864.800085454713553, 2308202.566345611587167 ], [ 3347804.383347257040441, 2308309.914236919023097 ], [ 3347773.276153772138059, 2308304.674708497710526 ], [ 3347771.795835879631341, 2308304.932036873418838 ], [ 3347741.913269748911262, 2308314.183540308848023 ], [ 3347717.197194572538137, 2308320.508594650775194 ], [ 3347611.367200687527657, 2308285.66897301748395 ], [ 3347567.279774353839457, 2308218.799317731056362 ], [ 3347484.892768002580851, 2308117.011111850384623 ], [ 3347483.356223700102419, 2308115.757307256106287 ], [ 3347441.208594595547765, 2308100.775238936766982 ], [ 3347374.256402952596545, 2308069.824431899469346 ], [ 3347317.203386365436018, 2308057.940789237152785 ], [ 3347207.329959596507251, 2308046.114117334596813 ], [ 3347144.590654571540654, 2307996.684841737151146 ], [ 3347100.300226987805218, 2307977.51219298876822 ], [ 3347085.665948368608952, 2307961.296297045424581 ], [ 3347084.499273627996445, 2307959.977793387137353 ], [ 3347083.45608921116218, 2307958.638126145116985 ], [ 3347082.16628463473171, 2307957.341129059437662 ], [ 3347078.860181332565844, 2307956.901993094477803 ], [ 3347066.459737494122237, 2307942.325618016533554 ], [ 3347047.313670636620373, 2307911.68298845924437 ], [ 3347037.238009444437921, 2307896.19522939901799 ], [ 3347011.249859452713281, 2307871.812442286871374 ], [ 3346997.422328100074083, 2307853.934989846777171 ], [ 3346978.732337519526482, 2307822.19900970114395 ], [ 3346961.765079717617482, 2307803.346262519713491 ], [ 3346939.507571581285447, 2307787.441447726450861 ], [ 3346928.186265586875379, 2307781.80449630273506 ], [ 3346900.916823523119092, 2307759.672531551215798 ], [ 3346873.487600027583539, 2307748.216275692917407 ], [ 3346857.366317005828023, 2307740.371339283883572 ], [ 3346838.305617996491492, 2307726.953136309515685 ], [ 3346837.157713426277041, 2307726.138715466484427 ], [ 3346806.256376401521266, 2307714.779147426597774 ], [ 3346804.880750382784754, 2307714.511050265282393 ], [ 3346784.04132914962247, 2307716.613364266697317 ], [ 3346754.227400409989059, 2307717.740665070712566 ], [ 3346731.178347184322774, 2307717.184894971549511 ], [ 3346717.374366770964116, 2307716.542626226320863 ], [ 3346715.647559646051377, 2307716.842825033236295 ], [ 3346714.124781377613544, 2307717.614594088401645 ], [ 3346713.071271349675953, 2307719.319065201096237 ], [ 3346712.449316191952676, 2307720.948207954876125 ], [ 3346712.382454499136657, 2307722.481154024600983 ], [ 3346712.932360016740859, 2307723.906573190353811 ], [ 3346714.037211994640529, 2307725.235516975168139 ], [ 3346715.573797937016934, 2307726.489608239382505 ], [ 3346717.011046959087253, 2307726.746686315629631 ], [ 3346730.876354153268039, 2307727.377988175489008 ], [ 3346754.357255088165402, 2307727.858985557220876 ], [ 3346784.787997779436409, 2307726.624452041927725 ], [ 3346804.579113415442407, 2307724.704480030108243 ], [ 3346832.91437703743577, 2307735.496064021252096 ], [ 3346852.610512291546911, 2307749.310838111676276 ], [ 3346869.410382009111345, 2307757.037804842460901 ], [ 3346896.284363377839327, 2307768.590583277400583 ], [ 3346923.041783024556935, 2307790.304316045716405 ], [ 3346934.566969517618418, 2307796.413166598416865 ], [ 3346955.411054230295122, 2307811.042575729079545 ], [ 3346970.965070146135986, 2307828.619785102084279 ], [ 3346989.328003973234445, 2307859.905684372410178 ], [ 3347004.056410425342619, 2307878.640807358082384 ], [ 3347029.85964662861079, 2307903.055738742928952 ], [ 3347038.830357970669866, 2307917.213960073422641 ], [ 3347058.896317542530596, 2307949.21799442358315 ], [ 3347074.436800223775208, 2307964.76961570745334 ], [ 3347075.873967765830457, 2307965.026814641430974 ], [ 3347077.879978099372238, 2307967.213282220531255 ], [ 3347094.007896598894149, 2307985.197778926230967 ], [ 3347095.217179656028748, 2307986.001531974878162 ], [ 3347139.958522805012763, 2308005.602827486116439 ], [ 3347202.839846704620868, 2308055.514754160773009 ], [ 3347204.789272939786315, 2308056.189739855471998 ], [ 3347315.772687188349664, 2308067.823439741507173 ], [ 3347371.573599928058684, 2308079.417397866025567 ], [ 3347437.458572754636407, 2308110.046785041224211 ], [ 3347478.538882295135409, 2308124.707451392896473 ], [ 3347559.247144995257258, 2308224.75922709191218 ], [ 3347604.828109794761986, 2308293.397405835799873 ], [ 3347606.48791787866503, 2308294.629885537084192 ], [ 3347716.012984261382371, 2308330.348176914267242 ], [ 3347718.128771680407226, 2308330.487621219363064 ], [ 3347744.633175987750292, 2308323.851388143375516 ], [ 3347773.529370996169746, 2308314.771245634648949 ], [ 3347799.812498163897544, 2308318.821404488291591 ], [ 3347757.582327033393085, 2308394.613580539822578 ], [ 3347719.931162221357226, 2308483.299643754027784 ], [ 3347693.833173145074397, 2308563.892910949885845 ], [ 3347682.813281585462391, 2308650.991443386301398 ], [ 3347686.862127341330051, 2308692.879053386859596 ], [ 3347699.973163845017552, 2308746.373750559519976 ], [ 3347739.971758344676346, 2308831.700955653097481 ], [ 3347751.534137413371354, 2308893.577863035257906 ], [ 3347750.081303985789418, 2308916.140112874098122 ], [ 3347723.862610314041376, 2308953.656144489534199 ], [ 3347703.888484311290085, 2308967.269897201564163 ], [ 3347667.431368895806372, 2308976.650720045436174 ], [ 3347604.017776457592845, 2308980.577439226675779 ], [ 3347570.827333068009466, 2308977.728380429558456 ], [ 3347538.046477584633976, 2308969.23046939400956 ], [ 3347384.921251664869487, 2308904.586432992480695 ], [ 3347383.341832906473428, 2308903.847025935072452 ], [ 3347381.885724487248808, 2308903.085979032795876 ], [ 3347359.379984485916793, 2308893.816031041555107 ], [ 3347357.695935147814453, 2308893.601755077950656 ], [ 3347355.969238488003612, 2308893.901935648173094 ], [ 3347354.446200978010893, 2308894.673854607157409 ], [ 3347353.392582022119313, 2308896.378048737533391 ], [ 3347352.770792827941477, 2308898.007373514585197 ], [ 3347352.704111491329968, 2308899.539991758298129 ], [ 3347289.90025810431689, 2308911.47368770558387 ], [ 3347267.048325653187931, 2308919.503612838219851 ], [ 3347265.7718436117284, 2308920.232469000387937 ], [ 3347232.944708514027297, 2308943.686550658196211 ], [ 3347090.536928930319846, 2309105.856297975406051 ], [ 3347058.002746665850282, 2309152.076689764857292 ], [ 3346996.052147389389575, 2309221.66551200626418 ], [ 3346976.989452390931547, 2309251.346571957226843 ], [ 3346976.102247399743646, 2309252.514910426922143 ], [ 3346975.276598636992276, 2309253.672445526812226 ], [ 3346974.037935234140605, 2309255.409136262256652 ], [ 3346969.287688463926315, 2309262.826596977654845 ], [ 3346956.176101087126881, 2309300.599565838929266 ], [ 3346955.881532790139318, 2309302.679165900684893 ], [ 3346956.558205864857882, 2309309.15291664050892 ], [ 3346956.756989249028265, 2309311.146642211358994 ], [ 3346956.936612773220986, 2309312.636450016405433 ], [ 3346957.05489363335073, 2309314.137125579174608 ], [ 3346960.059615037404001, 2309343.023304796312004 ], [ 3346960.547890033107251, 2309344.459451253991574 ], [ 3346979.062487457878888, 2309379.775538932066411 ], [ 3347023.113654890097678, 2309427.384008795954287 ], [ 3347031.495586463715881, 2309445.70134529331699 ], [ 3347044.328205844853073, 2309514.963638030458242 ], [ 3347048.248127346392721, 2309583.240383698605001 ], [ 3347046.485431791748852, 2309594.194628070574254 ], [ 3347022.122841220814735, 2309629.867835702374578 ], [ 3346970.489086112938821, 2309686.508414651267231 ], [ 3346886.47889478970319, 2309730.525071372278035 ], [ 3346885.079419750720263, 2309731.275539167691022 ], [ 3346863.67013051500544, 2309756.294185183942318 ], [ 3346862.925051759928465, 2309757.945076338946819 ], [ 3346849.858434381894767, 2309788.611827441491187 ], [ 3346849.421464548446238, 2309790.208846038673073 ], [ 3346846.25471056252718, 2309839.943174904212356 ], [ 3346833.923609000630677, 2309908.510881294496357 ], [ 3346753.66440253611654, 2310095.877815292216837 ], [ 3346715.941528590396047, 2310243.904565486125648 ], [ 3346699.348263359628618, 2310284.818949394859374 ], [ 3346686.150138598866761, 2310311.959487798623741 ], [ 3346673.843723930418491, 2310327.303285618312657 ], [ 3346683.846785757690668, 2310330.738177449908108 ], [ 3346695.078557252883911, 2310334.594766493886709 ], [ 3346697.329780188389122, 2310335.367935473565012 ], [ 3346703.874281711410731, 2310339.386840174440295 ], [ 3346721.603000488132238, 2310313.907308439724147 ], [ 3346746.373289404902607, 2310236.077575813513249 ], [ 3346754.235962961334735, 2310225.583255963400006 ], [ 3346761.838131062686443, 2310213.106435264460742 ], [ 3346762.583093392197043, 2310211.455551919061691 ], [ 3346763.698323872871697, 2310209.740593992173672 ], [ 3346764.320076409727335, 2310208.111336183734238 ], [ 3346764.818570766597986, 2310206.503408024087548 ], [ 3346768.734296299517155, 2310196.695659810211509 ], [ 3346782.736358377151191, 2310181.077588088344783 ], [ 3346783.666530732996762, 2310179.394503463059664 ], [ 3346795.281836512032896, 2310146.444755217060447 ], [ 3346818.042639305815101, 2310043.105087501462549 ], [ 3346846.29601258225739, 2309962.134765765629709 ], [ 3346872.318849722389132, 2309866.34110169345513 ], [ 3346873.47774444706738, 2309802.758403320796788 ], [ 3346882.858005695044994, 2309774.760879189241678 ], [ 3346905.439030786510557, 2309749.538514216896147 ], [ 3346990.484005524776876, 2309703.313566639088094 ], [ 3347009.114816784858704, 2309691.961320482194424 ], [ 3347009.878718810155988, 2309690.81410816963762 ], [ 3347055.175960435066372, 2309630.712224108166993 ], [ 3347055.921045968774706, 2309629.061339624226093 ], [ 3347068.706638912204653, 2309529.485252200625837 ], [ 3347065.3248066524975, 2309454.016654154285789 ], [ 3347050.773889057803899, 2309388.602563103660941 ], [ 3347049.730526827275753, 2309387.262618409935385 ], [ 3347007.370443314313889, 2309350.008100435137749 ], [ 3347003.990695040673018, 2309340.962024172302336 ], [ 3346992.934551130980253, 2309281.025024307891726 ], [ 3347010.866709323599935, 2309239.371419045608491 ], [ 3347042.790963732171804, 2309203.397966066841036 ], [ 3347061.593156836926937, 2309189.98759344778955 ], [ 3347062.708332987036556, 2309188.272680665366352 ], [ 3347100.693633214570582, 2309121.836671279743314 ], [ 3347182.697178740985692, 2309045.719127788208425 ], [ 3347239.690573276951909, 2308978.006709947716445 ], [ 3347277.506110105663538, 2308943.544325657654554 ], [ 3347302.052399467211217, 2308932.684826537501067 ], [ 3347346.972042450215667, 2308923.860653246752918 ], [ 3347355.117525315377861, 2308920.923355362378061 ], [ 3347356.332091216463596, 2308920.204961348325014 ], [ 3347401.383640825282782, 2308933.16092989128083 ], [ 3347540.996183211449534, 2308990.013341671321541 ], [ 3347607.369972313754261, 2309003.825543294660747 ], [ 3347608.992153961211443, 2309004.050579607021064 ], [ 3347718.753946831449866, 2308988.00925881927833 ], [ 3347720.58545714057982, 2308987.183825716376305 ], [ 3347751.756065999157727, 2308967.567141249775887 ], [ 3347752.932931170798838, 2308965.841533044353127 ], [ 3347777.061741482466459, 2308920.576169989537448 ], [ 3347777.375161356758326, 2308919.000360465608537 ], [ 3347779.102298010140657, 2308882.193195743020624 ], [ 3347772.992341461125761, 2308848.269859575200826 ], [ 3347756.499850064050406, 2308792.320526179857552 ] ] ], [ [ [ 3348603.536855184938759, 2311641.177127514965832 ], [ 3348514.988102201838046, 2311623.615117293316871 ], [ 3348468.756490958854556, 2311607.315101237036288 ], [ 3348350.97176908608526, 2311553.258387153036892 ], [ 3348264.595443285536021, 2311537.347059592138976 ], [ 3348262.97308586910367, 2311537.122169696725905 ], [ 3348239.809847050346434, 2311540.135686519555748 ], [ 3348237.343040983192623, 2311540.564560724422336 ], [ 3348235.720667615998536, 2311540.339572902303189 ], [ 3348209.958473259117454, 2311540.255597077310085 ], [ 3348185.316578953992575, 2311536.934552698861808 ], [ 3348132.301326911896467, 2311521.814323121681809 ], [ 3348078.35100887902081, 2311509.899107548873872 ], [ 3348047.737061307765543, 2311504.574107136577368 ], [ 3347935.376716060098261, 2311505.857797365169972 ], [ 3347860.651343606412411, 2311507.696014629676938 ], [ 3347809.417937513440847, 2311500.379051737952977 ], [ 3347740.600303951650858, 2311492.570368480868638 ], [ 3347720.086519532371312, 2311483.46112211747095 ], [ 3347699.402991566807032, 2311469.818020150531083 ], [ 3347684.627028559800237, 2311446.527590526733547 ], [ 3347665.467070996761322, 2311407.26696493756026 ], [ 3347663.868735041003674, 2311406.023502407595515 ], [ 3347647.173319269903004, 2311397.771738708484918 ], [ 3347645.859397422522306, 2311397.493134124204516 ], [ 3347644.360531888902187, 2311397.24648239184171 ], [ 3347625.082152005285025, 2311399.584767597261816 ], [ 3347623.663839671760798, 2311399.831366281956434 ], [ 3347604.014087764546275, 2311408.825712419115007 ], [ 3347602.614658882841468, 2311409.576284193433821 ], [ 3347587.516810945700854, 2311427.413011644501239 ], [ 3347563.352997719310224, 2311471.671955136116594 ], [ 3347553.893168098293245, 2311499.176861204672605 ], [ 3347541.162674996070564, 2311515.587812977842987 ], [ 3347515.251954191364348, 2311523.135857108049095 ], [ 3347489.338928488083184, 2311519.022078095469624 ], [ 3347432.558275727555156, 2311499.48641484696418 ], [ 3347314.11505930358544, 2311464.307072510942817 ], [ 3347288.616370558273047, 2311453.022454878780991 ], [ 3347266.433923684060574, 2311439.13301610108465 ], [ 3347259.061997571960092, 2311419.625473068561405 ], [ 3347275.379995952360332, 2311374.702591239009053 ], [ 3347275.674428740050644, 2311372.623282072134316 ], [ 3347273.78725675586611, 2311347.091553134378046 ], [ 3347273.237556986045092, 2311345.666070736013353 ], [ 3347271.866869623307139, 2311343.876079472713172 ], [ 3347251.046313602011651, 2311328.228779767174274 ], [ 3347249.775081249885261, 2311327.435502738691866 ], [ 3347206.745099680498242, 2311312.100979001726955 ], [ 3347168.972160514444113, 2311291.28851527813822 ], [ 3347112.842311397660524, 2311267.583633657544851 ], [ 3347096.707036001142114, 2311257.71321119973436 ], [ 3347085.032910715788603, 2311253.379424978047609 ], [ 3347082.592666430398822, 2311263.14153777807951 ], [ 3347092.587755179964006, 2311267.049379293806851 ], [ 3347108.518989637959749, 2311276.448325283825397 ], [ 3347164.710691236890852, 2311300.142345373518765 ], [ 3347202.87250306410715, 2311321.394245138391852 ], [ 3347245.594151420518756, 2311336.782476955559105 ], [ 3347264.057481404393911, 2311350.81182406982407 ], [ 3347265.608687919564545, 2311372.345233756117523 ], [ 3347249.001339321024716, 2311417.825790069531649 ], [ 3347248.687974261119962, 2311419.401439620181918 ], [ 3347249.071699475869536, 2311421.36273450171575 ], [ 3347257.685602066107094, 2311444.203407237306237 ], [ 3347258.482427088543773, 2311445.586225874722004 ], [ 3347259.630075095687062, 2311446.400686524808407 ], [ 3347284.108147638384253, 2311461.919190432876348 ], [ 3347310.939692469779402, 2311473.986063838005066 ], [ 3347429.567769858054817, 2311509.133556087501347 ], [ 3347487.211754092015326, 2311528.51880102744326 ], [ 3347515.444271923042834, 2311533.243392513599247 ], [ 3347516.80101066455245, 2311533.007494983728975 ], [ 3347545.79516024235636, 2311524.923534500878304 ], [ 3347547.31815554946661, 2311524.151677138637751 ], [ 3347548.082029592711478, 2311523.004552082158625 ], [ 3347562.278616135939956, 2311504.31017325213179 ], [ 3347563.042539149522781, 2311503.163344586733729 ], [ 3347572.687623606529087, 2311475.626534904818982 ], [ 3347596.025643218308687, 2311432.525180337019265 ], [ 3347609.41044735442847, 2311417.014408421702683 ], [ 3347626.939546772278845, 2311409.402880815789104 ], [ 3347643.997622536029667, 2311407.450734282843769 ], [ 3347657.842728956602514, 2311414.170165783260018 ], [ 3347676.002367597073317, 2311451.57670760480687 ], [ 3347691.513044194318354, 2311476.260451477952302 ], [ 3347692.926306853070855, 2311477.535686801187694 ], [ 3347715.578094905242324, 2311492.357932372484356 ], [ 3347737.159303115215153, 2311501.788538496010005 ], [ 3347738.615302073769271, 2311502.549392683431506 ], [ 3347808.130056624300778, 2311510.743915629573166 ], [ 3347860.411753611173481, 2311517.878612825181335 ], [ 3347935.507323565892875, 2311515.975923297926784 ], [ 3348047.312779025174677, 2311514.789001366123557 ], [ 3348076.470398112665862, 2311519.352993853390217 ], [ 3348129.865783145651221, 2311531.364685150329024 ], [ 3348183.45490129198879, 2311546.892087424173951 ], [ 3348209.472634522244334, 2311550.481282682158053 ], [ 3348235.666419898159802, 2311550.490220351144671 ], [ 3348237.146404726430774, 2311550.232912792358547 ], [ 3348238.768564618192613, 2311550.457836240530014 ], [ 3348241.420463507063687, 2311549.996680536307395 ], [ 3348263.4119678218849, 2311547.186877185944468 ], [ 3348348.412927290424705, 2311562.830465977080166 ], [ 3348465.210783580318093, 2311617.058438245207071 ], [ 3348512.552837308496237, 2311633.165293175727129 ], [ 3348600.916282224003226, 2311650.759510678704828 ], [ 3348665.080484999809414, 2311678.967337982729077 ], [ 3348665.080484999809414, 2311668.035821397788823 ], [ 3348603.536855184938759, 2311641.177127514965832 ] ] ] ] } }
]
}
